<?xml version='1.0' encoding='UTF-8'?>
<osm version='0.6' upload='false' generator='JOSM'>
  <node id='-159024757' action='modify' lat='52.67290712616' lon='4.82952601245' />
  <node id='-159024758' action='modify' lat='52.67037491547' lon='4.82382683395'>
    <tag k='name' v='her' />
  </node>
  <node id='-159024759' action='modify' lat='52.67750024174' lon='4.83986445719' />
  <node id='-159024760' action='modify' lat='52.67934721664' lon='4.84891039966'>
    <tag k='name' v='mid' />
  </node>
  <node id='-159024761' action='modify' lat='52.67932593214' lon='4.85006555781' />
  <node id='-159024762' action='modify' lat='52.67895110086' lon='4.86090838842' />
  <node id='-159024763' action='modify' lat='52.67891654471' lon='4.86248888008' />
  <node id='-159024764' action='modify' lat='52.67847747591' lon='4.90344621174' />
  <node id='-159024765' action='modify' lat='52.67789654553' lon='4.90910607017'>
    <tag k='name' v='obd' />
  </node>
  <node id='-159024766' action='modify' lat='52.67759200707' lon='4.91035692327' />
  <node id='-159024767' action='modify' lat='52.67694354629' lon='4.9128212028' />
  <node id='-159024768' action='modify' lat='52.67622514621' lon='4.91543836825' />
  <node id='-159024769' action='modify' lat='52.67249842098' lon='4.92887657058' />
  <node id='-159024770' action='modify' lat='52.67165792701' lon='4.93190981381' />
  <node id='-159024771' action='modify' lat='52.66887865453' lon='4.94192853503' />
  <node id='-159024772' action='modify' lat='52.66809494189' lon='4.94475354709' />
  <node id='-159024773' action='modify' lat='52.66783279157' lon='4.94569845072' />
  <node id='-159024774' action='modify' lat='52.66731692728' lon='4.94755424782'>
    <tag k='name' v='spi' />
  </node>
  <node id='-159024775' action='modify' lat='52.66477712573' lon='4.9566907429' />
  <node id='-159024776' action='modify' lat='52.66433913465' lon='4.95848782327' />
  <node id='-159024777' action='modify' lat='52.66120474935' lon='4.97357055411'>
    <tag k='name' v='zui' />
  </node>
  <node id='-159024778' action='modify' lat='52.65959578262' lon='4.98101301424' />
  <node id='-159024779' action='modify' lat='52.65599125534' lon='4.9972457432' />
  <node id='-159024780' action='modify' lat='52.65554239706' lon='4.99902471866' />
  <node id='-159024781' action='modify' lat='52.65416102981' lon='5.00397031999'>
    <tag k='name' v='bob' />
  </node>
  <node id='-159024782' action='modify' lat='52.64550340887' lon='5.03496296637' />
  <node id='-159024783' action='modify' lat='52.64497755631' lon='5.04539238945' />
  <node id='-159024784' action='modify' lat='52.64539152427' lon='5.04734337196' />
  <node id='-159024785' action='modify' lat='52.64556850588' lon='5.05096435412' />
  <node id='-159024786' action='modify' lat='52.64517448627' lon='5.05453267121'>
    <tag k='name' v='hoo' />
  </node>
  <node id='-159024792' action='modify' lat='52.64543797572' lon='5.05220472791' />
  <node id='-159024793' action='modify' lat='52.64554107801' lon='5.05123093189' />
  <way id='-37237168' action='modify'>
    <nd ref='-159024758' />
    <nd ref='-159024757' />
    <tag k='type' v='straight' />
  </way>
  <way id='-37237169' action='modify'>
    <nd ref='-159024757' />
    <nd ref='-159024759' />
    <tag k='type' v='straight' />
  </way>
  <way id='-37237170' action='modify'>
    <nd ref='-159024759' />
    <nd ref='-159024760' />
    <nd ref='-159024761' />
  </way>
  <way id='-37237171' action='modify'>
    <nd ref='-159024761' />
    <nd ref='-159024762' />
    <tag k='type' v='straight' />
  </way>
  <way id='-37237172' action='modify'>
    <nd ref='-159024762' />
    <nd ref='-159024763' />
  </way>
  <way id='-37237173' action='modify'>
    <nd ref='-159024763' />
    <nd ref='-159024764' />
    <tag k='type' v='straight' />
  </way>
  <way id='-37237174' action='modify'>
    <nd ref='-159024764' />
    <nd ref='-159024765' />
    <nd ref='-159024766' />
  </way>
  <way id='-37237175' action='modify'>
    <nd ref='-159024766' />
    <nd ref='-159024767' />
    <nd ref='-159024768' />
    <nd ref='-159024769' />
    <tag k='type' v='straight' />
  </way>
  <way id='-37237176' action='modify'>
    <nd ref='-159024769' />
    <nd ref='-159024770' />
  </way>
  <way id='-37237177' action='modify'>
    <nd ref='-159024770' />
    <nd ref='-159024771' />
    <nd ref='-159024772' />
    <tag k='type' v='straight' />
  </way>
  <way id='-37237178' action='modify'>
    <nd ref='-159024772' />
    <nd ref='-159024773' />
  </way>
  <way id='-37237179' action='modify'>
    <nd ref='-159024773' />
    <nd ref='-159024774' />
    <nd ref='-159024775' />
    <tag k='type' v='straight' />
  </way>
  <way id='-37237180' action='modify'>
    <nd ref='-159024775' />
    <nd ref='-159024776' />
  </way>
  <way id='-37237181' action='modify'>
    <nd ref='-159024776' />
    <nd ref='-159024777' />
    <tag k='type' v='straight' />
  </way>
  <way id='-37237182' action='modify'>
    <nd ref='-159024777' />
    <nd ref='-159024778' />
  </way>
  <way id='-37237183' action='modify'>
    <nd ref='-159024778' />
    <nd ref='-159024779' />
    <tag k='type' v='straight' />
  </way>
  <way id='-37237184' action='modify'>
    <nd ref='-159024779' />
    <nd ref='-159024780' />
  </way>
  <way id='-37237185' action='modify'>
    <nd ref='-159024780' />
    <nd ref='-159024781' />
    <nd ref='-159024782' />
    <tag k='type' v='straight' />
  </way>
  <way id='-37237186' action='modify'>
    <nd ref='-159024782' />
    <nd ref='-159024783' />
  </way>
  <way id='-37237187' action='modify'>
    <nd ref='-159024783' />
    <nd ref='-159024784' />
    <tag k='type' v='straight' />
  </way>
  <way id='-37237188' action='modify'>
    <nd ref='-159024784' />
    <nd ref='-159024785' />
  </way>
  <way id='-37237189' action='modify'>
    <nd ref='-159024792' />
    <nd ref='-159024786' />
    <tag k='type' v='straight' />
  </way>
  <way id='-37237195' action='modify'>
    <nd ref='-159024785' />
    <nd ref='-159024793' />
    <tag k='type' v='straight' />
  </way>
  <way id='-37237196' action='modify'>
    <nd ref='-159024793' />
    <nd ref='-159024792' />
  </way>
  <relation id='-14476704' action='modify'>
    <member type='way' ref='-37237168' role='' />
    <member type='way' ref='-37237169' role='' />
    <member type='way' ref='-37237170' role='' />
    <member type='way' ref='-37237171' role='' />
    <member type='way' ref='-37237172' role='' />
    <member type='way' ref='-37237173' role='' />
    <member type='way' ref='-37237174' role='' />
    <member type='way' ref='-37237175' role='' />
    <member type='way' ref='-37237176' role='' />
    <member type='way' ref='-37237177' role='' />
    <member type='way' ref='-37237178' role='' />
    <member type='way' ref='-37237179' role='' />
    <member type='way' ref='-37237180' role='' />
    <member type='way' ref='-37237181' role='' />
    <member type='way' ref='-37237182' role='' />
    <member type='way' ref='-37237183' role='' />
    <member type='way' ref='-37237184' role='' />
    <member type='way' ref='-37237185' role='' />
    <member type='way' ref='-37237186' role='' />
    <member type='way' ref='-37237187' role='' />
    <member type='way' ref='-37237188' role='' />
    <member type='way' ref='-37237195' role='' />
    <member type='way' ref='-37237196' role='' />
    <member type='way' ref='-37237189' role='' />
    <tag k='key' v='path.nl.hhh' />
    <tag k='name' v='NL HHH' />
    <tag k='source' v='src.nl.PDOK-Luchtfoto-RGB src.nl.ProRail.Basiskaart' />
    <tag k='type' v='path' />
  </relation>
</osm>
