<?xml version='1.0' encoding='UTF-8'?>
<osm version='0.6' upload='false' generator='JOSM'>
  <node id='-159290348' action='modify' lat='52.64533931108' lon='5.05455443231'>
    <tag k='name' v='hoo' />
  </node>
  <node id='-159290349' action='modify' lat='52.64522299543' lon='5.05552595053' />
  <node id='-159290350' action='modify' lat='52.64506111786' lon='5.05657775555' />
  <node id='-159290351' action='modify' lat='52.64479821789' lon='5.05799189545' />
  <node id='-159290352' action='modify' lat='52.6448206419' lon='5.06107209487' />
  <node id='-159290353' action='modify' lat='52.64685655709' lon='5.0697885156'>
    <tag k='name' v='hko' />
  </node>
  <node id='-159290354' action='modify' lat='52.64750507142' lon='5.0725980415' />
  <node id='-159290355' action='modify' lat='52.65007092549' lon='5.07382214303'>
    <tag k='name' v='hoo.xm' />
  </node>
  <node id='-159290356' action='modify' lat='52.65368285613' lon='5.06998792524' />
  <node id='-159290357' action='modify' lat='52.65405627669' lon='5.06957955891' />
  <node id='-159290358' action='modify' lat='52.65440772843' lon='5.06917923922' />
  <node id='-159290359' action='modify' lat='52.65451542568' lon='5.06905448814'>
    <tag k='name' v='wbl' />
  </node>
  <node id='-159290360' action='modify' lat='52.65485436094' lon='5.06851673359' />
  <node id='-159290361' action='modify' lat='52.65501544039' lon='5.06821632618' />
  <node id='-159290362' action='modify' lat='52.65549989548' lon='5.06756790215' />
  <node id='-159290363' action='modify' lat='52.65924437733' lon='5.06349295611' />
  <node id='-159290364' action='modify' lat='52.6599211645' lon='5.06294243271' />
  <node id='-159290365' action='modify' lat='52.66429093342' lon='5.06055148942'>
    <tag k='name' v='zwa' />
  </node>
  <node id='-159290366' action='modify' lat='52.66754609095' lon='5.05877025657' />
  <node id='-159290367' action='modify' lat='52.66847161418' lon='5.057826119' />
  <node id='-159290368' action='modify' lat='52.6721031686' lon='5.05172610448' />
  <node id='-159290369' action='modify' lat='52.67271673317' lon='5.05054727428' />
  <node id='-159290370' action='modify' lat='52.67309359046' lon='5.04971250489'>
    <tag k='name' v='zwd' />
  </node>
  <node id='-159290371' action='modify' lat='52.67532703259' lon='5.04476510219' />
  <node id='-159290372' action='modify' lat='52.67563013416' lon='5.04412941899' />
  <node id='-159290373' action='modify' lat='52.68033861422' lon='5.03494553498' />
  <node id='-159290374' action='modify' lat='52.68192771071' lon='5.03352865807' />
  <node id='-159290375' action='modify' lat='52.68259181353' lon='5.03339902366'>
    <tag k='name' v='wog' />
  </node>
  <node id='-159290376' action='modify' lat='52.68587113621' lon='5.03275886341' />
  <node id='-159290377' action='modify' lat='52.68673895859' lon='5.03268175057' />
  <node id='-159290378' action='modify' lat='52.69004994039' lon='5.03269918493' />
  <node id='-159290379' action='modify' lat='52.69143343858' lon='5.03251143029' />
  <node id='-159290380' action='modify' lat='52.69158976241' lon='5.03246672099'>
    <tag k='name' v='wij' />
  </node>
  <node id='-159290381' action='modify' lat='52.6924673757' lon='5.03221571675' />
  <node id='-159290382' action='modify' lat='52.69392963961' lon='5.03201522163' />
  <node id='-159290383' action='modify' lat='52.70116789683' lon='5.03202058604' />
  <node id='-159290384' action='modify' lat='52.702666032' lon='5.03192804983' />
  <node id='-159290385' action='modify' lat='52.70312029771' lon='5.03194079033'>
    <tag k='name' v='ben' />
  </node>
  <node id='-159290386' action='modify' lat='52.70341243926' lon='5.03194079033' />
  <node id='-159290387' action='modify' lat='52.70433517113' lon='5.03192268542' />
  <node id='-159290388' action='modify' lat='52.70537396482' lon='5.03185100273' />
  <node id='-159290389' action='modify' lat='52.71022328617' lon='5.03182583729' />
  <node id='-159290390' action='modify' lat='52.71166198531' lon='5.03123389962' />
  <node id='-159290391' action='modify' lat='52.71540782841' lon='5.0279440549'>
    <tag k='name' v='abb' />
  </node>
  <node id='-159290392' action='modify' lat='52.71612299995' lon='5.02731587103' />
  <node id='-159290393' action='modify' lat='52.71864397795' lon='5.02886726746' />
  <node id='-159290394' action='modify' lat='52.71976925739' lon='5.03435656225' />
  <node id='-159290395' action='modify' lat='52.72036952896' lon='5.03761253347' />
  <node id='-159290396' action='modify' lat='52.72187493858' lon='5.04444110283' />
  <node id='-159290397' action='modify' lat='52.72204473946' lon='5.04516896783' />
  <node id='-159290398' action='modify' lat='52.72227065379' lon='5.04604997497' />
  <node id='-159290399' action='modify' lat='52.72259008482' lon='5.04749815816' />
  <node id='-159290400' action='modify' lat='52.72382727707' lon='5.05421177291' />
  <node id='-159290401' action='modify' lat='52.72409529112' lon='5.0552991571' />
  <node id='-159290402' action='modify' lat='52.72417245075' lon='5.05554496365' />
  <node id='-159290403' action='modify' lat='52.72440610287' lon='5.05658290301' />
  <node id='-159290404' action='modify' lat='52.72448663858' lon='5.05707949932' />
  <node id='-159290405' action='modify' lat='52.72462305955' lon='5.05789388862' />
  <node id='-159290406' action='modify' lat='52.7248035869' lon='5.05889247174' />
  <node id='-159290407' action='modify' lat='52.7251026734' lon='5.06031777948' />
  <node id='-159290408' action='modify' lat='52.7252362033' lon='5.06081952103' />
  <node id='-159290409' action='modify' lat='52.72560374558' lon='5.06251063556' />
  <node id='-159290410' action='modify' lat='52.72612633219' lon='5.06572876406' />
  <node id='-159290411' action='modify' lat='52.7262878206' lon='5.06665683609' />
  <node id='-159290412' action='modify' lat='52.72719994053' lon='5.07157118941'>
    <tag k='name' v='mwo' />
  </node>
  <node id='-159290413' action='modify' lat='52.72763742759' lon='5.07392875898' />
  <node id='-159290414' action='modify' lat='52.72982246304' lon='5.07602929604' />
  <node id='-159290415' action='modify' lat='52.73314632436' lon='5.07470833018' />
  <node id='-159290416' action='modify' lat='52.73380217998' lon='5.07449810685' />
  <node id='-159290417' action='modify' lat='52.737609954' lon='5.07365974135' />
  <node id='-159290418' action='modify' lat='52.73793516343' lon='5.07360547201' />
  <node id='-159290419' action='modify' lat='52.74990915995' lon='5.07197047784' />
  <node id='-159290420' action='modify' lat='52.75012114123' lon='5.07193458479'>
    <tag k='name' v='twi' />
  </node>
  <node id='-159290421' action='modify' lat='52.75059862608' lon='5.07178918808' />
  <node id='-159290422' action='modify' lat='52.75180854293' lon='5.07131282683' />
  <node id='-159290423' action='modify' lat='52.75295535282' lon='5.07094524483' />
  <node id='-159290424' action='modify' lat='52.75402083116' lon='5.07051742045' />
  <node id='-159290425' action='modify' lat='52.75675552947' lon='5.07041917091' />
  <node id='-159290426' action='modify' lat='52.75795136113' lon='5.07082960868' />
  <node id='-159290427' action='modify' lat='52.7598940368' lon='5.07271699604' />
  <node id='-159290428' action='modify' lat='52.76037857246' lon='5.07376675847'>
    <tag k='name' v='opp' />
  </node>
  <node id='-159290429' action='modify' lat='52.76165186222' lon='5.07652558925' />
  <node id='-159290430' action='modify' lat='52.76204872629' lon='5.07771321606' />
  <node id='-159290431' action='modify' lat='52.76222698414' lon='5.07854853006' />
  <node id='-159290432' action='modify' lat='52.7627633721' lon='5.08039153851' />
  <node id='-159290433' action='modify' lat='52.76412879174' lon='5.08389960741'>
    <tag k='name' v='opo' />
  </node>
  <node id='-159290434' action='modify' lat='52.76442248564' lon='5.08465423619' />
  <node id='-159290435' action='modify' lat='52.76488296325' lon='5.08556343666' />
  <node id='-159290436' action='modify' lat='52.7652190187' lon='5.08608311954' />
  <node id='-159290437' action='modify' lat='52.76572637254' lon='5.08749744201' />
  <node id='-159290438' action='modify' lat='52.76591059184' lon='5.08873151546' />
  <node id='-159290439' action='modify' lat='52.76755430858' lon='5.09312931359' />
  <node id='-159290440' action='modify' lat='52.76940885054' lon='5.09574202936' />
  <node id='-159290441' action='modify' lat='52.77046697964' lon='5.09721599983' />
  <node id='-159290442' action='modify' lat='52.77166752508' lon='5.09906074599' />
  <node id='-159290443' action='modify' lat='52.77240361549' lon='5.09997673821' />
  <node id='-159290444' action='modify' lat='52.77273476423' lon='5.10029589362' />
  <node id='-159290445' action='modify' lat='52.77336343776' lon='5.10145984739' />
  <node id='-159290446' action='modify' lat='52.77350448191' lon='5.1019517091' />
  <node id='-159290447' action='modify' lat='52.77381091611' lon='5.10301990192' />
  <node id='-159290448' action='modify' lat='52.77395117822' lon='5.1036085654' />
  <node id='-159290449' action='modify' lat='52.77412150746' lon='5.10499678088' />
  <node id='-159290450' action='modify' lat='52.77408012164' lon='5.10631260152'>
    <tag k='name' v='med' />
  </node>
  <node id='-159290451' action='modify' lat='52.77406253785' lon='5.10687151991' />
  <node id='-159290452' action='modify' lat='52.77406948017' lon='5.10825802505' />
  <node id='-159290453' action='modify' lat='52.77412976006' lon='5.10965470181' />
  <node id='-159290454' action='modify' lat='52.64541351193' lon='5.06361712512' />
  <node id='-159290455' action='modify' lat='52.64576137501' lon='5.06504475515' />
  <node id='-159290456' action='modify' lat='52.64465125554' lon='5.05943875621' />
  <way id='-37247107' action='modify'>
    <nd ref='-159290348' />
    <nd ref='-159290349' />
    <tag k='type' v='straight' />
  </way>
  <way id='-37247108' action='modify'>
    <nd ref='-159290349' />
    <nd ref='-159290350' />
  </way>
  <way id='-37247109' action='modify'>
    <nd ref='-159290350' />
    <nd ref='-159290351' />
    <tag k='type' v='straight' />
  </way>
  <way id='-37247110' action='modify'>
    <nd ref='-159290351' />
    <nd ref='-159290456' />
    <nd ref='-159290352' />
  </way>
  <way id='-37247111' action='modify'>
    <nd ref='-159290455' />
    <nd ref='-159290353' />
    <nd ref='-159290354' />
    <tag k='type' v='straight' />
  </way>
  <way id='-37247112' action='modify'>
    <nd ref='-159290354' />
    <nd ref='-159290355' />
  </way>
  <way id='-37247113' action='modify'>
    <nd ref='-159290355' />
    <nd ref='-159290356' />
    <tag k='type' v='straight' />
  </way>
  <way id='-37247114' action='modify'>
    <nd ref='-159290356' />
    <nd ref='-159290357' />
  </way>
  <way id='-37247115' action='modify'>
    <nd ref='-159290357' />
    <nd ref='-159290358' />
    <tag k='type' v='straight' />
  </way>
  <way id='-37247116' action='modify'>
    <nd ref='-159290358' />
    <nd ref='-159290359' />
    <nd ref='-159290360' />
  </way>
  <way id='-37247117' action='modify'>
    <nd ref='-159290360' />
    <nd ref='-159290361' />
    <tag k='type' v='straight' />
  </way>
  <way id='-37247118' action='modify'>
    <nd ref='-159290361' />
    <nd ref='-159290362' />
  </way>
  <way id='-37247119' action='modify'>
    <nd ref='-159290362' />
    <nd ref='-159290363' />
    <tag k='type' v='straight' />
  </way>
  <way id='-37247120' action='modify'>
    <nd ref='-159290363' />
    <nd ref='-159290364' />
  </way>
  <way id='-37247121' action='modify'>
    <nd ref='-159290364' />
    <nd ref='-159290365' />
    <nd ref='-159290366' />
    <tag k='type' v='straight' />
  </way>
  <way id='-37247122' action='modify'>
    <nd ref='-159290366' />
    <nd ref='-159290367' />
  </way>
  <way id='-37247123' action='modify'>
    <nd ref='-159290367' />
    <nd ref='-159290368' />
    <tag k='type' v='straight' />
  </way>
  <way id='-37247124' action='modify'>
    <nd ref='-159290368' />
    <nd ref='-159290369' />
  </way>
  <way id='-37247125' action='modify'>
    <nd ref='-159290369' />
    <nd ref='-159290370' />
    <nd ref='-159290371' />
    <tag k='type' v='straight' />
  </way>
  <way id='-37247126' action='modify'>
    <nd ref='-159290371' />
    <nd ref='-159290372' />
  </way>
  <way id='-37247127' action='modify'>
    <nd ref='-159290372' />
    <nd ref='-159290373' />
    <tag k='type' v='straight' />
  </way>
  <way id='-37247128' action='modify'>
    <nd ref='-159290373' />
    <nd ref='-159290374' />
  </way>
  <way id='-37247129' action='modify'>
    <nd ref='-159290374' />
    <nd ref='-159290375' />
    <nd ref='-159290376' />
    <tag k='type' v='straight' />
  </way>
  <way id='-37247130' action='modify'>
    <nd ref='-159290376' />
    <nd ref='-159290377' />
  </way>
  <way id='-37247131' action='modify'>
    <nd ref='-159290377' />
    <nd ref='-159290378' />
    <tag k='type' v='straight' />
  </way>
  <way id='-37247132' action='modify'>
    <nd ref='-159290378' />
    <nd ref='-159290379' />
  </way>
  <way id='-37247133' action='modify'>
    <nd ref='-159290379' />
    <nd ref='-159290380' />
    <nd ref='-159290381' />
    <tag k='type' v='straight' />
  </way>
  <way id='-37247134' action='modify'>
    <nd ref='-159290381' />
    <nd ref='-159290382' />
  </way>
  <way id='-37247135' action='modify'>
    <nd ref='-159290382' />
    <nd ref='-159290383' />
    <tag k='type' v='straight' />
  </way>
  <way id='-37247136' action='modify'>
    <nd ref='-159290383' />
    <nd ref='-159290384' />
  </way>
  <way id='-37247137' action='modify'>
    <nd ref='-159290384' />
    <nd ref='-159290385' />
    <tag k='type' v='straight' />
  </way>
  <way id='-37247138' action='modify'>
    <nd ref='-159290385' />
    <nd ref='-159290386' />
  </way>
  <way id='-37247139' action='modify'>
    <nd ref='-159290386' />
    <nd ref='-159290387' />
    <tag k='type' v='straight' />
  </way>
  <way id='-37247140' action='modify'>
    <nd ref='-159290387' />
    <nd ref='-159290388' />
  </way>
  <way id='-37247141' action='modify'>
    <nd ref='-159290388' />
    <nd ref='-159290389' />
    <tag k='type' v='straight' />
  </way>
  <way id='-37247142' action='modify'>
    <nd ref='-159290389' />
    <nd ref='-159290390' />
  </way>
  <way id='-37247143' action='modify'>
    <nd ref='-159290390' />
    <nd ref='-159290391' />
    <nd ref='-159290392' />
    <tag k='type' v='straight' />
  </way>
  <way id='-37247144' action='modify'>
    <nd ref='-159290392' />
    <nd ref='-159290393' />
  </way>
  <way id='-37247145' action='modify'>
    <nd ref='-159290393' />
    <nd ref='-159290394' />
    <tag k='type' v='straight' />
  </way>
  <way id='-37247146' action='modify'>
    <nd ref='-159290394' />
    <nd ref='-159290395' />
  </way>
  <way id='-37247147' action='modify'>
    <nd ref='-159290395' />
    <nd ref='-159290396' />
    <tag k='type' v='straight' />
  </way>
  <way id='-37247148' action='modify'>
    <nd ref='-159290396' />
    <nd ref='-159290397' />
  </way>
  <way id='-37247149' action='modify'>
    <nd ref='-159290397' />
    <nd ref='-159290398' />
    <tag k='type' v='straight' />
  </way>
  <way id='-37247150' action='modify'>
    <nd ref='-159290398' />
    <nd ref='-159290399' />
  </way>
  <way id='-37247151' action='modify'>
    <nd ref='-159290399' />
    <nd ref='-159290400' />
    <tag k='type' v='straight' />
  </way>
  <way id='-37247152' action='modify'>
    <nd ref='-159290400' />
    <nd ref='-159290401' />
  </way>
  <way id='-37247153' action='modify'>
    <nd ref='-159290401' />
    <nd ref='-159290402' />
    <tag k='type' v='straight' />
  </way>
  <way id='-37247154' action='modify'>
    <nd ref='-159290402' />
    <nd ref='-159290403' />
  </way>
  <way id='-37247155' action='modify'>
    <nd ref='-159290403' />
    <nd ref='-159290404' />
    <tag k='type' v='straight' />
  </way>
  <way id='-37247156' action='modify'>
    <nd ref='-159290404' />
    <nd ref='-159290405' />
  </way>
  <way id='-37247157' action='modify'>
    <nd ref='-159290405' />
    <nd ref='-159290406' />
    <tag k='type' v='straight' />
  </way>
  <way id='-37247158' action='modify'>
    <nd ref='-159290406' />
    <nd ref='-159290407' />
  </way>
  <way id='-37247159' action='modify'>
    <nd ref='-159290407' />
    <nd ref='-159290408' />
    <tag k='type' v='straight' />
  </way>
  <way id='-37247160' action='modify'>
    <nd ref='-159290408' />
    <nd ref='-159290409' />
  </way>
  <way id='-37247161' action='modify'>
    <nd ref='-159290409' />
    <nd ref='-159290410' />
    <tag k='type' v='straight' />
  </way>
  <way id='-37247162' action='modify'>
    <nd ref='-159290410' />
    <nd ref='-159290411' />
  </way>
  <way id='-37247163' action='modify'>
    <nd ref='-159290411' />
    <nd ref='-159290412' />
    <nd ref='-159290413' />
    <tag k='type' v='straight' />
  </way>
  <way id='-37247164' action='modify'>
    <nd ref='-159290413' />
    <nd ref='-159290414' />
  </way>
  <way id='-37247165' action='modify'>
    <nd ref='-159290414' />
    <nd ref='-159290415' />
    <tag k='type' v='straight' />
  </way>
  <way id='-37247166' action='modify'>
    <nd ref='-159290415' />
    <nd ref='-159290416' />
  </way>
  <way id='-37247167' action='modify'>
    <nd ref='-159290416' />
    <nd ref='-159290417' />
    <tag k='type' v='straight' />
  </way>
  <way id='-37247168' action='modify'>
    <nd ref='-159290417' />
    <nd ref='-159290418' />
  </way>
  <way id='-37247169' action='modify'>
    <nd ref='-159290418' />
    <nd ref='-159290419' />
    <tag k='type' v='straight' />
  </way>
  <way id='-37247170' action='modify'>
    <nd ref='-159290419' />
    <nd ref='-159290420' />
    <nd ref='-159290421' />
  </way>
  <way id='-37247171' action='modify'>
    <nd ref='-159290421' />
    <nd ref='-159290422' />
    <tag k='type' v='straight' />
  </way>
  <way id='-37247172' action='modify'>
    <nd ref='-159290422' />
    <nd ref='-159290423' />
  </way>
  <way id='-37247173' action='modify'>
    <nd ref='-159290423' />
    <nd ref='-159290424' />
    <tag k='type' v='straight' />
  </way>
  <way id='-37247174' action='modify'>
    <nd ref='-159290424' />
    <nd ref='-159290425' />
  </way>
  <way id='-37247175' action='modify'>
    <nd ref='-159290425' />
    <nd ref='-159290426' />
    <tag k='type' v='straight' />
  </way>
  <way id='-37247176' action='modify'>
    <nd ref='-159290426' />
    <nd ref='-159290427' />
  </way>
  <way id='-37247177' action='modify'>
    <nd ref='-159290427' />
    <nd ref='-159290428' />
    <nd ref='-159290429' />
    <tag k='type' v='straight' />
  </way>
  <way id='-37247178' action='modify'>
    <nd ref='-159290429' />
    <nd ref='-159290430' />
  </way>
  <way id='-37247179' action='modify'>
    <nd ref='-159290430' />
    <nd ref='-159290431' />
    <tag k='type' v='straight' />
  </way>
  <way id='-37247180' action='modify'>
    <nd ref='-159290431' />
    <nd ref='-159290432' />
  </way>
  <way id='-37247181' action='modify'>
    <nd ref='-159290432' />
    <nd ref='-159290433' />
    <nd ref='-159290434' />
    <tag k='type' v='straight' />
  </way>
  <way id='-37247182' action='modify'>
    <nd ref='-159290434' />
    <nd ref='-159290435' />
  </way>
  <way id='-37247183' action='modify'>
    <nd ref='-159290435' />
    <nd ref='-159290436' />
    <tag k='type' v='straight' />
  </way>
  <way id='-37247184' action='modify'>
    <nd ref='-159290436' />
    <nd ref='-159290437' />
  </way>
  <way id='-37247185' action='modify'>
    <nd ref='-159290437' />
    <nd ref='-159290438' />
    <tag k='type' v='straight' />
  </way>
  <way id='-37247186' action='modify'>
    <nd ref='-159290438' />
    <nd ref='-159290439' />
  </way>
  <way id='-37247187' action='modify'>
    <nd ref='-159290439' />
    <nd ref='-159290440' />
    <tag k='type' v='straight' />
  </way>
  <way id='-37247188' action='modify'>
    <nd ref='-159290440' />
    <nd ref='-159290441' />
  </way>
  <way id='-37247189' action='modify'>
    <nd ref='-159290441' />
    <nd ref='-159290442' />
    <tag k='type' v='straight' />
  </way>
  <way id='-37247190' action='modify'>
    <nd ref='-159290442' />
    <nd ref='-159290443' />
  </way>
  <way id='-37247191' action='modify'>
    <nd ref='-159290443' />
    <nd ref='-159290444' />
    <tag k='type' v='straight' />
  </way>
  <way id='-37247192' action='modify'>
    <nd ref='-159290444' />
    <nd ref='-159290445' />
  </way>
  <way id='-37247193' action='modify'>
    <nd ref='-159290445' />
    <nd ref='-159290446' />
    <tag k='type' v='straight' />
  </way>
  <way id='-37247194' action='modify'>
    <nd ref='-159290446' />
    <nd ref='-159290447' />
  </way>
  <way id='-37247195' action='modify'>
    <nd ref='-159290447' />
    <nd ref='-159290448' />
    <tag k='type' v='straight' />
  </way>
  <way id='-37247196' action='modify'>
    <nd ref='-159290448' />
    <nd ref='-159290449' />
  </way>
  <way id='-37247197' action='modify'>
    <nd ref='-159290449' />
    <nd ref='-159290450' />
    <nd ref='-159290451' />
    <tag k='type' v='straight' />
  </way>
  <way id='-37247198' action='modify'>
    <nd ref='-159290451' />
    <nd ref='-159290452' />
  </way>
  <way id='-37247199' action='modify'>
    <nd ref='-159290452' />
    <nd ref='-159290453' />
    <tag k='type' v='straight' />
  </way>
  <way id='-37247200' action='modify'>
    <nd ref='-159290352' />
    <nd ref='-159290454' />
    <tag k='type' v='straight' />
  </way>
  <way id='-37247201' action='modify'>
    <nd ref='-159290454' />
    <nd ref='-159290455' />
  </way>
  <relation id='-14476809' action='modify'>
    <member type='way' ref='-37247107' role='' />
    <member type='way' ref='-37247108' role='' />
    <member type='way' ref='-37247109' role='' />
    <member type='way' ref='-37247110' role='' />
    <member type='way' ref='-37247200' role='' />
    <member type='way' ref='-37247201' role='' />
    <member type='way' ref='-37247111' role='' />
    <member type='way' ref='-37247112' role='' />
    <member type='way' ref='-37247113' role='' />
    <member type='way' ref='-37247114' role='' />
    <member type='way' ref='-37247115' role='' />
    <member type='way' ref='-37247116' role='' />
    <member type='way' ref='-37247117' role='' />
    <member type='way' ref='-37247118' role='' />
    <member type='way' ref='-37247119' role='' />
    <member type='way' ref='-37247120' role='' />
    <member type='way' ref='-37247121' role='' />
    <member type='way' ref='-37247122' role='' />
    <member type='way' ref='-37247123' role='' />
    <member type='way' ref='-37247124' role='' />
    <member type='way' ref='-37247125' role='' />
    <member type='way' ref='-37247126' role='' />
    <member type='way' ref='-37247127' role='' />
    <member type='way' ref='-37247128' role='' />
    <member type='way' ref='-37247129' role='' />
    <member type='way' ref='-37247130' role='' />
    <member type='way' ref='-37247131' role='' />
    <member type='way' ref='-37247132' role='' />
    <member type='way' ref='-37247133' role='' />
    <member type='way' ref='-37247134' role='' />
    <member type='way' ref='-37247135' role='' />
    <member type='way' ref='-37247136' role='' />
    <member type='way' ref='-37247137' role='' />
    <member type='way' ref='-37247138' role='' />
    <member type='way' ref='-37247139' role='' />
    <member type='way' ref='-37247140' role='' />
    <member type='way' ref='-37247141' role='' />
    <member type='way' ref='-37247142' role='' />
    <member type='way' ref='-37247143' role='' />
    <member type='way' ref='-37247144' role='' />
    <member type='way' ref='-37247145' role='' />
    <member type='way' ref='-37247146' role='' />
    <member type='way' ref='-37247147' role='' />
    <member type='way' ref='-37247148' role='' />
    <member type='way' ref='-37247149' role='' />
    <member type='way' ref='-37247150' role='' />
    <member type='way' ref='-37247151' role='' />
    <member type='way' ref='-37247152' role='' />
    <member type='way' ref='-37247153' role='' />
    <member type='way' ref='-37247154' role='' />
    <member type='way' ref='-37247155' role='' />
    <member type='way' ref='-37247156' role='' />
    <member type='way' ref='-37247157' role='' />
    <member type='way' ref='-37247158' role='' />
    <member type='way' ref='-37247159' role='' />
    <member type='way' ref='-37247160' role='' />
    <member type='way' ref='-37247161' role='' />
    <member type='way' ref='-37247162' role='' />
    <member type='way' ref='-37247163' role='' />
    <member type='way' ref='-37247164' role='' />
    <member type='way' ref='-37247165' role='' />
    <member type='way' ref='-37247166' role='' />
    <member type='way' ref='-37247167' role='' />
    <member type='way' ref='-37247168' role='' />
    <member type='way' ref='-37247169' role='' />
    <member type='way' ref='-37247170' role='' />
    <member type='way' ref='-37247171' role='' />
    <member type='way' ref='-37247172' role='' />
    <member type='way' ref='-37247173' role='' />
    <member type='way' ref='-37247174' role='' />
    <member type='way' ref='-37247175' role='' />
    <member type='way' ref='-37247176' role='' />
    <member type='way' ref='-37247177' role='' />
    <member type='way' ref='-37247178' role='' />
    <member type='way' ref='-37247179' role='' />
    <member type='way' ref='-37247180' role='' />
    <member type='way' ref='-37247181' role='' />
    <member type='way' ref='-37247182' role='' />
    <member type='way' ref='-37247183' role='' />
    <member type='way' ref='-37247184' role='' />
    <member type='way' ref='-37247185' role='' />
    <member type='way' ref='-37247186' role='' />
    <member type='way' ref='-37247187' role='' />
    <member type='way' ref='-37247188' role='' />
    <member type='way' ref='-37247189' role='' />
    <member type='way' ref='-37247190' role='' />
    <member type='way' ref='-37247191' role='' />
    <member type='way' ref='-37247192' role='' />
    <member type='way' ref='-37247193' role='' />
    <member type='way' ref='-37247194' role='' />
    <member type='way' ref='-37247195' role='' />
    <member type='way' ref='-37247196' role='' />
    <member type='way' ref='-37247197' role='' />
    <member type='way' ref='-37247198' role='' />
    <member type='way' ref='-37247199' role='' />
    <tag k='key' v='path.nl.hmb' />
    <tag k='name' v='NL HMB' />
    <tag k='source' v='src.nl.PDOK-Luchtfoto-RGB src.nl.ProRail.Basiskaart' />
    <tag k='type' v='path' />
  </relation>
</osm>
