<?xml version='1.0' encoding='UTF-8'?>
<osm version='0.6' upload='false' generator='JOSM'>
  <node id='-166343033' action='modify' lat='52.38835957969' lon='4.63760582135'>
    <tag k='name' v='haa' />
  </node>
  <node id='-166343034' action='modify' lat='52.38851510635' lon='4.63606662221' />
  <node id='-166343035' action='modify' lat='52.38845777238' lon='4.63108867272' />
  <node id='-166343036' action='modify' lat='52.38846617469' lon='4.63088188096' />
  <node id='-166343037' action='modify' lat='52.3910972994' lon='4.62419405445' />
  <node id='-166343039' action='modify' lat='52.39222917844' lon='4.62351411447' />
  <node id='-166343040' action='modify' lat='52.39445929624' lon='4.62317213282' />
  <node id='-166343041' action='modify' lat='52.39506258437' lon='4.62331388176'>
    <tag k='name' v='hno' />
  </node>
  <node id='-166343042' action='modify' lat='52.39637137867' lon='4.6236214035' />
  <node id='-166343043' action='modify' lat='52.39748675616' lon='4.62403111093' />
  <node id='-166343044' action='modify' lat='52.39795839132' lon='4.62427648825'>
    <tag k='name' v='kle' />
  </node>
  <node id='-166343045' action='modify' lat='52.40431544521' lon='4.62758412452'>
    <tag k='name' v='blo' />
  </node>
  <node id='-166343046' action='modify' lat='52.41186425468' lon='4.63151246175' />
  <node id='-166343047' action='modify' lat='52.4161465301' lon='4.63203683361' />
  <node id='-166343048' action='modify' lat='52.41739309717' lon='4.63173106179' />
  <node id='-166343049' action='modify' lat='52.41954424185' lon='4.63132001393' />
  <node id='-166343050' action='modify' lat='52.42022518506' lon='4.63125821989'>
    <tag k='name' v='saz' />
  </node>
  <node id='-166343051' action='modify' lat='52.4205122229' lon='4.63123217158' />
  <node id='-166343052' action='modify' lat='52.42154479438' lon='4.63121943109' />
  <node id='-166343053' action='modify' lat='52.42839146092' lon='4.63159963354'>
    <tag k='name' v='ssp' />
  </node>
  <node id='-166343054' action='modify' lat='52.4338401836' lon='4.63256384768'>
    <tag k='name' v='san' />
  </node>
  <node id='-166343055' action='modify' lat='52.43443661115' lon='4.63273554973' />
  <node id='-166343056' action='modify' lat='52.43704559057' lon='4.63356703386' />
  <node id='-166343057' action='modify' lat='52.44015638748' lon='4.63536333148' />
  <node id='-166343058' action='modify' lat='52.44269792687' lon='4.63863103294'>
    <tag k='name' v='dri' />
  </node>
  <node id='-166343059' action='modify' lat='52.44429530466' lon='4.64254706964' />
  <node id='-166343060' action='modify' lat='52.44519693918' lon='4.64557662472' />
  <node id='-166343061' action='modify' lat='52.44844773835' lon='4.65175509319' />
  <node id='-166343062' action='modify' lat='52.4497027912' lon='4.65319476955' />
  <node id='-166343063' action='modify' lat='52.45392091392' lon='4.65578712456'>
    <tag k='name' v='vet.a' />
  </node>
  <node id='-166343064' action='modify' lat='52.4569704455' lon='4.65551286668' />
  <node id='-166343065' action='modify' lat='52.4610089196' lon='4.65442657202' />
  <node id='-166343066' action='modify' lat='52.46219538591' lon='4.65405374497' />
  <node id='-166343067' action='modify' lat='52.46420380764' lon='4.65332954854' />
  <node id='-166343068' action='modify' lat='52.46544247934' lon='4.65280919999' />
  <node id='-166343069' action='modify' lat='52.46844260039' lon='4.65143590897' />
  <node id='-166343070' action='modify' lat='52.47215610958' lon='4.65100273423'>
    <tag k='name' v='vet.f' />
  </node>
  <node id='-166343071' action='modify' lat='52.47668942841' lon='4.65414762229' />
  <node id='-166343072' action='modify' lat='52.47742621688' lon='4.65506225556' />
  <node id='-166343073' action='modify' lat='52.47866696611' lon='4.65683787927'>
    <tag k='name' v='bev' />
  </node>
  <node id='-166343074' action='modify' lat='52.47975720011' lon='4.65938766448' />
  <node id='-166343075' action='modify' lat='52.48301501508' lon='4.66927500022'>
    <tag k='name' v='bei' />
  </node>
  <node id='-166343076' action='modify' lat='52.48319185493' lon='4.66981172293' />
  <node id='-166343077' action='modify' lat='52.48458632977' lon='4.67306452374'>
    <tag k='name' v='beg' />
  </node>
  <node id='-166343078' action='modify' lat='52.48589635469' lon='4.67500984602' />
  <node id='-166343079' action='modify' lat='52.49540802734' lon='4.68710452021'>
    <tag k='name' v='hee' />
  </node>
  <node id='-166343080' action='modify' lat='52.5108986793' lon='4.70680743389' />
  <node id='-166343081' action='modify' lat='52.51966831263' lon='4.70577491725' />
  <node id='-166343082' action='modify' lat='52.52210616531' lon='4.70112150802'>
    <tag k='name' v='uit' />
  </node>
  <node id='-166343083' action='modify' lat='52.43279665327' lon='4.63184428964'>
    <tag k='name' v='kru' />
  </node>
  <node id='-166343084' action='modify' lat='52.44291575065' lon='4.63240637791' />
  <node id='-166343085' action='modify' lat='52.44463706883' lon='4.63250200529'>
    <tag k='name' v='wes' />
  </node>
  <node id='-166343086' action='modify' lat='52.45065585117' lon='4.63283640653' />
  <node id='-166343087' action='modify' lat='52.45137546005' lon='4.63283747166'>
    <tag k='name' v='vze' />
  </node>
  <node id='-166343088' action='modify' lat='52.45219113485' lon='4.63280260026' />
  <node id='-166343089' action='modify' lat='52.45419347321' lon='4.6325504753' />
  <node id='-166343090' action='modify' lat='52.45543733165' lon='4.63249682844' />
  <node id='-166343091' action='modify' lat='52.45993801945' lon='4.6323692145'>
    <tag k='name' v='vel' />
  </node>
  <node id='-166343093' action='modify' lat='52.46640986587' lon='4.63218568683' />
  <node id='-166343094' action='modify' lat='52.47073667427' lon='4.63603197992' />
  <node id='-166343095' action='modify' lat='52.47153941529' lon='4.63744828899'>
    <tag k='name' v='hoo' />
  </node>
  <node id='-166343096' action='modify' lat='52.47300938555' lon='4.64004188508' />
  <node id='-166343097' action='modify' lat='52.47444482369' lon='4.64326638859' />
  <node id='-166343098' action='modify' lat='52.47886117907' lon='4.65666840549'>
    <tag k='name' v='bev' />
  </node>
  <node id='-166343101' action='modify' lat='52.38850735478' lon='4.63330663893' />
  <node id='-166343102' action='modify' lat='52.38853844637' lon='4.63409820014' />
  <node id='-166343117' action='modify' lat='52.52024758589' lon='4.70464788662' />
  <node id='-166343118' action='modify' lat='52.52093445601' lon='4.70332590071' />
  <way id='-37718468' action='modify'>
    <nd ref='-166343033' />
    <nd ref='-166343034' />
    <tag k='type' v='straight' />
  </way>
  <way id='-37718469' action='modify'>
    <nd ref='-166343034' />
    <nd ref='-166343102' />
  </way>
  <way id='-37718470' action='modify'>
    <nd ref='-166343035' />
    <nd ref='-166343036' />
    <tag k='type' v='straight' />
  </way>
  <way id='-37718471' action='modify'>
    <nd ref='-166343036' />
    <nd ref='-166343037' />
  </way>
  <way id='-37718472' action='modify'>
    <nd ref='-166343037' />
    <nd ref='-166343039' />
    <tag k='type' v='straight' />
  </way>
  <way id='-37718473' action='modify'>
    <nd ref='-166343039' />
    <nd ref='-166343040' />
  </way>
  <way id='-37718474' action='modify'>
    <nd ref='-166343040' />
    <nd ref='-166343041' />
    <nd ref='-166343042' />
    <tag k='type' v='straight' />
  </way>
  <way id='-37718475' action='modify'>
    <nd ref='-166343042' />
    <nd ref='-166343043' />
  </way>
  <way id='-37718476' action='modify'>
    <nd ref='-166343043' />
    <nd ref='-166343044' />
    <nd ref='-166343045' />
    <nd ref='-166343046' />
    <tag k='type' v='straight' />
  </way>
  <way id='-37718477' action='modify'>
    <nd ref='-166343046' />
    <nd ref='-166343047' />
  </way>
  <way id='-37718478' action='modify'>
    <nd ref='-166343047' />
    <nd ref='-166343048' />
    <tag k='type' v='straight' />
  </way>
  <way id='-37718479' action='modify'>
    <nd ref='-166343048' />
    <nd ref='-166343049' />
  </way>
  <way id='-37718480' action='modify'>
    <nd ref='-166343049' />
    <nd ref='-166343050' />
    <nd ref='-166343051' />
    <tag k='type' v='straight' />
  </way>
  <way id='-37718481' action='modify'>
    <nd ref='-166343051' />
    <nd ref='-166343052' />
  </way>
  <way id='-37718482' action='modify'>
    <nd ref='-166343052' />
    <nd ref='-166343053' />
    <tag k='type' v='straight' />
  </way>
  <way id='-37718483' action='modify'>
    <nd ref='-166343053' />
    <nd ref='-166343054' />
    <nd ref='-166343055' />
  </way>
  <way id='-37718484' action='modify'>
    <nd ref='-166343055' />
    <nd ref='-166343056' />
    <tag k='type' v='straight' />
  </way>
  <way id='-37718485' action='modify'>
    <nd ref='-166343056' />
    <nd ref='-166343057' />
    <nd ref='-166343058' />
    <nd ref='-166343059' />
  </way>
  <way id='-37718486' action='modify'>
    <nd ref='-166343059' />
    <nd ref='-166343060' />
    <tag k='type' v='straight' />
  </way>
  <way id='-37718487' action='modify'>
    <nd ref='-166343060' />
    <nd ref='-166343061' />
  </way>
  <way id='-37718488' action='modify'>
    <nd ref='-166343061' />
    <nd ref='-166343062' />
    <tag k='type' v='straight' />
  </way>
  <way id='-37718489' action='modify'>
    <nd ref='-166343062' />
    <nd ref='-166343063' />
    <nd ref='-166343064' />
  </way>
  <way id='-37718490' action='modify'>
    <nd ref='-166343064' />
    <nd ref='-166343065' />
    <tag k='type' v='straight' />
  </way>
  <way id='-37718491' action='modify'>
    <nd ref='-166343065' />
    <nd ref='-166343066' />
  </way>
  <way id='-37718492' action='modify'>
    <nd ref='-166343066' />
    <nd ref='-166343067' />
    <tag k='type' v='straight' />
  </way>
  <way id='-37718493' action='modify'>
    <nd ref='-166343067' />
    <nd ref='-166343068' />
  </way>
  <way id='-37718494' action='modify'>
    <nd ref='-166343068' />
    <nd ref='-166343069' />
    <tag k='type' v='straight' />
  </way>
  <way id='-37718495' action='modify'>
    <nd ref='-166343069' />
    <nd ref='-166343070' />
    <nd ref='-166343071' />
  </way>
  <way id='-37718496' action='modify'>
    <nd ref='-166343071' />
    <nd ref='-166343072' />
    <tag k='type' v='straight' />
  </way>
  <way id='-37718497' action='modify'>
    <nd ref='-166343072' />
    <nd ref='-166343073' />
    <nd ref='-166343074' />
  </way>
  <way id='-37718498' action='modify'>
    <nd ref='-166343074' />
    <nd ref='-166343075' />
    <nd ref='-166343076' />
    <tag k='type' v='straight' />
  </way>
  <way id='-37718499' action='modify'>
    <nd ref='-166343076' />
    <nd ref='-166343077' />
    <nd ref='-166343078' />
  </way>
  <way id='-37718500' action='modify'>
    <nd ref='-166343078' />
    <nd ref='-166343079' />
    <nd ref='-166343080' />
    <tag k='type' v='straight' />
  </way>
  <way id='-37718501' action='modify'>
    <nd ref='-166343080' />
    <nd ref='-166343081' />
  </way>
  <way id='-37718502' action='modify'>
    <nd ref='-166343118' />
    <nd ref='-166343082' />
    <tag k='type' v='straight' />
  </way>
  <way id='-37718503' action='modify'>
    <nd ref='-166343053' />
    <nd ref='-166343083' />
    <nd ref='-166343084' />
    <tag k='type' v='straight' />
  </way>
  <way id='-37718504' action='modify'>
    <nd ref='-166343084' />
    <nd ref='-166343085' />
    <nd ref='-166343086' />
    <tag k='type' v='straight' />
  </way>
  <way id='-37718505' action='modify'>
    <nd ref='-166343086' />
    <nd ref='-166343087' />
    <nd ref='-166343088' />
  </way>
  <way id='-37718506' action='modify'>
    <nd ref='-166343088' />
    <nd ref='-166343089' />
    <tag k='type' v='straight' />
  </way>
  <way id='-37718507' action='modify'>
    <nd ref='-166343089' />
    <nd ref='-166343090' />
  </way>
  <way id='-37718509' action='modify'>
    <nd ref='-166343090' />
    <nd ref='-166343091' />
    <nd ref='-166343093' />
    <tag k='type' v='straight' />
  </way>
  <way id='-37718510' action='modify'>
    <nd ref='-166343093' />
    <nd ref='-166343094' />
  </way>
  <way id='-37718511' action='modify'>
    <nd ref='-166343094' />
    <nd ref='-166343095' />
    <nd ref='-166343096' />
    <tag k='type' v='straight' />
  </way>
  <way id='-37718512' action='modify'>
    <nd ref='-166343096' />
    <nd ref='-166343097' />
  </way>
  <way id='-37718513' action='modify'>
    <nd ref='-166343097' />
    <nd ref='-166343098' />
    <nd ref='-166343074' />
    <tag k='type' v='straight' />
  </way>
  <way id='-37718518' action='modify'>
    <nd ref='-166343102' />
    <nd ref='-166343101' />
    <tag k='type' v='straight' />
  </way>
  <way id='-37718519' action='modify'>
    <nd ref='-166343101' />
    <nd ref='-166343035' />
  </way>
  <way id='-37718544' action='modify'>
    <nd ref='-166343117' />
    <nd ref='-166343118' />
  </way>
  <way id='-37718545' action='modify'>
    <nd ref='-166343081' />
    <nd ref='-166343117' />
    <tag k='type' v='straight' />
  </way>
  <relation id='-14480699' action='modify'>
    <member type='way' ref='-37718468' role='' />
    <member type='way' ref='-37718469' role='' />
    <member type='way' ref='-37718518' role='' />
    <member type='way' ref='-37718519' role='' />
    <member type='way' ref='-37718470' role='' />
    <member type='way' ref='-37718471' role='' />
    <member type='way' ref='-37718472' role='' />
    <member type='way' ref='-37718473' role='' />
    <member type='way' ref='-37718474' role='' />
    <member type='way' ref='-37718475' role='' />
    <member type='way' ref='-37718476' role='' />
    <member type='way' ref='-37718477' role='' />
    <member type='way' ref='-37718478' role='' />
    <member type='way' ref='-37718479' role='' />
    <member type='way' ref='-37718480' role='' />
    <member type='way' ref='-37718481' role='' />
    <member type='way' ref='-37718482' role='' />
    <member type='way' ref='-37718483' role='' />
    <member type='way' ref='-37718484' role='' />
    <member type='way' ref='-37718485' role='' />
    <member type='way' ref='-37718486' role='' />
    <member type='way' ref='-37718487' role='' />
    <member type='way' ref='-37718488' role='' />
    <member type='way' ref='-37718489' role='' />
    <member type='way' ref='-37718490' role='' />
    <member type='way' ref='-37718491' role='' />
    <member type='way' ref='-37718492' role='' />
    <member type='way' ref='-37718493' role='' />
    <member type='way' ref='-37718494' role='' />
    <member type='way' ref='-37718495' role='' />
    <member type='way' ref='-37718496' role='' />
    <member type='way' ref='-37718497' role='' />
    <member type='way' ref='-37718498' role='' />
    <member type='way' ref='-37718499' role='' />
    <member type='way' ref='-37718500' role='' />
    <member type='way' ref='-37718501' role='' />
    <member type='way' ref='-37718545' role='' />
    <member type='way' ref='-37718544' role='' />
    <member type='way' ref='-37718502' role='' />
    <tag k='key' v='path.nl.hug' />
    <tag k='name' v='NL HUG' />
    <tag k='type' v='path' />
  </relation>
  <relation id='-14480700' action='modify'>
    <member type='way' ref='-37718482' role='' />
    <member type='way' ref='-37718503' role='' />
    <member type='way' ref='-37718504' role='' />
    <member type='way' ref='-37718505' role='' />
    <member type='way' ref='-37718506' role='' />
    <member type='way' ref='-37718507' role='' />
    <member type='way' ref='-37718509' role='' />
    <member type='way' ref='-37718510' role='' />
    <member type='way' ref='-37718511' role='' />
    <member type='way' ref='-37718512' role='' />
    <member type='way' ref='-37718513' role='' />
    <member type='way' ref='-37718498' role='' />
    <tag k='key' v='path.nl.hug.vel' />
    <tag k='name' v='NL HUG (Vel)' />
    <tag k='type' v='path' />
  </relation>
</osm>
