<?xml version='1.0' encoding='UTF-8'?>
<osm version='0.6' upload='false' generator='JOSM'>
  <node id='-168248193' action='modify' lat='52.3866447965' lon='4.6234926568' />
  <node id='-168248194' action='modify' lat='52.38598693312' lon='4.62267225678'>
    <tag k='name' v='hzu' />
  </node>
  <node id='-168248197' action='modify' lat='52.38796176922' lon='4.62432011828' />
  <node id='-168248198' action='modify' lat='52.38834891407' lon='4.62444215879' />
  <node id='-168248199' action='modify' lat='52.39135779486' lon='4.62393797506' />
  <node id='-168248200' action='modify' lat='52.39218662097' lon='4.62342962489' />
  <node id='-168248201' action='modify' lat='52.39475390888' lon='4.62321236596' />
  <node id='-168248202' action='modify' lat='52.39506667617' lon='4.62328705967'>
    <tag k='name' v='hno' />
  </node>
  <node id='-168248208' action='modify' lat='52.38602005602' lon='4.62272116535' />
  <node id='-168248235' action='modify' lat='52.38644917072' lon='4.62326064572' />
  <node id='-168248237' action='modify' lat='52.39055607345' lon='4.62432085033' />
  <node id='-168248238' action='modify' lat='52.39081303888' lon='4.62421817851' />
  <node id='-168248239' action='modify' lat='52.39418583405' lon='4.62302065848' />
  <node id='-168248240' action='modify' lat='52.39413197684' lon='4.62301294899' />
  <way id='-37850050' action='modify'>
    <nd ref='-168248194' />
    <nd ref='-168248208' />
    <tag k='type' v='straight' />
  </way>
  <way id='-37850051' action='modify'>
    <nd ref='-168248193' />
    <nd ref='-168248197' />
  </way>
  <way id='-37850052' action='modify'>
    <nd ref='-168248197' />
    <nd ref='-168248198' />
    <tag k='type' v='straight' />
  </way>
  <way id='-37850053' action='modify'>
    <nd ref='-168248198' />
    <nd ref='-168248237' />
  </way>
  <way id='-37850054' action='modify'>
    <nd ref='-168248199' />
    <nd ref='-168248200' />
    <tag k='type' v='straight' />
  </way>
  <way id='-37850055' action='modify'>
    <nd ref='-168248200' />
    <nd ref='-168248240' />
  </way>
  <way id='-37850056' action='modify'>
    <nd ref='-168248201' />
    <nd ref='-168248202' />
    <tag k='type' v='straight' />
  </way>
  <way id='-37850087' action='modify'>
    <nd ref='-168248208' />
    <nd ref='-168248235' />
  </way>
  <way id='-37850088' action='modify'>
    <nd ref='-168248235' />
    <nd ref='-168248193' />
    <tag k='type' v='straight' />
  </way>
  <way id='-37850094' action='modify'>
    <nd ref='-168248237' />
    <nd ref='-168248238' />
    <tag k='type' v='straight' />
  </way>
  <way id='-37850095' action='modify'>
    <nd ref='-168248238' />
    <nd ref='-168248199' />
  </way>
  <way id='-37850110' action='modify'>
    <nd ref='-168248240' />
    <nd ref='-168248239' />
    <tag k='type' v='straight' />
  </way>
  <way id='-37850111' action='modify'>
    <nd ref='-168248239' />
    <nd ref='-168248201' />
  </way>
  <relation id='-14481873' action='modify'>
    <member type='way' ref='-37850050' role='' />
    <member type='way' ref='-37850087' role='' />
    <member type='way' ref='-37850088' role='' />
    <member type='way' ref='-37850051' role='' />
    <member type='way' ref='-37850052' role='' />
    <member type='way' ref='-37850053' role='' />
    <member type='way' ref='-37850094' role='' />
    <member type='way' ref='-37850095' role='' />
    <member type='way' ref='-37850054' role='' />
    <member type='way' ref='-37850055' role='' />
    <member type='way' ref='-37850110' role='' />
    <member type='way' ref='-37850111' role='' />
    <member type='way' ref='-37850056' role='' />
    <tag k='key' v='path.nl.hzn' />
    <tag k='name' v='NL HZN' />
    <tag k='type' v='path' />
  </relation>
</osm>
