<?xml version='1.0' encoding='UTF-8'?>
<osm version='0.6' upload='false' generator='JOSM'>
  <node id='-168247998' action='modify' lat='52.38835057636' lon='4.63761655019'>
    <tag k='name' v='haa' />
  </node>
  <node id='-168247999' action='modify' lat='52.38850610305' lon='4.63607735105' />
  <node id='-168248000' action='modify' lat='52.38849296711' lon='4.63267385825'>
    <tag k='name' v='hbo' />
  </node>
  <node id='-168248001' action='modify' lat='52.38845471593' lon='4.63087249323' />
  <node id='-168248002' action='modify' lat='52.38842667085' lon='4.62955176562' />
  <node id='-168248003' action='modify' lat='52.38826952101' lon='4.62722226843' />
  <node id='-168248004' action='modify' lat='52.3880526217' lon='4.62564647064' />
  <node id='-168248005' action='modify' lat='52.38796176922' lon='4.62432011828' />
  <node id='-168248006' action='modify' lat='52.38795440279' lon='4.623880236' />
  <node id='-168248007' action='modify' lat='52.38808863524' lon='4.62180688843' />
  <node id='-168248008' action='modify' lat='52.38842503307' lon='4.6194760488' />
  <node id='-168248009' action='modify' lat='52.38871191045' lon='4.61768500373' />
  <node id='-168248010' action='modify' lat='52.38971248816' lon='4.61199134454' />
  <node id='-168248011' action='modify' lat='52.39041635746' lon='4.60909992322' />
  <node id='-168248012' action='modify' lat='52.39059887057' lon='4.60855275258' />
  <node id='-168248013' action='modify' lat='52.390855042' lon='4.60771523349'>
    <tag k='name' v='ove' />
  </node>
  <node id='-168248014' action='modify' lat='52.39123070468' lon='4.60596978396' />
  <node id='-168248015' action='modify' lat='52.39129290457' lon='4.60408151016' />
  <node id='-168248016' action='modify' lat='52.39126180423' lon='4.60353165731' />
  <node id='-168248017' action='modify' lat='52.39112144277' lon='4.60234813325' />
  <node id='-168248018' action='modify' lat='52.39106210633' lon='4.60202626817' />
  <node id='-168248019' action='modify' lat='52.39117136716' lon='4.59858633511' />
  <node id='-168248020' action='modify' lat='52.39166651583' lon='4.59665514462' />
  <node id='-168248021' action='modify' lat='52.39026330776' lon='4.5904961215' />
  <node id='-168248022' action='modify' lat='52.38506012092' lon='4.58607449993' />
  <node id='-168248023' action='modify' lat='52.38143709007' lon='4.57901894912' />
  <node id='-168248024' action='modify' lat='52.37531999278' lon='4.54972252116' />
  <node id='-168248025' action='modify' lat='52.3745790395' lon='4.54311758146' />
  <node id='-168248026' action='modify' lat='52.37446412753' lon='4.53973213798'>
    <tag k='name' v='zad' />
  </node>
  <node id='-168248027' action='modify' lat='52.37440382884' lon='4.53795567021' />
  <node id='-168248028' action='modify' lat='52.37477530644' lon='4.53486936952' />
  <node id='-168248029' action='modify' lat='52.37480623838' lon='4.53475780091' />
  <node id='-168248030' action='modify' lat='52.37572213132' lon='4.53145422504'>
    <tag k='name' v='zan' />
  </node>
  <node id='-168248031' action='modify' lat='52.37578912031' lon='4.53121259674' />
  <node id='-168248032' action='modify' lat='52.37780834372' lon='4.53289137526' />
  <node id='-168248033' action='modify' lat='52.37895454465' lon='4.53367888228'>
    <tag k='name' v='zan' />
  </node>
  <node id='-168248034' action='modify' lat='52.38058481104' lon='4.53479900578'>
    <tag k='name' v='zan.f' />
  </node>
  <way id='-37849824' action='modify'>
    <nd ref='-168247998' />
    <nd ref='-168247999' />
    <tag k='type' v='straight' />
  </way>
  <way id='-37849825' action='modify'>
    <nd ref='-168247999' />
    <nd ref='-168248000' />
  </way>
  <way id='-37849826' action='modify'>
    <nd ref='-168248000' />
    <nd ref='-168248001' />
    <tag k='type' v='straight' />
  </way>
  <way id='-37849827' action='modify'>
    <nd ref='-168248001' />
    <nd ref='-168248002' />
    <tag k='type' v='straight' />
  </way>
  <way id='-37849828' action='modify'>
    <nd ref='-168248002' />
    <nd ref='-168248003' />
  </way>
  <way id='-37849829' action='modify'>
    <nd ref='-168248003' />
    <nd ref='-168248004' />
    <tag k='type' v='straight' />
  </way>
  <way id='-37849830' action='modify'>
    <nd ref='-168248004' />
    <nd ref='-168248005' />
  </way>
  <way id='-37849831' action='modify'>
    <nd ref='-168248005' />
    <nd ref='-168248006' />
    <tag k='type' v='straight' />
  </way>
  <way id='-37849832' action='modify'>
    <nd ref='-168248006' />
    <nd ref='-168248007' />
  </way>
  <way id='-37849833' action='modify'>
    <nd ref='-168248007' />
    <nd ref='-168248008' />
    <tag k='type' v='straight' />
  </way>
  <way id='-37849834' action='modify'>
    <nd ref='-168248008' />
    <nd ref='-168248009' />
  </way>
  <way id='-37849835' action='modify'>
    <nd ref='-168248009' />
    <nd ref='-168248010' />
    <tag k='type' v='straight' />
  </way>
  <way id='-37849836' action='modify'>
    <nd ref='-168248010' />
    <nd ref='-168248011' />
  </way>
  <way id='-37849837' action='modify'>
    <nd ref='-168248011' />
    <nd ref='-168248012' />
    <tag k='type' v='straight' />
  </way>
  <way id='-37849838' action='modify'>
    <nd ref='-168248012' />
    <nd ref='-168248013' />
    <nd ref='-168248014' />
    <nd ref='-168248015' />
  </way>
  <way id='-37849839' action='modify'>
    <nd ref='-168248015' />
    <nd ref='-168248016' />
    <tag k='type' v='straight' />
  </way>
  <way id='-37849840' action='modify'>
    <nd ref='-168248016' />
    <nd ref='-168248017' />
  </way>
  <way id='-37849841' action='modify'>
    <nd ref='-168248017' />
    <nd ref='-168248018' />
    <tag k='type' v='straight' />
  </way>
  <way id='-37849842' action='modify'>
    <nd ref='-168248018' />
    <nd ref='-168248019' />
  </way>
  <way id='-37849843' action='modify'>
    <nd ref='-168248019' />
    <nd ref='-168248020' />
    <tag k='type' v='straight' />
  </way>
  <way id='-37849844' action='modify'>
    <nd ref='-168248020' />
    <nd ref='-168248021' />
  </way>
  <way id='-37849845' action='modify'>
    <nd ref='-168248021' />
    <nd ref='-168248022' />
    <tag k='type' v='straight' />
  </way>
  <way id='-37849846' action='modify'>
    <nd ref='-168248022' />
    <nd ref='-168248023' />
  </way>
  <way id='-37849847' action='modify'>
    <nd ref='-168248023' />
    <nd ref='-168248024' />
    <tag k='type' v='straight' />
  </way>
  <way id='-37849848' action='modify'>
    <nd ref='-168248024' />
    <nd ref='-168248025' />
  </way>
  <way id='-37849849' action='modify'>
    <nd ref='-168248025' />
    <nd ref='-168248026' />
    <nd ref='-168248027' />
    <tag k='type' v='straight' />
  </way>
  <way id='-37849850' action='modify'>
    <nd ref='-168248027' />
    <nd ref='-168248028' />
  </way>
  <way id='-37849851' action='modify'>
    <nd ref='-168248028' />
    <nd ref='-168248029' />
    <tag k='type' v='straight' />
  </way>
  <way id='-37849852' action='modify'>
    <nd ref='-168248029' />
    <nd ref='-168248030' />
    <nd ref='-168248031' />
    <tag k='type' v='straight' />
  </way>
  <way id='-37849853' action='modify'>
    <nd ref='-168248029' />
    <nd ref='-168248032' />
  </way>
  <way id='-37849854' action='modify'>
    <nd ref='-168248032' />
    <nd ref='-168248033' />
    <nd ref='-168248034' />
    <tag k='type' v='straight' />
  </way>
  <relation id='-14481839' action='modify'>
    <member type='way' ref='-37849824' role='' />
    <member type='way' ref='-37849825' role='' />
    <member type='way' ref='-37849826' role='' />
    <member type='way' ref='-37849827' role='' />
    <member type='way' ref='-37849828' role='' />
    <member type='way' ref='-37849829' role='' />
    <member type='way' ref='-37849830' role='' />
    <member type='way' ref='-37849831' role='' />
    <member type='way' ref='-37849832' role='' />
    <member type='way' ref='-37849833' role='' />
    <member type='way' ref='-37849834' role='' />
    <member type='way' ref='-37849835' role='' />
    <member type='way' ref='-37849836' role='' />
    <member type='way' ref='-37849837' role='' />
    <member type='way' ref='-37849838' role='' />
    <member type='way' ref='-37849839' role='' />
    <member type='way' ref='-37849840' role='' />
    <member type='way' ref='-37849841' role='' />
    <member type='way' ref='-37849842' role='' />
    <member type='way' ref='-37849843' role='' />
    <member type='way' ref='-37849844' role='' />
    <member type='way' ref='-37849845' role='' />
    <member type='way' ref='-37849846' role='' />
    <member type='way' ref='-37849847' role='' />
    <member type='way' ref='-37849848' role='' />
    <member type='way' ref='-37849849' role='' />
    <member type='way' ref='-37849850' role='' />
    <member type='way' ref='-37849851' role='' />
    <member type='way' ref='-37849852' role='' />
    <tag k='key' v='path.nl.hzv' />
    <tag k='name' v='NL HZV' />
    <tag k='type' v='path' />
  </relation>
  <relation id='-14481840' action='modify'>
    <member type='way' ref='-37849849' role='' />
    <member type='way' ref='-37849850' role='' />
    <member type='way' ref='-37849851' role='' />
    <member type='way' ref='-37849853' role='' />
    <member type='way' ref='-37849854' role='' />
    <tag k='key' v='path.nl.hzv.zan' />
    <tag k='name' v='NL HZV (Zan)' />
    <tag k='type' v='path' />
  </relation>
</osm>
