<?xml version='1.0' encoding='UTF-8'?>
<osm version='0.6' upload='false' generator='JOSM'>
  <node id='-143088797' action='modify' lat='55.29356359825' lon='11.42057009395'>
    <tag k='name' v='dal' />
  </node>
  <node id='-143088798' action='modify' lat='55.29072152132' lon='11.4236431725' />
  <node id='-143088799' action='modify' lat='55.28549152956' lon='11.42536818445' />
  <node id='-143088800' action='modify' lat='55.28160541595' lon='11.42453402013' />
  <node id='-143088801' action='modify' lat='55.27391761467' lon='11.41830056638' />
  <node id='-143088802' action='modify' lat='55.26882775251' lon='11.41035318106' />
  <node id='-143088803' action='modify' lat='55.26758001712' lon='11.40816718206'>
    <tag k='name' v='son' />
  </node>
  <node id='-143088804' action='modify' lat='55.26500878084' lon='11.40235885844' />
  <node id='-143088805' action='modify' lat='55.2536520895' lon='11.37025415629' />
  <node id='-143088806' action='modify' lat='55.25132379601' lon='11.36045872897'>
    <tag k='name' v='tja' />
  </node>
  <node id='-143088807' action='modify' lat='55.25084757133' lon='11.35555833444' />
  <node id='-143088808' action='modify' lat='55.24847706933' lon='11.31835072964' />
  <node id='-143088809' action='modify' lat='55.2473502474' lon='11.31244986981' />
  <node id='-143088810' action='modify' lat='55.24629066928' lon='11.30925804108' />
  <node id='-143088811' action='modify' lat='55.24739917385' lon='11.29685282439' />
  <node id='-143088812' action='modify' lat='55.25047342451' lon='11.29206037125'>
    <tag k='name' v='ska' />
  </node>
  <node id='-143088813' action='modify' lat='55.25115343686' lon='11.29100024911'>
    <tag k='name' v='ska.f' />
  </node>
  <way id='-36307575' action='modify'>
    <nd ref='-143088797' />
    <nd ref='-143088798' />
    <tag k='type' v='straight' />
  </way>
  <way id='-36307576' action='modify'>
    <nd ref='-143088798' />
    <nd ref='-143088799' />
  </way>
  <way id='-36307577' action='modify'>
    <nd ref='-143088799' />
    <nd ref='-143088800' />
    <tag k='type' v='straight' />
  </way>
  <way id='-36307578' action='modify'>
    <nd ref='-143088800' />
    <nd ref='-143088801' />
  </way>
  <way id='-36307579' action='modify'>
    <nd ref='-143088801' />
    <nd ref='-143088802' />
    <tag k='type' v='straight' />
  </way>
  <way id='-36307580' action='modify'>
    <nd ref='-143088802' />
    <nd ref='-143088803' />
    <nd ref='-143088804' />
  </way>
  <way id='-36307581' action='modify'>
    <nd ref='-143088804' />
    <nd ref='-143088805' />
    <tag k='type' v='straight' />
  </way>
  <way id='-36307582' action='modify'>
    <nd ref='-143088805' />
    <nd ref='-143088806' />
    <nd ref='-143088807' />
  </way>
  <way id='-36307583' action='modify'>
    <nd ref='-143088807' />
    <nd ref='-143088808' />
    <tag k='type' v='straight' />
  </way>
  <way id='-36307584' action='modify'>
    <nd ref='-143088808' />
    <nd ref='-143088809' />
  </way>
  <way id='-36307585' action='modify'>
    <nd ref='-143088809' />
    <nd ref='-143088810' />
    <tag k='type' v='straight' />
  </way>
  <way id='-36307586' action='modify'>
    <nd ref='-143088810' />
    <nd ref='-143088811' />
  </way>
  <way id='-36307587' action='modify'>
    <nd ref='-143088811' />
    <nd ref='-143088812' />
    <nd ref='-143088813' />
    <tag k='type' v='straight' />
  </way>
  <relation id='-14467073' action='modify'>
    <member type='way' ref='-36307575' role='' />
    <member type='way' ref='-36307576' role='' />
    <member type='way' ref='-36307577' role='' />
    <member type='way' ref='-36307578' role='' />
    <member type='way' ref='-36307579' role='' />
    <member type='way' ref='-36307580' role='' />
    <member type='way' ref='-36307581' role='' />
    <member type='way' ref='-36307582' role='' />
    <member type='way' ref='-36307583' role='' />
    <member type='way' ref='-36307584' role='' />
    <member type='way' ref='-36307585' role='' />
    <member type='way' ref='-36307586' role='' />
    <member type='way' ref='-36307587' role='' />
    <tag k='key' v='path.dk.dms' />
    <tag k='name' v='DK DMS' />
    <tag k='type' v='path' />
  </relation>
</osm>
