<?xml version='1.0' encoding='UTF-8'?>
<osm version='0.6' upload='false' generator='JOSM'>
  <node id='-149677542' action='modify' lat='55.35107461682' lon='10.18026418491' />
  <node id='-149677543' action='modify' lat='55.35132604091' lon='10.17991470868' />
  <node id='-149677544' action='modify' lat='55.34925158105' lon='10.18316303928' />
  <node id='-149677545' action='modify' lat='55.34962461627' lon='10.1824949902'>
    <tag k='name' v='tom' />
  </node>
  <node id='-149677546' action='modify' lat='55.34723239847' lon='10.18688351031' />
  <node id='-149677547' action='modify' lat='55.34349658171' lon='10.18874913186' />
  <node id='-149677548' action='modify' lat='55.34166928747' lon='10.18856674165' />
  <node id='-149677549' action='modify' lat='55.33795495299' lon='10.19043355912' />
  <node id='-149677550' action='modify' lat='55.33035282889' lon='10.1999473545' />
  <node id='-149677551' action='modify' lat='55.32422872423' lon='10.20043417677' />
  <node id='-149677552' action='modify' lat='55.32353833163' lon='10.1999610231'>
    <tag k='name' v='kna' />
  </node>
  <node id='-149677553' action='modify' lat='55.32270041174' lon='10.19938677415' />
  <node id='-149677554' action='modify' lat='55.32107570441' lon='10.19732817873' />
  <node id='-149677555' action='modify' lat='55.31475193162' lon='10.18412098154' />
  <node id='-149677556' action='modify' lat='55.31347205906' lon='10.18087148532' />
  <node id='-149677557' action='modify' lat='55.31116635256' lon='10.17362817988' />
  <node id='-149677558' action='modify' lat='55.31048018704' lon='10.17161786288'>
    <tag k='name' v='kiv' />
  </node>
  <node id='-149677559' action='modify' lat='55.30996230987' lon='10.1702291505' />
  <node id='-149677560' action='modify' lat='55.30339601969' lon='10.1538973954'>
    <tag k='name' v='nar' />
  </node>
  <node id='-149677561' action='modify' lat='55.29922276939' lon='10.14351904258' />
  <node id='-149677562' action='modify' lat='55.2981076933' lon='10.14123514228' />
  <node id='-149677563' action='modify' lat='55.29443456987' lon='10.1349051954'>
    <tag k='name' v='hol' />
  </node>
  <node id='-149677564' action='modify' lat='55.28691282663' lon='10.12194469437' />
  <node id='-149677565' action='modify' lat='55.28539300436' lon='10.11907473072' />
  <node id='-149677566' action='modify' lat='55.27810076283' lon='10.10371609461'>
    <tag k='name' v='gla' />
  </node>
  <node id='-149677567' action='modify' lat='55.27445467741' lon='10.09603790872' />
  <node id='-149677568' action='modify' lat='55.27325143068' lon='10.09205415711' />
  <node id='-149677569' action='modify' lat='55.27160808002' lon='10.08198916778' />
  <node id='-149677570' action='modify' lat='55.26928389479' lon='10.07635518774'>
    <tag k='name' v='kop' />
  </node>
  <node id='-149677571' action='modify' lat='55.2667868868' lon='10.07475994393' />
  <node id='-149677572' action='modify' lat='55.25027540675' lon='10.07174245946' />
  <node id='-149677573' action='modify' lat='55.24596346264' lon='10.06691381201' />
  <node id='-149677574' action='modify' lat='55.2457698216' lon='10.06636579147'>
    <tag k='name' v='fle' />
  </node>
  <node id='-149677575' action='modify' lat='55.23520698154' lon='10.03647610411' />
  <node id='-149677576' action='modify' lat='55.23445075151' lon='10.0302659942'>
    <tag k='name' v='hoe' />
  </node>
  <node id='-149677577' action='modify' lat='55.23448241212' lon='10.02984367244' />
  <node id='-149677578' action='modify' lat='55.23505098007' lon='10.0226312124' />
  <node id='-149677579' action='modify' lat='55.23573998025' lon='10.01761816375' />
  <node id='-149677580' action='modify' lat='55.23690460085' lon='10.01179978117' />
  <node id='-149677581' action='modify' lat='55.23717758924' lon='10.01030176811' />
  <node id='-149677582' action='modify' lat='55.23856773829' lon='10.00200636618' />
  <node id='-149677583' action='modify' lat='55.23906322521' lon='9.99962054126' />
  <node id='-149677584' action='modify' lat='55.24079891003' lon='9.99315105312' />
  <node id='-149677585' action='modify' lat='55.24132265945' lon='9.9897010611' />
  <node id='-149677586' action='modify' lat='55.24139758902' lon='9.9868847423' />
  <node id='-149677587' action='modify' lat='55.24175312247' lon='9.98382434115' />
  <node id='-149677588' action='modify' lat='55.24256062928' lon='9.98012253637'>
    <tag k='name' v='ebb' />
  </node>
  <node id='-149677589' action='modify' lat='55.24335948063' lon='9.9764603363' />
  <node id='-149677590' action='modify' lat='55.243915689' lon='9.97446410224' />
  <node id='-149677591' action='modify' lat='55.247778351' lon='9.96364742383' />
  <node id='-149677592' action='modify' lat='55.24881839604' lon='9.95975822076' />
  <node id='-149677593' action='modify' lat='55.25264054811' lon='9.94021340683'>
    <tag k='name' v='kar' />
  </node>
  <node id='-149677594' action='modify' lat='55.25377170973' lon='9.9344287806' />
  <node id='-149677595' action='modify' lat='55.25417222852' lon='9.92983817987' />
  <node id='-149677596' action='modify' lat='55.25394407127' lon='9.90760400757' />
  <node id='-149677597' action='modify' lat='55.25514752075' lon='9.90114524893' />
  <node id='-149677598' action='modify' lat='55.25711064418' lon='9.89678129487' />
  <node id='-149677599' action='modify' lat='55.26037211137' lon='9.89343523912' />
  <node id='-149677600' action='modify' lat='55.26328561555' lon='9.89254206285' />
  <node id='-149677601' action='modify' lat='55.26384192719' lon='9.89239185914' />
  <node id='-149677602' action='modify' lat='55.26428865011' lon='9.89228723681'>
    <tag k='name' v='ass.x' />
  </node>
  <node id='-149677603' action='modify' lat='55.26918631352' lon='9.89114012883'>
    <tag k='name' v='ass' />
  </node>
  <node id='-149677604' action='modify' lat='55.2708708523' lon='9.89074555128' />
  <way id='-36698133' action='modify'>
    <nd ref='-149677543' />
    <nd ref='-149677542' />
    <tag k='type' v='straight' />
  </way>
  <way id='-36698134' action='modify'>
    <nd ref='-149677542' />
    <nd ref='-149677545' />
    <nd ref='-149677544' />
    <tag k='type' v='arc' />
  </way>
  <way id='-36698135' action='modify'>
    <nd ref='-149677544' />
    <nd ref='-149677546' />
    <tag k='type' v='straight' />
  </way>
  <way id='-36698136' action='modify'>
    <nd ref='-149677546' />
    <nd ref='-149677547' />
  </way>
  <way id='-36698137' action='modify'>
    <nd ref='-149677547' />
    <nd ref='-149677548' />
    <tag k='type' v='straight' />
  </way>
  <way id='-36698138' action='modify'>
    <nd ref='-149677548' />
    <nd ref='-149677549' />
  </way>
  <way id='-36698139' action='modify'>
    <nd ref='-149677549' />
    <nd ref='-149677550' />
    <tag k='type' v='straight' />
  </way>
  <way id='-36698140' action='modify'>
    <nd ref='-149677550' />
    <nd ref='-149677551' />
  </way>
  <way id='-36698141' action='modify'>
    <nd ref='-149677551' />
    <nd ref='-149677552' />
    <nd ref='-149677553' />
    <tag k='type' v='straight' />
  </way>
  <way id='-36698142' action='modify'>
    <nd ref='-149677553' />
    <nd ref='-149677554' />
  </way>
  <way id='-36698143' action='modify'>
    <nd ref='-149677554' />
    <nd ref='-149677555' />
    <tag k='type' v='straight' />
  </way>
  <way id='-36698144' action='modify'>
    <nd ref='-149677555' />
    <nd ref='-149677556' />
  </way>
  <way id='-36698145' action='modify'>
    <nd ref='-149677556' />
    <nd ref='-149677557' />
    <tag k='type' v='straight' />
  </way>
  <way id='-36698146' action='modify'>
    <nd ref='-149677557' />
    <nd ref='-149677558' />
    <nd ref='-149677559' />
  </way>
  <way id='-36698147' action='modify'>
    <nd ref='-149677559' />
    <nd ref='-149677560' />
    <nd ref='-149677561' />
    <tag k='type' v='straight' />
  </way>
  <way id='-36698148' action='modify'>
    <nd ref='-149677561' />
    <nd ref='-149677562' />
  </way>
  <way id='-36698149' action='modify'>
    <nd ref='-149677562' />
    <nd ref='-149677563' />
    <nd ref='-149677564' />
    <tag k='type' v='straight' />
  </way>
  <way id='-36698150' action='modify'>
    <nd ref='-149677564' />
    <nd ref='-149677565' />
  </way>
  <way id='-36698151' action='modify'>
    <nd ref='-149677565' />
    <nd ref='-149677566' />
    <nd ref='-149677567' />
    <tag k='type' v='straight' />
  </way>
  <way id='-36698152' action='modify'>
    <nd ref='-149677567' />
    <nd ref='-149677568' />
  </way>
  <way id='-36698153' action='modify'>
    <nd ref='-149677568' />
    <nd ref='-149677569' />
    <tag k='type' v='straight' />
  </way>
  <way id='-36698154' action='modify'>
    <nd ref='-149677569' />
    <nd ref='-149677570' />
    <nd ref='-149677571' />
  </way>
  <way id='-36698155' action='modify'>
    <nd ref='-149677571' />
    <nd ref='-149677572' />
    <tag k='type' v='straight' />
  </way>
  <way id='-36698156' action='modify'>
    <nd ref='-149677572' />
    <nd ref='-149677573' />
  </way>
  <way id='-36698157' action='modify'>
    <nd ref='-149677573' />
    <nd ref='-149677574' />
    <nd ref='-149677575' />
    <tag k='type' v='straight' />
  </way>
  <way id='-36698158' action='modify'>
    <nd ref='-149677575' />
    <nd ref='-149677576' />
    <nd ref='-149677577' />
  </way>
  <way id='-36698159' action='modify'>
    <nd ref='-149677577' />
    <nd ref='-149677578' />
    <tag k='type' v='straight' />
  </way>
  <way id='-36698160' action='modify'>
    <nd ref='-149677578' />
    <nd ref='-149677579' />
  </way>
  <way id='-36698161' action='modify'>
    <nd ref='-149677579' />
    <nd ref='-149677580' />
    <tag k='type' v='straight' />
  </way>
  <way id='-36698162' action='modify'>
    <nd ref='-149677580' />
    <nd ref='-149677581' />
  </way>
  <way id='-36698163' action='modify'>
    <nd ref='-149677581' />
    <nd ref='-149677582' />
    <tag k='type' v='straight' />
  </way>
  <way id='-36698164' action='modify'>
    <nd ref='-149677582' />
    <nd ref='-149677583' />
  </way>
  <way id='-36698165' action='modify'>
    <nd ref='-149677583' />
    <nd ref='-149677584' />
    <tag k='type' v='straight' />
  </way>
  <way id='-36698166' action='modify'>
    <nd ref='-149677584' />
    <nd ref='-149677585' />
  </way>
  <way id='-36698167' action='modify'>
    <nd ref='-149677585' />
    <nd ref='-149677586' />
    <tag k='type' v='straight' />
  </way>
  <way id='-36698168' action='modify'>
    <nd ref='-149677586' />
    <nd ref='-149677587' />
  </way>
  <way id='-36698169' action='modify'>
    <nd ref='-149677587' />
    <nd ref='-149677588' />
    <nd ref='-149677589' />
    <tag k='type' v='straight' />
  </way>
  <way id='-36698170' action='modify'>
    <nd ref='-149677589' />
    <nd ref='-149677590' />
  </way>
  <way id='-36698171' action='modify'>
    <nd ref='-149677590' />
    <nd ref='-149677591' />
    <tag k='type' v='straight' />
  </way>
  <way id='-36698172' action='modify'>
    <nd ref='-149677591' />
    <nd ref='-149677592' />
  </way>
  <way id='-36698173' action='modify'>
    <nd ref='-149677592' />
    <nd ref='-149677593' />
    <nd ref='-149677594' />
    <tag k='type' v='straight' />
  </way>
  <way id='-36698174' action='modify'>
    <nd ref='-149677594' />
    <nd ref='-149677595' />
  </way>
  <way id='-36698175' action='modify'>
    <nd ref='-149677595' />
    <nd ref='-149677596' />
    <tag k='type' v='straight' />
  </way>
  <way id='-36698176' action='modify'>
    <nd ref='-149677596' />
    <nd ref='-149677597' />
  </way>
  <way id='-36698177' action='modify'>
    <nd ref='-149677597' />
    <nd ref='-149677598' />
    <tag k='type' v='straight' />
  </way>
  <way id='-36698178' action='modify'>
    <nd ref='-149677598' />
    <nd ref='-149677599' />
  </way>
  <way id='-36698179' action='modify'>
    <nd ref='-149677599' />
    <nd ref='-149677600' />
    <tag k='type' v='straight' />
  </way>
  <way id='-36698180' action='modify'>
    <nd ref='-149677600' />
    <nd ref='-149677601' />
  </way>
  <way id='-36698181' action='modify'>
    <nd ref='-149677601' />
    <nd ref='-149677602' />
    <nd ref='-149677603' />
    <nd ref='-149677604' />
    <tag k='type' v='straight' />
  </way>
  <relation id='-14470091' action='modify'>
    <member type='way' ref='-36698133' role='' />
    <member type='way' ref='-36698134' role='' />
    <member type='way' ref='-36698135' role='' />
    <member type='way' ref='-36698136' role='' />
    <member type='way' ref='-36698137' role='' />
    <member type='way' ref='-36698138' role='' />
    <member type='way' ref='-36698139' role='' />
    <member type='way' ref='-36698140' role='' />
    <member type='way' ref='-36698141' role='' />
    <member type='way' ref='-36698142' role='' />
    <member type='way' ref='-36698143' role='' />
    <member type='way' ref='-36698144' role='' />
    <member type='way' ref='-36698145' role='' />
    <member type='way' ref='-36698146' role='' />
    <member type='way' ref='-36698147' role='' />
    <member type='way' ref='-36698148' role='' />
    <member type='way' ref='-36698149' role='' />
    <member type='way' ref='-36698150' role='' />
    <member type='way' ref='-36698151' role='' />
    <member type='way' ref='-36698152' role='' />
    <member type='way' ref='-36698153' role='' />
    <member type='way' ref='-36698154' role='' />
    <member type='way' ref='-36698155' role='' />
    <member type='way' ref='-36698156' role='' />
    <member type='way' ref='-36698157' role='' />
    <member type='way' ref='-36698158' role='' />
    <member type='way' ref='-36698159' role='' />
    <member type='way' ref='-36698160' role='' />
    <member type='way' ref='-36698161' role='' />
    <member type='way' ref='-36698162' role='' />
    <member type='way' ref='-36698163' role='' />
    <member type='way' ref='-36698164' role='' />
    <member type='way' ref='-36698165' role='' />
    <member type='way' ref='-36698166' role='' />
    <member type='way' ref='-36698167' role='' />
    <member type='way' ref='-36698168' role='' />
    <member type='way' ref='-36698169' role='' />
    <member type='way' ref='-36698170' role='' />
    <member type='way' ref='-36698171' role='' />
    <member type='way' ref='-36698172' role='' />
    <member type='way' ref='-36698173' role='' />
    <member type='way' ref='-36698174' role='' />
    <member type='way' ref='-36698175' role='' />
    <member type='way' ref='-36698176' role='' />
    <member type='way' ref='-36698177' role='' />
    <member type='way' ref='-36698178' role='' />
    <member type='way' ref='-36698179' role='' />
    <member type='way' ref='-36698180' role='' />
    <member type='way' ref='-36698181' role='' />
    <tag k='key' v='path.dk.tas' />
    <tag k='name' v='DK TAS' />
    <tag k='type' v='path' />
  </relation>
</osm>
