<?xml version='1.0' encoding='UTF-8'?>
<osm version='0.6' upload='false' generator='JOSM'>
  <node id='-185496425' action='modify' lat='54.91007927357' lon='9.49170616827'>
    <tag k='name' v='tor' />
  </node>
  <node id='-185496426' action='modify' lat='54.91310959945' lon='9.48325348352' />
  <node id='-185496427' action='modify' lat='54.91313568048' lon='9.47819441289' />
  <node id='-185496428' action='modify' lat='54.90950308176' lon='9.46543514192' />
  <node id='-185496429' action='modify' lat='54.9082849494' lon='9.46258663058' />
  <node id='-185496430' action='modify' lat='54.89871744517' lon='9.44912731379' />
  <node id='-185496431' action='modify' lat='54.89735708568' lon='9.44526493013' />
  <node id='-185496432' action='modify' lat='54.89713942607' lon='9.44312418176'>
    <tag k='name' v='hol' />
  </node>
  <node id='-185496433' action='modify' lat='54.89660439453' lon='9.43786203325' />
  <node id='-185496434' action='modify' lat='54.89592881447' lon='9.43429468989' />
  <node id='-185496435' action='modify' lat='54.89395444263' lon='9.42695616603' />
  <node id='-185496436' action='modify' lat='54.88785795882' lon='9.41438197017' />
  <node id='-185496437' action='modify' lat='54.86483974394' lon='9.38734529257' />
  <node id='-185496438' action='modify' lat='54.86061614008' lon='9.38384234369' />
  <node id='-185496439' action='modify' lat='54.84681256676' lon='9.37752435907'>
    <tag k='name' v='sme' />
  </node>
  <node id='-185496440' action='modify' lat='54.843527371' lon='9.3760210222' />
  <node id='-185496441' action='modify' lat='54.84233349624' lon='9.37531828344' />
  <node id='-185496442' action='modify' lat='54.83482038721' lon='9.36928867757' />
  <node id='-185496443' action='modify' lat='54.83372667147' lon='9.36830161929' />
  <node id='-185496444' action='modify' lat='54.8313722948' lon='9.36569451213' />
  <node id='-185496445' action='modify' lat='54.83008690787' lon='9.36288355708' />
  <node id='-185496446' action='modify' lat='54.8298335335' lon='9.36141370654' />
  <node id='-185496447' action='modify' lat='54.82647981095' lon='9.35804562006' />
  <node id='-185496448' action='modify' lat='54.82351519497' lon='9.35926730129'>
    <tag k='name' v='pad' />
  </node>
  <way id='-39138644' action='modify'>
    <nd ref='-185496425' />
    <nd ref='-185496426' />
    <tag k='type' v='straight' />
  </way>
  <way id='-39138645' action='modify'>
    <nd ref='-185496426' />
    <nd ref='-185496427' />
  </way>
  <way id='-39138646' action='modify'>
    <nd ref='-185496427' />
    <nd ref='-185496428' />
    <tag k='type' v='straight' />
  </way>
  <way id='-39138647' action='modify'>
    <nd ref='-185496428' />
    <nd ref='-185496429' />
  </way>
  <way id='-39138648' action='modify'>
    <nd ref='-185496429' />
    <nd ref='-185496430' />
    <tag k='type' v='straight' />
  </way>
  <way id='-39138649' action='modify'>
    <nd ref='-185496430' />
    <nd ref='-185496431' />
  </way>
  <way id='-39138650' action='modify'>
    <nd ref='-185496431' />
    <nd ref='-185496432' />
    <nd ref='-185496433' />
    <tag k='type' v='straight' />
  </way>
  <way id='-39138651' action='modify'>
    <nd ref='-185496433' />
    <nd ref='-185496434' />
  </way>
  <way id='-39138652' action='modify'>
    <nd ref='-185496434' />
    <nd ref='-185496435' />
    <tag k='type' v='straight' />
  </way>
  <way id='-39138653' action='modify'>
    <nd ref='-185496435' />
    <nd ref='-185496436' />
  </way>
  <way id='-39138654' action='modify'>
    <nd ref='-185496436' />
    <nd ref='-185496437' />
    <tag k='type' v='straight' />
  </way>
  <way id='-39138655' action='modify'>
    <nd ref='-185496437' />
    <nd ref='-185496438' />
  </way>
  <way id='-39138656' action='modify'>
    <nd ref='-185496438' />
    <nd ref='-185496439' />
    <nd ref='-185496440' />
    <tag k='type' v='straight' />
  </way>
  <way id='-39138657' action='modify'>
    <nd ref='-185496440' />
    <nd ref='-185496441' />
  </way>
  <way id='-39138658' action='modify'>
    <nd ref='-185496441' />
    <nd ref='-185496442' />
    <tag k='type' v='straight' />
  </way>
  <way id='-39138659' action='modify'>
    <nd ref='-185496442' />
    <nd ref='-185496443' />
  </way>
  <way id='-39138660' action='modify'>
    <nd ref='-185496443' />
    <nd ref='-185496444' />
    <tag k='type' v='straight' />
  </way>
  <way id='-39138661' action='modify'>
    <nd ref='-185496444' />
    <nd ref='-185496445' />
  </way>
  <way id='-39138662' action='modify'>
    <nd ref='-185496445' />
    <nd ref='-185496446' />
    <tag k='type' v='straight' />
  </way>
  <way id='-39138663' action='modify'>
    <nd ref='-185496446' />
    <nd ref='-185496447' />
  </way>
  <way id='-39138664' action='modify'>
    <nd ref='-185496447' />
    <nd ref='-185496448' />
    <tag k='type' v='straight' />
  </way>
  <relation id='-14494530' action='modify'>
    <member type='way' ref='-39138644' role='' />
    <member type='way' ref='-39138645' role='' />
    <member type='way' ref='-39138646' role='' />
    <member type='way' ref='-39138647' role='' />
    <member type='way' ref='-39138648' role='' />
    <member type='way' ref='-39138649' role='' />
    <member type='way' ref='-39138650' role='' />
    <member type='way' ref='-39138651' role='' />
    <member type='way' ref='-39138652' role='' />
    <member type='way' ref='-39138653' role='' />
    <member type='way' ref='-39138654' role='' />
    <member type='way' ref='-39138655' role='' />
    <member type='way' ref='-39138656' role='' />
    <member type='way' ref='-39138657' role='' />
    <member type='way' ref='-39138658' role='' />
    <member type='way' ref='-39138659' role='' />
    <member type='way' ref='-39138660' role='' />
    <member type='way' ref='-39138661' role='' />
    <member type='way' ref='-39138662' role='' />
    <member type='way' ref='-39138663' role='' />
    <member type='way' ref='-39138664' role='' />
    <tag k='key' v='path.dk.tbp' />
    <tag k='name' v='DK TBP' />
    <tag k='type' v='path' />
  </relation>
</osm>
