<?xml version='1.0' encoding='UTF-8'?>
<osm version='0.6' upload='false' generator='JOSM'>
  <node id='-164735609' action='modify' lat='56.95249833926' lon='8.68442281947' />
  <node id='-164735610' action='modify' lat='56.95265827709' lon='8.68816943815'>
    <tag k='name' v='thi' />
  </node>
  <node id='-164735612' action='modify' lat='56.95248810036' lon='8.68227571115' />
  <node id='-164735613' action='modify' lat='56.95252466786' lon='8.68176072701' />
  <node id='-164735614' action='modify' lat='56.95287937071' lon='8.67951571807' />
  <node id='-164735615' action='modify' lat='56.95496181066' lon='8.67050416634' />
  <node id='-164735616' action='modify' lat='56.95531612468' lon='8.66850793228' />
  <node id='-164735617' action='modify' lat='56.9558287588' lon='8.66435855493' />
  <node id='-164735620' action='modify' lat='56.95670263604' lon='8.65967809618'>
    <tag k='name' v='lal' />
  </node>
  <node id='-164735621' action='modify' lat='56.96315186117' lon='8.65500031829'>
    <tag k='name' v='tho' />
  </node>
  <node id='-164735622' action='modify' lat='56.97314486593' lon='8.65928161194'>
    <tag k='name' v='bau' />
  </node>
  <node id='-164735623' action='modify' lat='56.97549732275' lon='8.66028963983' />
  <node id='-164735624' action='modify' lat='56.9817211368' lon='8.65801512659' />
  <node id='-164735625' action='modify' lat='56.98841152958' lon='8.65141152263' />
  <node id='-164735626' action='modify' lat='56.99229981659' lon='8.65067928761' />
  <node id='-164735627' action='modify' lat='56.99238310136' lon='8.65071952075'>
    <tag k='name' v='van' />
  </node>
  <node id='-164735628' action='modify' lat='56.99340880529' lon='8.65149735868' />
  <node id='-164735629' action='modify' lat='56.99362796882' lon='8.65169584215' />
  <node id='-164735630' action='modify' lat='56.99834405525' lon='8.6519801563' />
  <node id='-164735631' action='modify' lat='57.00565660865' lon='8.64717363238' />
  <node id='-164735632' action='modify' lat='57.011171474' lon='8.65016698301'>
    <tag k='name' v='hav' />
  </node>
  <node id='-164735633' action='modify' lat='57.01214116503' lon='8.65206062257' />
  <node id='-164735634' action='modify' lat='57.01394028675' lon='8.65496276736' />
  <node id='-164735635' action='modify' lat='57.019950348' lon='8.66188286662' />
  <node id='-164735636' action='modify' lat='57.02214911893' lon='8.6742639488' />
  <node id='-164735637' action='modify' lat='57.02111570113' lon='8.6792479243'>
    <tag k='name' v='nor' />
  </node>
  <node id='-164735638' action='modify' lat='57.01989778315' lon='8.68512153089' />
  <node id='-164735639' action='modify' lat='57.01963789256' lon='8.69132816255' />
  <node id='-164735640' action='modify' lat='57.02016935229' lon='8.69677841127' />
  <node id='-164735641' action='modify' lat='57.0204350793' lon='8.69874178827' />
  <node id='-164735642' action='modify' lat='57.02096360761' lon='8.70164393842' />
  <node id='-164735643' action='modify' lat='57.0198335407' lon='8.71128379762' />
  <node id='-164735644' action='modify' lat='57.01940537173' lon='8.71222146999'>
    <tag k='name' v='lhi' />
  </node>
  <node id='-164735645' action='modify' lat='57.01702136466' lon='8.71744214952' />
  <node id='-164735646' action='modify' lat='57.01753241827' lon='8.731901941'>
    <tag k='name' v='hil' />
  </node>
  <node id='-164735647' action='modify' lat='57.02231263476' lon='8.73450636327' />
  <node id='-164735648' action='modify' lat='57.02674480789' lon='8.73382508218' />
  <node id='-164735649' action='modify' lat='57.02871108555' lon='8.73411208123'>
    <tag k='name' v='kas' />
  </node>
  <node id='-164735650' action='modify' lat='57.03507049203' lon='8.74389945924' />
  <node id='-164735651' action='modify' lat='57.03702319626' lon='8.75175833166' />
  <node id='-164735652' action='modify' lat='57.03856719019' lon='8.76108705461'>
    <tag k='name' v='tan' />
  </node>
  <node id='-164735653' action='modify' lat='57.03848838676' lon='8.77220212877' />
  <node id='-164735654' action='modify' lat='57.03591591493' lon='8.81014910663'>
    <tag k='name' v='hun' />
  </node>
  <node id='-164735655' action='modify' lat='57.03579729528' lon='8.81189882219' />
  <node id='-164735656' action='modify' lat='57.0352193565' lon='8.8160079664' />
  <node id='-164735657' action='modify' lat='57.0328549679' lon='8.82611989439' />
  <node id='-164735658' action='modify' lat='57.03184787073' lon='8.83213876605' />
  <node id='-164735659' action='modify' lat='57.03108012102' lon='8.84336112857' />
  <node id='-164735660' action='modify' lat='57.030958569' lon='8.84707882243'>
    <tag k='name' v='ost' />
  </node>
  <node id='-164735661' action='modify' lat='57.03101151466' lon='8.84975820512' />
  <node id='-164735662' action='modify' lat='57.03170482819' lon='8.8647437042' />
  <node id='-164735663' action='modify' lat='57.03222443741' lon='8.86917203397' />
  <node id='-164735664' action='modify' lat='57.03523103212' lon='8.88442038953' />
  <node id='-164735665' action='modify' lat='57.03646570821' lon='8.89395296037' />
  <node id='-164735666' action='modify' lat='57.03741776701' lon='8.90769142836'>
    <tag k='name' v='tov' />
  </node>
  <node id='-164735667' action='modify' lat='57.03852924782' lon='8.92373084486' />
  <node id='-164735668' action='modify' lat='57.03763321141' lon='8.93100768059' />
  <node id='-164735669' action='modify' lat='57.03614755537' lon='8.93507390946' />
  <node id='-164735670' action='modify' lat='57.0353499751' lon='8.94369050726' />
  <node id='-164735671' action='modify' lat='57.03887802285' lon='8.96777003735' />
  <node id='-164735672' action='modify' lat='57.03916331593' lon='8.96945446596' />
  <node id='-164735673' action='modify' lat='57.03999004576' lon='8.97379572385'>
    <tag k='name' v='ves' />
  </node>
  <node id='-164735674' action='modify' lat='57.04201394554' lon='8.98442387313' />
  <node id='-164735675' action='modify' lat='57.04494679327' lon='8.99172484607' />
  <node id='-164735676' action='modify' lat='57.04944191785' lon='8.99788856238' />
  <node id='-164735677' action='modify' lat='57.05301749648' lon='8.99989485204' />
  <node id='-164735678' action='modify' lat='57.05926918654' lon='8.99965345591' />
  <node id='-164735679' action='modify' lat='57.06065474327' lon='8.99930476874'>
    <tag k='name' v='tom' />
  </node>
  <node id='-164735680' action='modify' lat='57.06229401032' lon='8.99848937452' />
  <node id='-164735681' action='modify' lat='57.07137720473' lon='8.99163633049' />
  <node id='-164735682' action='modify' lat='57.07310493127' lon='8.99062514037'>
    <tag k='name' v='lav' />
  </node>
  <node id='-164735683' action='modify' lat='57.07735320059' lon='8.99008064389' />
  <node id='-164735684' action='modify' lat='57.08611935847' lon='8.99203060985' />
  <node id='-164735685' action='modify' lat='57.08695592193' lon='8.99229749903'>
    <tag k='name' v='fro' />
  </node>
  <node id='-164735686' action='modify' lat='57.08865669288' lon='8.99362653226' />
  <node id='-164735687' action='modify' lat='57.08887529522' lon='8.99386793107' />
  <node id='-164735688' action='modify' lat='57.09145616713' lon='9.00167583346' />
  <node id='-164735689' action='modify' lat='57.09232351938' lon='9.0154623304'>
    <tag k='name' v='kar' />
  </node>
  <node id='-164735690' action='modify' lat='57.09374234485' lon='9.03801514684'>
    <tag k='name' v='kho' />
  </node>
  <node id='-164735691' action='modify' lat='57.09386345185' lon='9.03994023263' />
  <node id='-164735692' action='modify' lat='57.0943341064' lon='9.04305159777' />
  <node id='-164735693' action='modify' lat='57.09757462211' lon='9.05726730555' />
  <node id='-164735694' action='modify' lat='57.09799277954' lon='9.05992537469' />
  <node id='-164735695' action='modify' lat='57.09927540101' lon='9.07543936552'>
    <tag k='name' v='vus' />
  </node>
  <node id='-164735696' action='modify' lat='57.10124688992' lon='9.0992866221'>
    <tag k='name' v='tka' />
  </node>
  <node id='-164735697' action='modify' lat='57.10197596606' lon='9.10810589522' />
  <node id='-164735698' action='modify' lat='57.10209251226' lon='9.11281853646' />
  <node id='-164735699' action='modify' lat='57.10179094822' lon='9.12367075413' />
  <node id='-164735700' action='modify' lat='57.10162705297' lon='9.12604987487'>
    <tag k='name' v='tor' />
  </node>
  <node id='-164735701' action='modify' lat='57.10018548344' lon='9.13765310168' />
  <node id='-164735702' action='modify' lat='57.09663484781' lon='9.14931534648' />
  <node id='-164735703' action='modify' lat='57.09538177251' lon='9.15248035312' />
  <node id='-164735704' action='modify' lat='57.09250827888' lon='9.16386365354' />
  <node id='-164735705' action='modify' lat='57.0918375215' lon='9.17103776262'>
    <tag k='name' v='kli' />
  </node>
  <node id='-164735706' action='modify' lat='57.0891507367' lon='9.19977306247' />
  <node id='-164735707' action='modify' lat='57.08818305151' lon='9.20620500505' />
  <node id='-164735708' action='modify' lat='57.08579871452' lon='9.21734153688' />
  <node id='-164735709' action='modify' lat='57.08534616652' lon='9.22182082996'>
    <tag k='name' v='got' />
  </node>
  <node id='-164735710' action='modify' lat='57.08537458743' lon='9.2227260755' />
  <node id='-164735711' action='modify' lat='57.08685390748' lon='9.25504802585' />
  <node id='-164735712' action='modify' lat='57.08685098972' lon='9.2568612045' />
  <node id='-164735713' action='modify' lat='57.08647922057' lon='9.26356664251'>
    <tag k='name' v='fje' />
  </node>
  <way id='-37609380' action='modify'>
    <nd ref='-164735610' />
    <nd ref='-164735609' />
    <tag k='type' v='straight' />
  </way>
  <way id='-37609381' action='modify'>
    <nd ref='-164735609' />
    <nd ref='-164735612' />
  </way>
  <way id='-37609382' action='modify'>
    <nd ref='-164735612' />
    <nd ref='-164735613' />
    <tag k='type' v='straight' />
  </way>
  <way id='-37609383' action='modify'>
    <nd ref='-164735613' />
    <nd ref='-164735614' />
  </way>
  <way id='-37609384' action='modify'>
    <nd ref='-164735614' />
    <nd ref='-164735615' />
    <tag k='type' v='straight' />
  </way>
  <way id='-37609385' action='modify'>
    <nd ref='-164735615' />
    <nd ref='-164735616' />
  </way>
  <way id='-37609386' action='modify'>
    <nd ref='-164735616' />
    <nd ref='-164735617' />
    <tag k='type' v='straight' />
  </way>
  <way id='-37609389' action='modify'>
    <nd ref='-164735617' />
    <nd ref='-164735620' />
    <nd ref='-164735621' />
  </way>
  <way id='-37609390' action='modify'>
    <nd ref='-164735621' />
    <nd ref='-164735622' />
    <nd ref='-164735623' />
    <tag k='type' v='straight' />
  </way>
  <way id='-37609391' action='modify'>
    <nd ref='-164735623' />
    <nd ref='-164735624' />
  </way>
  <way id='-37609392' action='modify'>
    <nd ref='-164735624' />
    <nd ref='-164735625' />
    <tag k='type' v='straight' />
  </way>
  <way id='-37609393' action='modify'>
    <nd ref='-164735625' />
    <nd ref='-164735626' />
  </way>
  <way id='-37609394' action='modify'>
    <nd ref='-164735626' />
    <nd ref='-164735627' />
    <tag k='type' v='straight' />
  </way>
  <way id='-37609395' action='modify'>
    <nd ref='-164735627' />
    <nd ref='-164735628' />
  </way>
  <way id='-37609396' action='modify'>
    <nd ref='-164735628' />
    <nd ref='-164735629' />
    <tag k='type' v='straight' />
  </way>
  <way id='-37609397' action='modify'>
    <nd ref='-164735629' />
    <nd ref='-164735630' />
  </way>
  <way id='-37609398' action='modify'>
    <nd ref='-164735630' />
    <nd ref='-164735631' />
    <tag k='type' v='straight' />
  </way>
  <way id='-37609399' action='modify'>
    <nd ref='-164735631' />
    <nd ref='-164735632' />
  </way>
  <way id='-37609400' action='modify'>
    <nd ref='-164735632' />
    <nd ref='-164735633' />
    <tag k='type' v='straight' />
  </way>
  <way id='-37609401' action='modify'>
    <nd ref='-164735633' />
    <nd ref='-164735634' />
  </way>
  <way id='-37609402' action='modify'>
    <nd ref='-164735634' />
    <nd ref='-164735635' />
    <tag k='type' v='straight' />
  </way>
  <way id='-37609403' action='modify'>
    <nd ref='-164735635' />
    <nd ref='-164735636' />
  </way>
  <way id='-37609404' action='modify'>
    <nd ref='-164735636' />
    <nd ref='-164735637' />
    <nd ref='-164735638' />
    <tag k='type' v='straight' />
  </way>
  <way id='-37609405' action='modify'>
    <nd ref='-164735638' />
    <nd ref='-164735639' />
  </way>
  <way id='-37609406' action='modify'>
    <nd ref='-164735639' />
    <nd ref='-164735640' />
    <tag k='type' v='straight' />
  </way>
  <way id='-37609407' action='modify'>
    <nd ref='-164735640' />
    <nd ref='-164735641' />
  </way>
  <way id='-37609408' action='modify'>
    <nd ref='-164735641' />
    <nd ref='-164735642' />
    <tag k='type' v='straight' />
  </way>
  <way id='-37609409' action='modify'>
    <nd ref='-164735642' />
    <nd ref='-164735643' />
  </way>
  <way id='-37609410' action='modify'>
    <nd ref='-164735643' />
    <nd ref='-164735644' />
    <nd ref='-164735645' />
    <tag k='type' v='straight' />
  </way>
  <way id='-37609411' action='modify'>
    <nd ref='-164735645' />
    <nd ref='-164735646' />
    <nd ref='-164735647' />
  </way>
  <way id='-37609412' action='modify'>
    <nd ref='-164735647' />
    <nd ref='-164735648' />
    <tag k='type' v='straight' />
  </way>
  <way id='-37609413' action='modify'>
    <nd ref='-164735648' />
    <nd ref='-164735649' />
    <nd ref='-164735650' />
  </way>
  <way id='-37609414' action='modify'>
    <nd ref='-164735650' />
    <nd ref='-164735651' />
    <tag k='type' v='straight' />
  </way>
  <way id='-37609415' action='modify'>
    <nd ref='-164735651' />
    <nd ref='-164735652' />
    <nd ref='-164735653' />
  </way>
  <way id='-37609416' action='modify'>
    <nd ref='-164735653' />
    <nd ref='-164735654' />
    <nd ref='-164735655' />
    <tag k='type' v='straight' />
  </way>
  <way id='-37609417' action='modify'>
    <nd ref='-164735655' />
    <nd ref='-164735656' />
  </way>
  <way id='-37609418' action='modify'>
    <nd ref='-164735656' />
    <nd ref='-164735657' />
    <tag k='type' v='straight' />
  </way>
  <way id='-37609419' action='modify'>
    <nd ref='-164735657' />
    <nd ref='-164735658' />
  </way>
  <way id='-37609420' action='modify'>
    <nd ref='-164735658' />
    <nd ref='-164735659' />
    <tag k='type' v='straight' />
  </way>
  <way id='-37609421' action='modify'>
    <nd ref='-164735659' />
    <nd ref='-164735660' />
    <nd ref='-164735661' />
  </way>
  <way id='-37609422' action='modify'>
    <nd ref='-164735661' />
    <nd ref='-164735662' />
    <tag k='type' v='straight' />
  </way>
  <way id='-37609423' action='modify'>
    <nd ref='-164735662' />
    <nd ref='-164735663' />
  </way>
  <way id='-37609424' action='modify'>
    <nd ref='-164735663' />
    <nd ref='-164735664' />
    <tag k='type' v='straight' />
  </way>
  <way id='-37609425' action='modify'>
    <nd ref='-164735664' />
    <nd ref='-164735665' />
  </way>
  <way id='-37609426' action='modify'>
    <nd ref='-164735665' />
    <nd ref='-164735666' />
    <nd ref='-164735667' />
    <tag k='type' v='straight' />
  </way>
  <way id='-37609427' action='modify'>
    <nd ref='-164735667' />
    <nd ref='-164735668' />
  </way>
  <way id='-37609428' action='modify'>
    <nd ref='-164735668' />
    <nd ref='-164735669' />
    <tag k='type' v='straight' />
  </way>
  <way id='-37609429' action='modify'>
    <nd ref='-164735669' />
    <nd ref='-164735670' />
  </way>
  <way id='-37609430' action='modify'>
    <nd ref='-164735670' />
    <nd ref='-164735671' />
    <tag k='type' v='straight' />
  </way>
  <way id='-37609431' action='modify'>
    <nd ref='-164735671' />
    <nd ref='-164735672' />
  </way>
  <way id='-37609432' action='modify'>
    <nd ref='-164735672' />
    <nd ref='-164735673' />
    <nd ref='-164735674' />
    <tag k='type' v='straight' />
  </way>
  <way id='-37609433' action='modify'>
    <nd ref='-164735674' />
    <nd ref='-164735675' />
  </way>
  <way id='-37609434' action='modify'>
    <nd ref='-164735675' />
    <nd ref='-164735676' />
    <tag k='type' v='straight' />
  </way>
  <way id='-37609435' action='modify'>
    <nd ref='-164735676' />
    <nd ref='-164735677' />
  </way>
  <way id='-37609436' action='modify'>
    <nd ref='-164735677' />
    <nd ref='-164735678' />
    <tag k='type' v='straight' />
  </way>
  <way id='-37609437' action='modify'>
    <nd ref='-164735678' />
    <nd ref='-164735679' />
    <nd ref='-164735680' />
  </way>
  <way id='-37609438' action='modify'>
    <nd ref='-164735680' />
    <nd ref='-164735681' />
    <tag k='type' v='straight' />
  </way>
  <way id='-37609439' action='modify'>
    <nd ref='-164735681' />
    <nd ref='-164735682' />
    <nd ref='-164735683' />
  </way>
  <way id='-37609440' action='modify'>
    <nd ref='-164735683' />
    <nd ref='-164735684' />
    <tag k='type' v='straight' />
  </way>
  <way id='-37609441' action='modify'>
    <nd ref='-164735684' />
    <nd ref='-164735685' />
    <nd ref='-164735686' />
  </way>
  <way id='-37609442' action='modify'>
    <nd ref='-164735686' />
    <nd ref='-164735687' />
    <tag k='type' v='straight' />
  </way>
  <way id='-37609443' action='modify'>
    <nd ref='-164735687' />
    <nd ref='-164735688' />
  </way>
  <way id='-37609444' action='modify'>
    <nd ref='-164735688' />
    <nd ref='-164735689' />
    <nd ref='-164735690' />
    <nd ref='-164735691' />
    <tag k='type' v='straight' />
  </way>
  <way id='-37609445' action='modify'>
    <nd ref='-164735691' />
    <nd ref='-164735692' />
  </way>
  <way id='-37609446' action='modify'>
    <nd ref='-164735692' />
    <nd ref='-164735693' />
    <tag k='type' v='straight' />
  </way>
  <way id='-37609447' action='modify'>
    <nd ref='-164735693' />
    <nd ref='-164735694' />
  </way>
  <way id='-37609448' action='modify'>
    <nd ref='-164735694' />
    <nd ref='-164735695' />
    <nd ref='-164735696' />
    <nd ref='-164735697' />
    <tag k='type' v='straight' />
  </way>
  <way id='-37609449' action='modify'>
    <nd ref='-164735697' />
    <nd ref='-164735698' />
  </way>
  <way id='-37609450' action='modify'>
    <nd ref='-164735698' />
    <nd ref='-164735699' />
    <tag k='type' v='straight' />
  </way>
  <way id='-37609451' action='modify'>
    <nd ref='-164735699' />
    <nd ref='-164735700' />
    <nd ref='-164735701' />
    <nd ref='-164735702' />
  </way>
  <way id='-37609452' action='modify'>
    <nd ref='-164735702' />
    <nd ref='-164735703' />
    <tag k='type' v='straight' />
  </way>
  <way id='-37609453' action='modify'>
    <nd ref='-164735703' />
    <nd ref='-164735704' />
  </way>
  <way id='-37609454' action='modify'>
    <nd ref='-164735704' />
    <nd ref='-164735705' />
    <nd ref='-164735706' />
    <tag k='type' v='straight' />
  </way>
  <way id='-37609455' action='modify'>
    <nd ref='-164735706' />
    <nd ref='-164735707' />
  </way>
  <way id='-37609456' action='modify'>
    <nd ref='-164735707' />
    <nd ref='-164735708' />
    <tag k='type' v='straight' />
  </way>
  <way id='-37609457' action='modify'>
    <nd ref='-164735708' />
    <nd ref='-164735709' />
    <nd ref='-164735710' />
  </way>
  <way id='-37609458' action='modify'>
    <nd ref='-164735710' />
    <nd ref='-164735711' />
    <tag k='type' v='straight' />
  </way>
  <way id='-37609459' action='modify'>
    <nd ref='-164735711' />
    <nd ref='-164735712' />
  </way>
  <way id='-37609460' action='modify'>
    <nd ref='-164735712' />
    <nd ref='-164735713' />
    <tag k='type' v='straight' />
  </way>
  <relation id='-14479645' action='modify'>
    <member type='way' ref='-37609380' role='' />
    <member type='way' ref='-37609381' role='' />
    <member type='way' ref='-37609382' role='' />
    <member type='way' ref='-37609383' role='' />
    <member type='way' ref='-37609384' role='' />
    <member type='way' ref='-37609385' role='' />
    <member type='way' ref='-37609386' role='' />
    <member type='way' ref='-37609389' role='' />
    <member type='way' ref='-37609390' role='' />
    <member type='way' ref='-37609391' role='' />
    <member type='way' ref='-37609392' role='' />
    <member type='way' ref='-37609393' role='' />
    <member type='way' ref='-37609394' role='' />
    <member type='way' ref='-37609395' role='' />
    <member type='way' ref='-37609396' role='' />
    <member type='way' ref='-37609397' role='' />
    <member type='way' ref='-37609398' role='' />
    <member type='way' ref='-37609399' role='' />
    <member type='way' ref='-37609400' role='' />
    <member type='way' ref='-37609401' role='' />
    <member type='way' ref='-37609402' role='' />
    <member type='way' ref='-37609403' role='' />
    <member type='way' ref='-37609404' role='' />
    <member type='way' ref='-37609405' role='' />
    <member type='way' ref='-37609406' role='' />
    <member type='way' ref='-37609407' role='' />
    <member type='way' ref='-37609408' role='' />
    <member type='way' ref='-37609409' role='' />
    <member type='way' ref='-37609410' role='' />
    <member type='way' ref='-37609411' role='' />
    <member type='way' ref='-37609412' role='' />
    <member type='way' ref='-37609413' role='' />
    <member type='way' ref='-37609414' role='' />
    <member type='way' ref='-37609415' role='' />
    <member type='way' ref='-37609416' role='' />
    <member type='way' ref='-37609417' role='' />
    <member type='way' ref='-37609418' role='' />
    <member type='way' ref='-37609419' role='' />
    <member type='way' ref='-37609420' role='' />
    <member type='way' ref='-37609421' role='' />
    <member type='way' ref='-37609422' role='' />
    <member type='way' ref='-37609423' role='' />
    <member type='way' ref='-37609424' role='' />
    <member type='way' ref='-37609425' role='' />
    <member type='way' ref='-37609426' role='' />
    <member type='way' ref='-37609427' role='' />
    <member type='way' ref='-37609428' role='' />
    <member type='way' ref='-37609429' role='' />
    <member type='way' ref='-37609430' role='' />
    <member type='way' ref='-37609431' role='' />
    <member type='way' ref='-37609432' role='' />
    <member type='way' ref='-37609433' role='' />
    <member type='way' ref='-37609434' role='' />
    <member type='way' ref='-37609435' role='' />
    <member type='way' ref='-37609436' role='' />
    <member type='way' ref='-37609437' role='' />
    <member type='way' ref='-37609438' role='' />
    <member type='way' ref='-37609439' role='' />
    <member type='way' ref='-37609440' role='' />
    <member type='way' ref='-37609441' role='' />
    <member type='way' ref='-37609442' role='' />
    <member type='way' ref='-37609443' role='' />
    <member type='way' ref='-37609444' role='' />
    <member type='way' ref='-37609445' role='' />
    <member type='way' ref='-37609446' role='' />
    <member type='way' ref='-37609447' role='' />
    <member type='way' ref='-37609448' role='' />
    <member type='way' ref='-37609449' role='' />
    <member type='way' ref='-37609450' role='' />
    <member type='way' ref='-37609451' role='' />
    <member type='way' ref='-37609452' role='' />
    <member type='way' ref='-37609453' role='' />
    <member type='way' ref='-37609454' role='' />
    <member type='way' ref='-37609455' role='' />
    <member type='way' ref='-37609456' role='' />
    <member type='way' ref='-37609457' role='' />
    <member type='way' ref='-37609458' role='' />
    <member type='way' ref='-37609459' role='' />
    <member type='way' ref='-37609460' role='' />
    <tag k='key' v='path.dk.tfl' />
    <tag k='name' v='DK TFL' />
    <tag k='type' v='path' />
  </relation>
</osm>
