<?xml version='1.0' encoding='UTF-8'?>
<osm version='0.6' upload='false' generator='JOSM'>
  <node id='-159988393' action='modify' lat='55.99066180215' lon='8.74507759498'>
    <tag k='name' v='tro' />
  </node>
  <node id='-159988394' action='modify' lat='55.98877773408' lon='8.7420287385' />
  <node id='-159988395' action='modify' lat='55.98202821066' lon='8.74086855769' />
  <node id='-159988396' action='modify' lat='55.96215462624' lon='8.75871249944'>
    <tag k='name' v='ove' />
  </node>
  <node id='-159988397' action='modify' lat='55.94643634526' lon='8.77281902075' />
  <node id='-159988398' action='modify' lat='55.94349390363' lon='8.77905785501' />
  <node id='-159988399' action='modify' lat='55.94280000599' lon='8.7833988502'>
    <tag k='name' v='sfe' />
  </node>
  <node id='-159988400' action='modify' lat='55.94218107699' lon='8.78727077901' />
  <node id='-159988401' action='modify' lat='55.94098687981' lon='8.79179834247' />
  <node id='-159988402' action='modify' lat='55.92713447807' lon='8.82623253107'>
    <tag k='name' v='kar' />
  </node>
  <node id='-159988403' action='modify' lat='55.92421912645' lon='8.83184908748' />
  <node id='-159988404' action='modify' lat='55.91648187812' lon='8.84346841693' />
  <node id='-159988405' action='modify' lat='55.91314782785' lon='8.84657174081'>
    <tag k='name' v='san' />
  </node>
  <node id='-159988406' action='modify' lat='55.90867993893' lon='8.8474863714' />
  <node id='-159988407' action='modify' lat='55.89014821067' lon='8.84550516152'>
    <tag k='name' v='str' />
  </node>
  <node id='-159988408' action='modify' lat='55.88820705246' lon='8.84529768884' />
  <node id='-159988409' action='modify' lat='55.88307435813' lon='8.84651540637' />
  <node id='-159988410' action='modify' lat='55.87047820445' lon='8.85527540754'>
    <tag k='name' v='ska' />
  </node>
  <node id='-159988411' action='modify' lat='55.8469638415' lon='8.87162088275' />
  <node id='-159988412' action='modify' lat='55.8404371264' lon='8.88576685846' />
  <node id='-159988413' action='modify' lat='55.84027727511' lon='8.89212071629'>
    <tag k='name' v='som' />
  </node>
  <node id='-159988414' action='modify' lat='55.84022928969' lon='8.89402806222' />
  <node id='-159988415' action='modify' lat='55.83690902297' lon='8.902173931' />
  <node id='-159988416' action='modify' lat='55.83507819853' lon='8.90348853326'>
    <tag k='name' v='bir' />
  </node>
  <node id='-159988417' action='modify' lat='55.81279714758' lon='8.91948222578' />
  <node id='-159988418' action='modify' lat='55.80677871238' lon='8.92197936505' />
  <node id='-159988419' action='modify' lat='55.80659084089' lon='8.92199992366'>
    <tag k='name' v='hjo' />
  </node>
  <node id='-159988420' action='modify' lat='55.79953636515' lon='8.92277181681'>
    <tag k='name' v='sim' />
  </node>
  <node id='-159988421' action='modify' lat='55.77602994486' lon='8.92534285516' />
  <node id='-159988422' action='modify' lat='55.7735829965' lon='8.92681538522' />
  <node id='-159988423' action='modify' lat='55.77306083238' lon='8.92743845165' />
  <node id='-159988424' action='modify' lat='55.76875201001' lon='8.92896651149' />
  <node id='-159988425' action='modify' lat='55.76668183376' lon='8.92825840831' />
  <node id='-159988426' action='modify' lat='55.76218196722' lon='8.92953246343' />
  <node id='-159988427' action='modify' lat='55.76196626968' lon='8.9297310197' />
  <node id='-159988428' action='modify' lat='55.7591449939' lon='8.93232799031'>
    <tag k='name' v='gri' />
  </node>
  <node id='-159988429' action='modify' lat='55.75856000807' lon='8.9328664434' />
  <node id='-159988430' action='modify' lat='55.75541766629' lon='8.9363479507' />
  <node id='-159988431' action='modify' lat='55.75472220601' lon='8.93732245779' />
  <node id='-159988432' action='modify' lat='55.73637104484' lon='8.96303057134' />
  <node id='-159988433' action='modify' lat='55.7309373708' lon='8.96877586305' />
  <node id='-159988434' action='modify' lat='55.72362406977' lon='8.9734747413'>
    <tag k='name' v='fug' />
  </node>
  <node id='-159988435' action='modify' lat='55.71446258876' lon='8.97935985446' />
  <node id='-159988436' action='modify' lat='55.71108096619' lon='8.98088335454' />
  <node id='-159988437' action='modify' lat='55.70892008192' lon='8.98140370309' />
  <node id='-159988438' action='modify' lat='55.70494253355' lon='8.98365139425' />
  <node id='-159988439' action='modify' lat='55.70207095441' lon='8.98618339419' />
  <node id='-159988440' action='modify' lat='55.69806490565' lon='8.99221553758'>
    <tag k='name' v='hej' />
  </node>
  <node id='-159988441' action='modify' lat='55.696762506' lon='8.99650453448' />
  <node id='-159988442' action='modify' lat='55.69521457663' lon='9.00334953189' />
  <node id='-159988443' action='modify' lat='55.69038899265' lon='9.01531219214' />
  <node id='-159988444' action='modify' lat='55.68187928771' lon='9.02927039981' />
  <node id='-159988445' action='modify' lat='55.68012207422' lon='9.0317487663'>
    <tag k='name' v='lyn' />
  </node>
  <node id='-159988446' action='modify' lat='55.67878218903' lon='9.0332829845' />
  <node id='-159988447' action='modify' lat='55.66933815376' lon='9.04214500308'>
    <tag k='name' v='gil' />
  </node>
  <node id='-159988448' action='modify' lat='55.66565914862' lon='9.0462648654' />
  <node id='-159988449' action='modify' lat='55.65400867617' lon='9.0639889133' />
  <node id='-159988450' action='modify' lat='55.64945648407' lon='9.06869351327' />
  <node id='-159988451' action='modify' lat='55.63697762817' lon='9.07759307742' />
  <node id='-159988452' action='modify' lat='55.6341949197' lon='9.08047109574'>
    <tag k='name' v='vor' />
  </node>
  <node id='-159988453' action='modify' lat='55.63213274954' lon='9.08427714229' />
  <node id='-159988454' action='modify' lat='55.62587893944' lon='9.09899711072' />
  <node id='-159988455' action='modify' lat='55.62497637059' lon='9.10099803865' />
  <node id='-159988456' action='modify' lat='55.62308935701' lon='9.10497517758'>
    <tag k='name' v='hoj' />
  </node>
  <node id='-159988457' action='modify' lat='55.60938488397' lon='9.13385348391'>
    <tag k='name' v='fit' />
  </node>
  <node id='-159988458' action='modify' lat='55.60555702174' lon='9.14191781938' />
  <node id='-159988459' action='modify' lat='55.59948687619' lon='9.14863941601'>
    <tag k='name' v='sko' />
  </node>
  <node id='-159988460' action='modify' lat='55.59733801463' lon='9.14902567327' />
  <node id='-159988461' action='modify' lat='55.58429644677' lon='9.14978399372'>
    <tag k='name' v='kle' />
  </node>
  <node id='-159988462' action='modify' lat='55.58349940606' lon='9.14983033061' />
  <node id='-159988463' action='modify' lat='55.57873888418' lon='9.14892911375' />
  <node id='-159988464' action='modify' lat='55.57101166997' lon='9.14289950252' />
  <node id='-159988465' action='modify' lat='55.56903109377' lon='9.14175957173'>
    <tag k='name' v='bak' />
  </node>
  <node id='-159988466' action='modify' lat='55.56693060812' lon='9.14115339249' />
  <node id='-159988467' action='modify' lat='55.56670007867' lon='9.1410970661' />
  <node id='-159988468' action='modify' lat='55.56240925548' lon='9.143709535' />
  <node id='-159988469' action='modify' lat='55.5491076062' lon='9.16784404635' />
  <node id='-159988470' action='modify' lat='55.54802827049' lon='9.16968388117'>
    <tag k='name' v='sth' />
  </node>
  <node id='-159988471' action='modify' lat='55.54584218764' lon='9.17291878581' />
  <node id='-159988472' action='modify' lat='55.53864881266' lon='9.1825854671' />
  <node id='-159988473' action='modify' lat='55.53603823299' lon='9.18590067744' />
  <node id='-159988474' action='modify' lat='55.53235580379' lon='9.19005810678' />
  <node id='-159988475' action='modify' lat='55.52781073792' lon='9.20005737662' />
  <node id='-159988476' action='modify' lat='55.52743372304' lon='9.20414393237'>
    <tag k='name' v='ges' />
  </node>
  <node id='-159988477' action='modify' lat='55.52724901656' lon='9.20614599645' />
  <node id='-159988478' action='modify' lat='55.52778644301' lon='9.21113759011' />
  <node id='-159988479' action='modify' lat='55.53032166954' lon='9.21860217512' />
  <node id='-159988480' action='modify' lat='55.53126588523' lon='9.22106444299' />
  <node id='-159988481' action='modify' lat='55.53360866821' lon='9.22608913048'>
    <tag k='name' v='oge' />
  </node>
  <node id='-159988482' action='modify' lat='55.53438983284' lon='9.22776460111' />
  <node id='-159988483' action='modify' lat='55.5378110176' lon='9.23312901378' />
  <node id='-159988484' action='modify' lat='55.54481030754' lon='9.23971651912' />
  <node id='-159988485' action='modify' lat='55.54777840722' lon='9.24113272548' />
  <node id='-159988486' action='modify' lat='55.5506977304' lon='9.241883744' />
  <node id='-159988487' action='modify' lat='55.55388092116' lon='9.245728856' />
  <node id='-159988488' action='modify' lat='55.55395362115' lon='9.24598216077' />
  <node id='-159988489' action='modify' lat='55.55450281494' lon='9.24844872833'>
    <tag k='name' v='vee' />
  </node>
  <node id='-159988490' action='modify' lat='55.55455463802' lon='9.2487686721' />
  <node id='-159988491' action='modify' lat='55.55387031912' lon='9.26007952317' />
  <node id='-159988492' action='modify' lat='55.54712896489' lon='9.28026079059' />
  <node id='-159988493' action='modify' lat='55.54616691775' lon='9.2861080116'>
    <tag k='name' v='hun' />
  </node>
  <node id='-159988494' action='modify' lat='55.54652503459' lon='9.28999184489' />
  <node id='-159988495' action='modify' lat='55.5501879266' lon='9.30677174449' />
  <node id='-159988496' action='modify' lat='55.55033358095' lon='9.31286304921' />
  <node id='-159988497' action='modify' lat='55.55009809136' lon='9.31539184029'>
    <tag k='name' v='jor' />
  </node>
  <node id='-159988498' action='modify' lat='55.54998764017' lon='9.31657790869' />
  <node id='-159988499' action='modify' lat='55.54653261716' lon='9.3244931075' />
  <node id='-159988500' action='modify' lat='55.54520788504' lon='9.32579934061' />
  <node id='-159988501' action='modify' lat='55.54272521704' lon='9.32856738031' />
  <node id='-159988502' action='modify' lat='55.53856988766' lon='9.33437704504' />
  <node id='-159988503' action='modify' lat='55.53513662753' lon='9.34195160598'>
    <tag k='name' v='kor' />
  </node>
  <node id='-159988504' action='modify' lat='55.53563144961' lon='9.35940741956' />
  <node id='-159988505' action='modify' lat='55.53697320166' lon='9.36370968282' />
  <node id='-159988506' action='modify' lat='55.53744675028' lon='9.37321006715' />
  <node id='-159988507' action='modify' lat='55.53657686539' lon='9.37799301134'>
    <tag k='name' v='fer' />
  </node>
  <node id='-159988508' action='modify' lat='55.53619304824' lon='9.38010334432' />
  <node id='-159988509' action='modify' lat='55.53635697129' lon='9.38736408681' />
  <node id='-159988510' action='modify' lat='55.53672124567' lon='9.38889294595' />
  <node id='-159988511' action='modify' lat='55.53733747034' lon='9.39281701505' />
  <node id='-159988512' action='modify' lat='55.53766227372' lon='9.39902364671' />
  <node id='-159988513' action='modify' lat='55.53766455037' lon='9.40187885821' />
  <node id='-159988514' action='modify' lat='55.53764102271' lon='9.40262719855' />
  <node id='-159988515' action='modify' lat='55.5377776223' lon='9.40582573146' />
  <node id='-159988516' action='modify' lat='55.53801742798' lon='9.40761744708' />
  <node id='-159988517' action='modify' lat='55.53834526123' lon='9.40936088294' />
  <node id='-159988518' action='modify' lat='55.53871255265' lon='9.41083341569' />
  <node id='-159988519' action='modify' lat='55.539085913' lon='9.41587328374' />
  <node id='-159988520' action='modify' lat='55.5386876885' lon='9.41919104426'>
    <tag k='name' v='dyb' />
  </node>
  <node id='-159988521' action='modify' lat='55.53829242988' lon='9.42248406161' />
  <node id='-159988522' action='modify' lat='55.53826633866' lon='9.42630439728' />
  <node id='-159988523' action='modify' lat='55.53836347411' lon='9.42734777659' />
  <node id='-159988524' action='modify' lat='55.53661044591' lon='9.43579137057' />
  <node id='-159988525' action='modify' lat='55.53136607399' lon='9.44220184743' />
  <node id='-159988526' action='modify' lat='55.52949584173' lon='9.44469630182' />
  <node id='-159988527' action='modify' lat='55.52571635592' lon='9.4502392649' />
  <node id='-159988528' action='modify' lat='55.52381477261' lon='9.45577381968' />
  <node id='-159988529' action='modify' lat='55.52317702642' lon='9.46086278904'>
    <tag k='name' v='bra' />
  </node>
  <node id='-159988530' action='modify' lat='55.52292200149' lon='9.46289776683' />
  <node id='-159988531' action='modify' lat='55.51794761555' lon='9.47050988406' />
  <node id='-159988532' action='modify' lat='55.51747838778' lon='9.47063326567' />
  <node id='-159988533' action='modify' lat='55.51365602307' lon='9.47677552432' />
  <node id='-159988534' action='modify' lat='55.51334924588' lon='9.47922169894' />
  <node id='-159988535' action='modify' lat='55.51241978754' lon='9.48292717069'>
    <tag k='name' v='kos' />
  </node>
  <node id='-159988536' action='modify' lat='55.50975886537' lon='9.48568581998' />
  <node id='-159988537' action='modify' lat='55.50554840632' lon='9.48711275518' />
  <node id='-159988538' action='modify' lat='55.50424507621' lon='9.48803007334' />
  <node id='-159988539' action='modify' lat='55.50386682941' lon='9.48844849795' />
  <node id='-159988540' action='modify' lat='55.50023304456' lon='9.48848068446' />
  <node id='-159988541' action='modify' lat='55.49979247093' lon='9.48798447579' />
  <node id='-159988542' action='modify' lat='55.49745431126' lon='9.48733269632' />
  <node id='-159988543' action='modify' lat='55.49701978388' lon='9.48766529024' />
  <node id='-159988544' action='modify' lat='55.49311856549' lon='9.48590901455' />
  <node id='-159988545' action='modify' lat='55.49282508954' lon='9.48523103473' />
  <node id='-159988546' action='modify' lat='55.49176757537' lon='9.48312324721' />
  <node id='-159988547' action='modify' lat='55.4906952802' lon='9.48127446954'>
    <tag k='name' v='kol' />
  </node>
  <node id='-159988548' action='modify' lat='55.48968578489' lon='9.47953401305' />
  <way id='-37295881' action='modify'>
    <nd ref='-159988393' />
    <nd ref='-159988394' />
    <tag k='type' v='straight' />
  </way>
  <way id='-37295882' action='modify'>
    <nd ref='-159988394' />
    <nd ref='-159988395' />
  </way>
  <way id='-37295883' action='modify'>
    <nd ref='-159988395' />
    <nd ref='-159988396' />
    <nd ref='-159988397' />
    <tag k='type' v='straight' />
  </way>
  <way id='-37295884' action='modify'>
    <nd ref='-159988397' />
    <nd ref='-159988398' />
  </way>
  <way id='-37295885' action='modify'>
    <nd ref='-159988398' />
    <nd ref='-159988399' />
    <nd ref='-159988400' />
    <tag k='type' v='straight' />
  </way>
  <way id='-37295886' action='modify'>
    <nd ref='-159988402' />
    <nd ref='-159988403' />
  </way>
  <way id='-37295887' action='modify'>
    <nd ref='-159988403' />
    <nd ref='-159988404' />
    <tag k='type' v='straight' />
  </way>
  <way id='-37295888' action='modify'>
    <nd ref='-159988404' />
    <nd ref='-159988405' />
    <nd ref='-159988406' />
  </way>
  <way id='-37295889' action='modify'>
    <nd ref='-159988406' />
    <nd ref='-159988407' />
    <nd ref='-159988408' />
    <tag k='type' v='straight' />
  </way>
  <way id='-37295890' action='modify'>
    <nd ref='-159988408' />
    <nd ref='-159988409' />
  </way>
  <way id='-37295891' action='modify'>
    <nd ref='-159988409' />
    <nd ref='-159988410' />
    <nd ref='-159988411' />
    <tag k='type' v='straight' />
  </way>
  <way id='-37295892' action='modify'>
    <nd ref='-159988411' />
    <nd ref='-159988412' />
  </way>
  <way id='-37295893' action='modify'>
    <nd ref='-159988412' />
    <nd ref='-159988413' />
    <nd ref='-159988414' />
    <tag k='type' v='straight' />
  </way>
  <way id='-37295894' action='modify'>
    <nd ref='-159988414' />
    <nd ref='-159988415' />
  </way>
  <way id='-37295895' action='modify'>
    <nd ref='-159988415' />
    <nd ref='-159988416' />
    <nd ref='-159988417' />
    <tag k='type' v='straight' />
  </way>
  <way id='-37295896' action='modify'>
    <nd ref='-159988417' />
    <nd ref='-159988418' />
  </way>
  <way id='-37295897' action='modify'>
    <nd ref='-159988418' />
    <nd ref='-159988419' />
    <nd ref='-159988420' />
    <nd ref='-159988421' />
    <tag k='type' v='straight' />
  </way>
  <way id='-37295898' action='modify'>
    <nd ref='-159988421' />
    <nd ref='-159988422' />
  </way>
  <way id='-37295899' action='modify'>
    <nd ref='-159988422' />
    <nd ref='-159988423' />
    <tag k='type' v='straight' />
  </way>
  <way id='-37295900' action='modify'>
    <nd ref='-159988423' />
    <nd ref='-159988424' />
  </way>
  <way id='-37295901' action='modify'>
    <nd ref='-159988424' />
    <nd ref='-159988425' />
    <tag k='type' v='straight' />
  </way>
  <way id='-37295902' action='modify'>
    <nd ref='-159988425' />
    <nd ref='-159988426' />
  </way>
  <way id='-37295903' action='modify'>
    <nd ref='-159988426' />
    <nd ref='-159988427' />
    <tag k='type' v='straight' />
  </way>
  <way id='-37295904' action='modify'>
    <nd ref='-159988427' />
    <nd ref='-159988428' />
    <tag k='type' v='straight' />
  </way>
  <way id='-37295905' action='modify'>
    <nd ref='-159988428' />
    <nd ref='-159988429' />
    <tag k='type' v='straight' />
  </way>
  <way id='-37295906' action='modify'>
    <nd ref='-159988429' />
    <nd ref='-159988430' />
  </way>
  <way id='-37295907' action='modify'>
    <nd ref='-159988430' />
    <nd ref='-159988431' />
    <nd ref='-159988432' />
    <tag k='type' v='straight' />
  </way>
  <way id='-37295908' action='modify'>
    <nd ref='-159988432' />
    <nd ref='-159988433' />
  </way>
  <way id='-37295909' action='modify'>
    <nd ref='-159988433' />
    <nd ref='-159988434' />
    <nd ref='-159988435' />
    <tag k='type' v='straight' />
  </way>
  <way id='-37295910' action='modify'>
    <nd ref='-159988435' />
    <nd ref='-159988436' />
  </way>
  <way id='-37295911' action='modify'>
    <nd ref='-159988436' />
    <nd ref='-159988437' />
    <tag k='type' v='straight' />
  </way>
  <way id='-37295912' action='modify'>
    <nd ref='-159988437' />
    <nd ref='-159988438' />
  </way>
  <way id='-37295913' action='modify'>
    <nd ref='-159988438' />
    <nd ref='-159988439' />
    <tag k='type' v='straight' />
  </way>
  <way id='-37295914' action='modify'>
    <nd ref='-159988439' />
    <nd ref='-159988440' />
    <nd ref='-159988441' />
  </way>
  <way id='-37295915' action='modify'>
    <nd ref='-159988441' />
    <nd ref='-159988442' />
    <tag k='type' v='straight' />
  </way>
  <way id='-37295916' action='modify'>
    <nd ref='-159988442' />
    <nd ref='-159988443' />
  </way>
  <way id='-37295917' action='modify'>
    <nd ref='-159988443' />
    <nd ref='-159988444' />
    <tag k='type' v='straight' />
  </way>
  <way id='-37295918' action='modify'>
    <nd ref='-159988444' />
    <nd ref='-159988445' />
    <nd ref='-159988446' />
  </way>
  <way id='-37295919' action='modify'>
    <nd ref='-159988446' />
    <nd ref='-159988447' />
    <tag k='type' v='straight' />
  </way>
  <way id='-37295920' action='modify'>
    <nd ref='-159988447' />
    <nd ref='-159988448' />
  </way>
  <way id='-37295921' action='modify'>
    <nd ref='-159988448' />
    <nd ref='-159988449' />
    <tag k='type' v='straight' />
  </way>
  <way id='-37295922' action='modify'>
    <nd ref='-159988449' />
    <nd ref='-159988450' />
  </way>
  <way id='-37295923' action='modify'>
    <nd ref='-159988450' />
    <nd ref='-159988451' />
    <tag k='type' v='straight' />
  </way>
  <way id='-37295924' action='modify'>
    <nd ref='-159988451' />
    <nd ref='-159988452' />
    <nd ref='-159988453' />
  </way>
  <way id='-37295925' action='modify'>
    <nd ref='-159988453' />
    <nd ref='-159988454' />
    <tag k='type' v='straight' />
  </way>
  <way id='-37295926' action='modify'>
    <nd ref='-159988454' />
    <nd ref='-159988455' />
  </way>
  <way id='-37295927' action='modify'>
    <nd ref='-159988455' />
    <nd ref='-159988456' />
    <nd ref='-159988457' />
    <nd ref='-159988458' />
    <tag k='type' v='straight' />
  </way>
  <way id='-37295928' action='modify'>
    <nd ref='-159988458' />
    <nd ref='-159988459' />
    <nd ref='-159988460' />
  </way>
  <way id='-37295929' action='modify'>
    <nd ref='-159988460' />
    <nd ref='-159988461' />
    <nd ref='-159988462' />
    <tag k='type' v='straight' />
  </way>
  <way id='-37295930' action='modify'>
    <nd ref='-159988462' />
    <nd ref='-159988463' />
  </way>
  <way id='-37295931' action='modify'>
    <nd ref='-159988463' />
    <nd ref='-159988464' />
    <tag k='type' v='straight' />
  </way>
  <way id='-37295932' action='modify'>
    <nd ref='-159988464' />
    <nd ref='-159988465' />
    <nd ref='-159988466' />
  </way>
  <way id='-37295933' action='modify'>
    <nd ref='-159988466' />
    <nd ref='-159988467' />
    <tag k='type' v='straight' />
  </way>
  <way id='-37295934' action='modify'>
    <nd ref='-159988467' />
    <nd ref='-159988468' />
  </way>
  <way id='-37295935' action='modify'>
    <nd ref='-159988468' />
    <nd ref='-159988469' />
    <tag k='type' v='straight' />
  </way>
  <way id='-37295936' action='modify'>
    <nd ref='-159988469' />
    <nd ref='-159988470' />
    <nd ref='-159988471' />
  </way>
  <way id='-37295937' action='modify'>
    <nd ref='-159988471' />
    <nd ref='-159988472' />
    <tag k='type' v='straight' />
  </way>
  <way id='-37295938' action='modify'>
    <nd ref='-159988472' />
    <nd ref='-159988473' />
  </way>
  <way id='-37295939' action='modify'>
    <nd ref='-159988473' />
    <nd ref='-159988474' />
    <tag k='type' v='straight' />
  </way>
  <way id='-37295940' action='modify'>
    <nd ref='-159988474' />
    <nd ref='-159988475' />
  </way>
  <way id='-37295941' action='modify'>
    <nd ref='-159988475' />
    <nd ref='-159988476' />
    <nd ref='-159988477' />
    <tag k='type' v='straight' />
  </way>
  <way id='-37295942' action='modify'>
    <nd ref='-159988477' />
    <nd ref='-159988478' />
  </way>
  <way id='-37295943' action='modify'>
    <nd ref='-159988478' />
    <nd ref='-159988479' />
    <tag k='type' v='straight' />
  </way>
  <way id='-37295944' action='modify'>
    <nd ref='-159988479' />
    <nd ref='-159988480' />
  </way>
  <way id='-37295945' action='modify'>
    <nd ref='-159988480' />
    <nd ref='-159988481' />
    <nd ref='-159988482' />
    <tag k='type' v='straight' />
  </way>
  <way id='-37295946' action='modify'>
    <nd ref='-159988482' />
    <nd ref='-159988483' />
  </way>
  <way id='-37295947' action='modify'>
    <nd ref='-159988483' />
    <nd ref='-159988484' />
    <tag k='type' v='straight' />
  </way>
  <way id='-37295948' action='modify'>
    <nd ref='-159988484' />
    <nd ref='-159988485' />
  </way>
  <way id='-37295949' action='modify'>
    <nd ref='-159988485' />
    <nd ref='-159988486' />
    <tag k='type' v='straight' />
  </way>
  <way id='-37295950' action='modify'>
    <nd ref='-159988486' />
    <nd ref='-159988487' />
  </way>
  <way id='-37295951' action='modify'>
    <nd ref='-159988487' />
    <nd ref='-159988488' />
    <tag k='type' v='straight' />
  </way>
  <way id='-37295952' action='modify'>
    <nd ref='-159988488' />
    <nd ref='-159988489' />
  </way>
  <way id='-37295953' action='modify'>
    <nd ref='-159988489' />
    <nd ref='-159988490' />
    <tag k='type' v='straight' />
  </way>
  <way id='-37295954' action='modify'>
    <nd ref='-159988490' />
    <nd ref='-159988491' />
  </way>
  <way id='-37295955' action='modify'>
    <nd ref='-159988491' />
    <nd ref='-159988492' />
    <tag k='type' v='straight' />
  </way>
  <way id='-37295956' action='modify'>
    <nd ref='-159988492' />
    <nd ref='-159988493' />
    <nd ref='-159988494' />
  </way>
  <way id='-37295957' action='modify'>
    <nd ref='-159988494' />
    <nd ref='-159988495' />
    <tag k='type' v='straight' />
  </way>
  <way id='-37295958' action='modify'>
    <nd ref='-159988495' />
    <nd ref='-159988496' />
  </way>
  <way id='-37295959' action='modify'>
    <nd ref='-159988496' />
    <nd ref='-159988497' />
    <nd ref='-159988498' />
    <tag k='type' v='straight' />
  </way>
  <way id='-37295960' action='modify'>
    <nd ref='-159988498' />
    <nd ref='-159988499' />
  </way>
  <way id='-37295961' action='modify'>
    <nd ref='-159988499' />
    <nd ref='-159988500' />
    <tag k='type' v='straight' />
  </way>
  <way id='-37295962' action='modify'>
    <nd ref='-159988500' />
    <nd ref='-159988501' />
  </way>
  <way id='-37295963' action='modify'>
    <nd ref='-159988501' />
    <nd ref='-159988502' />
    <tag k='type' v='straight' />
  </way>
  <way id='-37295964' action='modify'>
    <nd ref='-159988502' />
    <nd ref='-159988503' />
    <nd ref='-159988504' />
  </way>
  <way id='-37295965' action='modify'>
    <nd ref='-159988504' />
    <nd ref='-159988505' />
    <tag k='type' v='straight' />
  </way>
  <way id='-37295966' action='modify'>
    <nd ref='-159988505' />
    <nd ref='-159988506' />
  </way>
  <way id='-37295967' action='modify'>
    <nd ref='-159988506' />
    <nd ref='-159988507' />
    <nd ref='-159988508' />
    <tag k='type' v='straight' />
  </way>
  <way id='-37295968' action='modify'>
    <nd ref='-159988508' />
    <nd ref='-159988509' />
  </way>
  <way id='-37295969' action='modify'>
    <nd ref='-159988509' />
    <nd ref='-159988510' />
    <tag k='type' v='straight' />
  </way>
  <way id='-37295970' action='modify'>
    <nd ref='-159988510' />
    <nd ref='-159988511' />
  </way>
  <way id='-37295971' action='modify'>
    <nd ref='-159988511' />
    <nd ref='-159988512' />
    <tag k='type' v='straight' />
  </way>
  <way id='-37295972' action='modify'>
    <nd ref='-159988512' />
    <nd ref='-159988513' />
  </way>
  <way id='-37295973' action='modify'>
    <nd ref='-159988513' />
    <nd ref='-159988514' />
    <tag k='type' v='straight' />
  </way>
  <way id='-37295974' action='modify'>
    <nd ref='-159988514' />
    <nd ref='-159988515' />
  </way>
  <way id='-37295975' action='modify'>
    <nd ref='-159988515' />
    <nd ref='-159988516' />
    <tag k='type' v='straight' />
  </way>
  <way id='-37295976' action='modify'>
    <nd ref='-159988516' />
    <nd ref='-159988517' />
  </way>
  <way id='-37295977' action='modify'>
    <nd ref='-159988517' />
    <nd ref='-159988518' />
    <tag k='type' v='straight' />
  </way>
  <way id='-37295978' action='modify'>
    <nd ref='-159988518' />
    <nd ref='-159988519' />
  </way>
  <way id='-37295979' action='modify'>
    <nd ref='-159988519' />
    <nd ref='-159988520' />
    <nd ref='-159988521' />
    <tag k='type' v='straight' />
  </way>
  <way id='-37295980' action='modify'>
    <nd ref='-159988521' />
    <nd ref='-159988522' />
  </way>
  <way id='-37295981' action='modify'>
    <nd ref='-159988522' />
    <nd ref='-159988523' />
    <nd ref='-159988524' />
    <nd ref='-159988525' />
    <tag k='type' v='straight' />
  </way>
  <way id='-37295982' action='modify'>
    <nd ref='-159988525' />
    <nd ref='-159988526' />
  </way>
  <way id='-37295983' action='modify'>
    <nd ref='-159988526' />
    <nd ref='-159988527' />
    <tag k='type' v='straight' />
  </way>
  <way id='-37295984' action='modify'>
    <nd ref='-159988527' />
    <nd ref='-159988528' />
  </way>
  <way id='-37295985' action='modify'>
    <nd ref='-159988528' />
    <nd ref='-159988529' />
    <nd ref='-159988530' />
    <tag k='type' v='straight' />
  </way>
  <way id='-37295986' action='modify'>
    <nd ref='-159988530' />
    <nd ref='-159988531' />
  </way>
  <way id='-37295987' action='modify'>
    <nd ref='-159988531' />
    <nd ref='-159988532' />
    <tag k='type' v='straight' />
  </way>
  <way id='-37295988' action='modify'>
    <nd ref='-159988532' />
    <nd ref='-159988533' />
  </way>
  <way id='-37295989' action='modify'>
    <nd ref='-159988533' />
    <nd ref='-159988534' />
    <tag k='type' v='straight' />
  </way>
  <way id='-37295990' action='modify'>
    <nd ref='-159988534' />
    <nd ref='-159988535' />
    <nd ref='-159988536' />
  </way>
  <way id='-37295991' action='modify'>
    <nd ref='-159988536' />
    <nd ref='-159988537' />
    <tag k='type' v='straight' />
  </way>
  <way id='-37295992' action='modify'>
    <nd ref='-159988537' />
    <nd ref='-159988538' />
  </way>
  <way id='-37295993' action='modify'>
    <nd ref='-159988538' />
    <nd ref='-159988539' />
    <tag k='type' v='straight' />
  </way>
  <way id='-37295994' action='modify'>
    <nd ref='-159988539' />
    <nd ref='-159988540' />
  </way>
  <way id='-37295995' action='modify'>
    <nd ref='-159988540' />
    <nd ref='-159988541' />
    <tag k='type' v='straight' />
  </way>
  <way id='-37295996' action='modify'>
    <nd ref='-159988541' />
    <nd ref='-159988542' />
  </way>
  <way id='-37295997' action='modify'>
    <nd ref='-159988542' />
    <nd ref='-159988543' />
    <tag k='type' v='straight' />
  </way>
  <way id='-37295998' action='modify'>
    <nd ref='-159988543' />
    <nd ref='-159988544' />
  </way>
  <way id='-37295999' action='modify'>
    <nd ref='-159988544' />
    <nd ref='-159988545' />
    <tag k='type' v='straight' />
  </way>
  <way id='-37296000' action='modify'>
    <nd ref='-159988545' />
    <nd ref='-159988546' />
    <tag k='type' v='arc' />
  </way>
  <way id='-37296001' action='modify'>
    <nd ref='-159988546' />
    <nd ref='-159988547' />
    <nd ref='-159988548' />
    <tag k='type' v='straight' />
  </way>
  <way id='-37296011' action='modify'>
    <nd ref='-159988400' />
    <nd ref='-159988401' />
  </way>
  <way id='-37296012' action='modify'>
    <nd ref='-159988401' />
    <nd ref='-159988402' />
    <tag k='type' v='straight' />
  </way>
  <relation id='-14476994' action='modify'>
    <member type='way' ref='-37295881' role='' />
    <member type='way' ref='-37295882' role='' />
    <member type='way' ref='-37295883' role='' />
    <member type='way' ref='-37295884' role='' />
    <member type='way' ref='-37295885' role='' />
    <member type='way' ref='-37296011' role='' />
    <member type='way' ref='-37296012' role='' />
    <member type='way' ref='-37295886' role='' />
    <member type='way' ref='-37295887' role='' />
    <member type='way' ref='-37295888' role='' />
    <member type='way' ref='-37295889' role='' />
    <member type='way' ref='-37295890' role='' />
    <member type='way' ref='-37295891' role='' />
    <member type='way' ref='-37295892' role='' />
    <member type='way' ref='-37295893' role='' />
    <member type='way' ref='-37295894' role='' />
    <member type='way' ref='-37295895' role='' />
    <member type='way' ref='-37295896' role='' />
    <member type='way' ref='-37295897' role='' />
    <member type='way' ref='-37295898' role='' />
    <member type='way' ref='-37295899' role='' />
    <member type='way' ref='-37295900' role='' />
    <member type='way' ref='-37295901' role='' />
    <member type='way' ref='-37295902' role='' />
    <member type='way' ref='-37295903' role='' />
    <member type='way' ref='-37295904' role='' />
    <member type='way' ref='-37295905' role='' />
    <member type='way' ref='-37295906' role='' />
    <member type='way' ref='-37295907' role='' />
    <member type='way' ref='-37295908' role='' />
    <member type='way' ref='-37295909' role='' />
    <member type='way' ref='-37295910' role='' />
    <member type='way' ref='-37295911' role='' />
    <member type='way' ref='-37295912' role='' />
    <member type='way' ref='-37295913' role='' />
    <member type='way' ref='-37295914' role='' />
    <member type='way' ref='-37295915' role='' />
    <member type='way' ref='-37295916' role='' />
    <member type='way' ref='-37295917' role='' />
    <member type='way' ref='-37295918' role='' />
    <member type='way' ref='-37295919' role='' />
    <member type='way' ref='-37295920' role='' />
    <member type='way' ref='-37295921' role='' />
    <member type='way' ref='-37295922' role='' />
    <member type='way' ref='-37295923' role='' />
    <member type='way' ref='-37295924' role='' />
    <member type='way' ref='-37295925' role='' />
    <member type='way' ref='-37295926' role='' />
    <member type='way' ref='-37295927' role='' />
    <member type='way' ref='-37295928' role='' />
    <member type='way' ref='-37295929' role='' />
    <member type='way' ref='-37295930' role='' />
    <member type='way' ref='-37295931' role='' />
    <member type='way' ref='-37295932' role='' />
    <member type='way' ref='-37295933' role='' />
    <member type='way' ref='-37295934' role='' />
    <member type='way' ref='-37295935' role='' />
    <member type='way' ref='-37295936' role='' />
    <member type='way' ref='-37295937' role='' />
    <member type='way' ref='-37295938' role='' />
    <member type='way' ref='-37295939' role='' />
    <member type='way' ref='-37295940' role='' />
    <member type='way' ref='-37295941' role='' />
    <member type='way' ref='-37295942' role='' />
    <member type='way' ref='-37295943' role='' />
    <member type='way' ref='-37295944' role='' />
    <member type='way' ref='-37295945' role='' />
    <member type='way' ref='-37295946' role='' />
    <member type='way' ref='-37295947' role='' />
    <member type='way' ref='-37295948' role='' />
    <member type='way' ref='-37295949' role='' />
    <member type='way' ref='-37295950' role='' />
    <member type='way' ref='-37295951' role='' />
    <member type='way' ref='-37295952' role='' />
    <member type='way' ref='-37295953' role='' />
    <member type='way' ref='-37295954' role='' />
    <member type='way' ref='-37295955' role='' />
    <member type='way' ref='-37295956' role='' />
    <member type='way' ref='-37295957' role='' />
    <member type='way' ref='-37295958' role='' />
    <member type='way' ref='-37295959' role='' />
    <member type='way' ref='-37295960' role='' />
    <member type='way' ref='-37295961' role='' />
    <member type='way' ref='-37295962' role='' />
    <member type='way' ref='-37295963' role='' />
    <member type='way' ref='-37295964' role='' />
    <member type='way' ref='-37295965' role='' />
    <member type='way' ref='-37295966' role='' />
    <member type='way' ref='-37295967' role='' />
    <member type='way' ref='-37295968' role='' />
    <member type='way' ref='-37295969' role='' />
    <member type='way' ref='-37295970' role='' />
    <member type='way' ref='-37295971' role='' />
    <member type='way' ref='-37295972' role='' />
    <member type='way' ref='-37295973' role='' />
    <member type='way' ref='-37295974' role='' />
    <member type='way' ref='-37295975' role='' />
    <member type='way' ref='-37295976' role='' />
    <member type='way' ref='-37295977' role='' />
    <member type='way' ref='-37295978' role='' />
    <member type='way' ref='-37295979' role='' />
    <member type='way' ref='-37295980' role='' />
    <member type='way' ref='-37295981' role='' />
    <member type='way' ref='-37295982' role='' />
    <member type='way' ref='-37295983' role='' />
    <member type='way' ref='-37295984' role='' />
    <member type='way' ref='-37295985' role='' />
    <member type='way' ref='-37295986' role='' />
    <member type='way' ref='-37295987' role='' />
    <member type='way' ref='-37295988' role='' />
    <member type='way' ref='-37295989' role='' />
    <member type='way' ref='-37295990' role='' />
    <member type='way' ref='-37295991' role='' />
    <member type='way' ref='-37295992' role='' />
    <member type='way' ref='-37295993' role='' />
    <member type='way' ref='-37295994' role='' />
    <member type='way' ref='-37295995' role='' />
    <member type='way' ref='-37295996' role='' />
    <member type='way' ref='-37295997' role='' />
    <member type='way' ref='-37295998' role='' />
    <member type='way' ref='-37295999' role='' />
    <member type='way' ref='-37296000' role='' />
    <member type='way' ref='-37296001' role='' />
    <tag k='key' v='path.dk.thk' />
    <tag k='name' v='DK THK' />
    <tag k='type' v='path' />
  </relation>
</osm>
