<?xml version='1.0' encoding='UTF-8'?>
<osm version='0.6' upload='false' generator='JOSM'>
  <node id='-185699803' action='modify' lat='54.9355122547' lon='8.86128607582' />
  <node id='-185699805' action='modify' lat='54.933435474' lon='8.86051815316'>
    <tag k='name' v='ton' />
  </node>
  <node id='-185699807' action='modify' lat='54.93954342869' lon='8.86080124806' />
  <node id='-185699810' action='modify' lat='54.94612464922' lon='8.85801990302' />
  <node id='-185699811' action='modify' lat='54.94949910898' lon='8.84848415583' />
  <node id='-185699812' action='modify' lat='54.94915098443' lon='8.84162305713' />
  <node id='-185699813' action='modify' lat='54.94928961722' lon='8.8377875036' />
  <node id='-185699814' action='modify' lat='54.94984107517' lon='8.83236407697' />
  <node id='-185699815' action='modify' lat='54.94994582052' lon='8.82872163713' />
  <node id='-185699816' action='modify' lat='54.94914717142' lon='8.80070631264'>
    <tag k='name' v='mog' />
  </node>
  <node id='-185699817' action='modify' lat='54.94906626228' lon='8.79786818147' />
  <node id='-185699818' action='modify' lat='54.94973633263' lon='8.79261373401' />
  <node id='-185699819' action='modify' lat='54.9569384984' lon='8.76034139514' />
  <node id='-185699820' action='modify' lat='54.95756685541' lon='8.75568508029' />
  <node id='-185699821' action='modify' lat='54.9577214992' lon='8.75375392307'>
    <tag k='name' v='dal' />
  </node>
  <node id='-185699822' action='modify' lat='54.95957506472' lon='8.73060643137' />
  <node id='-185699823' action='modify' lat='54.95977834443' lon='8.72880935133' />
  <node id='-185699824' action='modify' lat='54.96096412223' lon='8.72135281026' />
  <node id='-185699825' action='modify' lat='54.96117663456' lon='8.71757625997' />
  <node id='-185699826' action='modify' lat='54.96068385372' lon='8.70889662623' />
  <node id='-185699827' action='modify' lat='54.96080089045' lon='8.70449780345' />
  <node id='-185699828' action='modify' lat='54.96105659731' lon='8.69953758918'>
    <tag k='name' v='hoj' />
  </node>
  <node id='-185699829' action='modify' lat='54.96156470072' lon='8.68968128085' />
  <node id='-185699830' action='modify' lat='54.9594518644' lon='8.68419348657' />
  <node id='-185699831' action='modify' lat='54.95888513804' lon='8.68396818101' />
  <node id='-185699832' action='modify' lat='54.95579572284' lon='8.68643044889' />
  <node id='-185699833' action='modify' lat='54.95542608597' lon='8.68805586755' />
  <node id='-185699834' action='modify' lat='54.95499791901' lon='8.69181632459'>
    <tag k='name' v='hos' />
  </node>
  <node id='-185699835' action='modify' lat='54.95505952605' lon='8.69395136297' />
  <way id='-39163330' action='modify'>
    <nd ref='-185699805' />
    <nd ref='-185699803' />
    <tag k='type' v='straight' />
  </way>
  <way id='-39163331' action='modify'>
    <nd ref='-185699803' />
    <nd ref='-185699807' />
  </way>
  <way id='-39163332' action='modify'>
    <nd ref='-185699807' />
    <nd ref='-185699810' />
    <tag k='type' v='straight' />
  </way>
  <way id='-39163333' action='modify'>
    <nd ref='-185699810' />
    <nd ref='-185699811' />
  </way>
  <way id='-39163334' action='modify'>
    <nd ref='-185699811' />
    <nd ref='-185699812' />
    <tag k='type' v='straight' />
  </way>
  <way id='-39163335' action='modify'>
    <nd ref='-185699812' />
    <nd ref='-185699813' />
  </way>
  <way id='-39163336' action='modify'>
    <nd ref='-185699813' />
    <nd ref='-185699814' />
    <tag k='type' v='straight' />
  </way>
  <way id='-39163337' action='modify'>
    <nd ref='-185699814' />
    <nd ref='-185699815' />
  </way>
  <way id='-39163338' action='modify'>
    <nd ref='-185699815' />
    <nd ref='-185699816' />
    <nd ref='-185699817' />
    <tag k='type' v='straight' />
  </way>
  <way id='-39163339' action='modify'>
    <nd ref='-185699817' />
    <nd ref='-185699818' />
  </way>
  <way id='-39163340' action='modify'>
    <nd ref='-185699818' />
    <nd ref='-185699819' />
    <tag k='type' v='straight' />
  </way>
  <way id='-39163341' action='modify'>
    <nd ref='-185699819' />
    <nd ref='-185699820' />
  </way>
  <way id='-39163342' action='modify'>
    <nd ref='-185699820' />
    <nd ref='-185699821' />
    <nd ref='-185699822' />
    <tag k='type' v='straight' />
  </way>
  <way id='-39163343' action='modify'>
    <nd ref='-185699822' />
    <nd ref='-185699823' />
  </way>
  <way id='-39163344' action='modify'>
    <nd ref='-185699823' />
    <nd ref='-185699824' />
    <tag k='type' v='straight' />
  </way>
  <way id='-39163345' action='modify'>
    <nd ref='-185699824' />
    <nd ref='-185699825' />
  </way>
  <way id='-39163346' action='modify'>
    <nd ref='-185699825' />
    <nd ref='-185699826' />
    <tag k='type' v='straight' />
  </way>
  <way id='-39163347' action='modify'>
    <nd ref='-185699826' />
    <nd ref='-185699827' />
  </way>
  <way id='-39163348' action='modify'>
    <nd ref='-185699827' />
    <nd ref='-185699828' />
    <nd ref='-185699829' />
    <tag k='type' v='straight' />
  </way>
  <way id='-39163349' action='modify'>
    <nd ref='-185699829' />
    <nd ref='-185699830' />
  </way>
  <way id='-39163350' action='modify'>
    <nd ref='-185699830' />
    <nd ref='-185699831' />
    <tag k='type' v='straight' />
  </way>
  <way id='-39163351' action='modify'>
    <nd ref='-185699831' />
    <nd ref='-185699832' />
  </way>
  <way id='-39163352' action='modify'>
    <nd ref='-185699832' />
    <nd ref='-185699833' />
    <tag k='type' v='straight' />
  </way>
  <way id='-39163353' action='modify'>
    <nd ref='-185699833' />
    <nd ref='-185699834' />
  </way>
  <way id='-39163354' action='modify'>
    <nd ref='-185699834' />
    <nd ref='-185699835' />
    <tag k='type' v='straight' />
  </way>
  <relation id='-14494895' action='modify'>
    <member type='way' ref='-39163330' role='' />
    <member type='way' ref='-39163331' role='' />
    <member type='way' ref='-39163332' role='' />
    <member type='way' ref='-39163333' role='' />
    <member type='way' ref='-39163334' role='' />
    <member type='way' ref='-39163335' role='' />
    <member type='way' ref='-39163336' role='' />
    <member type='way' ref='-39163337' role='' />
    <member type='way' ref='-39163338' role='' />
    <member type='way' ref='-39163339' role='' />
    <member type='way' ref='-39163340' role='' />
    <member type='way' ref='-39163341' role='' />
    <member type='way' ref='-39163342' role='' />
    <member type='way' ref='-39163343' role='' />
    <member type='way' ref='-39163344' role='' />
    <member type='way' ref='-39163345' role='' />
    <member type='way' ref='-39163346' role='' />
    <member type='way' ref='-39163347' role='' />
    <member type='way' ref='-39163348' role='' />
    <member type='way' ref='-39163349' role='' />
    <member type='way' ref='-39163350' role='' />
    <member type='way' ref='-39163351' role='' />
    <member type='way' ref='-39163352' role='' />
    <member type='way' ref='-39163353' role='' />
    <member type='way' ref='-39163354' role='' />
    <tag k='key' v='path.dk.ths' />
    <tag k='name' v='DK THS' />
    <tag k='type' v='path' />
  </relation>
</osm>
