<?xml version='1.0' encoding='UTF-8'?>
<osm version='0.6' upload='false' generator='JOSM'>
  <node id='-177909862' action='modify' lat='57.06472485361' lon='9.9084251408'>
    <tag k='name' v='lin' />
  </node>
  <node id='-177909863' action='modify' lat='57.06536962413' lon='9.90736663073' />
  <node id='-177909864' action='modify' lat='57.06603458852' lon='9.90628838271' />
  <node id='-177909865' action='modify' lat='57.06673618463' lon='9.90514960121' />
  <node id='-177909866' action='modify' lat='57.0671670664' lon='9.90445560641' />
  <node id='-177909867' action='modify' lat='57.06867245487' lon='9.90197807282' />
  <node id='-177909868' action='modify' lat='57.07368956965' lon='9.89747196302' />
  <node id='-177909869' action='modify' lat='57.07423639826' lon='9.89731232105' />
  <node id='-177909870' action='modify' lat='57.07649891636' lon='9.89566013083' />
  <node id='-177909871' action='modify' lat='57.07674091551' lon='9.89531278476' />
  <node id='-177909872' action='modify' lat='57.07716586805' lon='9.89474013314' />
  <node id='-177909873' action='modify' lat='57.07889915746' lon='9.89258363709' />
  <node id='-177909874' action='modify' lat='57.08040934192' lon='9.88692015275' />
  <node id='-177909875' action='modify' lat='57.08036925577' lon='9.88486021623' />
  <node id='-177909876' action='modify' lat='57.08189249969' lon='9.87898483604' />
  <node id='-177909877' action='modify' lat='57.08416979348' lon='9.87583172713'>
    <tag k='name' v='alu' />
  </node>
  <node id='-177909878' action='modify' lat='57.08505976994' lon='9.87459942564'>
    <tag k='name' v='alu.f' />
  </node>
  <way id='-38557001' action='modify'>
    <nd ref='-177909862' />
    <nd ref='-177909863' />
    <tag k='type' v='straight' />
  </way>
  <way id='-38557002' action='modify'>
    <nd ref='-177909863' />
    <nd ref='-177909864' />
  </way>
  <way id='-38557003' action='modify'>
    <nd ref='-177909864' />
    <nd ref='-177909865' />
    <tag k='type' v='straight' />
  </way>
  <way id='-38557004' action='modify'>
    <nd ref='-177909865' />
    <nd ref='-177909866' />
  </way>
  <way id='-38557005' action='modify'>
    <nd ref='-177909866' />
    <nd ref='-177909867' />
    <tag k='type' v='straight' />
  </way>
  <way id='-38557006' action='modify'>
    <nd ref='-177909867' />
    <nd ref='-177909868' />
  </way>
  <way id='-38557007' action='modify'>
    <nd ref='-177909868' />
    <nd ref='-177909869' />
    <tag k='type' v='straight' />
  </way>
  <way id='-38557008' action='modify'>
    <nd ref='-177909869' />
    <nd ref='-177909870' />
  </way>
  <way id='-38557009' action='modify'>
    <nd ref='-177909870' />
    <nd ref='-177909871' />
    <tag k='type' v='straight' />
  </way>
  <way id='-38557010' action='modify'>
    <nd ref='-177909871' />
    <nd ref='-177909872' />
  </way>
  <way id='-38557011' action='modify'>
    <nd ref='-177909872' />
    <nd ref='-177909873' />
    <tag k='type' v='straight' />
  </way>
  <way id='-38557012' action='modify'>
    <nd ref='-177909873' />
    <nd ref='-177909874' />
  </way>
  <way id='-38557013' action='modify'>
    <nd ref='-177909874' />
    <nd ref='-177909875' />
    <tag k='type' v='straight' />
  </way>
  <way id='-38557014' action='modify'>
    <nd ref='-177909875' />
    <nd ref='-177909876' />
  </way>
  <way id='-38557015' action='modify'>
    <nd ref='-177909876' />
    <nd ref='-177909877' />
    <nd ref='-177909878' />
    <tag k='type' v='straight' />
  </way>
  <relation id='-14488572' action='modify'>
    <member type='way' ref='-38557001' role='' />
    <member type='way' ref='-38557002' role='' />
    <member type='way' ref='-38557003' role='' />
    <member type='way' ref='-38557004' role='' />
    <member type='way' ref='-38557005' role='' />
    <member type='way' ref='-38557006' role='' />
    <member type='way' ref='-38557007' role='' />
    <member type='way' ref='-38557008' role='' />
    <member type='way' ref='-38557009' role='' />
    <member type='way' ref='-38557010' role='' />
    <member type='way' ref='-38557011' role='' />
    <member type='way' ref='-38557012' role='' />
    <member type='way' ref='-38557013' role='' />
    <member type='way' ref='-38557014' role='' />
    <member type='way' ref='-38557015' role='' />
    <tag k='key' v='path.dk.lal' />
    <tag k='name' v='DK LAL' />
    <tag k='type' v='path' />
  </relation>
</osm>
