<?xml version='1.0' encoding='UTF-8'?>
<osm version='0.6' upload='false' generator='JOSM'>
  <node id='-166069878' action='modify' lat='56.35957744162' lon='9.90854009718' />
  <node id='-166069879' action='modify' lat='56.36587265965' lon='9.90208189561' />
  <node id='-166069880' action='modify' lat='56.35444574383' lon='9.91599054876' />
  <node id='-166069881' action='modify' lat='56.35729430699' lon='9.91104528039'>
    <tag k='name' v='lau' />
  </node>
  <node id='-166069882' action='modify' lat='56.35438682082' lon='9.91614054329' />
  <node id='-166069883' action='modify' lat='56.34854461772' lon='9.91951703489' />
  <node id='-166069884' action='modify' lat='56.34537565708' lon='9.91671144426' />
  <node id='-166069885' action='modify' lat='56.34391891705' lon='9.91578339994' />
  <node id='-166069886' action='modify' lat='56.34059793643' lon='9.9143135494' />
  <node id='-166069887' action='modify' lat='56.33855228107' lon='9.91241186589' />
  <node id='-166069888' action='modify' lat='56.33604561238' lon='9.90873455465' />
  <node id='-166069889' action='modify' lat='56.33369936114' lon='9.90312874049' />
  <node id='-166069890' action='modify' lat='56.33297077515' lon='9.8995614025' />
  <node id='-166069891' action='modify' lat='56.33005926765' lon='9.89322602212' />
  <node id='-166069892' action='modify' lat='56.32761449919' lon='9.89058136404' />
  <node id='-166069893' action='modify' lat='56.32533019446' lon='9.88634883821' />
  <node id='-166069894' action='modify' lat='56.32280183324' lon='9.87924098432' />
  <node id='-166069895' action='modify' lat='56.32207898713' lon='9.87747609347' />
  <node id='-166069896' action='modify' lat='56.3203327998' lon='9.87384438246' />
  <node id='-166069897' action='modify' lat='56.3196813072' lon='9.8726588434' />
  <node id='-166069898' action='modify' lat='56.31934389138' lon='9.87203383183'>
    <tag k='name' v='bos' />
  </node>
  <node id='-166069899' action='modify' lat='56.31553111817' lon='9.86497163236' />
  <node id='-166069900' action='modify' lat='56.31404794691' lon='9.85816687077' />
  <node id='-166069901' action='modify' lat='56.3140405086' lon='9.85639661282' />
  <node id='-166069902' action='modify' lat='56.31197260413' lon='9.84820782602' />
  <node id='-166069903' action='modify' lat='56.29876214166' lon='9.82633441418' />
  <node id='-166069904' action='modify' lat='56.29658624808' lon='9.81116920441' />
  <node id='-166069905' action='modify' lat='56.29735571298' lon='9.80626344413' />
  <node id='-166069906' action='modify' lat='56.29742268695' lon='9.80111092061' />
  <node id='-166069907' action='modify' lat='56.29681842868' lon='9.79675769538' />
  <node id='-166069908' action='modify' lat='56.29671424674' lon='9.79372679651' />
  <node id='-166069909' action='modify' lat='56.29691671494' lon='9.79091352301'>
    <tag k='name' v='tho' />
  </node>
  <node id='-166069910' action='modify' lat='56.29733041316' lon='9.78516518533' />
  <node id='-166069911' action='modify' lat='56.29659517962' lon='9.78007435262' />
  <node id='-166069912' action='modify' lat='56.29151662011' lon='9.76925968856' />
  <node id='-166069913' action='modify' lat='56.29018584298' lon='9.76559310883' />
  <node id='-166069914' action='modify' lat='56.28859004019' lon='9.7598692748' />
  <node id='-166069915' action='modify' lat='56.28506921355' lon='9.75334346026' />
  <node id='-166069916' action='modify' lat='56.28192356515' lon='9.75027545775'>
    <tag k='name' v='gro' />
  </node>
  <node id='-166069917' action='modify' lat='56.26934435663' lon='9.73800927132' />
  <node id='-166069918' action='modify' lat='56.26818260508' lon='9.73672717541' />
  <node id='-166069919' action='modify' lat='56.26583177198' lon='9.73400648116'>
    <tag k='name' v='far' />
  </node>
  <node id='-166069920' action='modify' lat='56.25714271735' lon='9.72395181119' />
  <node id='-166069921' action='modify' lat='56.25244786107' lon='9.7202549002'>
    <tag k='name' v='hor' />
  </node>
  <node id='-166069922' action='modify' lat='56.24165081706' lon='9.72792148054' />
  <node id='-166069923' action='modify' lat='56.23939118203' lon='9.73487913072' />
  <node id='-166069924' action='modify' lat='56.23061370967' lon='9.73700880468' />
  <node id='-166069925' action='modify' lat='56.22979966417' lon='9.73580181062' />
  <node id='-166069926' action='modify' lat='56.22902883808' lon='9.73458945483'>
    <tag k='name' v='gje' />
  </node>
  <node id='-166069927' action='modify' lat='56.22842051681' lon='9.73353534669' />
  <node id='-166069928' action='modify' lat='56.22810889752' lon='9.73298281163' />
  <node id='-166069929' action='modify' lat='56.22657909481' lon='9.72912847459' />
  <node id='-166069930' action='modify' lat='56.22557112026' lon='9.72518562734' />
  <node id='-166069931' action='modify' lat='56.22366842' lon='9.72124010056' />
  <node id='-166069932' action='modify' lat='56.22068743473' lon='9.7181582424' />
  <node id='-166069933' action='modify' lat='56.21906040046' lon='9.71556185603' />
  <node id='-166069934' action='modify' lat='56.21613125836' lon='9.70883487582' />
  <node id='-166069935' action='modify' lat='56.21414157656' lon='9.70561086863' />
  <node id='-166069936' action='modify' lat='56.21277081674' lon='9.70393717021' />
  <node id='-166069937' action='modify' lat='56.21037970201' lon='9.69266116083' />
  <node id='-166069938' action='modify' lat='56.21181170468' lon='9.68431949079' />
  <node id='-166069939' action='modify' lat='56.21177441213' lon='9.6795076105' />
  <node id='-166069940' action='modify' lat='56.21159509245' lon='9.67850153883'>
    <tag k='name' v='smi' />
  </node>
  <node id='-166069941' action='modify' lat='56.21135227483' lon='9.67713921994' />
  <node id='-166069942' action='modify' lat='56.20851205149' lon='9.67193841398' />
  <node id='-166069943' action='modify' lat='56.18978576745' lon='9.6619176811' />
  <node id='-166069944' action='modify' lat='56.18465720012' lon='9.65449869096' />
  <node id='-166069945' action='modify' lat='56.18163972021' lon='9.64570048447'>
    <tag k='name' v='res' />
  </node>
  <node id='-166069946' action='modify' lat='56.16673765787' lon='9.60225998819' />
  <node id='-166069947' action='modify' lat='56.16608653222' lon='9.58854317129' />
  <node id='-166069948' action='modify' lat='56.16728124974' lon='9.58387076318' />
  <node id='-166069949' action='modify' lat='56.16778899641' lon='9.57950948596' />
  <node id='-166069950' action='modify' lat='56.16781886348' lon='9.57368372798' />
  <node id='-166069951' action='modify' lat='56.16681830111' lon='9.56701039732' />
  <node id='-166069952' action='modify' lat='56.16548915952' lon='9.56341623724' />
  <node id='-166069953' action='modify' lat='56.16444970738' lon='9.55715864629' />
  <node id='-166069954' action='modify' lat='56.1645169141' lon='9.55456226796' />
  <node id='-166069955' action='modify' lat='56.16454864981' lon='9.55151662096' />
  <node id='-166069956' action='modify' lat='56.16447285563' lon='9.54918980464' />
  <node id='-166069957' action='modify' lat='56.16437503238' lon='9.54789161548' />
  <node id='-166069958' action='modify' lat='56.16417938512' lon='9.54596713052' />
  <node id='-166069959' action='modify' lat='56.16408753512' lon='9.54470783338' />
  <node id='-166069960' action='modify' lat='56.16406779824' lon='9.54420319535'>
    <tag k='name' v='sil' />
  </node>
  <way id='-37701911' action='modify'>
    <nd ref='-166069879' />
    <nd ref='-166069878' />
    <tag k='type' v='straight' />
  </way>
  <way id='-37701912' action='modify'>
    <nd ref='-166069878' />
    <nd ref='-166069881' />
    <nd ref='-166069880' />
  </way>
  <way id='-37701913' action='modify'>
    <nd ref='-166069880' />
    <nd ref='-166069882' />
    <tag k='type' v='straight' />
  </way>
  <way id='-37701914' action='modify'>
    <nd ref='-166069882' />
    <nd ref='-166069883' />
  </way>
  <way id='-37701915' action='modify'>
    <nd ref='-166069883' />
    <nd ref='-166069884' />
    <tag k='type' v='straight' />
  </way>
  <way id='-37701916' action='modify'>
    <nd ref='-166069884' />
    <nd ref='-166069885' />
  </way>
  <way id='-37701917' action='modify'>
    <nd ref='-166069885' />
    <nd ref='-166069886' />
    <tag k='type' v='straight' />
  </way>
  <way id='-37701918' action='modify'>
    <nd ref='-166069886' />
    <nd ref='-166069887' />
  </way>
  <way id='-37701919' action='modify'>
    <nd ref='-166069887' />
    <nd ref='-166069888' />
    <tag k='type' v='straight' />
  </way>
  <way id='-37701920' action='modify'>
    <nd ref='-166069888' />
    <nd ref='-166069889' />
  </way>
  <way id='-37701921' action='modify'>
    <nd ref='-166069889' />
    <nd ref='-166069890' />
    <tag k='type' v='straight' />
  </way>
  <way id='-37701922' action='modify'>
    <nd ref='-166069890' />
    <nd ref='-166069891' />
  </way>
  <way id='-37701923' action='modify'>
    <nd ref='-166069891' />
    <nd ref='-166069892' />
    <tag k='type' v='straight' />
  </way>
  <way id='-37701924' action='modify'>
    <nd ref='-166069892' />
    <nd ref='-166069893' />
  </way>
  <way id='-37701925' action='modify'>
    <nd ref='-166069893' />
    <nd ref='-166069894' />
    <tag k='type' v='straight' />
  </way>
  <way id='-37701926' action='modify'>
    <nd ref='-166069894' />
    <nd ref='-166069895' />
  </way>
  <way id='-37701927' action='modify'>
    <nd ref='-166069895' />
    <nd ref='-166069896' />
    <tag k='type' v='straight' />
  </way>
  <way id='-37701928' action='modify'>
    <nd ref='-166069896' />
    <nd ref='-166069897' />
  </way>
  <way id='-37701929' action='modify'>
    <nd ref='-166069897' />
    <nd ref='-166069898' />
    <nd ref='-166069899' />
    <tag k='type' v='straight' />
  </way>
  <way id='-37701930' action='modify'>
    <nd ref='-166069899' />
    <nd ref='-166069900' />
  </way>
  <way id='-37701931' action='modify'>
    <nd ref='-166069900' />
    <nd ref='-166069901' />
    <tag k='type' v='straight' />
  </way>
  <way id='-37701932' action='modify'>
    <nd ref='-166069901' />
    <nd ref='-166069902' />
  </way>
  <way id='-37701933' action='modify'>
    <nd ref='-166069902' />
    <nd ref='-166069903' />
    <tag k='type' v='straight' />
  </way>
  <way id='-37701934' action='modify'>
    <nd ref='-166069903' />
    <nd ref='-166069904' />
  </way>
  <way id='-37701935' action='modify'>
    <nd ref='-166069904' />
    <nd ref='-166069905' />
    <tag k='type' v='straight' />
  </way>
  <way id='-37701936' action='modify'>
    <nd ref='-166069905' />
    <nd ref='-166069906' />
  </way>
  <way id='-37701937' action='modify'>
    <nd ref='-166069906' />
    <nd ref='-166069907' />
    <tag k='type' v='straight' />
  </way>
  <way id='-37701938' action='modify'>
    <nd ref='-166069907' />
    <nd ref='-166069908' />
  </way>
  <way id='-37701939' action='modify'>
    <nd ref='-166069908' />
    <nd ref='-166069909' />
    <nd ref='-166069910' />
    <tag k='type' v='straight' />
  </way>
  <way id='-37701940' action='modify'>
    <nd ref='-166069910' />
    <nd ref='-166069911' />
  </way>
  <way id='-37701941' action='modify'>
    <nd ref='-166069911' />
    <nd ref='-166069912' />
    <tag k='type' v='straight' />
  </way>
  <way id='-37701942' action='modify'>
    <nd ref='-166069912' />
    <nd ref='-166069913' />
  </way>
  <way id='-37701943' action='modify'>
    <nd ref='-166069913' />
    <nd ref='-166069914' />
    <tag k='type' v='straight' />
  </way>
  <way id='-37701944' action='modify'>
    <nd ref='-166069914' />
    <nd ref='-166069915' />
  </way>
  <way id='-37701945' action='modify'>
    <nd ref='-166069915' />
    <nd ref='-166069916' />
    <nd ref='-166069917' />
    <tag k='type' v='straight' />
  </way>
  <way id='-37701946' action='modify'>
    <nd ref='-166069917' />
    <nd ref='-166069918' />
  </way>
  <way id='-37701947' action='modify'>
    <nd ref='-166069918' />
    <nd ref='-166069919' />
    <nd ref='-166069920' />
    <tag k='type' v='straight' />
  </way>
  <way id='-37701948' action='modify'>
    <nd ref='-166069920' />
    <nd ref='-166069921' />
    <nd ref='-166069922' />
  </way>
  <way id='-37701949' action='modify'>
    <nd ref='-166069922' />
    <nd ref='-166069923' />
    <tag k='type' v='straight' />
  </way>
  <way id='-37701950' action='modify'>
    <nd ref='-166069923' />
    <nd ref='-166069924' />
  </way>
  <way id='-37701951' action='modify'>
    <nd ref='-166069924' />
    <nd ref='-166069925' />
    <tag k='type' v='straight' />
  </way>
  <way id='-37701952' action='modify'>
    <nd ref='-166069925' />
    <nd ref='-166069926' />
    <nd ref='-166069927' />
  </way>
  <way id='-37701953' action='modify'>
    <nd ref='-166069927' />
    <nd ref='-166069928' />
    <tag k='type' v='straight' />
  </way>
  <way id='-37701954' action='modify'>
    <nd ref='-166069928' />
    <nd ref='-166069929' />
  </way>
  <way id='-37701955' action='modify'>
    <nd ref='-166069929' />
    <nd ref='-166069930' />
    <tag k='type' v='straight' />
  </way>
  <way id='-37701956' action='modify'>
    <nd ref='-166069930' />
    <nd ref='-166069931' />
  </way>
  <way id='-37701957' action='modify'>
    <nd ref='-166069931' />
    <nd ref='-166069932' />
    <tag k='type' v='straight' />
  </way>
  <way id='-37701958' action='modify'>
    <nd ref='-166069932' />
    <nd ref='-166069933' />
  </way>
  <way id='-37701959' action='modify'>
    <nd ref='-166069933' />
    <nd ref='-166069934' />
    <tag k='type' v='straight' />
  </way>
  <way id='-37701960' action='modify'>
    <nd ref='-166069934' />
    <nd ref='-166069935' />
  </way>
  <way id='-37701961' action='modify'>
    <nd ref='-166069935' />
    <nd ref='-166069936' />
    <tag k='type' v='straight' />
  </way>
  <way id='-37701962' action='modify'>
    <nd ref='-166069936' />
    <nd ref='-166069937' />
  </way>
  <way id='-37701963' action='modify'>
    <nd ref='-166069937' />
    <nd ref='-166069938' />
    <tag k='type' v='straight' />
  </way>
  <way id='-37701964' action='modify'>
    <nd ref='-166069938' />
    <nd ref='-166069939' />
  </way>
  <way id='-37701965' action='modify'>
    <nd ref='-166069939' />
    <nd ref='-166069940' />
    <nd ref='-166069941' />
    <tag k='type' v='straight' />
  </way>
  <way id='-37701966' action='modify'>
    <nd ref='-166069941' />
    <nd ref='-166069942' />
  </way>
  <way id='-37701967' action='modify'>
    <nd ref='-166069942' />
    <nd ref='-166069943' />
    <tag k='type' v='straight' />
  </way>
  <way id='-37701968' action='modify'>
    <nd ref='-166069943' />
    <nd ref='-166069944' />
  </way>
  <way id='-37701969' action='modify'>
    <nd ref='-166069944' />
    <nd ref='-166069945' />
    <nd ref='-166069946' />
    <tag k='type' v='straight' />
  </way>
  <way id='-37701970' action='modify'>
    <nd ref='-166069946' />
    <nd ref='-166069947' />
  </way>
  <way id='-37701971' action='modify'>
    <nd ref='-166069947' />
    <nd ref='-166069948' />
    <tag k='type' v='straight' />
  </way>
  <way id='-37701972' action='modify'>
    <nd ref='-166069948' />
    <nd ref='-166069949' />
  </way>
  <way id='-37701973' action='modify'>
    <nd ref='-166069949' />
    <nd ref='-166069950' />
    <tag k='type' v='straight' />
  </way>
  <way id='-37701974' action='modify'>
    <nd ref='-166069950' />
    <nd ref='-166069951' />
  </way>
  <way id='-37701975' action='modify'>
    <nd ref='-166069951' />
    <nd ref='-166069952' />
    <tag k='type' v='straight' />
  </way>
  <way id='-37701976' action='modify'>
    <nd ref='-166069952' />
    <nd ref='-166069953' />
  </way>
  <way id='-37701977' action='modify'>
    <nd ref='-166069953' />
    <nd ref='-166069954' />
    <tag k='type' v='straight' />
  </way>
  <way id='-37701978' action='modify'>
    <nd ref='-166069954' />
    <nd ref='-166069955' />
  </way>
  <way id='-37701979' action='modify'>
    <nd ref='-166069955' />
    <nd ref='-166069956' />
    <tag k='type' v='straight' />
  </way>
  <way id='-37701980' action='modify'>
    <nd ref='-166069956' />
    <nd ref='-166069957' />
  </way>
  <way id='-37701981' action='modify'>
    <nd ref='-166069957' />
    <nd ref='-166069958' />
    <tag k='type' v='straight' />
  </way>
  <way id='-37701982' action='modify'>
    <nd ref='-166069958' />
    <nd ref='-166069959' />
  </way>
  <way id='-37701983' action='modify'>
    <nd ref='-166069959' />
    <nd ref='-166069960' />
    <tag k='type' v='straight' />
  </way>
  <relation id='-14480510' action='modify'>
    <member type='way' ref='-37701911' role='' />
    <member type='way' ref='-37701912' role='' />
    <member type='way' ref='-37701913' role='' />
    <member type='way' ref='-37701914' role='' />
    <member type='way' ref='-37701915' role='' />
    <member type='way' ref='-37701916' role='' />
    <member type='way' ref='-37701917' role='' />
    <member type='way' ref='-37701918' role='' />
    <member type='way' ref='-37701919' role='' />
    <member type='way' ref='-37701920' role='' />
    <member type='way' ref='-37701921' role='' />
    <member type='way' ref='-37701922' role='' />
    <member type='way' ref='-37701923' role='' />
    <member type='way' ref='-37701924' role='' />
    <member type='way' ref='-37701925' role='' />
    <member type='way' ref='-37701926' role='' />
    <member type='way' ref='-37701927' role='' />
    <member type='way' ref='-37701928' role='' />
    <member type='way' ref='-37701929' role='' />
    <member type='way' ref='-37701930' role='' />
    <member type='way' ref='-37701931' role='' />
    <member type='way' ref='-37701932' role='' />
    <member type='way' ref='-37701933' role='' />
    <member type='way' ref='-37701934' role='' />
    <member type='way' ref='-37701935' role='' />
    <member type='way' ref='-37701936' role='' />
    <member type='way' ref='-37701937' role='' />
    <member type='way' ref='-37701938' role='' />
    <member type='way' ref='-37701939' role='' />
    <member type='way' ref='-37701940' role='' />
    <member type='way' ref='-37701941' role='' />
    <member type='way' ref='-37701942' role='' />
    <member type='way' ref='-37701943' role='' />
    <member type='way' ref='-37701944' role='' />
    <member type='way' ref='-37701945' role='' />
    <member type='way' ref='-37701946' role='' />
    <member type='way' ref='-37701947' role='' />
    <member type='way' ref='-37701948' role='' />
    <member type='way' ref='-37701949' role='' />
    <member type='way' ref='-37701950' role='' />
    <member type='way' ref='-37701951' role='' />
    <member type='way' ref='-37701952' role='' />
    <member type='way' ref='-37701953' role='' />
    <member type='way' ref='-37701954' role='' />
    <member type='way' ref='-37701955' role='' />
    <member type='way' ref='-37701956' role='' />
    <member type='way' ref='-37701957' role='' />
    <member type='way' ref='-37701958' role='' />
    <member type='way' ref='-37701959' role='' />
    <member type='way' ref='-37701960' role='' />
    <member type='way' ref='-37701961' role='' />
    <member type='way' ref='-37701962' role='' />
    <member type='way' ref='-37701963' role='' />
    <member type='way' ref='-37701964' role='' />
    <member type='way' ref='-37701965' role='' />
    <member type='way' ref='-37701966' role='' />
    <member type='way' ref='-37701967' role='' />
    <member type='way' ref='-37701968' role='' />
    <member type='way' ref='-37701969' role='' />
    <member type='way' ref='-37701970' role='' />
    <member type='way' ref='-37701971' role='' />
    <member type='way' ref='-37701972' role='' />
    <member type='way' ref='-37701973' role='' />
    <member type='way' ref='-37701974' role='' />
    <member type='way' ref='-37701975' role='' />
    <member type='way' ref='-37701976' role='' />
    <member type='way' ref='-37701977' role='' />
    <member type='way' ref='-37701978' role='' />
    <member type='way' ref='-37701979' role='' />
    <member type='way' ref='-37701980' role='' />
    <member type='way' ref='-37701981' role='' />
    <member type='way' ref='-37701982' role='' />
    <member type='way' ref='-37701983' role='' />
    <tag k='key' v='path.dk.lbs' />
    <tag k='name' v='DK LBS' />
    <tag k='type' v='path' />
  </relation>
</osm>
