<?xml version='1.0' encoding='UTF-8'?>
<osm version='0.6' upload='false' generator='JOSM'>
  <node id='-138233782' action='modify' lat='55.70059200162' lon='12.53778420322' />
  <node id='-138233784' action='modify' lat='55.70119507419' lon='12.53791898422' />
  <node id='-138233785' action='modify' lat='55.70158124849' lon='12.5380343172'>
    <tag k='name' v='lyg' />
  </node>
  <node id='-138233786' action='modify' lat='55.70196439425' lon='12.53819390997' />
  <node id='-138233787' action='modify' lat='55.70313648262' lon='12.53876656026' />
  <node id='-138233788' action='modify' lat='55.70488056854' lon='12.54002183408' />
  <node id='-138233789' action='modify' lat='55.70577978521' lon='12.54093914956' />
  <node id='-138233790' action='modify' lat='55.70609017558' lon='12.54125607208'>
    <tag k='name' v='bis' />
  </node>
  <node id='-138233791' action='modify' lat='55.70658563855' lon='12.54185167191' />
  <node id='-138233792' action='modify' lat='55.70663549827' lon='12.54192318063' />
  <node id='-138233794' action='modify' lat='55.71383403462' lon='12.54649399638' />
  <node id='-138233795' action='modify' lat='55.71556706232' lon='12.54492759436' />
  <node id='-138233796' action='modify' lat='55.71919454695' lon='12.54217296571' />
  <node id='-138233797' action='modify' lat='55.72007530559' lon='12.54151314229' />
  <node id='-138233798' action='modify' lat='55.72095566669' lon='12.54088751704' />
  <node id='-138233799' action='modify' lat='55.72108709486' lon='12.54080034725'>
    <tag k='name' v='emd' />
  </node>
  <node id='-138233800' action='modify' lat='55.72260114473' lon='12.54001110524' />
  <node id='-138233801' action='modify' lat='55.73123168474' lon='12.53673771312' />
  <way id='-36035532' action='modify'>
    <nd ref='-138233782' />
    <nd ref='-138233784' />
    <tag k='type' v='straight' />
  </way>
  <way id='-36035533' action='modify'>
    <nd ref='-138233784' />
    <nd ref='-138233785' />
    <nd ref='-138233786' />
  </way>
  <way id='-36035534' action='modify'>
    <nd ref='-138233786' />
    <nd ref='-138233787' />
    <tag k='type' v='straight' />
  </way>
  <way id='-36035535' action='modify'>
    <nd ref='-138233787' />
    <nd ref='-138233788' />
  </way>
  <way id='-36035536' action='modify'>
    <nd ref='-138233788' />
    <nd ref='-138233789' />
    <tag k='type' v='straight' />
  </way>
  <way id='-36035537' action='modify'>
    <nd ref='-138233789' />
    <nd ref='-138233790' />
    <nd ref='-138233791' />
  </way>
  <way id='-36035538' action='modify'>
    <nd ref='-138233791' />
    <nd ref='-138233792' />
    <tag k='type' v='straight' />
  </way>
  <way id='-36035539' action='modify'>
    <nd ref='-138233792' />
    <nd ref='-138233794' />
    <nd ref='-138233795' />
  </way>
  <way id='-36035540' action='modify'>
    <nd ref='-138233795' />
    <nd ref='-138233796' />
    <tag k='type' v='straight' />
  </way>
  <way id='-36035541' action='modify'>
    <nd ref='-138233796' />
    <nd ref='-138233797' />
  </way>
  <way id='-36035542' action='modify'>
    <nd ref='-138233797' />
    <nd ref='-138233798' />
    <tag k='type' v='straight' />
  </way>
  <way id='-36035543' action='modify'>
    <nd ref='-138233798' />
    <nd ref='-138233799' />
    <nd ref='-138233800' />
  </way>
  <way id='-36035544' action='modify'>
    <nd ref='-138233800' />
    <nd ref='-138233801' />
    <tag k='type' v='straight' />
  </way>
  <relation id='-14457051' action='modify'>
    <member type='way' ref='-36035532' role='' />
    <member type='way' ref='-36035533' role='' />
    <member type='way' ref='-36035534' role='' />
    <member type='way' ref='-36035535' role='' />
    <member type='way' ref='-36035536' role='' />
    <member type='way' ref='-36035537' role='' />
    <member type='way' ref='-36035538' role='' />
    <member type='way' ref='-36035539' role='' />
    <member type='way' ref='-36035540' role='' />
    <member type='way' ref='-36035541' role='' />
    <member type='way' ref='-36035542' role='' />
    <member type='way' ref='-36035543' role='' />
    <member type='way' ref='-36035544' role='' />
    <tag k='key' v='path.dk.lem' />
    <tag k='name' v='DK LEM' />
    <tag k='type' v='path' />
  </relation>
</osm>
