<?xml version='1.0' encoding='UTF-8'?>
<osm version='0.6' upload='false' generator='JOSM'>
  <node id='-156961889' action='modify' lat='55.47999709518' lon='9.30377076053'>
    <tag k='name' v='lun' />
  </node>
  <node id='-156961890' action='modify' lat='55.47582627857' lon='9.30203285184' />
  <node id='-156961891' action='modify' lat='55.46887375751' lon='9.2899126041' />
  <node id='-156961892' action='modify' lat='55.46878629436' lon='9.28917318123' />
  <node id='-156961893' action='modify' lat='55.46843497844' lon='9.28113301239' />
  <node id='-156961894' action='modify' lat='55.46925450745' lon='9.25089564966' />
  <node id='-156961895' action='modify' lat='55.46935715045' lon='9.24635242278' />
  <node id='-156961896' action='modify' lat='55.46948104121' lon='9.23950193552'>
    <tag k='name' v='and' />
  </node>
  <node id='-156961897' action='modify' lat='55.46950140451' lon='9.23837595347' />
  <node id='-156961898' action='modify' lat='55.46942167451' lon='9.23406357032' />
  <node id='-156961899' action='modify' lat='55.46671184898' lon='9.18498882553' />
  <node id='-156961900' action='modify' lat='55.46759751308' lon='9.17326345906' />
  <node id='-156961901' action='modify' lat='55.47449020321' lon='9.14115479271' />
  <node id='-156961902' action='modify' lat='55.47576105851' lon='9.13608299848'>
    <tag k='name' v='vej' />
  </node>
  <node id='-156961903' action='modify' lat='55.47641070714' lon='9.13385213945' />
  <node id='-156961904' action='modify' lat='55.48242875321' lon='9.11472714061' />
  <node id='-156961905' action='modify' lat='55.48592593535' lon='9.08607345048' />
  <node id='-156961906' action='modify' lat='55.48540874012' lon='9.06953998813' />
  <node id='-156961907' action='modify' lat='55.48530007696' lon='9.06691120522' />
  <node id='-156961908' action='modify' lat='55.48273309543' lon='9.01698724773'>
    <tag k='name' v='bro' />
  </node>
  <node id='-156961909' action='modify' lat='55.48197348369' lon='9.00221455733' />
  <node id='-156961910' action='modify' lat='55.48245355457' lon='8.98781253031' />
  <node id='-156961911' action='modify' lat='55.48377100282' lon='8.97679672736' />
  <node id='-156961912' action='modify' lat='55.48430176996' lon='8.9684590459' />
  <node id='-156961913' action='modify' lat='55.48478568916' lon='8.91422019543'>
    <tag k='name' v='hol' />
  </node>
  <node id='-156961914' action='modify' lat='55.48480898959' lon='8.91160860892' />
  <node id='-156961915' action='modify' lat='55.484140744' lon='8.90114797329' />
  <node id='-156961916' action='modify' lat='55.47989845832' lon='8.8705927849' />
  <node id='-156961917' action='modify' lat='55.4794430341' lon='8.86772315441' />
  <node id='-156961918' action='modify' lat='55.47347380143' lon='8.83436505382' />
  <node id='-156961919' action='modify' lat='55.47268391654' lon='8.82889866695' />
  <node id='-156961920' action='modify' lat='55.47006032115' lon='8.80526639846' />
  <node id='-156961921' action='modify' lat='55.46942887637' lon='8.79994556174'>
    <tag k='name' v='gor' />
  </node>
  <node id='-156961922' action='modify' lat='55.46892094329' lon='8.7954180344' />
  <node id='-156961923' action='modify' lat='55.46862361535' lon='8.79049412203' />
  <node id='-156961924' action='modify' lat='55.46839846285' lon='8.76693405404' />
  <node id='-156961925' action='modify' lat='55.46825961475' lon='8.76324989871' />
  <node id='-156961926' action='modify' lat='55.46522385597' lon='8.71725833318' />
  <node id='-156961927' action='modify' lat='55.4649343211' lon='8.71309429139' />
  <node id='-156961928' action='modify' lat='55.46459616102' lon='8.70852427348' />
  <node id='-156961929' action='modify' lat='55.46446601213' lon='8.70668847682'>
    <tag k='name' v='bra' />
  </node>
  <node id='-156961930' action='modify' lat='55.46436171397' lon='8.70495940171' />
  <node id='-156961931' action='modify' lat='55.46367866121' lon='8.6930938637' />
  <node id='-156961932' action='modify' lat='55.46375236286' lon='8.68338653001' />
  <node id='-156961933' action='modify' lat='55.46421864765' lon='8.67699481042' />
  <node id='-156961934' action='modify' lat='55.46458267615' lon='8.67299509824' />
  <node id='-156961935' action='modify' lat='55.46478189786' lon='8.67117168857' />
  <node id='-156961936' action='modify' lat='55.46511491052' lon='8.66742603151' />
  <node id='-156961937' action='modify' lat='55.46561148976' lon='8.66020570972' />
  <node id='-156961938' action='modify' lat='55.46582632199' lon='8.65567367164' />
  <node id='-156961939' action='modify' lat='55.46591241864' lon='8.65238307848' />
  <node id='-156961940' action='modify' lat='55.46587290792' lon='8.64724905194' />
  <node id='-156961941' action='modify' lat='55.46396514999' lon='8.60140183731' />
  <node id='-156961942' action='modify' lat='55.46528131602' lon='8.58533518283' />
  <node id='-156961943' action='modify' lat='55.46625015586' lon='8.58079858352' />
  <node id='-156961944' action='modify' lat='55.46653321411' lon='8.5793931303'>
    <tag k='name' v='tja' />
  </node>
  <node id='-156961945' action='modify' lat='55.46824487691' lon='8.57035575264' />
  <node id='-156961946' action='modify' lat='55.46947086051' lon='8.56048643681' />
  <node id='-156961947' action='modify' lat='55.47357565659' lon='8.49432110542' />
  <node id='-156961948' action='modify' lat='55.47384499586' lon='8.4914207416' />
  <node id='-156961949' action='modify' lat='55.47445963971' lon='8.48647327299'>
    <tag k='name' v='jer' />
  </node>
  <node id='-156961950' action='modify' lat='55.47587760593' lon='8.4750593065' />
  <node id='-156961951' action='modify' lat='55.47334187099' lon='8.46281117838' />
  <node id='-156961952' action='modify' lat='55.4723061275' lon='8.46161842078' />
  <node id='-156961953' action='modify' lat='55.47105737773' lon='8.46047650394' />
  <node id='-156961954' action='modify' lat='55.47084222362' lon='8.46027976033' />
  <node id='-156961955' action='modify' lat='55.46899658719' lon='8.45914166873' />
  <node id='-156961956' action='modify' lat='55.46724516891' lon='8.45846942752'>
    <tag k='name' v='esb' />
  </node>
  <node id='-156961957' action='modify' lat='55.46513917456' lon='8.45766113006' />
  <node id='-156961958' action='modify' lat='55.46726341471' lon='8.45827899068'>
    <tag k='name' v='esb' />
  </node>
  <node id='-156961959' action='modify' lat='55.46901483218' lon='8.45895123189' />
  <node id='-156961960' action='modify' lat='55.47028729392' lon='8.45967358109' />
  <node id='-156961961' action='modify' lat='55.47089998578' lon='8.46021099578' />
  <node id='-156961962' action='modify' lat='55.47196277989' lon='8.46085931825' />
  <node id='-156961963' action='modify' lat='55.476759989' lon='8.46270608213' />
  <node id='-156961964' action='modify' lat='55.48098905591' lon='8.46313118868' />
  <node id='-156961965' action='modify' lat='55.49262179764' lon='8.46080011741'>
    <tag k='name' v='spa' />
  </node>
  <node id='-156961966' action='modify' lat='55.50949645895' lon='8.45741740016'>
    <tag k='name' v='gje' />
  </node>
  <node id='-156961967' action='modify' lat='55.51039601274' lon='8.45723703369' />
  <node id='-156961968' action='modify' lat='55.51435613319' lon='8.45536686413' />
  <node id='-156961969' action='modify' lat='55.51985711669' lon='8.45132812724' />
  <node id='-156961970' action='modify' lat='55.5229402162' lon='8.44931915268' />
  <node id='-156961971' action='modify' lat='55.52437577552' lon='8.44826906785' />
  <node id='-156961972' action='modify' lat='55.52505368141' lon='8.44775274262' />
  <node id='-156961973' action='modify' lat='55.52860243819' lon='8.44492703542' />
  <node id='-156961974' action='modify' lat='55.53167555546' lon='8.44273064017' />
  <node id='-156961975' action='modify' lat='55.53379822699' lon='8.44156555764' />
  <node id='-156961976' action='modify' lat='55.53541667169' lon='8.44081655011' />
  <node id='-156961977' action='modify' lat='55.53612246771' lon='8.44045696629'>
    <tag k='name' v='gul' />
  </node>
  <node id='-156961978' action='modify' lat='55.53709386376' lon='8.43990728125' />
  <node id='-156961979' action='modify' lat='55.53995554986' lon='8.43819469079' />
  <node id='-156961980' action='modify' lat='55.54082137566' lon='8.43769714102' />
  <node id='-156961981' action='modify' lat='55.5446832118' lon='8.43559697203' />
  <node id='-156961982' action='modify' lat='55.54919067376' lon='8.43453146484' />
  <node id='-156961983' action='modify' lat='55.55705530272' lon='8.43472659521' />
  <node id='-156961984' action='modify' lat='55.56029362336' lon='8.43548431925' />
  <node id='-156961985' action='modify' lat='55.59080506782' lon='8.44889134035' />
  <node id='-156961986' action='modify' lat='55.59375036958' lon='8.45093384318' />
  <node id='-156961987' action='modify' lat='55.60829668423' lon='8.46469357543' />
  <node id='-156961988' action='modify' lat='55.611673561' lon='8.47084253959' />
  <node id='-156961989' action='modify' lat='55.6121120862' lon='8.472201213'>
    <tag k='name' v='vak' />
  </node>
  <node id='-156961990' action='modify' lat='55.6125730277' lon='8.47362935476' />
  <node id='-156961991' action='modify' lat='55.61309565609' lon='8.4752681838' />
  <node id='-156961992' action='modify' lat='55.61479642083' lon='8.48071977429' />
  <node id='-156961993' action='modify' lat='55.6150569635' lon='8.48151706092' />
  <node id='-156961994' action='modify' lat='55.61601349063' lon='8.48435288155'>
    <tag k='name' v='var' />
  </node>
  <node id='-156961995' action='modify' lat='55.6165789071' lon='8.48602920704' />
  <node id='-156961996' action='modify' lat='55.61719160621' lon='8.4874608361' />
  <node id='-156961997' action='modify' lat='55.61723023092' lon='8.48752923243' />
  <node id='-156961998' action='modify' lat='55.61842795689' lon='8.48889715903' />
  <node id='-156961999' action='modify' lat='55.6196048205' lon='8.48980374567' />
  <node id='-156962000' action='modify' lat='55.62144539804' lon='8.4909497188' />
  <node id='-156962001' action='modify' lat='55.62267139181' lon='8.49153846368' />
  <node id='-156962002' action='modify' lat='55.62624541015' lon='8.49443323843' />
  <node id='-156962003' action='modify' lat='55.6305368308' lon='8.49943354659' />
  <node id='-156962004' action='modify' lat='55.63089369398' lon='8.49986220127'>
    <tag k='name' v='van' />
  </node>
  <node id='-156962005' action='modify' lat='55.63478122558' lon='8.50711338155' />
  <node id='-156962006' action='modify' lat='55.63589287632' lon='8.51031124458' />
  <node id='-156962007' action='modify' lat='55.63648407827' lon='8.5118964301' />
  <node id='-156962008' action='modify' lat='55.63681260405' lon='8.51272120938' />
  <node id='-156962009' action='modify' lat='55.63771262946' lon='8.51522907481' />
  <node id='-156962010' action='modify' lat='55.64041560923' lon='8.52336421475' />
  <node id='-156962011' action='modify' lat='55.64132917573' lon='8.5260571526' />
  <node id='-156962012' action='modify' lat='55.64882158492' lon='8.54863330588' />
  <node id='-156962013' action='modify' lat='55.65140083636' lon='8.55464279585' />
  <node id='-156962014' action='modify' lat='55.66057042825' lon='8.57119604811' />
  <node id='-156962015' action='modify' lat='55.66541013783' lon='8.57702435974'>
    <tag k='name' v='sig' />
  </node>
  <node id='-156962016' action='modify' lat='55.66714772622' lon='8.5779753314' />
  <node id='-156962017' action='modify' lat='55.71165743138' lon='8.59620496497' />
  <node id='-156962018' action='modify' lat='55.71233135073' lon='8.59646312825' />
  <node id='-156962019' action='modify' lat='55.71569624266' lon='8.59767883882' />
  <node id='-156962020' action='modify' lat='55.71679045091' lon='8.59812427104'>
    <tag k='name' v='tis' />
  </node>
  <node id='-156962021' action='modify' lat='55.71757045374' lon='8.59848618373' />
  <node id='-156962022' action='modify' lat='55.71843349695' lon='8.59889723293' />
  <node id='-156962023' action='modify' lat='55.7200443351' lon='8.59964489803' />
  <node id='-156962024' action='modify' lat='55.73318311707' lon='8.60504552588' />
  <node id='-156962025' action='modify' lat='55.73630535332' lon='8.60595479541' />
  <node id='-156962026' action='modify' lat='55.76547866076' lon='8.61163967288'>
    <tag k='name' v='gar' />
  </node>
  <node id='-156962027' action='modify' lat='55.77586928231' lon='8.61366547611' />
  <node id='-156962028' action='modify' lat='55.77687811845' lon='8.61390151016' />
  <node id='-156962029' action='modify' lat='55.81096544827' lon='8.62273995573'>
    <tag k='name' v='olg' />
  </node>
  <node id='-156962030' action='modify' lat='55.81344219143' lon='8.62338244781' />
  <node id='-156962031' action='modify' lat='55.81994593424' lon='8.62220965259' />
  <node id='-156962032' action='modify' lat='55.8294266498' lon='8.61524932019' />
  <node id='-156962033' action='modify' lat='55.83470840648' lon='8.60726639494' />
  <node id='-156962034' action='modify' lat='55.84123005615' lon='8.58944579825' />
  <node id='-156962035' action='modify' lat='55.84558185761' lon='8.58230642907' />
  <node id='-156962036' action='modify' lat='55.85437771894' lon='8.57420414552' />
  <node id='-156962037' action='modify' lat='55.85759375045' lon='8.57171706788' />
  <node id='-156962038' action='modify' lat='55.86312397742' lon='8.56825117185'>
    <tag k='name' v='sko' />
  </node>
  <node id='-156962039' action='modify' lat='55.86654341866' lon='8.56610789761' />
  <node id='-156962040' action='modify' lat='55.87065950543' lon='8.56278665297' />
  <node id='-156962041' action='modify' lat='55.90020125573' lon='8.53329643473' />
  <node id='-156962042' action='modify' lat='55.90426979504' lon='8.52834373645' />
  <node id='-156962043' action='modify' lat='55.90815599319' lon='8.52264135942' />
  <node id='-156962044' action='modify' lat='55.91059284903' lon='8.52001274695'>
    <tag k='name' v='tar' />
  </node>
  <node id='-156962045' action='modify' lat='55.91222041645' lon='8.51877199756' />
  <node id='-156962046' action='modify' lat='55.91227285484' lon='8.51873547004' />
  <node id='-156962047' action='modify' lat='55.91266227676' lon='8.51847387783' />
  <node id='-156962048' action='modify' lat='55.93344002987' lon='8.50532770023' />
  <node id='-156962049' action='modify' lat='55.93530002343' lon='8.50388064913' />
  <node id='-156962050' action='modify' lat='55.94365161858' lon='8.49585681885' />
  <node id='-156962051' action='modify' lat='55.94470154243' lon='8.49476247892' />
  <node id='-156962052' action='modify' lat='55.94488936304' lon='8.49454849098'>
    <tag k='name' v='ske' />
  </node>
  <node id='-156962053' action='modify' lat='55.94503348766' lon='8.49438428611' />
  <node id='-156962054' action='modify' lat='55.94574615099' lon='8.49362733225' />
  <node id='-156962055' action='modify' lat='55.94744262618' lon='8.49200016521'>
    <tag k='name' v='ske.s' />
  </node>
  <node id='-156962056' action='modify' lat='55.95082929047' lon='8.48875164717' />
  <node id='-156962057' action='modify' lat='55.95396938438' lon='8.48400816187' />
  <node id='-156962058' action='modify' lat='55.95533962325' lon='8.48121195897' />
  <node id='-156962059' action='modify' lat='55.95746808991' lon='8.47538217768' />
  <node id='-156962060' action='modify' lat='55.9666600698' lon='8.44004675612' />
  <node id='-156962061' action='modify' lat='55.97482179857' lon='8.42561647162' />
  <node id='-156962062' action='modify' lat='55.99132158696' lon='8.41258948198'>
    <tag k='name' v='dej' />
  </node>
  <node id='-156962063' action='modify' lat='55.99826383471' lon='8.40710674445' />
  <node id='-156962064' action='modify' lat='55.99867880985' lon='8.40677987457' />
  <node id='-156962065' action='modify' lat='56.02508679528' lon='8.3858886793'>
    <tag k='name' v='lem' />
  </node>
  <node id='-156962066' action='modify' lat='56.03431325879' lon='8.37858631245' />
  <node id='-156962067' action='modify' lat='56.03490360419' lon='8.37811656229' />
  <node id='-156962068' action='modify' lat='56.05329427078' lon='8.36354412071' />
  <node id='-156962069' action='modify' lat='56.06184727658' lon='8.34217362039' />
  <node id='-156962070' action='modify' lat='56.06323604971' lon='8.32603262597'>
    <tag k='name' v='vel' />
  </node>
  <node id='-156962071' action='modify' lat='56.06393244867' lon='8.31793852083' />
  <node id='-156962072' action='modify' lat='56.06606317589' lon='8.30754965477' />
  <node id='-156962073' action='modify' lat='56.07903216762' lon='8.27030449972' />
  <node id='-156962074' action='modify' lat='56.08197738992' lon='8.26452769272' />
  <node id='-156962075' action='modify' lat='56.08760303373' lon='8.25672112338' />
  <node id='-156962076' action='modify' lat='56.08862885068' lon='8.25534716181' />
  <node id='-156962077' action='modify' lat='56.08908451115' lon='8.25476378135' />
  <node id='-156962078' action='modify' lat='56.08950547944' lon='8.2542421437' />
  <node id='-156962079' action='modify' lat='56.08960785469' lon='8.25411747276' />
  <node id='-156962080' action='modify' lat='56.09044397842' lon='8.25311891668' />
  <node id='-156962081' action='modify' lat='56.09299900308' lon='8.25013904838'>
    <tag k='name' v='rin' />
  </node>
  <node id='-156962082' action='modify' lat='56.09454042119' lon='8.2483412312' />
  <node id='-156962083' action='modify' lat='56.10134566412' lon='8.24833251469' />
  <node id='-156962084' action='modify' lat='56.12812034642' lon='8.28058607843' />
  <node id='-156962085' action='modify' lat='56.13454337893' lon='8.28487627141' />
  <node id='-156962086' action='modify' lat='56.14466605155' lon='8.28695219413'>
    <tag k='name' v='hee' />
  </node>
  <node id='-156962087' action='modify' lat='56.15034825814' lon='8.28811772101' />
  <node id='-156962088' action='modify' lat='56.15296235164' lon='8.28888751533' />
  <node id='-156962089' action='modify' lat='56.19076333886' lon='8.30384083025' />
  <node id='-156962090' action='modify' lat='56.19170581604' lon='8.30424114995' />
  <node id='-156962091' action='modify' lat='56.19581181372' lon='8.30607410453'>
    <tag k='name' v='tim' />
  </node>
  <node id='-156962092' action='modify' lat='56.19708562646' lon='8.30668866567' />
  <node id='-156962093' action='modify' lat='56.21768906559' lon='8.31708624825' />
  <node id='-156962094' action='modify' lat='56.22307660215' lon='8.31880822711' />
  <node id='-156962095' action='modify' lat='56.2677681629' lon='8.32419477336' />
  <node id='-156962096' action='modify' lat='56.26899955729' lon='8.32444220714' />
  <node id='-156962097' action='modify' lat='56.27168802317' lon='8.3251112814'>
    <tag k='name' v='ulf' />
  </node>
  <node id='-156962098' action='modify' lat='56.33905831428' lon='8.34189299461' />
  <node id='-156962099' action='modify' lat='56.34253923355' lon='8.34394823726' />
  <node id='-156962100' action='modify' lat='56.34274234463' lon='8.34415450819' />
  <node id='-156962101' action='modify' lat='56.34361026954' lon='8.34521148479'>
    <tag k='name' v='vem' />
  </node>
  <node id='-156962102' action='modify' lat='56.34431774869' lon='8.34620329487' />
  <node id='-156962103' action='modify' lat='56.34465732508' lon='8.34669917755' />
  <node id='-156962104' action='modify' lat='56.34501280893' lon='8.34723952061' />
  <node id='-156962105' action='modify' lat='56.35537549036' lon='8.36333759062' />
  <node id='-156962106' action='modify' lat='56.35979735105' lon='8.37615720894' />
  <node id='-156962107' action='modify' lat='56.36743771873' lon='8.42571303114' />
  <node id='-156962108' action='modify' lat='56.36767913463' lon='8.42736255096'>
    <tag k='name' v='bur' />
  </node>
  <node id='-156962109' action='modify' lat='56.36810325294' lon='8.43114785783' />
  <node id='-156962110' action='modify' lat='56.37493545238' lon='8.51121380791' />
  <node id='-156962111' action='modify' lat='56.37494805897' lon='8.51860527424'>
    <tag k='name' v='nau' />
  </node>
  <node id='-156962112' action='modify' lat='56.37482628312' lon='8.519906848' />
  <node id='-156962113' action='modify' lat='56.3696556266' lon='8.56728069417' />
  <node id='-156962114' action='modify' lat='56.3687329373' lon='8.57350140776' />
  <node id='-156962115' action='modify' lat='56.36282777592' lon='8.60522149415' />
  <node id='-156962116' action='modify' lat='56.36247852563' lon='8.60715441339' />
  <node id='-156962117' action='modify' lat='56.36168028491' lon='8.61159883372' />
  <node id='-156962118' action='modify' lat='56.36164499701' lon='8.61588768594' />
  <node id='-156962119' action='modify' lat='56.36331055065' lon='8.61935511097' />
  <node id='-156962120' action='modify' lat='56.36469523713' lon='8.61999079451' />
  <node id='-156962121' action='modify' lat='56.36541321581' lon='8.62016792113'>
    <tag k='name' v='hol' />
  </node>
  <node id='-156962122' action='modify' lat='56.36719036828' lon='8.62060636215' />
  <node id='-156962123' action='modify' lat='56.36805523457' lon='8.62081490884' />
  <node id='-156962124' action='modify' lat='56.36961960333' lon='8.6211870604' />
  <node id='-156962125' action='modify' lat='56.38417802712' lon='8.62465113267' />
  <node id='-156962126' action='modify' lat='56.39080211318' lon='8.62933895158' />
  <node id='-156962127' action='modify' lat='56.39165494557' lon='8.63064428737' />
  <node id='-156962128' action='modify' lat='56.39257734201' lon='8.63194439493' />
  <node id='-156962129' action='modify' lat='56.39525917966' lon='8.63549329273' />
  <node id='-156962130' action='modify' lat='56.40039778914' lon='8.63929867677' />
  <node id='-156962131' action='modify' lat='56.41278983097' lon='8.6421904337' />
  <node id='-156962132' action='modify' lat='56.41321735239' lon='8.64230073921' />
  <node id='-156962133' action='modify' lat='56.42245063906' lon='8.64492729172' />
  <node id='-156962134' action='modify' lat='56.42518006353' lon='8.64509224825' />
  <node id='-156962135' action='modify' lat='56.43366524718' lon='8.64347755775' />
  <node id='-156962136' action='modify' lat='56.43858700184' lon='8.64037960634' />
  <node id='-156962137' action='modify' lat='56.43880210719' lon='8.64012954805'>
    <tag k='name' v='hje' />
  </node>
  <node id='-156962138' action='modify' lat='56.43965757333' lon='8.63913506135' />
  <node id='-156962139' action='modify' lat='56.44042597745' lon='8.6382106205' />
  <node id='-156962140' action='modify' lat='56.44159517694' lon='8.63679698127' />
  <node id='-156962141' action='modify' lat='56.44206180057' lon='8.63623425297' />
  <node id='-156962142' action='modify' lat='56.44416194686' lon='8.63378271326' />
  <node id='-156962143' action='modify' lat='56.44756693116' lon='8.62766794793' />
  <node id='-156962144' action='modify' lat='56.44879104995' lon='8.62427696519' />
  <node id='-156962145' action='modify' lat='56.45768223874' lon='8.61616160654' />
  <node id='-156962146' action='modify' lat='56.46115306953' lon='8.61652269825' />
  <node id='-156962147' action='modify' lat='56.46406568397' lon='8.61614920132' />
  <node id='-156962148' action='modify' lat='56.47796772966' lon='8.61080556974' />
  <node id='-156962149' action='modify' lat='56.47945785835' lon='8.61019402608' />
  <node id='-156962150' action='modify' lat='56.47974817482' lon='8.61007332668' />
  <node id='-156962151' action='modify' lat='56.48486167619' lon='8.6107934998' />
  <node id='-156962152' action='modify' lat='56.48592427971' lon='8.61166521773' />
  <node id='-156962153' action='modify' lat='56.49044093822' lon='8.60846936569' />
  <node id='-156962154' action='modify' lat='56.49083482458' lon='8.60702901945' />
  <node id='-156962155' action='modify' lat='56.4911694767' lon='8.60486581787' />
  <node id='-156962156' action='modify' lat='56.49171850387' lon='8.60069906087'>
    <tag k='name' v='str' />
  </node>
  <way id='-37105337' action='modify'>
    <nd ref='-156961889' />
    <nd ref='-156961890' />
    <tag k='type' v='straight' />
  </way>
  <way id='-37105338' action='modify'>
    <nd ref='-156961890' />
    <nd ref='-156961891' />
  </way>
  <way id='-37105339' action='modify'>
    <nd ref='-156961891' />
    <nd ref='-156961892' />
    <tag k='type' v='straight' />
  </way>
  <way id='-37105340' action='modify'>
    <nd ref='-156961892' />
    <nd ref='-156961893' />
  </way>
  <way id='-37105341' action='modify'>
    <nd ref='-156961893' />
    <nd ref='-156961894' />
    <tag k='type' v='straight' />
  </way>
  <way id='-37105342' action='modify'>
    <nd ref='-156961894' />
    <nd ref='-156961895' />
    <tag k='type' v='arc' />
  </way>
  <way id='-37105343' action='modify'>
    <nd ref='-156961895' />
    <nd ref='-156961896' />
    <nd ref='-156961897' />
    <tag k='type' v='straight' />
  </way>
  <way id='-37105344' action='modify'>
    <nd ref='-156961897' />
    <nd ref='-156961898' />
    <tag k='type' v='arc' />
  </way>
  <way id='-37105345' action='modify'>
    <nd ref='-156961898' />
    <nd ref='-156961899' />
    <tag k='type' v='straight' />
  </way>
  <way id='-37105346' action='modify'>
    <nd ref='-156961899' />
    <nd ref='-156961900' />
    <tag k='type' v='arc' />
  </way>
  <way id='-37105347' action='modify'>
    <nd ref='-156961900' />
    <nd ref='-156961901' />
    <tag k='type' v='straight' />
  </way>
  <way id='-37105348' action='modify'>
    <nd ref='-156961901' />
    <nd ref='-156961902' />
    <nd ref='-156961903' />
    <tag k='type' v='arc' />
  </way>
  <way id='-37105349' action='modify'>
    <nd ref='-156961903' />
    <nd ref='-156961904' />
    <tag k='type' v='straight' />
  </way>
  <way id='-37105350' action='modify'>
    <nd ref='-156961904' />
    <nd ref='-156961905' />
    <tag k='type' v='curved' />
  </way>
  <way id='-37105351' action='modify'>
    <nd ref='-156961905' />
    <nd ref='-156961906' />
    <tag k='type' v='straight' />
  </way>
  <way id='-37105352' action='modify'>
    <nd ref='-156961906' />
    <nd ref='-156961907' />
    <tag k='type' v='arc' />
  </way>
  <way id='-37105353' action='modify'>
    <nd ref='-156961907' />
    <nd ref='-156961908' />
    <nd ref='-156961909' />
    <tag k='type' v='straight' />
  </way>
  <way id='-37105354' action='modify'>
    <nd ref='-156961909' />
    <nd ref='-156961910' />
    <tag k='type' v='arc' />
  </way>
  <way id='-37105355' action='modify'>
    <nd ref='-156961910' />
    <nd ref='-156961911' />
    <tag k='type' v='straight' />
  </way>
  <way id='-37105356' action='modify'>
    <nd ref='-156961911' />
    <nd ref='-156961912' />
    <tag k='type' v='arc' />
  </way>
  <way id='-37105357' action='modify'>
    <nd ref='-156961912' />
    <nd ref='-156961913' />
    <nd ref='-156961914' />
    <tag k='type' v='straight' />
  </way>
  <way id='-37105358' action='modify'>
    <nd ref='-156961914' />
    <nd ref='-156961915' />
    <tag k='type' v='arc' />
  </way>
  <way id='-37105359' action='modify'>
    <nd ref='-156961915' />
    <nd ref='-156961916' />
    <tag k='type' v='straight' />
  </way>
  <way id='-37105360' action='modify'>
    <nd ref='-156961916' />
    <nd ref='-156961917' />
    <tag k='type' v='arc' />
  </way>
  <way id='-37105361' action='modify'>
    <nd ref='-156961917' />
    <nd ref='-156961918' />
    <tag k='type' v='straight' />
  </way>
  <way id='-37105362' action='modify'>
    <nd ref='-156961918' />
    <nd ref='-156961919' />
    <tag k='type' v='arc' />
  </way>
  <way id='-37105363' action='modify'>
    <nd ref='-156961919' />
    <nd ref='-156961920' />
    <tag k='type' v='straight' />
  </way>
  <way id='-37105364' action='modify'>
    <nd ref='-156961920' />
    <nd ref='-156961921' />
    <tag k='type' v='arc' />
  </way>
  <way id='-37105365' action='modify'>
    <nd ref='-156961921' />
    <nd ref='-156961922' />
    <tag k='type' v='straight' />
  </way>
  <way id='-37105366' action='modify'>
    <nd ref='-156961922' />
    <nd ref='-156961923' />
    <tag k='type' v='arc' />
  </way>
  <way id='-37105367' action='modify'>
    <nd ref='-156961923' />
    <nd ref='-156961924' />
    <tag k='type' v='straight' />
  </way>
  <way id='-37105368' action='modify'>
    <nd ref='-156961924' />
    <nd ref='-156961925' />
    <tag k='type' v='arc' />
  </way>
  <way id='-37105369' action='modify'>
    <nd ref='-156961925' />
    <nd ref='-156961926' />
    <tag k='type' v='straight' />
  </way>
  <way id='-37105370' action='modify'>
    <nd ref='-156961926' />
    <nd ref='-156961927' />
    <tag k='type' v='arc' />
  </way>
  <way id='-37105371' action='modify'>
    <nd ref='-156961927' />
    <nd ref='-156961928' />
    <tag k='type' v='straight' />
  </way>
  <way id='-37105372' action='modify'>
    <nd ref='-156961928' />
    <nd ref='-156961929' />
    <nd ref='-156961930' />
    <tag k='type' v='arc' />
  </way>
  <way id='-37105373' action='modify'>
    <nd ref='-156961930' />
    <nd ref='-156961931' />
    <tag k='type' v='straight' />
  </way>
  <way id='-37105374' action='modify'>
    <nd ref='-156961931' />
    <nd ref='-156961932' />
    <tag k='type' v='arc' />
  </way>
  <way id='-37105375' action='modify'>
    <nd ref='-156961932' />
    <nd ref='-156961933' />
    <tag k='type' v='straight' />
  </way>
  <way id='-37105376' action='modify'>
    <nd ref='-156961933' />
    <nd ref='-156961934' />
    <tag k='type' v='arc' />
  </way>
  <way id='-37105377' action='modify'>
    <nd ref='-156961934' />
    <nd ref='-156961935' />
    <tag k='type' v='straight' />
  </way>
  <way id='-37105378' action='modify'>
    <nd ref='-156961935' />
    <nd ref='-156961936' />
    <tag k='type' v='arc' />
  </way>
  <way id='-37105379' action='modify'>
    <nd ref='-156961936' />
    <nd ref='-156961937' />
    <tag k='type' v='straight' />
  </way>
  <way id='-37105380' action='modify'>
    <nd ref='-156961937' />
    <nd ref='-156961938' />
    <tag k='type' v='arc' />
  </way>
  <way id='-37105381' action='modify'>
    <nd ref='-156961938' />
    <nd ref='-156961939' />
    <tag k='type' v='straight' />
  </way>
  <way id='-37105382' action='modify'>
    <nd ref='-156961939' />
    <nd ref='-156961940' />
    <tag k='type' v='arc' />
  </way>
  <way id='-37105383' action='modify'>
    <nd ref='-156961940' />
    <nd ref='-156961941' />
    <tag k='type' v='straight' />
  </way>
  <way id='-37105384' action='modify'>
    <nd ref='-156961941' />
    <nd ref='-156961942' />
    <tag k='type' v='arc' />
  </way>
  <way id='-37105385' action='modify'>
    <nd ref='-156961942' />
    <nd ref='-156961943' />
    <tag k='type' v='straight' />
  </way>
  <way id='-37105386' action='modify'>
    <nd ref='-156961943' />
    <nd ref='-156961944' />
    <tag k='type' v='arc' />
  </way>
  <way id='-37105387' action='modify'>
    <nd ref='-156961944' />
    <nd ref='-156961945' />
    <tag k='type' v='straight' />
  </way>
  <way id='-37105388' action='modify'>
    <nd ref='-156961945' />
    <nd ref='-156961946' />
    <tag k='type' v='arc' />
  </way>
  <way id='-37105389' action='modify'>
    <nd ref='-156961946' />
    <nd ref='-156961947' />
    <tag k='type' v='straight' />
  </way>
  <way id='-37105390' action='modify'>
    <nd ref='-156961947' />
    <nd ref='-156961948' />
    <tag k='type' v='arc' />
  </way>
  <way id='-37105391' action='modify'>
    <nd ref='-156961948' />
    <nd ref='-156961949' />
    <nd ref='-156961950' />
    <tag k='type' v='straight' />
  </way>
  <way id='-37105392' action='modify'>
    <nd ref='-156961950' />
    <nd ref='-156961951' />
    <nd ref='-156961952' />
    <tag k='type' v='arc' />
  </way>
  <way id='-37105393' action='modify'>
    <nd ref='-156961952' />
    <nd ref='-156961953' />
    <nd ref='-156961954' />
    <tag k='type' v='straight' />
  </way>
  <way id='-37105394' action='modify'>
    <nd ref='-156961954' />
    <nd ref='-156961955' />
    <tag k='type' v='arc' />
  </way>
  <way id='-37105395' action='modify'>
    <nd ref='-156961955' />
    <nd ref='-156961956' />
    <nd ref='-156961957' />
    <tag k='type' v='straight' />
  </way>
  <way id='-37105396' action='modify'>
    <nd ref='-156961958' />
    <nd ref='-156961959' />
    <tag k='type' v='straight' />
  </way>
  <way id='-37105397' action='modify'>
    <nd ref='-156961959' />
    <nd ref='-156961960' />
    <tag k='type' v='arc' />
  </way>
  <way id='-37105398' action='modify'>
    <nd ref='-156961960' />
    <nd ref='-156961961' />
    <tag k='type' v='straight' />
  </way>
  <way id='-37105399' action='modify'>
    <nd ref='-156961961' />
    <nd ref='-156961962' />
  </way>
  <way id='-37105400' action='modify'>
    <nd ref='-156961962' />
    <nd ref='-156961963' />
    <tag k='type' v='straight' />
  </way>
  <way id='-37105401' action='modify'>
    <nd ref='-156961963' />
    <nd ref='-156961964' />
  </way>
  <way id='-37105402' action='modify'>
    <nd ref='-156961964' />
    <nd ref='-156961965' />
    <nd ref='-156961966' />
    <nd ref='-156961967' />
    <tag k='type' v='straight' />
  </way>
  <way id='-37105403' action='modify'>
    <nd ref='-156961967' />
    <nd ref='-156961968' />
  </way>
  <way id='-37105404' action='modify'>
    <nd ref='-156961968' />
    <nd ref='-156961969' />
    <tag k='type' v='straight' />
  </way>
  <way id='-37105405' action='modify'>
    <nd ref='-156961969' />
    <nd ref='-156961970' />
  </way>
  <way id='-37105406' action='modify'>
    <nd ref='-156961970' />
    <nd ref='-156961971' />
    <tag k='type' v='straight' />
  </way>
  <way id='-37105407' action='modify'>
    <nd ref='-156961971' />
    <nd ref='-156961972' />
  </way>
  <way id='-37105408' action='modify'>
    <nd ref='-156961972' />
    <nd ref='-156961973' />
    <tag k='type' v='straight' />
  </way>
  <way id='-37105409' action='modify'>
    <nd ref='-156961973' />
    <nd ref='-156961974' />
    <nd ref='-156961975' />
  </way>
  <way id='-37105410' action='modify'>
    <nd ref='-156961975' />
    <nd ref='-156961976' />
    <tag k='type' v='straight' />
  </way>
  <way id='-37105411' action='modify'>
    <nd ref='-156961976' />
    <nd ref='-156961977' />
    <nd ref='-156961978' />
  </way>
  <way id='-37105412' action='modify'>
    <nd ref='-156961978' />
    <nd ref='-156961979' />
    <tag k='type' v='straight' />
  </way>
  <way id='-37105413' action='modify'>
    <nd ref='-156961979' />
    <nd ref='-156961980' />
  </way>
  <way id='-37105414' action='modify'>
    <nd ref='-156961980' />
    <nd ref='-156961981' />
    <tag k='type' v='straight' />
  </way>
  <way id='-37105415' action='modify'>
    <nd ref='-156961981' />
    <nd ref='-156961982' />
  </way>
  <way id='-37105416' action='modify'>
    <nd ref='-156961982' />
    <nd ref='-156961983' />
    <tag k='type' v='straight' />
  </way>
  <way id='-37105417' action='modify'>
    <nd ref='-156961983' />
    <nd ref='-156961984' />
  </way>
  <way id='-37105418' action='modify'>
    <nd ref='-156961984' />
    <nd ref='-156961985' />
    <tag k='type' v='straight' />
  </way>
  <way id='-37105419' action='modify'>
    <nd ref='-156961985' />
    <nd ref='-156961986' />
  </way>
  <way id='-37105420' action='modify'>
    <nd ref='-156961986' />
    <nd ref='-156961987' />
    <tag k='type' v='straight' />
  </way>
  <way id='-37105421' action='modify'>
    <nd ref='-156961987' />
    <nd ref='-156961988' />
  </way>
  <way id='-37105422' action='modify'>
    <nd ref='-156961988' />
    <nd ref='-156961989' />
    <nd ref='-156961990' />
    <tag k='type' v='straight' />
  </way>
  <way id='-37105423' action='modify'>
    <nd ref='-156961990' />
    <nd ref='-156961991' />
  </way>
  <way id='-37105424' action='modify'>
    <nd ref='-156961991' />
    <nd ref='-156961992' />
    <nd ref='-156961993' />
  </way>
  <way id='-37105425' action='modify'>
    <nd ref='-156961993' />
    <nd ref='-156961994' />
    <nd ref='-156961995' />
    <tag k='type' v='straight' />
  </way>
  <way id='-37105426' action='modify'>
    <nd ref='-156961995' />
    <nd ref='-156961996' />
  </way>
  <way id='-37105427' action='modify'>
    <nd ref='-156961996' />
    <nd ref='-156961997' />
    <tag k='type' v='straight' />
  </way>
  <way id='-37105428' action='modify'>
    <nd ref='-156961997' />
    <nd ref='-156961998' />
  </way>
  <way id='-37105429' action='modify'>
    <nd ref='-156961998' />
    <nd ref='-156961999' />
    <tag k='type' v='straight' />
  </way>
  <way id='-37105430' action='modify'>
    <nd ref='-156961999' />
    <nd ref='-156962000' />
  </way>
  <way id='-37105431' action='modify'>
    <nd ref='-156962000' />
    <nd ref='-156962001' />
    <tag k='type' v='straight' />
  </way>
  <way id='-37105432' action='modify'>
    <nd ref='-156962001' />
    <nd ref='-156962002' />
  </way>
  <way id='-37105433' action='modify'>
    <nd ref='-156962002' />
    <nd ref='-156962003' />
    <tag k='type' v='straight' />
  </way>
  <way id='-37105434' action='modify'>
    <nd ref='-156962003' />
    <nd ref='-156962004' />
    <nd ref='-156962005' />
  </way>
  <way id='-37105435' action='modify'>
    <nd ref='-156962005' />
    <nd ref='-156962006' />
    <tag k='type' v='straight' />
  </way>
  <way id='-37105436' action='modify'>
    <nd ref='-156962006' />
    <nd ref='-156962007' />
  </way>
  <way id='-37105437' action='modify'>
    <nd ref='-156962007' />
    <nd ref='-156962008' />
    <tag k='type' v='straight' />
  </way>
  <way id='-37105438' action='modify'>
    <nd ref='-156962008' />
    <nd ref='-156962009' />
  </way>
  <way id='-37105439' action='modify'>
    <nd ref='-156962009' />
    <nd ref='-156962010' />
    <tag k='type' v='straight' />
  </way>
  <way id='-37105440' action='modify'>
    <nd ref='-156962010' />
    <nd ref='-156962011' />
  </way>
  <way id='-37105441' action='modify'>
    <nd ref='-156962011' />
    <nd ref='-156962012' />
    <tag k='type' v='straight' />
  </way>
  <way id='-37105442' action='modify'>
    <nd ref='-156962012' />
    <nd ref='-156962013' />
  </way>
  <way id='-37105443' action='modify'>
    <nd ref='-156962013' />
    <nd ref='-156962014' />
    <tag k='type' v='straight' />
  </way>
  <way id='-37105444' action='modify'>
    <nd ref='-156962014' />
    <nd ref='-156962015' />
    <nd ref='-156962016' />
  </way>
  <way id='-37105445' action='modify'>
    <nd ref='-156962016' />
    <nd ref='-156962017' />
    <tag k='type' v='straight' />
  </way>
  <way id='-37105446' action='modify'>
    <nd ref='-156962017' />
    <nd ref='-156962018' />
  </way>
  <way id='-37105447' action='modify'>
    <nd ref='-156962018' />
    <nd ref='-156962019' />
    <tag k='type' v='straight' />
  </way>
  <way id='-37105448' action='modify'>
    <nd ref='-156962019' />
    <nd ref='-156962020' />
    <nd ref='-156962021' />
  </way>
  <way id='-37105449' action='modify'>
    <nd ref='-156962021' />
    <nd ref='-156962022' />
    <tag k='type' v='straight' />
  </way>
  <way id='-37105450' action='modify'>
    <nd ref='-156962022' />
    <nd ref='-156962023' />
  </way>
  <way id='-37105451' action='modify'>
    <nd ref='-156962023' />
    <nd ref='-156962024' />
    <tag k='type' v='straight' />
  </way>
  <way id='-37105452' action='modify'>
    <nd ref='-156962024' />
    <nd ref='-156962025' />
  </way>
  <way id='-37105453' action='modify'>
    <nd ref='-156962025' />
    <nd ref='-156962026' />
    <nd ref='-156962027' />
    <tag k='type' v='straight' />
  </way>
  <way id='-37105454' action='modify'>
    <nd ref='-156962027' />
    <nd ref='-156962028' />
  </way>
  <way id='-37105455' action='modify'>
    <nd ref='-156962028' />
    <nd ref='-156962029' />
    <nd ref='-156962030' />
    <tag k='type' v='straight' />
  </way>
  <way id='-37105456' action='modify'>
    <nd ref='-156962030' />
    <nd ref='-156962031' />
  </way>
  <way id='-37105457' action='modify'>
    <nd ref='-156962031' />
    <nd ref='-156962032' />
    <tag k='type' v='straight' />
  </way>
  <way id='-37105458' action='modify'>
    <nd ref='-156962032' />
    <nd ref='-156962033' />
  </way>
  <way id='-37105459' action='modify'>
    <nd ref='-156962033' />
    <nd ref='-156962034' />
    <tag k='type' v='straight' />
  </way>
  <way id='-37105460' action='modify'>
    <nd ref='-156962034' />
    <nd ref='-156962035' />
  </way>
  <way id='-37105461' action='modify'>
    <nd ref='-156962035' />
    <nd ref='-156962036' />
    <tag k='type' v='straight' />
  </way>
  <way id='-37105462' action='modify'>
    <nd ref='-156962036' />
    <nd ref='-156962037' />
  </way>
  <way id='-37105463' action='modify'>
    <nd ref='-156962037' />
    <nd ref='-156962038' />
    <nd ref='-156962039' />
    <tag k='type' v='straight' />
  </way>
  <way id='-37105464' action='modify'>
    <nd ref='-156962039' />
    <nd ref='-156962040' />
  </way>
  <way id='-37105465' action='modify'>
    <nd ref='-156962040' />
    <nd ref='-156962041' />
    <tag k='type' v='straight' />
  </way>
  <way id='-37105466' action='modify'>
    <nd ref='-156962041' />
    <nd ref='-156962042' />
  </way>
  <way id='-37105467' action='modify'>
    <nd ref='-156962042' />
    <nd ref='-156962043' />
    <tag k='type' v='straight' />
  </way>
  <way id='-37105468' action='modify'>
    <nd ref='-156962043' />
    <nd ref='-156962044' />
    <nd ref='-156962045' />
  </way>
  <way id='-37105469' action='modify'>
    <nd ref='-156962045' />
    <nd ref='-156962046' />
    <tag k='type' v='straight' />
  </way>
  <way id='-37105470' action='modify'>
    <nd ref='-156962046' />
    <nd ref='-156962047' />
  </way>
  <way id='-37105471' action='modify'>
    <nd ref='-156962047' />
    <nd ref='-156962048' />
    <tag k='type' v='straight' />
  </way>
  <way id='-37105472' action='modify'>
    <nd ref='-156962048' />
    <nd ref='-156962049' />
  </way>
  <way id='-37105473' action='modify'>
    <nd ref='-156962049' />
    <nd ref='-156962050' />
    <tag k='type' v='straight' />
  </way>
  <way id='-37105474' action='modify'>
    <nd ref='-156962050' />
    <nd ref='-156962051' />
  </way>
  <way id='-37105475' action='modify'>
    <nd ref='-156962051' />
    <nd ref='-156962052' />
    <nd ref='-156962053' />
    <tag k='type' v='straight' />
  </way>
  <way id='-37105476' action='modify'>
    <nd ref='-156962053' />
    <nd ref='-156962054' />
  </way>
  <way id='-37105477' action='modify'>
    <nd ref='-156962054' />
    <nd ref='-156962055' />
    <nd ref='-156962056' />
    <tag k='type' v='straight' />
  </way>
  <way id='-37105478' action='modify'>
    <nd ref='-156962056' />
    <nd ref='-156962057' />
  </way>
  <way id='-37105479' action='modify'>
    <nd ref='-156962057' />
    <nd ref='-156962058' />
    <tag k='type' v='straight' />
  </way>
  <way id='-37105480' action='modify'>
    <nd ref='-156962058' />
    <nd ref='-156962059' />
  </way>
  <way id='-37105481' action='modify'>
    <nd ref='-156962059' />
    <nd ref='-156962060' />
    <tag k='type' v='straight' />
  </way>
  <way id='-37105482' action='modify'>
    <nd ref='-156962060' />
    <nd ref='-156962061' />
  </way>
  <way id='-37105483' action='modify'>
    <nd ref='-156962061' />
    <nd ref='-156962062' />
    <nd ref='-156962063' />
    <tag k='type' v='straight' />
  </way>
  <way id='-37105484' action='modify'>
    <nd ref='-156962063' />
    <nd ref='-156962064' />
  </way>
  <way id='-37105485' action='modify'>
    <nd ref='-156962064' />
    <nd ref='-156962065' />
    <nd ref='-156962066' />
    <tag k='type' v='straight' />
  </way>
  <way id='-37105486' action='modify'>
    <nd ref='-156962066' />
    <nd ref='-156962067' />
  </way>
  <way id='-37105487' action='modify'>
    <nd ref='-156962067' />
    <nd ref='-156962068' />
    <tag k='type' v='straight' />
  </way>
  <way id='-37105488' action='modify'>
    <nd ref='-156962068' />
    <nd ref='-156962069' />
  </way>
  <way id='-37105489' action='modify'>
    <nd ref='-156962069' />
    <nd ref='-156962070' />
    <nd ref='-156962071' />
    <tag k='type' v='straight' />
  </way>
  <way id='-37105490' action='modify'>
    <nd ref='-156962071' />
    <nd ref='-156962072' />
  </way>
  <way id='-37105491' action='modify'>
    <nd ref='-156962072' />
    <nd ref='-156962073' />
    <tag k='type' v='straight' />
  </way>
  <way id='-37105492' action='modify'>
    <nd ref='-156962073' />
    <nd ref='-156962074' />
  </way>
  <way id='-37105493' action='modify'>
    <nd ref='-156962074' />
    <nd ref='-156962075' />
    <tag k='type' v='straight' />
  </way>
  <way id='-37105494' action='modify'>
    <nd ref='-156962075' />
    <nd ref='-156962076' />
  </way>
  <way id='-37105495' action='modify'>
    <nd ref='-156962076' />
    <nd ref='-156962077' />
    <tag k='type' v='straight' />
  </way>
  <way id='-37105496' action='modify'>
    <nd ref='-156962077' />
    <nd ref='-156962078' />
  </way>
  <way id='-37105497' action='modify'>
    <nd ref='-156962078' />
    <nd ref='-156962079' />
    <tag k='type' v='straight' />
  </way>
  <way id='-37105498' action='modify'>
    <nd ref='-156962079' />
    <nd ref='-156962080' />
  </way>
  <way id='-37105499' action='modify'>
    <nd ref='-156962080' />
    <nd ref='-156962081' />
    <nd ref='-156962082' />
    <tag k='type' v='straight' />
  </way>
  <way id='-37105500' action='modify'>
    <nd ref='-156962082' />
    <nd ref='-156962083' />
  </way>
  <way id='-37105501' action='modify'>
    <nd ref='-156962083' />
    <nd ref='-156962084' />
    <tag k='type' v='straight' />
  </way>
  <way id='-37105502' action='modify'>
    <nd ref='-156962084' />
    <nd ref='-156962085' />
  </way>
  <way id='-37105503' action='modify'>
    <nd ref='-156962085' />
    <nd ref='-156962086' />
    <nd ref='-156962087' />
    <tag k='type' v='straight' />
  </way>
  <way id='-37105504' action='modify'>
    <nd ref='-156962087' />
    <nd ref='-156962088' />
  </way>
  <way id='-37105505' action='modify'>
    <nd ref='-156962088' />
    <nd ref='-156962089' />
    <tag k='type' v='straight' />
  </way>
  <way id='-37105506' action='modify'>
    <nd ref='-156962089' />
    <nd ref='-156962090' />
  </way>
  <way id='-37105507' action='modify'>
    <nd ref='-156962090' />
    <nd ref='-156962091' />
    <tag k='type' v='straight' />
  </way>
  <way id='-37105508' action='modify'>
    <nd ref='-156962091' />
    <nd ref='-156962092' />
  </way>
  <way id='-37105509' action='modify'>
    <nd ref='-156962093' />
    <nd ref='-156962094' />
  </way>
  <way id='-37105510' action='modify'>
    <nd ref='-156962094' />
    <nd ref='-156962095' />
    <tag k='type' v='straight' />
  </way>
  <way id='-37105511' action='modify'>
    <nd ref='-156962095' />
    <nd ref='-156962096' />
  </way>
  <way id='-37105512' action='modify'>
    <nd ref='-156962096' />
    <nd ref='-156962097' />
    <nd ref='-156962098' />
    <tag k='type' v='straight' />
  </way>
  <way id='-37105513' action='modify'>
    <nd ref='-156962098' />
    <nd ref='-156962099' />
  </way>
  <way id='-37105514' action='modify'>
    <nd ref='-156962099' />
    <nd ref='-156962100' />
    <tag k='type' v='straight' />
  </way>
  <way id='-37105515' action='modify'>
    <nd ref='-156962100' />
    <nd ref='-156962101' />
    <nd ref='-156962102' />
  </way>
  <way id='-37105516' action='modify'>
    <nd ref='-156962102' />
    <nd ref='-156962103' />
    <tag k='type' v='straight' />
  </way>
  <way id='-37105517' action='modify'>
    <nd ref='-156962103' />
    <nd ref='-156962104' />
  </way>
  <way id='-37105518' action='modify'>
    <nd ref='-156962104' />
    <nd ref='-156962105' />
    <tag k='type' v='straight' />
  </way>
  <way id='-37105519' action='modify'>
    <nd ref='-156962105' />
    <nd ref='-156962106' />
  </way>
  <way id='-37105520' action='modify'>
    <nd ref='-156962106' />
    <nd ref='-156962107' />
    <tag k='type' v='straight' />
  </way>
  <way id='-37105521' action='modify'>
    <nd ref='-156962107' />
    <nd ref='-156962108' />
    <nd ref='-156962109' />
  </way>
  <way id='-37105522' action='modify'>
    <nd ref='-156962109' />
    <nd ref='-156962110' />
    <tag k='type' v='straight' />
  </way>
  <way id='-37105523' action='modify'>
    <nd ref='-156962110' />
    <nd ref='-156962111' />
    <nd ref='-156962112' />
  </way>
  <way id='-37105524' action='modify'>
    <nd ref='-156962112' />
    <nd ref='-156962113' />
    <tag k='type' v='straight' />
  </way>
  <way id='-37105525' action='modify'>
    <nd ref='-156962113' />
    <nd ref='-156962114' />
  </way>
  <way id='-37105526' action='modify'>
    <nd ref='-156962114' />
    <nd ref='-156962115' />
    <tag k='type' v='straight' />
  </way>
  <way id='-37105527' action='modify'>
    <nd ref='-156962115' />
    <nd ref='-156962116' />
  </way>
  <way id='-37105528' action='modify'>
    <nd ref='-156962116' />
    <nd ref='-156962117' />
    <tag k='type' v='straight' />
  </way>
  <way id='-37105529' action='modify'>
    <nd ref='-156962117' />
    <nd ref='-156962118' />
    <nd ref='-156962119' />
    <nd ref='-156962120' />
  </way>
  <way id='-37105530' action='modify'>
    <nd ref='-156962120' />
    <nd ref='-156962121' />
    <nd ref='-156962122' />
    <tag k='type' v='straight' />
  </way>
  <way id='-37105531' action='modify'>
    <nd ref='-156962122' />
    <nd ref='-156962123' />
  </way>
  <way id='-37105532' action='modify'>
    <nd ref='-156962123' />
    <nd ref='-156962124' />
    <nd ref='-156962125' />
    <tag k='type' v='straight' />
  </way>
  <way id='-37105533' action='modify'>
    <nd ref='-156962125' />
    <nd ref='-156962126' />
  </way>
  <way id='-37105534' action='modify'>
    <nd ref='-156962126' />
    <nd ref='-156962127' />
    <tag k='type' v='straight' />
  </way>
  <way id='-37105535' action='modify'>
    <nd ref='-156962127' />
    <nd ref='-156962128' />
  </way>
  <way id='-37105536' action='modify'>
    <nd ref='-156962128' />
    <nd ref='-156962129' />
    <tag k='type' v='straight' />
  </way>
  <way id='-37105537' action='modify'>
    <nd ref='-156962129' />
    <nd ref='-156962130' />
  </way>
  <way id='-37105538' action='modify'>
    <nd ref='-156962130' />
    <nd ref='-156962131' />
    <tag k='type' v='straight' />
  </way>
  <way id='-37105539' action='modify'>
    <nd ref='-156962131' />
    <nd ref='-156962132' />
  </way>
  <way id='-37105540' action='modify'>
    <nd ref='-156962132' />
    <nd ref='-156962133' />
    <tag k='type' v='straight' />
  </way>
  <way id='-37105541' action='modify'>
    <nd ref='-156962133' />
    <nd ref='-156962134' />
  </way>
  <way id='-37105542' action='modify'>
    <nd ref='-156962134' />
    <nd ref='-156962135' />
    <tag k='type' v='straight' />
  </way>
  <way id='-37105543' action='modify'>
    <nd ref='-156962135' />
    <nd ref='-156962136' />
  </way>
  <way id='-37105544' action='modify'>
    <nd ref='-156962136' />
    <nd ref='-156962137' />
    <nd ref='-156962138' />
    <tag k='type' v='straight' />
  </way>
  <way id='-37105545' action='modify'>
    <nd ref='-156962138' />
    <nd ref='-156962139' />
  </way>
  <way id='-37105546' action='modify'>
    <nd ref='-156962139' />
    <nd ref='-156962140' />
    <tag k='type' v='straight' />
  </way>
  <way id='-37105547' action='modify'>
    <nd ref='-156962140' />
    <nd ref='-156962141' />
  </way>
  <way id='-37105548' action='modify'>
    <nd ref='-156962141' />
    <nd ref='-156962142' />
    <tag k='type' v='straight' />
  </way>
  <way id='-37105549' action='modify'>
    <nd ref='-156962142' />
    <nd ref='-156962143' />
  </way>
  <way id='-37105550' action='modify'>
    <nd ref='-156962143' />
    <nd ref='-156962144' />
    <tag k='type' v='straight' />
  </way>
  <way id='-37105551' action='modify'>
    <nd ref='-156962144' />
    <nd ref='-156962145' />
  </way>
  <way id='-37105552' action='modify'>
    <nd ref='-156962145' />
    <nd ref='-156962146' />
    <tag k='type' v='straight' />
  </way>
  <way id='-37105553' action='modify'>
    <nd ref='-156962146' />
    <nd ref='-156962147' />
  </way>
  <way id='-37105554' action='modify'>
    <nd ref='-156962147' />
    <nd ref='-156962148' />
    <tag k='type' v='straight' />
  </way>
  <way id='-37105555' action='modify'>
    <nd ref='-156962148' />
    <nd ref='-156962149' />
  </way>
  <way id='-37105556' action='modify'>
    <nd ref='-156962149' />
    <nd ref='-156962150' />
    <tag k='type' v='straight' />
  </way>
  <way id='-37105557' action='modify'>
    <nd ref='-156962150' />
    <nd ref='-156962151' />
  </way>
  <way id='-37105558' action='modify'>
    <nd ref='-156962151' />
    <nd ref='-156962152' />
    <tag k='type' v='straight' />
  </way>
  <way id='-37105559' action='modify'>
    <nd ref='-156962152' />
    <nd ref='-156962153' />
  </way>
  <way id='-37105560' action='modify'>
    <nd ref='-156962153' />
    <nd ref='-156962154' />
    <tag k='type' v='straight' />
  </way>
  <way id='-37105561' action='modify'>
    <nd ref='-156962154' />
    <nd ref='-156962155' />
  </way>
  <way id='-37105562' action='modify'>
    <nd ref='-156962155' />
    <nd ref='-156962156' />
    <tag k='type' v='straight' />
  </way>
  <way id='-37105564' action='modify'>
    <nd ref='-156962092' />
    <nd ref='-156962093' />
    <tag k='type' v='straight' />
  </way>
  <relation id='-14475409' action='modify'>
    <member type='way' ref='-37105337' role='' />
    <member type='way' ref='-37105338' role='' />
    <member type='way' ref='-37105339' role='' />
    <member type='way' ref='-37105340' role='' />
    <member type='way' ref='-37105341' role='' />
    <member type='way' ref='-37105342' role='' />
    <member type='way' ref='-37105343' role='' />
    <member type='way' ref='-37105344' role='' />
    <member type='way' ref='-37105345' role='' />
    <member type='way' ref='-37105346' role='' />
    <member type='way' ref='-37105347' role='' />
    <member type='way' ref='-37105348' role='' />
    <member type='way' ref='-37105349' role='' />
    <member type='way' ref='-37105350' role='' />
    <member type='way' ref='-37105351' role='' />
    <member type='way' ref='-37105352' role='' />
    <member type='way' ref='-37105353' role='' />
    <member type='way' ref='-37105354' role='' />
    <member type='way' ref='-37105355' role='' />
    <member type='way' ref='-37105356' role='' />
    <member type='way' ref='-37105357' role='' />
    <member type='way' ref='-37105358' role='' />
    <member type='way' ref='-37105359' role='' />
    <member type='way' ref='-37105360' role='' />
    <member type='way' ref='-37105361' role='' />
    <member type='way' ref='-37105362' role='' />
    <member type='way' ref='-37105363' role='' />
    <member type='way' ref='-37105364' role='' />
    <member type='way' ref='-37105365' role='' />
    <member type='way' ref='-37105366' role='' />
    <member type='way' ref='-37105367' role='' />
    <member type='way' ref='-37105368' role='' />
    <member type='way' ref='-37105369' role='' />
    <member type='way' ref='-37105370' role='' />
    <member type='way' ref='-37105371' role='' />
    <member type='way' ref='-37105372' role='' />
    <member type='way' ref='-37105373' role='' />
    <member type='way' ref='-37105374' role='' />
    <member type='way' ref='-37105375' role='' />
    <member type='way' ref='-37105376' role='' />
    <member type='way' ref='-37105377' role='' />
    <member type='way' ref='-37105378' role='' />
    <member type='way' ref='-37105379' role='' />
    <member type='way' ref='-37105380' role='' />
    <member type='way' ref='-37105381' role='' />
    <member type='way' ref='-37105382' role='' />
    <member type='way' ref='-37105383' role='' />
    <member type='way' ref='-37105384' role='' />
    <member type='way' ref='-37105385' role='' />
    <member type='way' ref='-37105386' role='' />
    <member type='way' ref='-37105387' role='' />
    <member type='way' ref='-37105388' role='' />
    <member type='way' ref='-37105389' role='' />
    <member type='way' ref='-37105390' role='' />
    <member type='way' ref='-37105391' role='' />
    <member type='way' ref='-37105392' role='' />
    <member type='way' ref='-37105393' role='' />
    <member type='way' ref='-37105394' role='' />
    <member type='way' ref='-37105395' role='' />
    <tag k='key' v='path.dk.les.1' />
    <tag k='name' v='DK LES (1)' />
    <tag k='type' v='path' />
  </relation>
  <relation id='-14475410' action='modify'>
    <member type='way' ref='-37105396' role='' />
    <member type='way' ref='-37105397' role='' />
    <member type='way' ref='-37105398' role='' />
    <member type='way' ref='-37105399' role='' />
    <member type='way' ref='-37105400' role='' />
    <member type='way' ref='-37105401' role='' />
    <member type='way' ref='-37105402' role='' />
    <member type='way' ref='-37105403' role='' />
    <member type='way' ref='-37105404' role='' />
    <member type='way' ref='-37105405' role='' />
    <member type='way' ref='-37105406' role='' />
    <member type='way' ref='-37105407' role='' />
    <member type='way' ref='-37105408' role='' />
    <member type='way' ref='-37105409' role='' />
    <member type='way' ref='-37105410' role='' />
    <member type='way' ref='-37105411' role='' />
    <member type='way' ref='-37105412' role='' />
    <member type='way' ref='-37105413' role='' />
    <member type='way' ref='-37105414' role='' />
    <member type='way' ref='-37105415' role='' />
    <member type='way' ref='-37105416' role='' />
    <member type='way' ref='-37105417' role='' />
    <member type='way' ref='-37105418' role='' />
    <member type='way' ref='-37105419' role='' />
    <member type='way' ref='-37105420' role='' />
    <member type='way' ref='-37105421' role='' />
    <member type='way' ref='-37105422' role='' />
    <member type='way' ref='-37105423' role='' />
    <member type='way' ref='-37105424' role='' />
    <member type='way' ref='-37105425' role='' />
    <member type='way' ref='-37105426' role='' />
    <member type='way' ref='-37105427' role='' />
    <member type='way' ref='-37105428' role='' />
    <member type='way' ref='-37105429' role='' />
    <member type='way' ref='-37105430' role='' />
    <member type='way' ref='-37105431' role='' />
    <member type='way' ref='-37105432' role='' />
    <member type='way' ref='-37105433' role='' />
    <member type='way' ref='-37105434' role='' />
    <member type='way' ref='-37105435' role='' />
    <member type='way' ref='-37105436' role='' />
    <member type='way' ref='-37105437' role='' />
    <member type='way' ref='-37105438' role='' />
    <member type='way' ref='-37105439' role='' />
    <member type='way' ref='-37105440' role='' />
    <member type='way' ref='-37105441' role='' />
    <member type='way' ref='-37105442' role='' />
    <member type='way' ref='-37105443' role='' />
    <member type='way' ref='-37105444' role='' />
    <member type='way' ref='-37105445' role='' />
    <member type='way' ref='-37105446' role='' />
    <member type='way' ref='-37105447' role='' />
    <member type='way' ref='-37105448' role='' />
    <member type='way' ref='-37105449' role='' />
    <member type='way' ref='-37105450' role='' />
    <member type='way' ref='-37105451' role='' />
    <member type='way' ref='-37105452' role='' />
    <member type='way' ref='-37105453' role='' />
    <member type='way' ref='-37105454' role='' />
    <member type='way' ref='-37105455' role='' />
    <member type='way' ref='-37105456' role='' />
    <member type='way' ref='-37105457' role='' />
    <member type='way' ref='-37105458' role='' />
    <member type='way' ref='-37105459' role='' />
    <member type='way' ref='-37105460' role='' />
    <member type='way' ref='-37105461' role='' />
    <member type='way' ref='-37105462' role='' />
    <member type='way' ref='-37105463' role='' />
    <member type='way' ref='-37105464' role='' />
    <member type='way' ref='-37105465' role='' />
    <member type='way' ref='-37105466' role='' />
    <member type='way' ref='-37105467' role='' />
    <member type='way' ref='-37105468' role='' />
    <member type='way' ref='-37105469' role='' />
    <member type='way' ref='-37105470' role='' />
    <member type='way' ref='-37105471' role='' />
    <member type='way' ref='-37105472' role='' />
    <member type='way' ref='-37105473' role='' />
    <member type='way' ref='-37105474' role='' />
    <member type='way' ref='-37105475' role='' />
    <member type='way' ref='-37105476' role='' />
    <member type='way' ref='-37105477' role='' />
    <member type='way' ref='-37105478' role='' />
    <member type='way' ref='-37105479' role='' />
    <member type='way' ref='-37105480' role='' />
    <member type='way' ref='-37105481' role='' />
    <member type='way' ref='-37105482' role='' />
    <member type='way' ref='-37105483' role='' />
    <member type='way' ref='-37105484' role='' />
    <member type='way' ref='-37105485' role='' />
    <member type='way' ref='-37105486' role='' />
    <member type='way' ref='-37105487' role='' />
    <member type='way' ref='-37105488' role='' />
    <member type='way' ref='-37105489' role='' />
    <member type='way' ref='-37105490' role='' />
    <member type='way' ref='-37105491' role='' />
    <member type='way' ref='-37105492' role='' />
    <member type='way' ref='-37105493' role='' />
    <member type='way' ref='-37105494' role='' />
    <member type='way' ref='-37105495' role='' />
    <member type='way' ref='-37105496' role='' />
    <member type='way' ref='-37105497' role='' />
    <member type='way' ref='-37105498' role='' />
    <member type='way' ref='-37105499' role='' />
    <member type='way' ref='-37105500' role='' />
    <member type='way' ref='-37105501' role='' />
    <member type='way' ref='-37105502' role='' />
    <member type='way' ref='-37105503' role='' />
    <member type='way' ref='-37105504' role='' />
    <member type='way' ref='-37105505' role='' />
    <member type='way' ref='-37105506' role='' />
    <member type='way' ref='-37105507' role='' />
    <member type='way' ref='-37105508' role='' />
    <member type='way' ref='-37105564' role='' />
    <member type='way' ref='-37105509' role='' />
    <member type='way' ref='-37105510' role='' />
    <member type='way' ref='-37105511' role='' />
    <member type='way' ref='-37105512' role='' />
    <member type='way' ref='-37105513' role='' />
    <member type='way' ref='-37105514' role='' />
    <member type='way' ref='-37105515' role='' />
    <member type='way' ref='-37105516' role='' />
    <member type='way' ref='-37105517' role='' />
    <member type='way' ref='-37105518' role='' />
    <member type='way' ref='-37105519' role='' />
    <member type='way' ref='-37105520' role='' />
    <member type='way' ref='-37105521' role='' />
    <member type='way' ref='-37105522' role='' />
    <member type='way' ref='-37105523' role='' />
    <member type='way' ref='-37105524' role='' />
    <member type='way' ref='-37105525' role='' />
    <member type='way' ref='-37105526' role='' />
    <member type='way' ref='-37105527' role='' />
    <member type='way' ref='-37105528' role='' />
    <member type='way' ref='-37105529' role='' />
    <member type='way' ref='-37105530' role='' />
    <member type='way' ref='-37105531' role='' />
    <member type='way' ref='-37105532' role='' />
    <member type='way' ref='-37105533' role='' />
    <member type='way' ref='-37105534' role='' />
    <member type='way' ref='-37105535' role='' />
    <member type='way' ref='-37105536' role='' />
    <member type='way' ref='-37105537' role='' />
    <member type='way' ref='-37105538' role='' />
    <member type='way' ref='-37105539' role='' />
    <member type='way' ref='-37105540' role='' />
    <member type='way' ref='-37105541' role='' />
    <member type='way' ref='-37105542' role='' />
    <member type='way' ref='-37105543' role='' />
    <member type='way' ref='-37105544' role='' />
    <member type='way' ref='-37105545' role='' />
    <member type='way' ref='-37105546' role='' />
    <member type='way' ref='-37105547' role='' />
    <member type='way' ref='-37105548' role='' />
    <member type='way' ref='-37105549' role='' />
    <member type='way' ref='-37105550' role='' />
    <member type='way' ref='-37105551' role='' />
    <member type='way' ref='-37105552' role='' />
    <member type='way' ref='-37105553' role='' />
    <member type='way' ref='-37105554' role='' />
    <member type='way' ref='-37105555' role='' />
    <member type='way' ref='-37105556' role='' />
    <member type='way' ref='-37105557' role='' />
    <member type='way' ref='-37105558' role='' />
    <member type='way' ref='-37105559' role='' />
    <member type='way' ref='-37105560' role='' />
    <member type='way' ref='-37105561' role='' />
    <member type='way' ref='-37105562' role='' />
    <tag k='key' v='path.dk.les.2' />
    <tag k='name' v='DK LES (2)' />
    <tag k='type' v='path' />
  </relation>
</osm>
