<?xml version='1.0' encoding='UTF-8'?>
<osm version='0.6' upload='false' generator='JOSM'>
  <node id='-139145429' action='modify' lat='55.76735781724' lon='12.50525772303' />
  <node id='-139145430' action='modify' lat='55.76837826679' lon='12.50252069925'>
    <tag k='name' v='lyn' />
  </node>
  <node id='-139145431' action='modify' lat='55.76934950399' lon='12.51188277125' />
  <node id='-139145432' action='modify' lat='55.77064102535' lon='12.51187204242' />
  <node id='-139145433' action='modify' lat='55.7718947771' lon='12.51121703705' />
  <node id='-139145434' action='modify' lat='55.77288146671' lon='12.50983357295' />
  <node id='-139145461' action='modify' lat='55.77388623088' lon='12.50636883013' />
  <node id='-139145462' action='modify' lat='55.77391640359' lon='12.50560641222' />
  <node id='-139145463' action='modify' lat='55.77396196125' lon='12.50491839116'>
    <tag k='name' v='lyl' />
  </node>
  <node id='-139145464' action='modify' lat='55.77475598341' lon='12.50227195292'>
    <tag k='name' v='sme' />
  </node>
  <node id='-139145465' action='modify' lat='55.77734462554' lon='12.50095546179' />
  <node id='-139145466' action='modify' lat='55.77789711054' lon='12.50114522807' />
  <way id='-36084323' action='modify'>
    <nd ref='-139145430' />
    <nd ref='-139145429' />
    <tag k='type' v='straight' />
  </way>
  <way id='-36084324' action='modify'>
    <nd ref='-139145429' />
    <nd ref='-139145431' />
  </way>
  <way id='-36084325' action='modify'>
    <nd ref='-139145431' />
    <nd ref='-139145432' />
    <tag k='type' v='straight' />
  </way>
  <way id='-36084326' action='modify'>
    <nd ref='-139145432' />
    <nd ref='-139145433' />
  </way>
  <way id='-36084327' action='modify'>
    <nd ref='-139145433' />
    <nd ref='-139145434' />
    <tag k='type' v='straight' />
  </way>
  <way id='-36084350' action='modify'>
    <nd ref='-139145434' />
    <nd ref='-139145461' />
  </way>
  <way id='-36084351' action='modify'>
    <nd ref='-139145462' />
    <nd ref='-139145463' />
    <nd ref='-139145464' />
    <nd ref='-139145465' />
  </way>
  <way id='-36084352' action='modify'>
    <nd ref='-139145465' />
    <nd ref='-139145466' />
    <tag k='type' v='straight' />
  </way>
  <way id='-36084355' action='modify'>
    <nd ref='-139145461' />
    <nd ref='-139145462' />
    <tag k='type' v='straight' />
  </way>
  <relation id='-14465589' action='modify'>
    <member type='way' ref='-36084323' role='' />
    <member type='way' ref='-36084324' role='' />
    <member type='way' ref='-36084325' role='' />
    <member type='way' ref='-36084326' role='' />
    <member type='way' ref='-36084327' role='' />
    <member type='way' ref='-36084350' role='' />
    <member type='way' ref='-36084355' role='' />
    <member type='way' ref='-36084351' role='' />
    <member type='way' ref='-36084352' role='' />
    <tag k='key' v='path.dk.llx' />
    <tag k='name' v='DK LLX' />
    <tag k='type' v='path' />
  </relation>
</osm>
