<?xml version='1.0' encoding='UTF-8'?>
<osm version='0.6' upload='false' generator='JOSM'>
  <node id='-184313391' action='modify' lat='54.91469116971' lon='10.00508988617'>
    <tag k='name' v='lmo' />
  </node>
  <node id='-184313392' action='modify' lat='54.91417791257' lon='10.00852882326' />
  <node id='-184313393' action='modify' lat='54.91393431672' lon='10.01000940263' />
  <node id='-184313394' action='modify' lat='54.91338544979' lon='10.01306175649' />
  <node id='-184313395' action='modify' lat='54.9131911861' lon='10.01491248071' />
  <node id='-184313396' action='modify' lat='54.91312026421' lon='10.01633941591' />
  <node id='-184313397' action='modify' lat='54.91296300216' lon='10.01741229951' />
  <node id='-184313398' action='modify' lat='54.91236170045' lon='10.02003013551' />
  <node id='-184313399' action='modify' lat='54.91196082765' lon='10.02309858263' />
  <node id='-184313400' action='modify' lat='54.91188681993' lon='10.02674638689' />
  <node id='-184313401' action='modify' lat='54.91208417356' lon='10.02940177381' />
  <node id='-184313402' action='modify' lat='54.91264409006' lon='10.03226521079'>
    <tag k='name' v='sar' />
  </node>
  <node id='-184313403' action='modify' lat='54.9126978138' lon='10.03253995836' />
  <node id='-184313404' action='modify' lat='54.91362442213' lon='10.03505319089' />
  <node id='-184313405' action='modify' lat='54.9147267687' lon='10.03668128908' />
  <node id='-184313406' action='modify' lat='54.91659837347' lon='10.03816186845' />
  <node id='-184313407' action='modify' lat='54.92226815714' lon='10.04054367006' />
  <node id='-184313408' action='modify' lat='54.92351361434' lon='10.04084944189' />
  <node id='-184313409' action='modify' lat='54.92571773245' lon='10.04098355234' />
  <node id='-184313410' action='modify' lat='54.92655618889' lon='10.0411578986'>
    <tag k='name' v='mof' />
  </node>
  <node id='-184313411' action='modify' lat='54.92766896981' lon='10.04184722364' />
  <node id='-184313412' action='modify' lat='54.9284919752' lon='10.04256605566' />
  <node id='-184313413' action='modify' lat='54.93023194273' lon='10.04333048791' />
  <node id='-184313414' action='modify' lat='54.93088229271' lon='10.04337608546' />
  <node id='-184313415' action='modify' lat='54.93238329732' lon='10.04302739829'>
    <tag k='name' v='mom' />
  </node>
  <node id='-184313416' action='modify' lat='54.93330174889' lon='10.04216372699' />
  <node id='-184313417' action='modify' lat='54.93345584945' lon='10.04192232817'>
    <tag k='name' v='mom.f' />
  </node>
  <way id='-39023782' action='modify'>
    <nd ref='-184313391' />
    <nd ref='-184313392' />
    <tag k='type' v='straight' />
  </way>
  <way id='-39023783' action='modify'>
    <nd ref='-184313392' />
    <nd ref='-184313393' />
  </way>
  <way id='-39023784' action='modify'>
    <nd ref='-184313393' />
    <nd ref='-184313394' />
    <tag k='type' v='straight' />
  </way>
  <way id='-39023785' action='modify'>
    <nd ref='-184313394' />
    <nd ref='-184313395' />
  </way>
  <way id='-39023786' action='modify'>
    <nd ref='-184313395' />
    <nd ref='-184313396' />
    <tag k='type' v='straight' />
  </way>
  <way id='-39023787' action='modify'>
    <nd ref='-184313396' />
    <nd ref='-184313397' />
  </way>
  <way id='-39023788' action='modify'>
    <nd ref='-184313397' />
    <nd ref='-184313398' />
    <tag k='type' v='straight' />
  </way>
  <way id='-39023789' action='modify'>
    <nd ref='-184313398' />
    <nd ref='-184313399' />
  </way>
  <way id='-39023790' action='modify'>
    <nd ref='-184313399' />
    <nd ref='-184313400' />
    <tag k='type' v='straight' />
  </way>
  <way id='-39023791' action='modify'>
    <nd ref='-184313400' />
    <nd ref='-184313401' />
  </way>
  <way id='-39023792' action='modify'>
    <nd ref='-184313401' />
    <nd ref='-184313402' />
    <nd ref='-184313403' />
    <tag k='type' v='straight' />
  </way>
  <way id='-39023793' action='modify'>
    <nd ref='-184313403' />
    <nd ref='-184313404' />
  </way>
  <way id='-39023794' action='modify'>
    <nd ref='-184313404' />
    <nd ref='-184313405' />
    <tag k='type' v='straight' />
  </way>
  <way id='-39023795' action='modify'>
    <nd ref='-184313405' />
    <nd ref='-184313406' />
  </way>
  <way id='-39023796' action='modify'>
    <nd ref='-184313406' />
    <nd ref='-184313407' />
    <tag k='type' v='straight' />
  </way>
  <way id='-39023797' action='modify'>
    <nd ref='-184313407' />
    <nd ref='-184313408' />
  </way>
  <way id='-39023798' action='modify'>
    <nd ref='-184313408' />
    <nd ref='-184313409' />
    <tag k='type' v='straight' />
  </way>
  <way id='-39023799' action='modify'>
    <nd ref='-184313409' />
    <nd ref='-184313410' />
    <nd ref='-184313411' />
  </way>
  <way id='-39023800' action='modify'>
    <nd ref='-184313411' />
    <nd ref='-184313412' />
    <tag k='type' v='straight' />
  </way>
  <way id='-39023801' action='modify'>
    <nd ref='-184313412' />
    <nd ref='-184313413' />
  </way>
  <way id='-39023802' action='modify'>
    <nd ref='-184313413' />
    <nd ref='-184313414' />
    <tag k='type' v='straight' />
  </way>
  <way id='-39023803' action='modify'>
    <nd ref='-184313414' />
    <nd ref='-184313415' />
    <nd ref='-184313416' />
  </way>
  <way id='-39023804' action='modify'>
    <nd ref='-184313416' />
    <nd ref='-184313417' />
    <tag k='type' v='straight' />
  </way>
  <relation id='-14493137' action='modify'>
    <member type='way' ref='-39023782' role='' />
    <member type='way' ref='-39023783' role='' />
    <member type='way' ref='-39023784' role='' />
    <member type='way' ref='-39023785' role='' />
    <member type='way' ref='-39023786' role='' />
    <member type='way' ref='-39023787' role='' />
    <member type='way' ref='-39023788' role='' />
    <member type='way' ref='-39023789' role='' />
    <member type='way' ref='-39023790' role='' />
    <member type='way' ref='-39023791' role='' />
    <member type='way' ref='-39023792' role='' />
    <member type='way' ref='-39023793' role='' />
    <member type='way' ref='-39023794' role='' />
    <member type='way' ref='-39023795' role='' />
    <member type='way' ref='-39023796' role='' />
    <member type='way' ref='-39023797' role='' />
    <member type='way' ref='-39023798' role='' />
    <member type='way' ref='-39023799' role='' />
    <member type='way' ref='-39023800' role='' />
    <member type='way' ref='-39023801' role='' />
    <member type='way' ref='-39023802' role='' />
    <member type='way' ref='-39023803' role='' />
    <member type='way' ref='-39023804' role='' />
    <tag k='key' v='path.dk.lmm' />
    <tag k='name' v='DK LMM' />
    <tag k='type' v='path' />
  </relation>
</osm>
