<?xml version='1.0' encoding='UTF-8'?>
<osm version='0.6' upload='false' generator='JOSM'>
  <node id='-162631543' action='modify' lat='56.38690995856' lon='9.89659374302'>
    <tag k='name' v='lan' />
  </node>
  <node id='-162631544' action='modify' lat='56.38435749187' lon='9.89488018132' />
  <node id='-162631545' action='modify' lat='56.38246475176' lon='9.88529540531' />
  <node id='-162631546' action='modify' lat='56.38740204168' lon='9.86668758027' />
  <node id='-162631547' action='modify' lat='56.3879584679' lon='9.86484154925'>
    <tag k='name' v='abr' />
  </node>
  <node id='-162631548' action='modify' lat='56.38982998836' lon='9.86084975235' />
  <node id='-162631549' action='modify' lat='56.39367259081' lon='9.85477454893' />
  <node id='-162631550' action='modify' lat='56.39839579187' lon='9.83165658943' />
  <node id='-162631551' action='modify' lat='56.39569970149' lon='9.79892291062' />
  <node id='-162631552' action='modify' lat='56.39537369758' lon='9.79374072658'>
    <tag k='name' v='uls' />
  </node>
  <node id='-162631553' action='modify' lat='56.39526363296' lon='9.79088399526' />
  <node id='-162631554' action='modify' lat='56.39520648036' lon='9.78898063168' />
  <node id='-162631555' action='modify' lat='56.39511666771' lon='9.78672757678' />
  <node id='-162631556' action='modify' lat='56.39344879333' lon='9.75411325559' />
  <node id='-162631557' action='modify' lat='56.39239584908' lon='9.74625103109' />
  <node id='-162631558' action='modify' lat='56.37981579937' lon='9.68836828932' />
  <node id='-162631559' action='modify' lat='56.37938289026' lon='9.68619033627' />
  <node id='-162631560' action='modify' lat='56.37593132525' lon='9.66756842963' />
  <node id='-162631561' action='modify' lat='56.37548946114' lon='9.66532409057' />
  <node id='-162631562' action='modify' lat='56.3749881801' lon='9.66292619571' />
  <node id='-162631563' action='modify' lat='56.37451956883' lon='9.66054439478' />
  <node id='-162631564' action='modify' lat='56.37408588546' lon='9.65819543325'>
    <tag k='name' v='bje' />
  </node>
  <node id='-162631565' action='modify' lat='56.37393881008' lon='9.65739883415' />
  <node id='-162631566' action='modify' lat='56.37359718352' lon='9.65536035463' />
  <node id='-162631567' action='modify' lat='56.37344567805' lon='9.65435318582' />
  <node id='-162631568' action='modify' lat='56.37304017652' lon='9.65198278293' />
  <node id='-162631569' action='modify' lat='56.36977372362' lon='9.63441699609' />
  <node id='-162631570' action='modify' lat='56.3691527833' lon='9.62966412239' />
  <node id='-162631571' action='modify' lat='56.3685444603' lon='9.62207145922' />
  <node id='-162631572' action='modify' lat='56.3658076295' lon='9.61113341086' />
  <node id='-162631573' action='modify' lat='56.36136157827' lon='9.60194148056' />
  <node id='-162631574' action='modify' lat='56.35734371456' lon='9.59656096928' />
  <node id='-162631575' action='modify' lat='56.35623256121' lon='9.59559939668' />
  <node id='-162631576' action='modify' lat='56.35139361716' lon='9.58756285696'>
    <tag k='name' v='tan' />
  </node>
  <node id='-162631577' action='modify' lat='56.35028728262' lon='9.57884430818' />
  <node id='-162631578' action='modify' lat='56.35019662166' lon='9.5693506287' />
  <node id='-162631579' action='modify' lat='56.35033261358' lon='9.56569611892' />
  <node id='-162631580' action='modify' lat='56.35046563253' lon='9.56404924259' />
  <node id='-162631581' action='modify' lat='56.35029434231' lon='9.55674961142' />
  <node id='-162631582' action='modify' lat='56.34970355361' lon='9.55192096464' />
  <node id='-162631583' action='modify' lat='56.34958297939' lon='9.54453684356' />
  <node id='-162631584' action='modify' lat='56.35081341174' lon='9.52934950456' />
  <node id='-162631585' action='modify' lat='56.35086877336' lon='9.5193730288' />
  <node id='-162631586' action='modify' lat='56.35068410958' lon='9.5161221908' />
  <node id='-162631587' action='modify' lat='56.35213241728' lon='9.50172811612' />
  <node id='-162631588' action='modify' lat='56.35330926556' lon='9.49797537144'>
    <tag k='name' v='rod' />
  </node>
  <node id='-162631589' action='modify' lat='56.35438465312' lon='9.49374183878' />
  <node id='-162631590' action='modify' lat='56.35441957622' lon='9.49354201421' />
  <node id='-162631591' action='modify' lat='56.35501400703' lon='9.48677882418' />
  <node id='-162631592' action='modify' lat='56.35519307749' lon='9.48278903827' />
  <node id='-162631593' action='modify' lat='56.35740612545' lon='9.47262547843' />
  <node id='-162631594' action='modify' lat='56.35977803517' lon='9.46718528733' />
  <node id='-162631595' action='modify' lat='56.36606910208' lon='9.45821732216' />
  <node id='-162631596' action='modify' lat='56.38546618096' lon='9.44218039379' />
  <node id='-162631597' action='modify' lat='56.38774131765' lon='9.44067366354' />
  <node id='-162631598' action='modify' lat='56.39816274476' lon='9.43536758289' />
  <node id='-162631599' action='modify' lat='56.40275589443' lon='9.43186930776'>
    <tag k='name' v='rin' />
  </node>
  <node id='-162631600' action='modify' lat='56.40714554408' lon='9.42537099056' />
  <node id='-162631601' action='modify' lat='56.41467515479' lon='9.41028222308' />
  <node id='-162631602' action='modify' lat='56.42399653313' lon='9.40204683658' />
  <node id='-162631603' action='modify' lat='56.42841840553' lon='9.40137527816'>
    <tag k='name' v='vib.yv' />
  </node>
  <node id='-162631604' action='modify' lat='56.43130275657' lon='9.40021991596' />
  <node id='-162631605' action='modify' lat='56.43233349086' lon='9.39950644836' />
  <node id='-162631606' action='modify' lat='56.43746561259' lon='9.39893111452' />
  <node id='-162631607' action='modify' lat='56.4375571785' lon='9.39897201821' />
  <node id='-162631608' action='modify' lat='56.43994522831' lon='9.40083414249' />
  <node id='-162631609' action='modify' lat='56.44130859644' lon='9.40239652857' />
  <node id='-162631610' action='modify' lat='56.44538283962' lon='9.40202370152' />
  <node id='-162631611' action='modify' lat='56.44621601897' lon='9.40067723259' />
  <node id='-162631612' action='modify' lat='56.44710551412' lon='9.39867228135' />
  <node id='-162631613' action='modify' lat='56.44725358718' lon='9.39826928345'>
    <tag k='name' v='vib' />
  </node>
  <node id='-162631614' action='modify' lat='56.44884886422' lon='9.39392745361' />
  <node id='-162631615' action='modify' lat='56.44941217453' lon='9.39224973187' />
  <node id='-162631616' action='modify' lat='56.4507181329' lon='9.38780531153' />
  <node id='-162631617' action='modify' lat='56.45169868394' lon='9.38503190741' />
  <node id='-162631618' action='modify' lat='56.45368046117' lon='9.38032060727' />
  <node id='-162631619' action='modify' lat='56.455487242' lon='9.36972588167' />
  <node id='-162631620' action='modify' lat='56.45544203648' lon='9.36827614769' />
  <node id='-162631621' action='modify' lat='56.45502925565' lon='9.36407178506' />
  <node id='-162631622' action='modify' lat='56.45499442474' lon='9.36387866601' />
  <node id='-162631623' action='modify' lat='56.45477379514' lon='9.36275516357' />
  <node id='-162631624' action='modify' lat='56.45474134466' lon='9.36260394484'>
    <tag k='name' v='vib.ys' />
  </node>
  <node id='-162631625' action='modify' lat='56.45458089796' lon='9.36183482274' />
  <node id='-162631626' action='modify' lat='56.45360783241' lon='9.35718655452' />
  <node id='-162631627' action='modify' lat='56.45274665232' lon='9.34818841383' />
  <node id='-162631628' action='modify' lat='56.45289784197' lon='9.33443873987' />
  <node id='-162631629' action='modify' lat='56.45210779601' lon='9.31477345258' />
  <node id='-162631630' action='modify' lat='56.45149375606' lon='9.30806659028' />
  <node id='-162631631' action='modify' lat='56.45280594245' lon='9.29071470961' />
  <node id='-162631632' action='modify' lat='56.45439917189' lon='9.28493707787'>
    <tag k='name' v='rav' />
  </node>
  <node id='-162631633' action='modify' lat='56.45579033997' lon='9.27989199623' />
  <node id='-162631634' action='modify' lat='56.45940287365' lon='9.27137531273'>
    <tag k='name' v='rav.yv' />
  </node>
  <node id='-162631635' action='modify' lat='56.46383600266' lon='9.2645296441' />
  <node id='-162631636' action='modify' lat='56.46588456604' lon='9.26038697228' />
  <node id='-162631637' action='modify' lat='56.46684620433' lon='9.25787508354' />
  <node id='-162631638' action='modify' lat='56.46731553127' lon='9.25672978029' />
  <node id='-162631639' action='modify' lat='56.47261478192' lon='9.24457669124' />
  <node id='-162631640' action='modify' lat='56.47515335076' lon='9.23260071993' />
  <node id='-162631641' action='modify' lat='56.47517247186' lon='9.23209368646' />
  <node id='-162631642' action='modify' lat='56.47514704719' lon='9.22768247015'>
    <tag k='name' v='spa' />
  </node>
  <node id='-162631643' action='modify' lat='56.47483323223' lon='9.22428309783' />
  <node id='-162631644' action='modify' lat='56.47426585461' lon='9.21993121371' />
  <node id='-162631645' action='modify' lat='56.47457620974' lon='9.20790150627' />
  <node id='-162631646' action='modify' lat='56.48156186191' lon='9.17219325766' />
  <node id='-162631647' action='modify' lat='56.48226242996' lon='9.1691395627' />
  <node id='-162631648' action='modify' lat='56.4866032937' lon='9.15296316013' />
  <node id='-162631649' action='modify' lat='56.48736124565' lon='9.15032906441'>
    <tag k='name' v='sto' />
  </node>
  <node id='-162631650' action='modify' lat='56.49122130272' lon='9.14086505704' />
  <node id='-162631651' action='modify' lat='56.49919950137' lon='9.12562340431' />
  <node id='-162631652' action='modify' lat='56.50505234568' lon='9.11943018369' />
  <node id='-162631653' action='modify' lat='56.5196448082' lon='9.11295331948' />
  <node id='-162631654' action='modify' lat='56.52230233932' lon='9.11231093075' />
  <node id='-162631655' action='modify' lat='56.52645351535' lon='9.11217681997' />
  <node id='-162631656' action='modify' lat='56.52811434087' lon='9.11236407293'>
    <tag k='name' v='sob' />
  </node>
  <node id='-162631657' action='modify' lat='56.52856009076' lon='9.11245040461' />
  <node id='-162631658' action='modify' lat='56.53222190921' lon='9.11349445447' />
  <node id='-162631659' action='modify' lat='56.5343555259' lon='9.11386392944' />
  <node id='-162631660' action='modify' lat='56.54278010543' lon='9.11443188652' />
  <node id='-162631661' action='modify' lat='56.54946489792' lon='9.11018460955'>
    <tag k='name' v='hoj' />
  </node>
  <node id='-162631662' action='modify' lat='56.55195957217' lon='9.1012473204' />
  <node id='-162631663' action='modify' lat='56.5519767529' lon='9.10104497731' />
  <node id='-162631664' action='modify' lat='56.55105644749' lon='9.09073322877' />
  <node id='-162631665' action='modify' lat='56.55050869015' lon='9.08876180515' />
  <node id='-162631666' action='modify' lat='56.55127229534' lon='9.06746573679' />
  <node id='-162631667' action='modify' lat='56.55740238827' lon='9.05162595145' />
  <node id='-162631668' action='modify' lat='56.5599953774' lon='9.03860717878' />
  <node id='-162631669' action='modify' lat='56.56035676318' lon='9.03139471874' />
  <node id='-162631670' action='modify' lat='56.5609904729' lon='9.02691073649' />
  <node id='-162631671' action='modify' lat='56.56138395003' lon='9.02535529048'>
    <tag k='name' v='ski' />
  </node>
  <node id='-162631672' action='modify' lat='56.56148154509' lon='9.02496948704' />
  <node id='-162631673' action='modify' lat='56.56422832594' lon='9.01920407876' />
  <node id='-162631674' action='modify' lat='56.56479731399' lon='9.01846647128' />
  <node id='-162631675' action='modify' lat='56.5668345166' lon='9.01319324836' />
  <node id='-162631676' action='modify' lat='56.566861117' lon='9.01302024588' />
  <node id='-162631677' action='modify' lat='56.56637639572' lon='9.00546312198' />
  <node id='-162631678' action='modify' lat='56.56593452549' lon='9.00388464198' />
  <node id='-162631679' action='modify' lat='56.56414630228' lon='8.99220898613'>
    <tag k='name' v='est' />
  </node>
  <node id='-162631680' action='modify' lat='56.56408349125' lon='8.9908316718' />
  <node id='-162631681' action='modify' lat='56.5615739202' lon='8.97767141394' />
  <node id='-162631682' action='modify' lat='56.55833473212' lon='8.96856397256' />
  <node id='-162631683' action='modify' lat='56.55694415316' lon='8.96539024942' />
  <node id='-162631684' action='modify' lat='56.5476607413' lon='8.94751734965' />
  <node id='-162631685' action='modify' lat='56.54407250208' lon='8.94250228867' />
  <node id='-162631686' action='modify' lat='56.53921247726' lon='8.93763407931' />
  <node id='-162631687' action='modify' lat='56.53486485386' lon='8.93192789326'>
    <tag k='name' v='ron' />
  </node>
  <node id='-162631688' action='modify' lat='56.52842695395' lon='8.91273781523' />
  <node id='-162631689' action='modify' lat='56.52723239998' lon='8.90470996365' />
  <node id='-162631690' action='modify' lat='56.52658702894' lon='8.90123918585' />
  <node id='-162631691' action='modify' lat='56.51991410271' lon='8.87143984303' />
  <node id='-162631692' action='modify' lat='56.51766228404' lon='8.86344648631'>
    <tag k='name' v='hvi' />
  </node>
  <node id='-162631693' action='modify' lat='56.50476296291' lon='8.84272210233' />
  <node id='-162631694' action='modify' lat='56.50277126901' lon='8.84107321367' />
  <node id='-162631695' action='modify' lat='56.49605787453' lon='8.82941365108' />
  <node id='-162631696' action='modify' lat='56.48403082538' lon='8.78739818797' />
  <node id='-162631697' action='modify' lat='56.48368944558' lon='8.78618314728' />
  <node id='-162631698' action='modify' lat='56.4829066877' lon='8.78336046843' />
  <node id='-162631699' action='modify' lat='56.48244497506' lon='8.7815858417'>
    <tag k='name' v='vin' />
  </node>
  <node id='-162631700' action='modify' lat='56.48205655612' lon='8.77971902356' />
  <node id='-162631701' action='modify' lat='56.48184623781' lon='8.77852678165' />
  <node id='-162631702' action='modify' lat='56.48156908242' lon='8.77693388477' />
  <node id='-162631703' action='modify' lat='56.47250169777' lon='8.72336123902'>
    <tag k='name' v='han' />
  </node>
  <node id='-162631704' action='modify' lat='56.47204704151' lon='8.72067533952' />
  <node id='-162631705' action='modify' lat='56.47175225205' lon='8.71894116295' />
  <node id='-162631706' action='modify' lat='56.46747461055' lon='8.69372442621' />
  <node id='-162631707' action='modify' lat='56.46680656834' lon='8.68978656761' />
  <node id='-162631708' action='modify' lat='56.46596606138' lon='8.68483219229' />
  <node id='-162631709' action='modify' lat='56.46526482208' lon='8.67232471637' />
  <node id='-162631710' action='modify' lat='56.4668625027' lon='8.64594183795' />
  <node id='-162631711' action='modify' lat='56.46824416626' lon='8.63663725488' />
  <node id='-162631712' action='modify' lat='56.47182773755' lon='8.62185023658' />
  <node id='-162631713' action='modify' lat='56.4794637832' lon='8.61026242241' />
  <node id='-162631714' action='modify' lat='56.47975409962' lon='8.61014172301' />
  <node id='-162631715' action='modify' lat='56.48484094217' lon='8.61086591944' />
  <node id='-162631716' action='modify' lat='56.48590354627' lon='8.61173763737' />
  <node id='-162631717' action='modify' lat='56.49047203466' lon='8.60852032766' />
  <node id='-162631718' action='modify' lat='56.490870363' lon='8.60705852375' />
  <node id='-162631719' action='modify' lat='56.49136493586' lon='8.60466196998' />
  <node id='-162631720' action='modify' lat='56.49186213476' lon='8.60078220935'>
    <tag k='name' v='str' />
  </node>
  <node id='-162631721' action='modify' lat='56.43318668623' lon='9.40065102252' />
  <node id='-162631722' action='modify' lat='56.43851213114' lon='9.402172544'>
    <tag k='name' v='vib.ys' />
  </node>
  <node id='-162631723' action='modify' lat='56.44240282494' lon='9.40483329535' />
  <node id='-162631724' action='modify' lat='56.44460301687' lon='9.40716683328' />
  <node id='-162631725' action='modify' lat='56.4455133053' lon='9.40852939546'>
    <tag k='name' v='vib' />
  </node>
  <node id='-162631726' action='modify' lat='56.44693722042' lon='9.41066084349' />
  <node id='-162631727' action='modify' lat='56.43164313556' lon='9.38877222776' />
  <node id='-162631728' action='modify' lat='56.43137024827' lon='9.38581106901' />
  <node id='-162631729' action='modify' lat='56.43134058056' lon='9.38051103473' />
  <node id='-162631730' action='modify' lat='56.43789047465' lon='9.32710691988'>
    <tag k='name' v='vib.yv' />
  </node>
  <node id='-162631731' action='modify' lat='56.43806727966' lon='9.32566522479' />
  <node id='-162631732' action='modify' lat='56.43835790971' lon='9.32363748014' />
  <node id='-162631733' action='modify' lat='56.4391793808' lon='9.31884705484' />
  <node id='-162631734' action='modify' lat='56.44103281829' lon='9.31092380404' />
  <node id='-162631735' action='modify' lat='56.44692154361' lon='9.29093083986'>
    <tag k='name' v='rav' />
  </node>
  <node id='-162631736' action='modify' lat='56.44771629985' lon='9.28823230505' />
  <node id='-162631737' action='modify' lat='56.45133330157' lon='9.28131221652' />
  <node id='-162631738' action='modify' lat='56.45438080793' lon='9.27844761729' />
  <node id='-162631739' action='modify' lat='56.45710176553' lon='9.27492838487' />
  <node id='-162631740' action='modify' lat='56.45334546277' lon='9.35889793499' />
  <node id='-162631741' action='modify' lat='56.44983915427' lon='9.3517379288' />
  <node id='-162631742' action='modify' lat='56.44888444715' lon='9.34999822497' />
  <node id='-162631743' action='modify' lat='56.43988815373' lon='9.33691976309' />
  <node id='-162631751' action='modify' lat='56.38471199837' lon='9.89516202358' />
  <node id='-162631752' action='modify' lat='56.38674255945' lon='9.8964426003' />
  <node id='-162631762' action='modify' lat='56.38545949901' lon='9.89568695292' />
  <node id='-162631774' action='modify' lat='56.386057158' lon='9.89599004254' />
  <node id='-162631783' action='modify' lat='56.43852133654' lon='9.40209312442' />
  <node id='-162631784' action='modify' lat='56.44241912379' lon='9.4047662589' />
  <node id='-162631785' action='modify' lat='56.44462970168' lon='9.40711319178' />
  <node id='-162631786' action='modify' lat='56.44553554186' lon='9.40847038954'>
    <tag k='name' v='vib' />
  </node>
  <way id='-37457817' action='modify'>
    <nd ref='-162631751' />
    <nd ref='-162631544' />
    <tag k='type' v='straight' />
  </way>
  <way id='-37457819' action='modify'>
    <nd ref='-162631544' />
    <nd ref='-162631545' />
  </way>
  <way id='-37457820' action='modify'>
    <nd ref='-162631545' />
    <nd ref='-162631546' />
    <tag k='type' v='straight' />
  </way>
  <way id='-37457821' action='modify'>
    <nd ref='-162631546' />
    <nd ref='-162631547' />
    <nd ref='-162631548' />
  </way>
  <way id='-37457822' action='modify'>
    <nd ref='-162631548' />
    <nd ref='-162631549' />
    <tag k='type' v='straight' />
  </way>
  <way id='-37457823' action='modify'>
    <nd ref='-162631549' />
    <nd ref='-162631550' />
  </way>
  <way id='-37457824' action='modify'>
    <nd ref='-162631550' />
    <nd ref='-162631551' />
    <tag k='type' v='straight' />
  </way>
  <way id='-37457825' action='modify'>
    <nd ref='-162631551' />
    <nd ref='-162631552' />
    <nd ref='-162631553' />
  </way>
  <way id='-37457826' action='modify'>
    <nd ref='-162631553' />
    <nd ref='-162631554' />
    <tag k='type' v='straight' />
  </way>
  <way id='-37457827' action='modify'>
    <nd ref='-162631554' />
    <nd ref='-162631555' />
  </way>
  <way id='-37457828' action='modify'>
    <nd ref='-162631555' />
    <nd ref='-162631556' />
    <tag k='type' v='straight' />
  </way>
  <way id='-37457829' action='modify'>
    <nd ref='-162631556' />
    <nd ref='-162631557' />
  </way>
  <way id='-37457830' action='modify'>
    <nd ref='-162631557' />
    <nd ref='-162631558' />
    <tag k='type' v='straight' />
  </way>
  <way id='-37457831' action='modify'>
    <nd ref='-162631558' />
    <nd ref='-162631559' />
  </way>
  <way id='-37457832' action='modify'>
    <nd ref='-162631559' />
    <nd ref='-162631560' />
    <tag k='type' v='straight' />
  </way>
  <way id='-37457833' action='modify'>
    <nd ref='-162631560' />
    <nd ref='-162631561' />
  </way>
  <way id='-37457834' action='modify'>
    <nd ref='-162631561' />
    <nd ref='-162631562' />
    <tag k='type' v='straight' />
  </way>
  <way id='-37457835' action='modify'>
    <nd ref='-162631562' />
    <nd ref='-162631563' />
  </way>
  <way id='-37457836' action='modify'>
    <nd ref='-162631563' />
    <nd ref='-162631564' />
    <nd ref='-162631565' />
    <tag k='type' v='straight' />
  </way>
  <way id='-37457837' action='modify'>
    <nd ref='-162631565' />
    <nd ref='-162631566' />
  </way>
  <way id='-37457838' action='modify'>
    <nd ref='-162631566' />
    <nd ref='-162631567' />
    <tag k='type' v='straight' />
  </way>
  <way id='-37457839' action='modify'>
    <nd ref='-162631567' />
    <nd ref='-162631568' />
  </way>
  <way id='-37457840' action='modify'>
    <nd ref='-162631568' />
    <nd ref='-162631569' />
    <tag k='type' v='straight' />
  </way>
  <way id='-37457841' action='modify'>
    <nd ref='-162631569' />
    <nd ref='-162631570' />
  </way>
  <way id='-37457842' action='modify'>
    <nd ref='-162631570' />
    <nd ref='-162631571' />
    <tag k='type' v='straight' />
  </way>
  <way id='-37457843' action='modify'>
    <nd ref='-162631571' />
    <nd ref='-162631572' />
  </way>
  <way id='-37457844' action='modify'>
    <nd ref='-162631572' />
    <nd ref='-162631573' />
    <tag k='type' v='straight' />
  </way>
  <way id='-37457845' action='modify'>
    <nd ref='-162631573' />
    <nd ref='-162631574' />
  </way>
  <way id='-37457846' action='modify'>
    <nd ref='-162631574' />
    <nd ref='-162631575' />
    <tag k='type' v='straight' />
  </way>
  <way id='-37457847' action='modify'>
    <nd ref='-162631575' />
    <nd ref='-162631576' />
    <nd ref='-162631577' />
  </way>
  <way id='-37457848' action='modify'>
    <nd ref='-162631577' />
    <nd ref='-162631578' />
    <tag k='type' v='straight' />
  </way>
  <way id='-37457849' action='modify'>
    <nd ref='-162631578' />
    <nd ref='-162631579' />
  </way>
  <way id='-37457850' action='modify'>
    <nd ref='-162631579' />
    <nd ref='-162631580' />
    <tag k='type' v='straight' />
  </way>
  <way id='-37457851' action='modify'>
    <nd ref='-162631580' />
    <nd ref='-162631581' />
  </way>
  <way id='-37457852' action='modify'>
    <nd ref='-162631581' />
    <nd ref='-162631582' />
    <tag k='type' v='straight' />
  </way>
  <way id='-37457853' action='modify'>
    <nd ref='-162631582' />
    <nd ref='-162631583' />
  </way>
  <way id='-37457854' action='modify'>
    <nd ref='-162631583' />
    <nd ref='-162631584' />
    <tag k='type' v='straight' />
  </way>
  <way id='-37457855' action='modify'>
    <nd ref='-162631584' />
    <nd ref='-162631585' />
  </way>
  <way id='-37457856' action='modify'>
    <nd ref='-162631585' />
    <nd ref='-162631586' />
    <tag k='type' v='straight' />
  </way>
  <way id='-37457857' action='modify'>
    <nd ref='-162631586' />
    <nd ref='-162631587' />
  </way>
  <way id='-37457858' action='modify'>
    <nd ref='-162631587' />
    <nd ref='-162631588' />
    <tag k='type' v='straight' />
  </way>
  <way id='-37457859' action='modify'>
    <nd ref='-162631588' />
    <nd ref='-162631589' />
  </way>
  <way id='-37457860' action='modify'>
    <nd ref='-162631589' />
    <nd ref='-162631590' />
    <tag k='type' v='straight' />
  </way>
  <way id='-37457861' action='modify'>
    <nd ref='-162631590' />
    <nd ref='-162631591' />
  </way>
  <way id='-37457862' action='modify'>
    <nd ref='-162631591' />
    <nd ref='-162631592' />
    <tag k='type' v='straight' />
  </way>
  <way id='-37457863' action='modify'>
    <nd ref='-162631592' />
    <nd ref='-162631593' />
  </way>
  <way id='-37457864' action='modify'>
    <nd ref='-162631593' />
    <nd ref='-162631594' />
    <tag k='type' v='straight' />
  </way>
  <way id='-37457865' action='modify'>
    <nd ref='-162631594' />
    <nd ref='-162631595' />
  </way>
  <way id='-37457866' action='modify'>
    <nd ref='-162631595' />
    <nd ref='-162631596' />
    <tag k='type' v='straight' />
  </way>
  <way id='-37457867' action='modify'>
    <nd ref='-162631596' />
    <nd ref='-162631597' />
  </way>
  <way id='-37457868' action='modify'>
    <nd ref='-162631597' />
    <nd ref='-162631598' />
    <tag k='type' v='straight' />
  </way>
  <way id='-37457869' action='modify'>
    <nd ref='-162631598' />
    <nd ref='-162631599' />
    <nd ref='-162631600' />
  </way>
  <way id='-37457870' action='modify'>
    <nd ref='-162631600' />
    <nd ref='-162631601' />
    <tag k='type' v='straight' />
  </way>
  <way id='-37457871' action='modify'>
    <nd ref='-162631601' />
    <nd ref='-162631602' />
  </way>
  <way id='-37457872' action='modify'>
    <nd ref='-162631602' />
    <nd ref='-162631603' />
    <tag k='type' v='straight' />
  </way>
  <way id='-37457873' action='modify'>
    <nd ref='-162631603' />
    <nd ref='-162631604' />
  </way>
  <way id='-37457874' action='modify'>
    <nd ref='-162631604' />
    <nd ref='-162631605' />
    <tag k='type' v='straight' />
  </way>
  <way id='-37457875' action='modify'>
    <nd ref='-162631605' />
    <nd ref='-162631606' />
  </way>
  <way id='-37457876' action='modify'>
    <nd ref='-162631606' />
    <nd ref='-162631607' />
    <tag k='type' v='straight' />
  </way>
  <way id='-37457877' action='modify'>
    <nd ref='-162631607' />
    <nd ref='-162631608' />
  </way>
  <way id='-37457878' action='modify'>
    <nd ref='-162631608' />
    <nd ref='-162631609' />
    <tag k='type' v='straight' />
  </way>
  <way id='-37457879' action='modify'>
    <nd ref='-162631609' />
    <nd ref='-162631610' />
  </way>
  <way id='-37457880' action='modify'>
    <nd ref='-162631610' />
    <nd ref='-162631611' />
    <tag k='type' v='straight' />
  </way>
  <way id='-37457881' action='modify'>
    <nd ref='-162631611' />
    <nd ref='-162631612' />
  </way>
  <way id='-37457882' action='modify'>
    <nd ref='-162631612' />
    <nd ref='-162631613' />
    <nd ref='-162631614' />
    <tag k='type' v='straight' />
  </way>
  <way id='-37457883' action='modify'>
    <nd ref='-162631614' />
    <nd ref='-162631615' />
  </way>
  <way id='-37457884' action='modify'>
    <nd ref='-162631615' />
    <nd ref='-162631616' />
    <tag k='type' v='straight' />
  </way>
  <way id='-37457885' action='modify'>
    <nd ref='-162631616' />
    <nd ref='-162631617' />
  </way>
  <way id='-37457886' action='modify'>
    <nd ref='-162631617' />
    <nd ref='-162631618' />
    <tag k='type' v='straight' />
  </way>
  <way id='-37457887' action='modify'>
    <nd ref='-162631618' />
    <nd ref='-162631619' />
  </way>
  <way id='-37457888' action='modify'>
    <nd ref='-162631619' />
    <nd ref='-162631620' />
    <tag k='type' v='straight' />
  </way>
  <way id='-37457889' action='modify'>
    <nd ref='-162631620' />
    <nd ref='-162631621' />
  </way>
  <way id='-37457890' action='modify'>
    <nd ref='-162631621' />
    <nd ref='-162631622' />
    <tag k='type' v='straight' />
  </way>
  <way id='-37457891' action='modify'>
    <nd ref='-162631622' />
    <nd ref='-162631623' />
  </way>
  <way id='-37457892' action='modify'>
    <nd ref='-162631623' />
    <nd ref='-162631624' />
    <tag k='type' v='straight' />
  </way>
  <way id='-37457893' action='modify'>
    <nd ref='-162631624' />
    <nd ref='-162631625' />
  </way>
  <way id='-37457894' action='modify'>
    <nd ref='-162631625' />
    <nd ref='-162631626' />
    <tag k='type' v='straight' />
  </way>
  <way id='-37457895' action='modify'>
    <nd ref='-162631626' />
    <nd ref='-162631627' />
  </way>
  <way id='-37457896' action='modify'>
    <nd ref='-162631627' />
    <nd ref='-162631628' />
    <tag k='type' v='straight' />
  </way>
  <way id='-37457897' action='modify'>
    <nd ref='-162631628' />
    <nd ref='-162631629' />
  </way>
  <way id='-37457898' action='modify'>
    <nd ref='-162631629' />
    <nd ref='-162631630' />
    <tag k='type' v='straight' />
  </way>
  <way id='-37457899' action='modify'>
    <nd ref='-162631630' />
    <nd ref='-162631631' />
  </way>
  <way id='-37457900' action='modify'>
    <nd ref='-162631631' />
    <nd ref='-162631632' />
    <nd ref='-162631633' />
    <tag k='type' v='straight' />
  </way>
  <way id='-37457901' action='modify'>
    <nd ref='-162631633' />
    <nd ref='-162631634' />
  </way>
  <way id='-37457902' action='modify'>
    <nd ref='-162631634' />
    <nd ref='-162631635' />
    <tag k='type' v='straight' />
  </way>
  <way id='-37457903' action='modify'>
    <nd ref='-162631635' />
    <nd ref='-162631636' />
  </way>
  <way id='-37457904' action='modify'>
    <nd ref='-162631636' />
    <nd ref='-162631637' />
    <tag k='type' v='straight' />
  </way>
  <way id='-37457905' action='modify'>
    <nd ref='-162631637' />
    <nd ref='-162631638' />
  </way>
  <way id='-37457906' action='modify'>
    <nd ref='-162631638' />
    <nd ref='-162631639' />
    <tag k='type' v='straight' />
  </way>
  <way id='-37457907' action='modify'>
    <nd ref='-162631639' />
    <nd ref='-162631640' />
  </way>
  <way id='-37457908' action='modify'>
    <nd ref='-162631640' />
    <nd ref='-162631641' />
    <tag k='type' v='straight' />
  </way>
  <way id='-37457909' action='modify'>
    <nd ref='-162631641' />
    <nd ref='-162631642' />
    <nd ref='-162631643' />
  </way>
  <way id='-37457910' action='modify'>
    <nd ref='-162631643' />
    <nd ref='-162631644' />
    <tag k='type' v='straight' />
  </way>
  <way id='-37457911' action='modify'>
    <nd ref='-162631644' />
    <nd ref='-162631645' />
  </way>
  <way id='-37457912' action='modify'>
    <nd ref='-162631645' />
    <nd ref='-162631646' />
    <tag k='type' v='straight' />
  </way>
  <way id='-37457913' action='modify'>
    <nd ref='-162631646' />
    <nd ref='-162631647' />
  </way>
  <way id='-37457914' action='modify'>
    <nd ref='-162631647' />
    <nd ref='-162631648' />
    <tag k='type' v='straight' />
  </way>
  <way id='-37457915' action='modify'>
    <nd ref='-162631648' />
    <nd ref='-162631649' />
    <nd ref='-162631650' />
  </way>
  <way id='-37457916' action='modify'>
    <nd ref='-162631650' />
    <nd ref='-162631651' />
    <tag k='type' v='straight' />
  </way>
  <way id='-37457917' action='modify'>
    <nd ref='-162631651' />
    <nd ref='-162631652' />
  </way>
  <way id='-37457918' action='modify'>
    <nd ref='-162631652' />
    <nd ref='-162631653' />
    <tag k='type' v='straight' />
  </way>
  <way id='-37457919' action='modify'>
    <nd ref='-162631653' />
    <nd ref='-162631654' />
  </way>
  <way id='-37457920' action='modify'>
    <nd ref='-162631654' />
    <nd ref='-162631655' />
    <tag k='type' v='straight' />
  </way>
  <way id='-37457921' action='modify'>
    <nd ref='-162631655' />
    <nd ref='-162631656' />
    <nd ref='-162631657' />
  </way>
  <way id='-37457922' action='modify'>
    <nd ref='-162631657' />
    <nd ref='-162631658' />
    <tag k='type' v='straight' />
  </way>
  <way id='-37457923' action='modify'>
    <nd ref='-162631658' />
    <nd ref='-162631659' />
  </way>
  <way id='-37457924' action='modify'>
    <nd ref='-162631659' />
    <nd ref='-162631660' />
    <tag k='type' v='straight' />
  </way>
  <way id='-37457925' action='modify'>
    <nd ref='-162631660' />
    <nd ref='-162631661' />
    <nd ref='-162631662' />
  </way>
  <way id='-37457926' action='modify'>
    <nd ref='-162631662' />
    <nd ref='-162631663' />
    <tag k='type' v='straight' />
  </way>
  <way id='-37457927' action='modify'>
    <nd ref='-162631663' />
    <nd ref='-162631664' />
  </way>
  <way id='-37457928' action='modify'>
    <nd ref='-162631664' />
    <nd ref='-162631665' />
    <tag k='type' v='straight' />
  </way>
  <way id='-37457929' action='modify'>
    <nd ref='-162631665' />
    <nd ref='-162631666' />
  </way>
  <way id='-37457930' action='modify'>
    <nd ref='-162631666' />
    <nd ref='-162631667' />
    <tag k='type' v='straight' />
  </way>
  <way id='-37457931' action='modify'>
    <nd ref='-162631667' />
    <nd ref='-162631668' />
  </way>
  <way id='-37457932' action='modify'>
    <nd ref='-162631668' />
    <nd ref='-162631669' />
    <tag k='type' v='straight' />
  </way>
  <way id='-37457933' action='modify'>
    <nd ref='-162631669' />
    <nd ref='-162631670' />
  </way>
  <way id='-37457934' action='modify'>
    <nd ref='-162631670' />
    <nd ref='-162631671' />
    <nd ref='-162631672' />
    <tag k='type' v='straight' />
  </way>
  <way id='-37457935' action='modify'>
    <nd ref='-162631672' />
    <nd ref='-162631673' />
  </way>
  <way id='-37457936' action='modify'>
    <nd ref='-162631673' />
    <nd ref='-162631674' />
    <tag k='type' v='straight' />
  </way>
  <way id='-37457937' action='modify'>
    <nd ref='-162631674' />
    <nd ref='-162631675' />
  </way>
  <way id='-37457938' action='modify'>
    <nd ref='-162631675' />
    <nd ref='-162631676' />
    <tag k='type' v='straight' />
  </way>
  <way id='-37457939' action='modify'>
    <nd ref='-162631676' />
    <nd ref='-162631677' />
  </way>
  <way id='-37457940' action='modify'>
    <nd ref='-162631677' />
    <nd ref='-162631678' />
    <tag k='type' v='straight' />
  </way>
  <way id='-37457941' action='modify'>
    <nd ref='-162631678' />
    <nd ref='-162631679' />
  </way>
  <way id='-37457942' action='modify'>
    <nd ref='-162631679' />
    <nd ref='-162631680' />
    <tag k='type' v='straight' />
  </way>
  <way id='-37457943' action='modify'>
    <nd ref='-162631680' />
    <nd ref='-162631681' />
  </way>
  <way id='-37457944' action='modify'>
    <nd ref='-162631681' />
    <nd ref='-162631682' />
    <tag k='type' v='straight' />
  </way>
  <way id='-37457945' action='modify'>
    <nd ref='-162631682' />
    <nd ref='-162631683' />
  </way>
  <way id='-37457946' action='modify'>
    <nd ref='-162631683' />
    <nd ref='-162631684' />
    <tag k='type' v='straight' />
  </way>
  <way id='-37457947' action='modify'>
    <nd ref='-162631684' />
    <nd ref='-162631685' />
  </way>
  <way id='-37457948' action='modify'>
    <nd ref='-162631685' />
    <nd ref='-162631686' />
    <tag k='type' v='straight' />
  </way>
  <way id='-37457949' action='modify'>
    <nd ref='-162631686' />
    <nd ref='-162631687' />
    <nd ref='-162631688' />
  </way>
  <way id='-37457950' action='modify'>
    <nd ref='-162631688' />
    <nd ref='-162631689' />
    <tag k='type' v='straight' />
  </way>
  <way id='-37457951' action='modify'>
    <nd ref='-162631689' />
    <nd ref='-162631690' />
  </way>
  <way id='-37457952' action='modify'>
    <nd ref='-162631690' />
    <nd ref='-162631691' />
    <tag k='type' v='straight' />
  </way>
  <way id='-37457953' action='modify'>
    <nd ref='-162631691' />
    <nd ref='-162631692' />
    <nd ref='-162631693' />
  </way>
  <way id='-37457954' action='modify'>
    <nd ref='-162631693' />
    <nd ref='-162631694' />
    <tag k='type' v='straight' />
  </way>
  <way id='-37457955' action='modify'>
    <nd ref='-162631694' />
    <nd ref='-162631695' />
  </way>
  <way id='-37457956' action='modify'>
    <nd ref='-162631695' />
    <nd ref='-162631696' />
    <tag k='type' v='straight' />
  </way>
  <way id='-37457957' action='modify'>
    <nd ref='-162631696' />
    <nd ref='-162631697' />
  </way>
  <way id='-37457958' action='modify'>
    <nd ref='-162631697' />
    <nd ref='-162631698' />
    <tag k='type' v='straight' />
  </way>
  <way id='-37457959' action='modify'>
    <nd ref='-162631698' />
    <nd ref='-162631699' />
    <nd ref='-162631700' />
  </way>
  <way id='-37457960' action='modify'>
    <nd ref='-162631700' />
    <nd ref='-162631701' />
    <tag k='type' v='straight' />
  </way>
  <way id='-37457961' action='modify'>
    <nd ref='-162631701' />
    <nd ref='-162631702' />
  </way>
  <way id='-37457962' action='modify'>
    <nd ref='-162631702' />
    <nd ref='-162631703' />
    <nd ref='-162631704' />
    <tag k='type' v='straight' />
  </way>
  <way id='-37457963' action='modify'>
    <nd ref='-162631704' />
    <nd ref='-162631705' />
  </way>
  <way id='-37457964' action='modify'>
    <nd ref='-162631705' />
    <nd ref='-162631706' />
    <nd ref='-162631707' />
    <nd ref='-162631708' />
    <tag k='type' v='straight' />
  </way>
  <way id='-37457965' action='modify'>
    <nd ref='-162631708' />
    <nd ref='-162631709' />
  </way>
  <way id='-37457966' action='modify'>
    <nd ref='-162631709' />
    <nd ref='-162631710' />
    <tag k='type' v='straight' />
  </way>
  <way id='-37457967' action='modify'>
    <nd ref='-162631710' />
    <nd ref='-162631711' />
  </way>
  <way id='-37457968' action='modify'>
    <nd ref='-162631711' />
    <nd ref='-162631712' />
    <tag k='type' v='straight' />
  </way>
  <way id='-37457969' action='modify'>
    <nd ref='-162631712' />
    <nd ref='-162631713' />
  </way>
  <way id='-37457970' action='modify'>
    <nd ref='-162631713' />
    <nd ref='-162631714' />
    <tag k='type' v='straight' />
  </way>
  <way id='-37457971' action='modify'>
    <nd ref='-162631714' />
    <nd ref='-162631715' />
  </way>
  <way id='-37457972' action='modify'>
    <nd ref='-162631715' />
    <nd ref='-162631716' />
    <tag k='type' v='straight' />
  </way>
  <way id='-37457973' action='modify'>
    <nd ref='-162631716' />
    <nd ref='-162631717' />
  </way>
  <way id='-37457974' action='modify'>
    <nd ref='-162631717' />
    <nd ref='-162631718' />
    <tag k='type' v='straight' />
  </way>
  <way id='-37457975' action='modify'>
    <nd ref='-162631718' />
    <nd ref='-162631719' />
  </way>
  <way id='-37457976' action='modify'>
    <nd ref='-162631719' />
    <nd ref='-162631720' />
    <tag k='type' v='straight' />
  </way>
  <way id='-37457977' action='modify'>
    <nd ref='-162631603' />
    <nd ref='-162631721' />
    <tag k='type' v='straight' />
  </way>
  <way id='-37457978' action='modify'>
    <nd ref='-162631721' />
    <nd ref='-162631722' />
  </way>
  <way id='-37457979' action='modify'>
    <nd ref='-162631722' />
    <nd ref='-162631723' />
    <tag k='type' v='straight' />
  </way>
  <way id='-37457980' action='modify'>
    <nd ref='-162631723' />
    <nd ref='-162631724' />
  </way>
  <way id='-37457981' action='modify'>
    <nd ref='-162631724' />
    <nd ref='-162631725' />
    <nd ref='-162631726' />
    <tag k='type' v='straight' />
  </way>
  <way id='-37457982' action='modify'>
    <nd ref='-162631786' />
    <nd ref='-162631785' />
    <tag k='type' v='straight' />
  </way>
  <way id='-37457983' action='modify'>
    <nd ref='-162631727' />
    <nd ref='-162631728' />
    <tag k='type' v='straight' />
  </way>
  <way id='-37457984' action='modify'>
    <nd ref='-162631728' />
    <nd ref='-162631729' />
  </way>
  <way id='-37457985' action='modify'>
    <nd ref='-162631729' />
    <nd ref='-162631730' />
    <tag k='type' v='straight' />
  </way>
  <way id='-37457986' action='modify'>
    <nd ref='-162631730' />
    <nd ref='-162631731' />
    <tag k='type' v='straight' />
  </way>
  <way id='-37457987' action='modify'>
    <nd ref='-162631731' />
    <nd ref='-162631732' />
  </way>
  <way id='-37457988' action='modify'>
    <nd ref='-162631732' />
    <nd ref='-162631733' />
    <tag k='type' v='straight' />
  </way>
  <way id='-37457989' action='modify'>
    <nd ref='-162631733' />
    <nd ref='-162631734' />
  </way>
  <way id='-37457990' action='modify'>
    <nd ref='-162631734' />
    <nd ref='-162631735' />
    <nd ref='-162631736' />
    <tag k='type' v='straight' />
  </way>
  <way id='-37457991' action='modify'>
    <nd ref='-162631736' />
    <nd ref='-162631737' />
  </way>
  <way id='-37457992' action='modify'>
    <nd ref='-162631737' />
    <nd ref='-162631738' />
    <tag k='type' v='straight' />
  </way>
  <way id='-37457993' action='modify'>
    <nd ref='-162631738' />
    <nd ref='-162631739' />
  </way>
  <way id='-37457994' action='modify'>
    <nd ref='-162631739' />
    <nd ref='-162631634' />
    <tag k='type' v='straight' />
  </way>
  <way id='-37457995' action='modify'>
    <nd ref='-162631624' />
    <nd ref='-162631740' />
  </way>
  <way id='-37457996' action='modify'>
    <nd ref='-162631740' />
    <nd ref='-162631741' />
    <tag k='type' v='straight' />
  </way>
  <way id='-37457997' action='modify'>
    <nd ref='-162631741' />
    <nd ref='-162631742' />
  </way>
  <way id='-37457998' action='modify'>
    <nd ref='-162631742' />
    <nd ref='-162631743' />
    <tag k='type' v='straight' />
  </way>
  <way id='-37457999' action='modify'>
    <nd ref='-162631743' />
    <nd ref='-162631730' />
  </way>
  <way id='-37458033' action='modify'>
    <nd ref='-162631762' />
    <nd ref='-162631751' />
  </way>
  <way id='-37458034' action='modify'>
    <nd ref='-162631774' />
    <nd ref='-162631762' />
    <tag k='type' v='straight' />
  </way>
  <way id='-37458035' action='modify'>
    <nd ref='-162631752' />
    <nd ref='-162631774' />
  </way>
  <way id='-37458036' action='modify'>
    <nd ref='-162631543' />
    <nd ref='-162631752' />
    <tag k='type' v='straight' />
  </way>
  <way id='-37458049' action='modify'>
    <nd ref='-162631783' />
    <nd ref='-162631727' />
  </way>
  <way id='-37458052' action='modify'>
    <nd ref='-162631784' />
    <nd ref='-162631783' />
    <tag k='type' v='straight' />
  </way>
  <way id='-37458055' action='modify'>
    <nd ref='-162631785' />
    <nd ref='-162631784' />
  </way>
  <relation id='-14478081' action='modify'>
    <member type='way' ref='-37458036' role='' />
    <member type='way' ref='-37458035' role='' />
    <member type='way' ref='-37458034' role='' />
    <member type='way' ref='-37458033' role='' />
    <member type='way' ref='-37457817' role='' />
    <member type='way' ref='-37457819' role='' />
    <member type='way' ref='-37457820' role='' />
    <member type='way' ref='-37457821' role='' />
    <member type='way' ref='-37457822' role='' />
    <member type='way' ref='-37457823' role='' />
    <member type='way' ref='-37457824' role='' />
    <member type='way' ref='-37457825' role='' />
    <member type='way' ref='-37457826' role='' />
    <member type='way' ref='-37457827' role='' />
    <member type='way' ref='-37457828' role='' />
    <member type='way' ref='-37457829' role='' />
    <member type='way' ref='-37457830' role='' />
    <member type='way' ref='-37457831' role='' />
    <member type='way' ref='-37457832' role='' />
    <member type='way' ref='-37457833' role='' />
    <member type='way' ref='-37457834' role='' />
    <member type='way' ref='-37457835' role='' />
    <member type='way' ref='-37457836' role='' />
    <member type='way' ref='-37457837' role='' />
    <member type='way' ref='-37457838' role='' />
    <member type='way' ref='-37457839' role='' />
    <member type='way' ref='-37457840' role='' />
    <member type='way' ref='-37457841' role='' />
    <member type='way' ref='-37457842' role='' />
    <member type='way' ref='-37457843' role='' />
    <member type='way' ref='-37457844' role='' />
    <member type='way' ref='-37457845' role='' />
    <member type='way' ref='-37457846' role='' />
    <member type='way' ref='-37457847' role='' />
    <member type='way' ref='-37457848' role='' />
    <member type='way' ref='-37457849' role='' />
    <member type='way' ref='-37457850' role='' />
    <member type='way' ref='-37457851' role='' />
    <member type='way' ref='-37457852' role='' />
    <member type='way' ref='-37457853' role='' />
    <member type='way' ref='-37457854' role='' />
    <member type='way' ref='-37457855' role='' />
    <member type='way' ref='-37457856' role='' />
    <member type='way' ref='-37457857' role='' />
    <member type='way' ref='-37457858' role='' />
    <member type='way' ref='-37457859' role='' />
    <member type='way' ref='-37457860' role='' />
    <member type='way' ref='-37457861' role='' />
    <member type='way' ref='-37457862' role='' />
    <member type='way' ref='-37457863' role='' />
    <member type='way' ref='-37457864' role='' />
    <member type='way' ref='-37457865' role='' />
    <member type='way' ref='-37457866' role='' />
    <member type='way' ref='-37457867' role='' />
    <member type='way' ref='-37457868' role='' />
    <member type='way' ref='-37457869' role='' />
    <member type='way' ref='-37457870' role='' />
    <member type='way' ref='-37457871' role='' />
    <member type='way' ref='-37457872' role='' />
    <member type='way' ref='-37457873' role='' />
    <member type='way' ref='-37457874' role='' />
    <member type='way' ref='-37457875' role='' />
    <member type='way' ref='-37457876' role='' />
    <member type='way' ref='-37457877' role='' />
    <member type='way' ref='-37457878' role='' />
    <member type='way' ref='-37457879' role='' />
    <member type='way' ref='-37457880' role='' />
    <member type='way' ref='-37457881' role='' />
    <member type='way' ref='-37457882' role='' />
    <member type='way' ref='-37457883' role='' />
    <member type='way' ref='-37457884' role='' />
    <member type='way' ref='-37457885' role='' />
    <member type='way' ref='-37457886' role='' />
    <member type='way' ref='-37457887' role='' />
    <member type='way' ref='-37457888' role='' />
    <member type='way' ref='-37457889' role='' />
    <member type='way' ref='-37457890' role='' />
    <member type='way' ref='-37457891' role='' />
    <member type='way' ref='-37457892' role='' />
    <member type='way' ref='-37457893' role='' />
    <member type='way' ref='-37457894' role='' />
    <member type='way' ref='-37457895' role='' />
    <member type='way' ref='-37457896' role='' />
    <member type='way' ref='-37457897' role='' />
    <member type='way' ref='-37457898' role='' />
    <member type='way' ref='-37457899' role='' />
    <member type='way' ref='-37457900' role='' />
    <member type='way' ref='-37457901' role='' />
    <member type='way' ref='-37457902' role='' />
    <member type='way' ref='-37457903' role='' />
    <member type='way' ref='-37457904' role='' />
    <member type='way' ref='-37457905' role='' />
    <member type='way' ref='-37457906' role='' />
    <member type='way' ref='-37457907' role='' />
    <member type='way' ref='-37457908' role='' />
    <member type='way' ref='-37457909' role='' />
    <member type='way' ref='-37457910' role='' />
    <member type='way' ref='-37457911' role='' />
    <member type='way' ref='-37457912' role='' />
    <member type='way' ref='-37457913' role='' />
    <member type='way' ref='-37457914' role='' />
    <member type='way' ref='-37457915' role='' />
    <member type='way' ref='-37457916' role='' />
    <member type='way' ref='-37457917' role='' />
    <member type='way' ref='-37457918' role='' />
    <member type='way' ref='-37457919' role='' />
    <member type='way' ref='-37457920' role='' />
    <member type='way' ref='-37457921' role='' />
    <member type='way' ref='-37457922' role='' />
    <member type='way' ref='-37457923' role='' />
    <member type='way' ref='-37457924' role='' />
    <member type='way' ref='-37457925' role='' />
    <member type='way' ref='-37457926' role='' />
    <member type='way' ref='-37457927' role='' />
    <member type='way' ref='-37457928' role='' />
    <member type='way' ref='-37457929' role='' />
    <member type='way' ref='-37457930' role='' />
    <member type='way' ref='-37457931' role='' />
    <member type='way' ref='-37457932' role='' />
    <member type='way' ref='-37457933' role='' />
    <member type='way' ref='-37457934' role='' />
    <member type='way' ref='-37457935' role='' />
    <member type='way' ref='-37457936' role='' />
    <member type='way' ref='-37457937' role='' />
    <member type='way' ref='-37457938' role='' />
    <member type='way' ref='-37457939' role='' />
    <member type='way' ref='-37457940' role='' />
    <member type='way' ref='-37457941' role='' />
    <member type='way' ref='-37457942' role='' />
    <member type='way' ref='-37457943' role='' />
    <member type='way' ref='-37457944' role='' />
    <member type='way' ref='-37457945' role='' />
    <member type='way' ref='-37457946' role='' />
    <member type='way' ref='-37457947' role='' />
    <member type='way' ref='-37457948' role='' />
    <member type='way' ref='-37457949' role='' />
    <member type='way' ref='-37457950' role='' />
    <member type='way' ref='-37457951' role='' />
    <member type='way' ref='-37457952' role='' />
    <member type='way' ref='-37457953' role='' />
    <member type='way' ref='-37457954' role='' />
    <member type='way' ref='-37457955' role='' />
    <member type='way' ref='-37457956' role='' />
    <member type='way' ref='-37457957' role='' />
    <member type='way' ref='-37457958' role='' />
    <member type='way' ref='-37457959' role='' />
    <member type='way' ref='-37457960' role='' />
    <member type='way' ref='-37457961' role='' />
    <member type='way' ref='-37457962' role='' />
    <member type='way' ref='-37457963' role='' />
    <member type='way' ref='-37457964' role='' />
    <member type='way' ref='-37457965' role='' />
    <member type='way' ref='-37457966' role='' />
    <member type='way' ref='-37457967' role='' />
    <member type='way' ref='-37457968' role='' />
    <member type='way' ref='-37457969' role='' />
    <member type='way' ref='-37457970' role='' />
    <member type='way' ref='-37457971' role='' />
    <member type='way' ref='-37457972' role='' />
    <member type='way' ref='-37457973' role='' />
    <member type='way' ref='-37457974' role='' />
    <member type='way' ref='-37457975' role='' />
    <member type='way' ref='-37457976' role='' />
    <tag k='key' v='path.dk.lst' />
    <tag k='name' v='DK LST' />
    <tag k='type' v='path' />
  </relation>
  <relation id='-14478082' action='modify'>
    <member type='way' ref='-37457872' role='' />
    <member type='way' ref='-37457977' role='' />
    <member type='way' ref='-37457978' role='' />
    <member type='way' ref='-37457979' role='' />
    <member type='way' ref='-37457980' role='' />
    <member type='way' ref='-37457981' role='' />
    <tag k='key' v='path.dk.lst.vio' />
    <tag k='name' v='DK LST (Vio)' />
    <tag k='type' v='path' />
  </relation>
  <relation id='-14478083' action='modify'>
    <member type='way' ref='-37457982' role='' />
    <member type='way' ref='-37458055' role='' />
    <member type='way' ref='-37458052' role='' />
    <member type='way' ref='-37458049' role='' />
    <member type='way' ref='-37457983' role='' />
    <member type='way' ref='-37457984' role='' />
    <member type='way' ref='-37457985' role='' />
    <member type='way' ref='-37457986' role='' />
    <member type='way' ref='-37457987' role='' />
    <member type='way' ref='-37457988' role='' />
    <member type='way' ref='-37457989' role='' />
    <member type='way' ref='-37457990' role='' />
    <member type='way' ref='-37457991' role='' />
    <member type='way' ref='-37457992' role='' />
    <member type='way' ref='-37457993' role='' />
    <member type='way' ref='-37457994' role='' />
    <member type='way' ref='-37457902' role='' />
    <tag k='key' v='path.dk.lst.vis' />
    <tag k='name' v='DK LST (Vis)' />
    <tag k='type' v='path' />
  </relation>
  <relation id='-14478084' action='modify'>
    <member type='way' ref='-37457892' role='' />
    <member type='way' ref='-37457995' role='' />
    <member type='way' ref='-37457996' role='' />
    <member type='way' ref='-37457997' role='' />
    <member type='way' ref='-37457998' role='' />
    <member type='way' ref='-37457999' role='' />
    <member type='way' ref='-37457986' role='' />
    <tag k='key' v='path.dk.lst.viv' />
    <tag k='name' v='DK LST (Viv)' />
    <tag k='type' v='path' />
  </relation>
</osm>
