<?xml version='1.0' encoding='UTF-8'?>
<osm version='0.6' upload='false' generator='JOSM'>
  <node id='-163969767' action='modify' lat='56.54512605366' lon='8.29548105463' />
  <node id='-163969768' action='modify' lat='56.54657793559' lon='8.29897679335'>
    <tag k='name' v='lem' />
  </node>
  <node id='-163969769' action='modify' lat='56.54704824766' lon='8.30010920628'>
    <tag k='name' v='lem.f' />
  </node>
  <node id='-163969771' action='modify' lat='56.54426177348' lon='8.29237170451' />
  <node id='-163969772' action='modify' lat='56.54424794828' lon='8.29228696519' />
  <node id='-163969773' action='modify' lat='56.54429541386' lon='8.28689262137' />
  <node id='-163969774' action='modify' lat='56.54689521466' lon='8.2721076154' />
  <node id='-163969775' action='modify' lat='56.54730403997' lon='8.2677711533' />
  <node id='-163969776' action='modify' lat='56.54755305669' lon='8.24191812519'>
    <tag k='name' v='bal' />
  </node>
  <node id='-163969777' action='modify' lat='56.54764225943' lon='8.23265701465' />
  <node id='-163969778' action='modify' lat='56.55005000159' lon='8.22572685711' />
  <node id='-163969779' action='modify' lat='56.5524559956' lon='8.22364961106'>
    <tag k='name' v='hou' />
  </node>
  <node id='-163969780' action='modify' lat='56.55494522278' lon='8.22150036559' />
  <node id='-163969781' action='modify' lat='56.55887720355' lon='8.22097263962' />
  <node id='-163969782' action='modify' lat='56.56007888775' lon='8.22160899572' />
  <node id='-163969783' action='modify' lat='56.56454163934' lon='8.22069536861'>
    <tag k='name' v='kli' />
  </node>
  <node id='-163969784' action='modify' lat='56.5673059316' lon='8.2104007148' />
  <node id='-163969785' action='modify' lat='56.56559425197' lon='8.18757109277' />
  <node id='-163969786' action='modify' lat='56.56556432534' lon='8.18709466573'>
    <tag k='name' v='nej' />
  </node>
  <node id='-163969787' action='modify' lat='56.56612276377' lon='8.1816994023' />
  <node id='-163969788' action='modify' lat='56.56774335252' lon='8.17560978167' />
  <node id='-163969789' action='modify' lat='56.56858419136' lon='8.16970020466' />
  <node id='-163969790' action='modify' lat='56.56881988924' lon='8.16314086184' />
  <node id='-163969791' action='modify' lat='56.56884445582' lon='8.16261112656'>
    <tag k='name' v='str' />
  </node>
  <node id='-163969792' action='modify' lat='56.57234188855' lon='8.14892915726' />
  <node id='-163969793' action='modify' lat='56.57741293683' lon='8.14327611053'>
    <tag k='name' v='vic' />
  </node>
  <node id='-163969794' action='modify' lat='56.58118197496' lon='8.14220890269' />
  <node id='-163969795' action='modify' lat='56.58256018261' lon='8.14220525523'>
    <tag k='name' v='ven' />
  </node>
  <node id='-163969796' action='modify' lat='56.58979551691' lon='8.14218610458' />
  <node id='-163969797' action='modify' lat='56.59247009395' lon='8.14302027158' />
  <node id='-163969798' action='modify' lat='56.60084222522' lon='8.14806024285'>
    <tag k='name' v='vri' />
  </node>
  <node id='-163969799' action='modify' lat='56.60202931011' lon='8.14877495103' />
  <node id='-163969800' action='modify' lat='56.60356107009' lon='8.15009057455' />
  <node id='-163969801' action='modify' lat='56.61277652515' lon='8.16025212273' />
  <node id='-163969802' action='modify' lat='56.61466428803' lon='8.16365249388' />
  <node id='-163969803' action='modify' lat='56.61876862974' lon='8.1755011522' />
  <node id='-163969804' action='modify' lat='56.62016578971' lon='8.17829433795'>
    <tag k='name' v='har' />
  </node>
  <node id='-163969805' action='modify' lat='56.62122497033' lon='8.17942522399' />
  <node id='-163969806' action='modify' lat='56.62129211348' lon='8.17948222093' />
  <node id='-163969807' action='modify' lat='56.62231879879' lon='8.1801024811' />
  <node id='-163969808' action='modify' lat='56.62249265004' lon='8.18017687183' />
  <node id='-163969809' action='modify' lat='56.65676221024' lon='8.19484746853'>
    <tag k='name' v='ron' />
  </node>
  <node id='-163969810' action='modify' lat='56.659842794' lon='8.19616690144' />
  <node id='-163969811' action='modify' lat='56.66340347093' lon='8.19940164551' />
  <node id='-163969812' action='modify' lat='56.67790840659' lon='8.22136223249' />
  <node id='-163969813' action='modify' lat='56.68358300344' lon='8.22338998251' />
  <node id='-163969814' action='modify' lat='56.6846359823' lon='8.22282299275'>
    <tag k='name' v='thf' />
  </node>
  <node id='-163969815' action='modify' lat='56.6866961916' lon='8.2217136012' />
  <node id='-163969816' action='modify' lat='56.68936169748' lon='8.21772985093' />
  <node id='-163969817' action='modify' lat='56.69110496503' lon='8.21209117636' />
  <node id='-163969818' action='modify' lat='56.6922606086' lon='8.20962306127'>
    <tag k='name' v='spr' />
  </node>
  <node id='-163969819' action='modify' lat='56.69440015987' lon='8.20797063343' />
  <node id='-163969820' action='modify' lat='56.69780109976' lon='8.20698492162' />
  <node id='-163969821' action='modify' lat='56.69818505881' lon='8.20690972178'>
    <tag k='name' v='thk' />
  </node>
  <node id='-163969822' action='modify' lat='56.70025825698' lon='8.20756348861' />
  <node id='-163969823' action='modify' lat='56.70075039405' lon='8.20793241195' />
  <node id='-163969824' action='modify' lat='56.70261498314' lon='8.21079164609' />
  <node id='-163969825' action='modify' lat='56.70368529387' lon='8.213685499'>
    <tag k='name' v='thh' />
  </node>
  <node id='-163969826' action='modify' lat='56.70568573915' lon='8.2190944241'>
    <tag k='name' v='thh.f' />
  </node>
  <node id='-163969828' action='modify' lat='56.62792984361' lon='8.17662834585' />
  <node id='-163969829' action='modify' lat='56.63286025721' lon='8.16567163075'>
    <tag k='name' v='lan' />
  </node>
  <node id='-163969830' action='modify' lat='56.63384873505' lon='8.16347479284' />
  <node id='-163969831' action='modify' lat='56.63987289438' lon='8.16065847337' />
  <node id='-163969832' action='modify' lat='56.64551561466' lon='8.16413998067' />
  <node id='-163969833' action='modify' lat='56.64687528521' lon='8.16524773568' />
  <node id='-163969834' action='modify' lat='56.65391913509' lon='8.17268550128' />
  <node id='-163969835' action='modify' lat='56.65503523671' lon='8.17368328303' />
  <node id='-163969836' action='modify' lat='56.6595001307' lon='8.17702648562'>
    <tag k='name' v='kno' />
  </node>
  <node id='-163969837' action='modify' lat='56.6983129374' lon='8.2061052555'>
    <tag k='name' v='thk' />
  </node>
  <way id='-37553306' action='modify'>
    <nd ref='-163969769' />
    <nd ref='-163969768' />
    <nd ref='-163969767' />
    <tag k='type' v='straight' />
  </way>
  <way id='-37553307' action='modify'>
    <nd ref='-163969767' />
    <nd ref='-163969771' />
  </way>
  <way id='-37553308' action='modify'>
    <nd ref='-163969771' />
    <nd ref='-163969772' />
    <tag k='type' v='straight' />
  </way>
  <way id='-37553309' action='modify'>
    <nd ref='-163969772' />
    <nd ref='-163969773' />
  </way>
  <way id='-37553310' action='modify'>
    <nd ref='-163969773' />
    <nd ref='-163969774' />
    <tag k='type' v='straight' />
  </way>
  <way id='-37553311' action='modify'>
    <nd ref='-163969774' />
    <nd ref='-163969775' />
  </way>
  <way id='-37553312' action='modify'>
    <nd ref='-163969775' />
    <nd ref='-163969776' />
    <nd ref='-163969777' />
    <tag k='type' v='straight' />
  </way>
  <way id='-37553313' action='modify'>
    <nd ref='-163969777' />
    <nd ref='-163969778' />
  </way>
  <way id='-37553314' action='modify'>
    <nd ref='-163969778' />
    <nd ref='-163969779' />
    <nd ref='-163969780' />
    <tag k='type' v='straight' />
  </way>
  <way id='-37553315' action='modify'>
    <nd ref='-163969780' />
    <nd ref='-163969781' />
  </way>
  <way id='-37553316' action='modify'>
    <nd ref='-163969781' />
    <nd ref='-163969782' />
    <tag k='type' v='straight' />
  </way>
  <way id='-37553317' action='modify'>
    <nd ref='-163969782' />
    <nd ref='-163969783' />
    <nd ref='-163969784' />
  </way>
  <way id='-37553318' action='modify'>
    <nd ref='-163969784' />
    <nd ref='-163969785' />
    <tag k='type' v='straight' />
  </way>
  <way id='-37553319' action='modify'>
    <nd ref='-163969785' />
    <nd ref='-163969786' />
    <nd ref='-163969787' />
  </way>
  <way id='-37553320' action='modify'>
    <nd ref='-163969787' />
    <nd ref='-163969788' />
    <tag k='type' v='straight' />
  </way>
  <way id='-37553321' action='modify'>
    <nd ref='-163969788' />
    <nd ref='-163969789' />
  </way>
  <way id='-37553322' action='modify'>
    <nd ref='-163969789' />
    <nd ref='-163969790' />
    <tag k='type' v='straight' />
  </way>
  <way id='-37553323' action='modify'>
    <nd ref='-163969790' />
    <nd ref='-163969791' />
    <nd ref='-163969792' />
    <nd ref='-163969793' />
    <nd ref='-163969794' />
  </way>
  <way id='-37553324' action='modify'>
    <nd ref='-163969794' />
    <nd ref='-163969795' />
    <nd ref='-163969796' />
    <tag k='type' v='straight' />
  </way>
  <way id='-37553325' action='modify'>
    <nd ref='-163969796' />
    <nd ref='-163969797' />
  </way>
  <way id='-37553326' action='modify'>
    <nd ref='-163969797' />
    <nd ref='-163969798' />
    <nd ref='-163969799' />
    <tag k='type' v='straight' />
  </way>
  <way id='-37553327' action='modify'>
    <nd ref='-163969799' />
    <nd ref='-163969800' />
  </way>
  <way id='-37553328' action='modify'>
    <nd ref='-163969800' />
    <nd ref='-163969801' />
    <tag k='type' v='straight' />
  </way>
  <way id='-37553329' action='modify'>
    <nd ref='-163969801' />
    <nd ref='-163969802' />
  </way>
  <way id='-37553330' action='modify'>
    <nd ref='-163969802' />
    <nd ref='-163969803' />
    <tag k='type' v='straight' />
  </way>
  <way id='-37553331' action='modify'>
    <nd ref='-163969803' />
    <nd ref='-163969804' />
    <nd ref='-163969805' />
  </way>
  <way id='-37553332' action='modify'>
    <nd ref='-163969805' />
    <nd ref='-163969806' />
    <tag k='type' v='straight' />
  </way>
  <way id='-37553333' action='modify'>
    <nd ref='-163969806' />
    <nd ref='-163969807' />
  </way>
  <way id='-37553334' action='modify'>
    <nd ref='-163969807' />
    <nd ref='-163969808' />
    <tag k='type' v='straight' />
  </way>
  <way id='-37553335' action='modify'>
    <nd ref='-163969808' />
    <nd ref='-163969809' />
    <nd ref='-163969810' />
    <tag k='type' v='straight' />
  </way>
  <way id='-37553336' action='modify'>
    <nd ref='-163969810' />
    <nd ref='-163969811' />
  </way>
  <way id='-37553337' action='modify'>
    <nd ref='-163969811' />
    <nd ref='-163969812' />
    <tag k='type' v='straight' />
  </way>
  <way id='-37553338' action='modify'>
    <nd ref='-163969812' />
    <nd ref='-163969813' />
  </way>
  <way id='-37553339' action='modify'>
    <nd ref='-163969813' />
    <nd ref='-163969814' />
    <nd ref='-163969815' />
    <tag k='type' v='straight' />
  </way>
  <way id='-37553340' action='modify'>
    <nd ref='-163969815' />
    <nd ref='-163969816' />
  </way>
  <way id='-37553341' action='modify'>
    <nd ref='-163969816' />
    <nd ref='-163969817' />
    <tag k='type' v='straight' />
  </way>
  <way id='-37553342' action='modify'>
    <nd ref='-163969817' />
    <nd ref='-163969818' />
    <nd ref='-163969819' />
  </way>
  <way id='-37553343' action='modify'>
    <nd ref='-163969819' />
    <nd ref='-163969820' />
    <tag k='type' v='straight' />
  </way>
  <way id='-37553344' action='modify'>
    <nd ref='-163969820' />
    <nd ref='-163969821' />
    <nd ref='-163969822' />
  </way>
  <way id='-37553345' action='modify'>
    <nd ref='-163969822' />
    <nd ref='-163969823' />
    <tag k='type' v='straight' />
  </way>
  <way id='-37553346' action='modify'>
    <nd ref='-163969823' />
    <nd ref='-163969824' />
  </way>
  <way id='-37553347' action='modify'>
    <nd ref='-163969824' />
    <nd ref='-163969825' />
    <nd ref='-163969826' />
    <tag k='type' v='straight' />
  </way>
  <way id='-37553348' action='modify'>
    <nd ref='-163969808' />
    <nd ref='-163969828' />
  </way>
  <way id='-37553349' action='modify'>
    <nd ref='-163969828' />
    <nd ref='-163969829' />
    <nd ref='-163969830' />
    <tag k='type' v='straight' />
  </way>
  <way id='-37553350' action='modify'>
    <nd ref='-163969830' />
    <nd ref='-163969831' />
  </way>
  <way id='-37553351' action='modify'>
    <nd ref='-163969831' />
    <nd ref='-163969832' />
    <tag k='type' v='straight' />
  </way>
  <way id='-37553352' action='modify'>
    <nd ref='-163969832' />
    <nd ref='-163969833' />
  </way>
  <way id='-37553353' action='modify'>
    <nd ref='-163969833' />
    <nd ref='-163969834' />
    <tag k='type' v='straight' />
  </way>
  <way id='-37553354' action='modify'>
    <nd ref='-163969834' />
    <nd ref='-163969835' />
  </way>
  <way id='-37553355' action='modify'>
    <nd ref='-163969835' />
    <nd ref='-163969836' />
    <nd ref='-163969837' />
    <nd ref='-163969822' />
    <tag k='type' v='straight' />
  </way>
  <relation id='-14479045' action='modify'>
    <member type='way' ref='-37553306' role='' />
    <member type='way' ref='-37553307' role='' />
    <member type='way' ref='-37553308' role='' />
    <member type='way' ref='-37553309' role='' />
    <member type='way' ref='-37553310' role='' />
    <member type='way' ref='-37553311' role='' />
    <member type='way' ref='-37553312' role='' />
    <member type='way' ref='-37553313' role='' />
    <member type='way' ref='-37553314' role='' />
    <member type='way' ref='-37553315' role='' />
    <member type='way' ref='-37553316' role='' />
    <member type='way' ref='-37553317' role='' />
    <member type='way' ref='-37553318' role='' />
    <member type='way' ref='-37553319' role='' />
    <member type='way' ref='-37553320' role='' />
    <member type='way' ref='-37553321' role='' />
    <member type='way' ref='-37553322' role='' />
    <member type='way' ref='-37553323' role='' />
    <member type='way' ref='-37553324' role='' />
    <member type='way' ref='-37553325' role='' />
    <member type='way' ref='-37553326' role='' />
    <member type='way' ref='-37553327' role='' />
    <member type='way' ref='-37553328' role='' />
    <member type='way' ref='-37553329' role='' />
    <member type='way' ref='-37553330' role='' />
    <member type='way' ref='-37553331' role='' />
    <member type='way' ref='-37553332' role='' />
    <member type='way' ref='-37553333' role='' />
    <member type='way' ref='-37553334' role='' />
    <member type='way' ref='-37553335' role='' />
    <member type='way' ref='-37553336' role='' />
    <member type='way' ref='-37553337' role='' />
    <member type='way' ref='-37553338' role='' />
    <member type='way' ref='-37553339' role='' />
    <member type='way' ref='-37553340' role='' />
    <member type='way' ref='-37553341' role='' />
    <member type='way' ref='-37553342' role='' />
    <member type='way' ref='-37553343' role='' />
    <member type='way' ref='-37553344' role='' />
    <member type='way' ref='-37553345' role='' />
    <member type='way' ref='-37553346' role='' />
    <member type='way' ref='-37553347' role='' />
    <tag k='key' v='path.dk.lty' />
    <tag k='name' v='DK LTY' />
    <tag k='type' v='path' />
  </relation>
  <relation id='-14479046' action='modify'>
    <member type='way' ref='-37553330' role='' />
    <member type='way' ref='-37553331' role='' />
    <member type='way' ref='-37553332' role='' />
    <member type='way' ref='-37553333' role='' />
    <member type='way' ref='-37553334' role='' />
    <member type='way' ref='-37553348' role='' />
    <member type='way' ref='-37553349' role='' />
    <member type='way' ref='-37553350' role='' />
    <member type='way' ref='-37553351' role='' />
    <member type='way' ref='-37553352' role='' />
    <member type='way' ref='-37553353' role='' />
    <member type='way' ref='-37553354' role='' />
    <member type='way' ref='-37553355' role='' />
    <member type='way' ref='-37553345' role='' />
    <member type='way' ref='-37553346' role='' />
    <member type='way' ref='-37553347' role='' />
    <tag k='key' v='path.dk.lty.kno' />
    <tag k='name' v='DK LTY (Kno)' />
    <tag k='type' v='path' />
  </relation>
</osm>
