<?xml version='1.0' encoding='UTF-8'?>
<osm version='0.6' upload='false' generator='JOSM'>
  <node id='-171571681' action='modify' lat='56.19527478703' lon='10.6710719955' />
  <node id='-171571682' action='modify' lat='56.19849201842' lon='10.67513822436' />
  <node id='-171571683' action='modify' lat='56.1997513806' lon='10.67637204051' />
  <node id='-171571684' action='modify' lat='56.20004239254' lon='10.67655839562'>
    <tag k='name' v='ebe' />
  </node>
  <node id='-171571685' action='modify' lat='56.20127180688' lon='10.67734569043' />
  <node id='-171571686' action='modify' lat='56.20815402503' lon='10.67912935674' />
  <node id='-171571687' action='modify' lat='56.21137017623' lon='10.67862510145' />
  <node id='-171571688' action='modify' lat='56.21234548247' lon='10.67854765891'>
    <tag k='name' v='vib' />
  </node>
  <node id='-171571689' action='modify' lat='56.21601790322' lon='10.6817954725' />
  <node id='-171571690' action='modify' lat='56.2180939843' lon='10.6858992523' />
  <node id='-171571691' action='modify' lat='56.21873229548' lon='10.68760782212' />
  <node id='-171571692' action='modify' lat='56.21895749204' lon='10.68842053145' />
  <node id='-171571693' action='modify' lat='56.2207433583' lon='10.69233789772' />
  <node id='-171571694' action='modify' lat='56.22257387806' lon='10.69508582085' />
  <node id='-171571695' action='modify' lat='56.22295861162' lon='10.69560885161'>
    <tag k='name' v='dra' />
  </node>
  <node id='-171571696' action='modify' lat='56.22459443175' lon='10.69725304574' />
  <node id='-171571697' action='modify' lat='56.22777491188' lon='10.69951950967' />
  <node id='-171571698' action='modify' lat='56.22892894434' lon='10.70054947793' />
  <node id='-171571699' action='modify' lat='56.23311239333' lon='10.70510386884' />
  <node id='-171571700' action='modify' lat='56.23507127121' lon='10.70813476503' />
  <node id='-171571701' action='modify' lat='56.237150012' lon='10.71268887994'>
    <tag k='name' v='ska' />
  </node>
  <node id='-171571702' action='modify' lat='56.23771574651' lon='10.7139283365' />
  <node id='-171571703' action='modify' lat='56.23879793122' lon='10.71596145093' />
  <node id='-171571704' action='modify' lat='56.241573312' lon='10.72021543443' />
  <node id='-171571705' action='modify' lat='56.24257192291' lon='10.72149484813' />
  <node id='-171571706' action='modify' lat='56.24727323956' lon='10.72681769595' />
  <node id='-171571707' action='modify' lat='56.24868821757' lon='10.72810113162' />
  <node id='-171571708' action='modify' lat='56.25283225768' lon='10.73111057013' />
  <node id='-171571709' action='modify' lat='56.25415688498' lon='10.73172747821' />
  <node id='-171571710' action='modify' lat='56.25495264311' lon='10.73193564898'>
    <tag k='name' v='stu' />
  </node>
  <node id='-171571711' action='modify' lat='56.2583912128' lon='10.73283523053' />
  <node id='-171571712' action='modify' lat='56.2604292459' lon='10.73266356647' />
  <node id='-171571713' action='modify' lat='56.26940840088' lon='10.72789191931' />
  <node id='-171571714' action='modify' lat='56.27385251217' lon='10.73032468289'>
    <tag k='name' v='gra' />
  </node>
  <node id='-171571715' action='modify' lat='56.27497835265' lon='10.73358356416' />
  <node id='-171571716' action='modify' lat='56.27631859395' lon='10.73983311117' />
  <node id='-171571717' action='modify' lat='56.27689935953' lon='10.74205396414' />
  <node id='-171571718' action='modify' lat='56.280282455' lon='10.75284718931' />
  <node id='-171571719' action='modify' lat='56.28087952845' lon='10.75503587455' />
  <node id='-171571720' action='modify' lat='56.28200069535' lon='10.75973510206' />
  <node id='-171571721' action='modify' lat='56.28384459931' lon='10.76537404257'>
    <tag k='name' v='hyl' />
  </node>
  <node id='-171571722' action='modify' lat='56.28557986666' lon='10.76848446786' />
  <node id='-171571723' action='modify' lat='56.28749139993' lon='10.77154218614' />
  <node id='-171571724' action='modify' lat='56.29197211483' lon='10.7736611259' />
  <node id='-171571725' action='modify' lat='56.29774118526' lon='10.77395617425' />
  <node id='-171571726' action='modify' lat='56.30236653145' lon='10.77897190511' />
  <node id='-171571727' action='modify' lat='56.3026538772' lon='10.7798752351'>
    <tag k='name' v='ros' />
  </node>
  <node id='-171571728' action='modify' lat='56.30643780142' lon='10.79177140653' />
  <node id='-171571729' action='modify' lat='56.31061294457' lon='10.7996644427'>
    <tag k='name' v='nyb' />
  </node>
  <node id='-171571730' action='modify' lat='56.31262125728' lon='10.80155609965' />
  <node id='-171571731' action='modify' lat='56.31644152381' lon='10.80472110629' />
  <node id='-171571732' action='modify' lat='56.31915920922' lon='10.80626472697'>
    <tag k='name' v='bal' />
  </node>
  <node id='-171571733' action='modify' lat='56.32166550343' lon='10.80697953165' />
  <node id='-171571734' action='modify' lat='56.32654077402' lon='10.80235003889' />
  <node id='-171571735' action='modify' lat='56.32796843522' lon='10.7972377485' />
  <node id='-171571736' action='modify' lat='56.32912539499' lon='10.78988849849' />
  <node id='-171571737' action='modify' lat='56.32937076145' lon='10.7851329419' />
  <node id='-171571738' action='modify' lat='56.33017525642' lon='10.78009306848' />
  <node id='-171571739' action='modify' lat='56.33084551121' lon='10.77762086562'>
    <tag k='name' v='att' />
  </node>
  <node id='-171571740' action='modify' lat='56.33289196808' lon='10.77007233828' />
  <node id='-171571741' action='modify' lat='56.33825494299' lon='10.76427875876' />
  <node id='-171571742' action='modify' lat='56.34022330453' lon='10.76359748304' />
  <node id='-171571743' action='modify' lat='56.34107365417' lon='10.76334535539' />
  <node id='-171571744' action='modify' lat='56.34506647609' lon='10.76225637853'>
    <tag k='name' v='gre' />
  </node>
  <node id='-171571745' action='modify' lat='56.35016885416' lon='10.76798937823' />
  <node id='-171571746' action='modify' lat='56.3506369526' lon='10.77162526509'>
    <tag k='name' v='tru' />
  </node>
  <way id='-38062090' action='modify'>
    <nd ref='-171571681' />
    <nd ref='-171571682' />
    <tag k='type' v='straight' />
  </way>
  <way id='-38062091' action='modify'>
    <nd ref='-171571682' />
    <nd ref='-171571683' />
  </way>
  <way id='-38062092' action='modify'>
    <nd ref='-171571683' />
    <nd ref='-171571684' />
    <nd ref='-171571685' />
    <tag k='type' v='straight' />
  </way>
  <way id='-38062093' action='modify'>
    <nd ref='-171571685' />
    <nd ref='-171571686' />
  </way>
  <way id='-38062094' action='modify'>
    <nd ref='-171571686' />
    <nd ref='-171571687' />
    <tag k='type' v='straight' />
  </way>
  <way id='-38062095' action='modify'>
    <nd ref='-171571687' />
    <nd ref='-171571688' />
    <nd ref='-171571689' />
  </way>
  <way id='-38062096' action='modify'>
    <nd ref='-171571689' />
    <nd ref='-171571690' />
    <tag k='type' v='straight' />
  </way>
  <way id='-38062097' action='modify'>
    <nd ref='-171571690' />
    <nd ref='-171571691' />
  </way>
  <way id='-38062098' action='modify'>
    <nd ref='-171571691' />
    <nd ref='-171571692' />
    <tag k='type' v='straight' />
  </way>
  <way id='-38062099' action='modify'>
    <nd ref='-171571692' />
    <nd ref='-171571693' />
  </way>
  <way id='-38062100' action='modify'>
    <nd ref='-171571693' />
    <nd ref='-171571694' />
    <tag k='type' v='straight' />
  </way>
  <way id='-38062101' action='modify'>
    <nd ref='-171571694' />
    <nd ref='-171571695' />
    <nd ref='-171571696' />
  </way>
  <way id='-38062102' action='modify'>
    <nd ref='-171571696' />
    <nd ref='-171571697' />
    <tag k='type' v='straight' />
  </way>
  <way id='-38062103' action='modify'>
    <nd ref='-171571697' />
    <nd ref='-171571698' />
  </way>
  <way id='-38062104' action='modify'>
    <nd ref='-171571698' />
    <nd ref='-171571699' />
    <tag k='type' v='straight' />
  </way>
  <way id='-38062105' action='modify'>
    <nd ref='-171571699' />
    <nd ref='-171571700' />
  </way>
  <way id='-38062106' action='modify'>
    <nd ref='-171571700' />
    <nd ref='-171571701' />
    <nd ref='-171571702' />
    <tag k='type' v='straight' />
  </way>
  <way id='-38062107' action='modify'>
    <nd ref='-171571702' />
    <nd ref='-171571703' />
  </way>
  <way id='-38062108' action='modify'>
    <nd ref='-171571703' />
    <nd ref='-171571704' />
    <tag k='type' v='straight' />
  </way>
  <way id='-38062109' action='modify'>
    <nd ref='-171571704' />
    <nd ref='-171571705' />
  </way>
  <way id='-38062110' action='modify'>
    <nd ref='-171571705' />
    <nd ref='-171571706' />
    <tag k='type' v='straight' />
  </way>
  <way id='-38062111' action='modify'>
    <nd ref='-171571706' />
    <nd ref='-171571707' />
  </way>
  <way id='-38062112' action='modify'>
    <nd ref='-171571707' />
    <nd ref='-171571708' />
    <tag k='type' v='straight' />
  </way>
  <way id='-38062113' action='modify'>
    <nd ref='-171571708' />
    <nd ref='-171571709' />
  </way>
  <way id='-38062114' action='modify'>
    <nd ref='-171571709' />
    <nd ref='-171571710' />
    <nd ref='-171571711' />
    <tag k='type' v='straight' />
  </way>
  <way id='-38062115' action='modify'>
    <nd ref='-171571711' />
    <nd ref='-171571712' />
  </way>
  <way id='-38062116' action='modify'>
    <nd ref='-171571712' />
    <nd ref='-171571713' />
    <tag k='type' v='straight' />
  </way>
  <way id='-38062117' action='modify'>
    <nd ref='-171571713' />
    <nd ref='-171571714' />
    <nd ref='-171571715' />
  </way>
  <way id='-38062118' action='modify'>
    <nd ref='-171571715' />
    <nd ref='-171571716' />
    <tag k='type' v='straight' />
  </way>
  <way id='-38062119' action='modify'>
    <nd ref='-171571716' />
    <nd ref='-171571717' />
  </way>
  <way id='-38062120' action='modify'>
    <nd ref='-171571717' />
    <nd ref='-171571718' />
    <tag k='type' v='straight' />
  </way>
  <way id='-38062121' action='modify'>
    <nd ref='-171571718' />
    <nd ref='-171571719' />
  </way>
  <way id='-38062122' action='modify'>
    <nd ref='-171571719' />
    <nd ref='-171571720' />
    <tag k='type' v='straight' />
  </way>
  <way id='-38062123' action='modify'>
    <nd ref='-171571720' />
    <nd ref='-171571721' />
    <nd ref='-171571722' />
  </way>
  <way id='-38062124' action='modify'>
    <nd ref='-171571722' />
    <nd ref='-171571723' />
    <tag k='type' v='straight' />
  </way>
  <way id='-38062125' action='modify'>
    <nd ref='-171571723' />
    <nd ref='-171571724' />
  </way>
  <way id='-38062126' action='modify'>
    <nd ref='-171571724' />
    <nd ref='-171571725' />
    <tag k='type' v='straight' />
  </way>
  <way id='-38062127' action='modify'>
    <nd ref='-171571725' />
    <nd ref='-171571726' />
  </way>
  <way id='-38062128' action='modify'>
    <nd ref='-171571726' />
    <nd ref='-171571727' />
    <nd ref='-171571728' />
    <tag k='type' v='straight' />
  </way>
  <way id='-38062129' action='modify'>
    <nd ref='-171571728' />
    <nd ref='-171571729' />
    <nd ref='-171571730' />
  </way>
  <way id='-38062130' action='modify'>
    <nd ref='-171571730' />
    <nd ref='-171571731' />
    <tag k='type' v='straight' />
  </way>
  <way id='-38062131' action='modify'>
    <nd ref='-171571731' />
    <nd ref='-171571732' />
  </way>
  <way id='-38062132' action='modify'>
    <nd ref='-171571732' />
    <nd ref='-171571733' />
    <tag k='type' v='straight' />
  </way>
  <way id='-38062133' action='modify'>
    <nd ref='-171571733' />
    <nd ref='-171571734' />
  </way>
  <way id='-38062134' action='modify'>
    <nd ref='-171571734' />
    <nd ref='-171571735' />
    <tag k='type' v='straight' />
  </way>
  <way id='-38062135' action='modify'>
    <nd ref='-171571735' />
    <nd ref='-171571736' />
  </way>
  <way id='-38062136' action='modify'>
    <nd ref='-171571736' />
    <nd ref='-171571737' />
    <tag k='type' v='straight' />
  </way>
  <way id='-38062137' action='modify'>
    <nd ref='-171571737' />
    <nd ref='-171571738' />
  </way>
  <way id='-38062138' action='modify'>
    <nd ref='-171571738' />
    <nd ref='-171571739' />
    <nd ref='-171571740' />
    <tag k='type' v='straight' />
  </way>
  <way id='-38062139' action='modify'>
    <nd ref='-171571740' />
    <nd ref='-171571741' />
  </way>
  <way id='-38062140' action='modify'>
    <nd ref='-171571741' />
    <nd ref='-171571742' />
    <tag k='type' v='straight' />
  </way>
  <way id='-38062141' action='modify'>
    <nd ref='-171571742' />
    <nd ref='-171571743' />
  </way>
  <way id='-38062142' action='modify'>
    <nd ref='-171571743' />
    <nd ref='-171571744' />
    <tag k='type' v='straight' />
  </way>
  <way id='-38062143' action='modify'>
    <nd ref='-171571744' />
    <nd ref='-171571745' />
  </way>
  <way id='-38062144' action='modify'>
    <nd ref='-171571745' />
    <nd ref='-171571746' />
    <tag k='type' v='straight' />
  </way>
  <relation id='-14483219' action='modify'>
    <member type='way' ref='-38062090' role='' />
    <member type='way' ref='-38062091' role='' />
    <member type='way' ref='-38062092' role='' />
    <member type='way' ref='-38062093' role='' />
    <member type='way' ref='-38062094' role='' />
    <member type='way' ref='-38062095' role='' />
    <member type='way' ref='-38062096' role='' />
    <member type='way' ref='-38062097' role='' />
    <member type='way' ref='-38062098' role='' />
    <member type='way' ref='-38062099' role='' />
    <member type='way' ref='-38062100' role='' />
    <member type='way' ref='-38062101' role='' />
    <member type='way' ref='-38062102' role='' />
    <member type='way' ref='-38062103' role='' />
    <member type='way' ref='-38062104' role='' />
    <member type='way' ref='-38062105' role='' />
    <member type='way' ref='-38062106' role='' />
    <member type='way' ref='-38062107' role='' />
    <member type='way' ref='-38062108' role='' />
    <member type='way' ref='-38062109' role='' />
    <member type='way' ref='-38062110' role='' />
    <member type='way' ref='-38062111' role='' />
    <member type='way' ref='-38062112' role='' />
    <member type='way' ref='-38062113' role='' />
    <member type='way' ref='-38062114' role='' />
    <member type='way' ref='-38062115' role='' />
    <member type='way' ref='-38062116' role='' />
    <member type='way' ref='-38062117' role='' />
    <member type='way' ref='-38062118' role='' />
    <member type='way' ref='-38062119' role='' />
    <member type='way' ref='-38062120' role='' />
    <member type='way' ref='-38062121' role='' />
    <member type='way' ref='-38062122' role='' />
    <member type='way' ref='-38062123' role='' />
    <member type='way' ref='-38062124' role='' />
    <member type='way' ref='-38062125' role='' />
    <member type='way' ref='-38062126' role='' />
    <member type='way' ref='-38062127' role='' />
    <member type='way' ref='-38062128' role='' />
    <member type='way' ref='-38062129' role='' />
    <member type='way' ref='-38062130' role='' />
    <member type='way' ref='-38062131' role='' />
    <member type='way' ref='-38062132' role='' />
    <member type='way' ref='-38062133' role='' />
    <member type='way' ref='-38062134' role='' />
    <member type='way' ref='-38062135' role='' />
    <member type='way' ref='-38062136' role='' />
    <member type='way' ref='-38062137' role='' />
    <member type='way' ref='-38062138' role='' />
    <member type='way' ref='-38062139' role='' />
    <member type='way' ref='-38062140' role='' />
    <member type='way' ref='-38062141' role='' />
    <member type='way' ref='-38062142' role='' />
    <member type='way' ref='-38062143' role='' />
    <member type='way' ref='-38062144' role='' />
    <tag k='key' v='path.dk.ett' />
    <tag k='name' v='DK ETT' />
    <tag k='type' v='path' />
  </relation>
</osm>
