<?xml version='1.0' encoding='UTF-8'?>
<osm version='0.6' upload='false' generator='JOSM'>
  <node id='-172980179' action='modify' lat='52.37889361479' lon='4.90061248482'>
    <tag k='name' v='ams' />
  </node>
  <node id='-172980180' action='modify' lat='52.37749953122' lon='4.90442280713' />
  <node id='-172980181' action='modify' lat='52.37680278058' lon='4.91016465846'>
    <tag k='name' v='aoo' />
  </node>
  <node id='-172980182' action='modify' lat='52.37693195746' lon='4.9116956572' />
  <node id='-172980183' action='modify' lat='52.37698485872' lon='4.91282241568' />
  <node id='-172980184' action='modify' lat='52.37680865262' lon='4.91483470153' />
  <node id='-172980185' action='modify' lat='52.37668671187' lon='4.91567333122'>
    <tag k='name' v='diw' />
  </node>
  <node id='-172980187' action='modify' lat='52.37558885601' lon='4.92322357073'>
    <tag k='name' v='kat' />
  </node>
  <node id='-172980188' action='modify' lat='52.37523360982' lon='4.92566665066'>
    <tag k='name' v='dik' />
  </node>
  <node id='-172980189' action='modify' lat='52.37521284466' lon='4.92580945507'>
    <tag k='name' v='dij' />
  </node>
  <node id='-172980190' action='modify' lat='52.37499524943' lon='4.92730587894' />
  <node id='-172980191' action='modify' lat='52.37078710294' lon='4.93325628376'>
    <tag k='name' v='dio' />
  </node>
  <node id='-172980192' action='modify' lat='52.37044351421' lon='4.93331087165' />
  <node id='-172980193' action='modify' lat='52.36831406849' lon='4.93286153885' />
  <node id='-172980194' action='modify' lat='52.36730720401' lon='4.93225423037'>
    <tag k='name' v='mua' />
  </node>
  <node id='-172980195' action='modify' lat='52.36604301284' lon='4.93149173026'>
    <tag k='name' v='san' />
  </node>
  <node id='-172980196' action='modify' lat='52.36586312518' lon='4.93138323233' />
  <node id='-172980197' action='modify' lat='52.36390323415' lon='4.93089468046' />
  <node id='-172980198' action='modify' lat='52.3633678626' lon='4.93094672685'>
    <tag k='name' v='muw' />
  </node>
  <node id='-172980199' action='modify' lat='52.36291954923' lon='4.93099030935' />
  <node id='-172980200' action='modify' lat='52.35973279843' lon='4.9331295383'>
    <tag k='name' v='amu' />
  </node>
  <node id='-172980201' action='modify' lat='52.35733792188' lon='4.93780270973' />
  <node id='-172980202' action='modify' lat='52.3568935294' lon='4.93886105624'>
    <tag k='name' v='waw' />
  </node>
  <node id='-172980205' action='modify' lat='52.35277504921' lon='4.94866894983'>
    <tag k='name' v='asc' />
  </node>
  <node id='-172980206' action='modify' lat='52.35246569158' lon='4.94940562807'>
    <tag k='name' v='wat' />
  </node>
  <node id='-172980209' action='modify' lat='52.34715621671' lon='4.96204836129' />
  <node id='-172980210' action='modify' lat='52.34548274425' lon='4.96658916312' />
  <node id='-172980211' action='modify' lat='52.34518392474' lon='4.96752610246'>
    <tag k='name' v='die' />
  </node>
  <node id='-172980212' action='modify' lat='52.34246085608' lon='4.97606390819' />
  <node id='-172980213' action='modify' lat='52.3422091877' lon='4.97684554868' />
  <node id='-172980214' action='modify' lat='52.34210704757' lon='4.9771412192' />
  <node id='-172980215' action='modify' lat='52.34115939217' lon='4.97953263213'>
    <tag k='name' v='wao' />
  </node>
  <node id='-172980216' action='modify' lat='52.33892773411' lon='4.98399855658' />
  <node id='-172980218' action='modify' lat='52.33825074681' lon='4.9852109711'>
    <tag k='name' v='ove' />
  </node>
  <node id='-172980219' action='modify' lat='52.33691987068' lon='4.98759437909'>
    <tag k='name' v='ddi' />
  </node>
  <node id='-172980220' action='modify' lat='52.33650434022' lon='4.98833851977' />
  <node id='-172980221' action='modify' lat='52.33065475189' lon='5.00129520625' />
  <node id='-172980222' action='modify' lat='52.32990184637' lon='5.0033738518'>
    <tag k='name' v='gas' />
  </node>
  <node id='-172980223' action='modify' lat='52.32857073218' lon='5.00704874767' />
  <node id='-172980224' action='modify' lat='52.32765285569' lon='5.00970030288' />
  <node id='-172980225' action='modify' lat='52.3267552083' lon='5.01229336721' />
  <node id='-172980227' action='modify' lat='52.32542367963' lon='5.01575667' />
  <node id='-172980228' action='modify' lat='52.32281713173' lon='5.02194179384' />
  <node id='-172980229' action='modify' lat='52.32011245841' lon='5.02803205459' />
  <node id='-172980230' action='modify' lat='52.31919590714' lon='5.03001361549' />
  <node id='-172980231' action='modify' lat='52.31826228304' lon='5.03200323793' />
  <node id='-172980233' action='modify' lat='52.31445840739' lon='5.03981120378' />
  <node id='-172980234' action='modify' lat='52.3132073351' lon='5.04220937383' />
  <node id='-172980235' action='modify' lat='52.31159475054' lon='5.04515665003'>
    <tag k='name' v='wes' />
  </node>
  <node id='-172980236' action='modify' lat='52.31044762793' lon='5.04705121985' />
  <node id='-172980237' action='modify' lat='52.30982497846' lon='5.04798526308'>
    <tag k='name' v='vec' />
  </node>
  <node id='-172980238' action='modify' lat='52.30895869246' lon='5.04928476627' />
  <node id='-172980239' action='modify' lat='52.30627040464' lon='5.05442976817' />
  <node id='-172980240' action='modify' lat='52.30613100348' lon='5.05478650197' />
  <node id='-172980241' action='modify' lat='52.30469842694' lon='5.05939185351' />
  <node id='-172980243' action='modify' lat='52.29993049041' lon='5.07733046472' />
  <node id='-172980244' action='modify' lat='52.29706981242' lon='5.08509813666' />
  <node id='-172980245' action='modify' lat='52.29607559958' lon='5.08722905057'>
    <tag k='name' v='kev' />
  </node>
  <node id='-172980246' action='modify' lat='52.29520140731' lon='5.08910268277' />
  <node id='-172980247' action='modify' lat='52.29200246988' lon='5.10354235634' />
  <node id='-172980248' action='modify' lat='52.28974535352' lon='5.13780284687' />
  <node id='-172980249' action='modify' lat='52.28951042102' lon='5.14169275492' />
  <node id='-172980250' action='modify' lat='52.289411983' lon='5.14339327544' />
  <node id='-172980251' action='modify' lat='52.28180370217' lon='5.15686064824' />
  <node id='-172980252' action='modify' lat='52.28030925699' lon='5.15740310172'>
    <tag k='name' v='naa' />
  </node>
  <node id='-172980253' action='modify' lat='52.27592882986' lon='5.15899300307' />
  <node id='-172980254' action='modify' lat='52.27566129243' lon='5.15909769594' />
  <node id='-172980255' action='modify' lat='52.27503440155' lon='5.15934035048' />
  <node id='-172980256' action='modify' lat='52.27335656245' lon='5.15998978519'>
    <tag k='name' v='hee' />
  </node>
  <node id='-172980257' action='modify' lat='52.26596104916' lon='5.16285204505'>
    <tag k='name' v='buz' />
  </node>
  <node id='-172980258' action='modify' lat='52.26491097173' lon='5.16325841417'>
    <tag k='name' v='gri' />
  </node>
  <node id='-172980259' action='modify' lat='52.26278170553' lon='5.16408238865'>
    <tag k='name' v='crw' />
  </node>
  <node id='-172980260' action='modify' lat='52.25523664913' lon='5.16700182439'>
    <tag k='name' v='cen' />
  </node>
  <node id='-172980261' action='modify' lat='52.2482500158' lon='5.16970474468'>
    <tag k='name' v='cro' />
  </node>
  <node id='-172980262' action='modify' lat='52.24528892886' lon='5.17085017257'>
    <tag k='name' v='kra' />
  </node>
  <node id='-172980263' action='modify' lat='52.24026781383' lon='5.17279229991' />
  <node id='-172980264' action='modify' lat='52.23888525628' lon='5.17345681652' />
  <node id='-172980265' action='modify' lat='52.23754378464' lon='5.17418787653'>
    <tag k='name' v='hme' />
  </node>
  <node id='-172980266' action='modify' lat='52.23298621388' lon='5.1766714447' />
  <node id='-172980267' action='modify' lat='52.22877530209' lon='5.17966747016' />
  <node id='-172980268' action='modify' lat='52.2281238953' lon='5.18027230829' />
  <node id='-172980269' action='modify' lat='52.22691431657' lon='5.1813264514' />
  <node id='-172980270' action='modify' lat='52.22641643975' lon='5.18174679446'>
    <tag k='name' v='hil' />
  </node>
  <node id='-172980271' action='modify' lat='52.22331156692' lon='5.1843680428' />
  <node id='-172980272' action='modify' lat='52.22102351574' lon='5.18955141172' />
  <node id='-172980273' action='modify' lat='52.21593313288' lon='5.22028776506'>
    <tag k='name' v='zwa' />
  </node>
  <node id='-172980274' action='modify' lat='52.21563031401' lon='5.22211611137' />
  <node id='-172980275' action='modify' lat='52.2154589923' lon='5.22310785882' />
  <node id='-172980276' action='modify' lat='52.21012715967' lon='5.25325454704' />
  <node id='-172980277' action='modify' lat='52.20943212928' lon='5.26127099957' />
  <node id='-172980278' action='modify' lat='52.20931933757' lon='5.27430184118' />
  <node id='-172980279' action='modify' lat='52.20837918879' lon='5.28072237834' />
  <node id='-172980280' action='modify' lat='52.20816263937' lon='5.28142042324'>
    <tag k='name' v='baa' />
  </node>
  <node id='-172980281' action='modify' lat='52.2080773747' lon='5.28168864515' />
  <node id='-172980282' action='modify' lat='52.20722676915' lon='5.2837703515'>
    <tag k='name' v='bab' />
  </node>
  <node id='-172980283' action='modify' lat='52.20640760503' lon='5.28514534101' />
  <node id='-172980284' action='modify' lat='52.20564738367' lon='5.28629869089' />
  <node id='-172980285' action='modify' lat='52.20500036279' lon='5.28722640093' />
  <node id='-172980286' action='modify' lat='52.20286744003' lon='5.29019002037'>
    <tag k='name' v='ban' />
  </node>
  <node id='-172980288' action='modify' lat='52.19055945066' lon='5.3072887507'>
    <tag k='name' v='gme' />
  </node>
  <node id='-172980289' action='modify' lat='52.15878489289' lon='5.35140931027'>
    <tag k='name' v='aga' />
  </node>
  <node id='-172980290' action='modify' lat='52.15534033874' lon='5.35619035296' />
  <node id='-172980291' action='modify' lat='52.15352356378' lon='5.36312252149' />
  <node id='-172980292' action='modify' lat='52.15379440569' lon='5.37096997282'>
    <tag k='name' v='ame' />
  </node>
  <node id='-172980293' action='modify' lat='52.15390371042' lon='5.37413701281' />
  <node id='-172980294' action='modify' lat='52.15554110226' lon='5.37956982583' />
  <node id='-172980295' action='modify' lat='52.1560631636' lon='5.38021999223'>
    <tag k='name' v='amn' />
  </node>
  <node id='-172980296' action='modify' lat='52.16770726521' lon='5.3947233424'>
    <tag k='name' v='ama' />
  </node>
  <node id='-172980297' action='modify' lat='52.16902602982' lon='5.39636617337' />
  <node id='-172980298' action='modify' lat='52.17210251707' lon='5.41282117233' />
  <node id='-172980299' action='modify' lat='52.16795862816' lon='5.43870046601' />
  <node id='-172980300' action='modify' lat='52.16763618114' lon='5.4414752119' />
  <node id='-172980301' action='modify' lat='52.16650370295' lon='5.4569247183'>
    <tag k='name' v='hoe' />
  </node>
  <node id='-172980302' action='modify' lat='52.16241090475' lon='5.51275625691' />
  <node id='-172980303' action='modify' lat='52.1623023121' lon='5.516957938' />
  <node id='-172980304' action='modify' lat='52.16231771123' lon='5.51747234962'>
    <tag k='name' v='ter' />
  </node>
  <node id='-172980305' action='modify' lat='52.162648655' lon='5.52852764592' />
  <node id='-172980306' action='modify' lat='52.16265646989' lon='5.53038574688' />
  <node id='-172980307' action='modify' lat='52.16213052544' lon='5.5922049101'>
    <tag k='name' v='bva' />
  </node>
  <node id='-172980308' action='modify' lat='52.16212548512' lon='5.59279734265' />
  <node id='-172980309' action='modify' lat='52.16209906177' lon='5.59515505784' />
  <node id='-172980310' action='modify' lat='52.16206620576' lon='5.598800181'>
    <tag k='name' v='vor' />
  </node>
  <node id='-172980311' action='modify' lat='52.16314060479' lon='5.60795053706' />
  <node id='-172980312' action='modify' lat='52.18366273247' lon='5.67117154464' />
  <node id='-172980313' action='modify' lat='52.18452528968' lon='5.67456789248' />
  <node id='-172980314' action='modify' lat='52.18791316364' lon='5.69121599869'>
    <tag k='name' v='str' />
  </node>
  <node id='-172980315' action='modify' lat='52.19026215242' lon='5.70275973912' />
  <node id='-172980316' action='modify' lat='52.19075921767' lon='5.7068020092' />
  <node id='-172980317' action='modify' lat='52.19396454038' lon='5.74923023942' />
  <node id='-172980318' action='modify' lat='52.19487536271' lon='5.76127399263' />
  <node id='-172980319' action='modify' lat='52.19646977073' lon='5.78247816965'>
    <tag k='name' v='kot' />
  </node>
  <node id='-172980320' action='modify' lat='52.19759974581' lon='5.79750627145' />
  <node id='-172980321' action='modify' lat='52.19789348018' lon='5.80141285378' />
  <node id='-172980322' action='modify' lat='52.20057798887' lon='5.83730655294'>
    <tag k='name' v='ass' />
  </node>
  <node id='-172980323' action='modify' lat='52.20133401127' lon='5.8474154757' />
  <node id='-172980324' action='modify' lat='52.19945253389' lon='5.86207508773' />
  <node id='-172980325' action='modify' lat='52.19508594734' lon='5.87348922953' />
  <node id='-172980326' action='modify' lat='52.19360292042' lon='5.879372655' />
  <node id='-172980327' action='modify' lat='52.18950460927' lon='5.9060887979' />
  <node id='-172980328' action='modify' lat='52.19209682471' lon='5.92505201563' />
  <node id='-172980329' action='modify' lat='52.20292377293' lon='5.94767518253'>
    <tag k='name' v='bro' />
  </node>
  <node id='-172980330' action='modify' lat='52.20652613706' lon='5.95520363047' />
  <node id='-172980331' action='modify' lat='52.20654238886' lon='5.95523759589' />
  <node id='-172980332' action='modify' lat='52.20682099562' lon='5.95582634076' />
  <node id='-172980333' action='modify' lat='52.20749819177' lon='5.9572935091' />
  <node id='-172980335' action='modify' lat='52.20944507321' lon='5.96650153264' />
  <node id='-172980336' action='modify' lat='52.20923311082' lon='5.971759638'>
    <tag k='name' v='ape' />
  </node>
  <node id='-172980338' action='modify' lat='52.20897911146' lon='5.97806051239' />
  <node id='-172980339' action='modify' lat='52.20895527907' lon='5.97939357027' />
  <node id='-172980340' action='modify' lat='52.2089764812' lon='5.9807760208' />
  <node id='-172980341' action='modify' lat='52.20888172731' lon='5.98338000342' />
  <node id='-172980342' action='modify' lat='52.20879584786' lon='5.9854808443' />
  <node id='-172980343' action='modify' lat='52.20710864087' lon='5.99494501814' />
  <node id='-172980344' action='modify' lat='52.2052680619' lon='6.00029465934'>
    <tag k='name' v='adm' />
  </node>
  <node id='-172980345' action='modify' lat='52.20222992528' lon='6.0091245161' />
  <node id='-172980346' action='modify' lat='52.20182060167' lon='6.01034760341' />
  <node id='-172980347' action='modify' lat='52.19734420264' lon='6.02426234954' />
  <node id='-172980348' action='modify' lat='52.19619941772' lon='6.02783091299' />
  <node id='-172980349' action='modify' lat='52.1817723103' lon='6.07266620347' />
  <node id='-172980350' action='modify' lat='52.18093488938' lon='6.07520378285' />
  <node id='-172980351' action='modify' lat='52.17810091771' lon='6.08400894659'>
    <tag k='name' v='kla' />
  </node>
  <node id='-172980352' action='modify' lat='52.17682741865' lon='6.08796553163' />
  <node id='-172980353' action='modify' lat='52.1745744365' lon='6.09501019053' />
  <node id='-172980354' action='modify' lat='52.16950663306' lon='6.11074307749' />
  <node id='-172980355' action='modify' lat='52.16912794251' lon='6.11191519509' />
  <node id='-172980356' action='modify' lat='52.16655489903' lon='6.1198873432' />
  <node id='-172980357' action='modify' lat='52.1659342493' lon='6.12169649418' />
  <node id='-172980358' action='modify' lat='52.15827927667' lon='6.14210374586' />
  <node id='-172980359' action='modify' lat='52.15733301672' lon='6.14420771745'>
    <tag k='name' v='voo' />
  </node>
  <node id='-172980360' action='modify' lat='52.15700565102' lon='6.14480338924' />
  <node id='-172980361' action='modify' lat='52.14304274509' lon='6.16940393977' />
  <node id='-172980362' action='modify' lat='52.14146027466' lon='6.17979583745'>
    <tag k='name' v='ijs' />
  </node>
  <node id='-172980363' action='modify' lat='52.14442820192' lon='6.19261816462' />
  <node id='-172981198' action='modify' lat='52.29712230037' lon='5.08353977859' />
  <node id='-172981199' action='modify' lat='52.29641731138' lon='5.08423278455'>
    <tag k='name' v='kew' />
  </node>
  <node id='-172981200' action='modify' lat='52.29572798098' lon='5.0849103874' />
  <node id='-172981201' action='modify' lat='52.29269451367' lon='5.09303755944' />
  <way id='-38150725' action='modify'>
    <nd ref='-172980179' />
    <nd ref='-172980180' />
    <tag k='type' v='straight' />
  </way>
  <way id='-38150726' action='modify'>
    <nd ref='-172980180' />
    <nd ref='-172980181' />
  </way>
  <way id='-38150727' action='modify'>
    <nd ref='-172980181' />
    <nd ref='-172980182' />
    <tag k='type' v='straight' />
  </way>
  <way id='-38150728' action='modify'>
    <nd ref='-172980182' />
    <nd ref='-172980183' />
    <nd ref='-172980184' />
  </way>
  <way id='-38150729' action='modify'>
    <nd ref='-172980184' />
    <nd ref='-172980185' />
    <tag k='type' v='straight' />
  </way>
  <way id='-38150730' action='modify'>
    <nd ref='-172980185' />
    <nd ref='-172980187' />
    <nd ref='-172980188' />
    <nd ref='-172980189' />
    <nd ref='-172980190' />
    <tag k='type' v='straight' />
  </way>
  <way id='-38150731' action='modify'>
    <nd ref='-172980190' />
    <nd ref='-172980191' />
  </way>
  <way id='-38150732' action='modify'>
    <nd ref='-172980191' />
    <nd ref='-172980192' />
    <tag k='type' v='straight' />
  </way>
  <way id='-38150733' action='modify'>
    <nd ref='-172980192' />
    <nd ref='-172980193' />
  </way>
  <way id='-38150734' action='modify'>
    <nd ref='-172980193' />
    <nd ref='-172980194' />
    <nd ref='-172980195' />
    <nd ref='-172980196' />
    <tag k='type' v='straight' />
  </way>
  <way id='-38150735' action='modify'>
    <nd ref='-172980196' />
    <nd ref='-172980197' />
  </way>
  <way id='-38150736' action='modify'>
    <nd ref='-172980197' />
    <nd ref='-172980198' />
    <nd ref='-172980199' />
    <tag k='type' v='straight' />
  </way>
  <way id='-38150737' action='modify'>
    <nd ref='-172980199' />
    <nd ref='-172980200' />
    <nd ref='-172980201' />
  </way>
  <way id='-38150738' action='modify'>
    <nd ref='-172980201' />
    <nd ref='-172980202' />
    <nd ref='-172980205' />
    <nd ref='-172980206' />
    <nd ref='-172980209' />
    <tag k='type' v='straight' />
  </way>
  <way id='-38150740' action='modify'>
    <nd ref='-172980209' />
    <nd ref='-172980210' />
  </way>
  <way id='-38150741' action='modify'>
    <nd ref='-172980210' />
    <nd ref='-172980211' />
    <nd ref='-172980212' />
    <tag k='type' v='straight' />
  </way>
  <way id='-38150742' action='modify'>
    <nd ref='-172980212' />
    <nd ref='-172980213' />
  </way>
  <way id='-38150743' action='modify'>
    <nd ref='-172980213' />
    <nd ref='-172980214' />
    <tag k='type' v='straight' />
  </way>
  <way id='-38150744' action='modify'>
    <nd ref='-172980214' />
    <nd ref='-172980215' />
    <nd ref='-172980216' />
  </way>
  <way id='-38150745' action='modify'>
    <nd ref='-172980216' />
    <nd ref='-172980218' />
    <nd ref='-172980219' />
    <nd ref='-172980220' />
    <tag k='type' v='straight' />
  </way>
  <way id='-38150747' action='modify'>
    <nd ref='-172980220' />
    <nd ref='-172980221' />
  </way>
  <way id='-38150748' action='modify'>
    <nd ref='-172980221' />
    <nd ref='-172980222' />
    <nd ref='-172980223' />
    <tag k='type' v='straight' />
  </way>
  <way id='-38150749' action='modify'>
    <nd ref='-172980223' />
    <nd ref='-172980224' />
  </way>
  <way id='-38150750' action='modify'>
    <nd ref='-172980224' />
    <nd ref='-172980225' />
    <tag k='type' v='straight' />
  </way>
  <way id='-38150751' action='modify'>
    <nd ref='-172980225' />
    <nd ref='-172980227' />
  </way>
  <way id='-38150752' action='modify'>
    <nd ref='-172980227' />
    <nd ref='-172980228' />
    <tag k='type' v='straight' />
  </way>
  <way id='-38150753' action='modify'>
    <nd ref='-172980228' />
    <nd ref='-172980229' />
  </way>
  <way id='-38150754' action='modify'>
    <nd ref='-172980229' />
    <nd ref='-172980230' />
    <tag k='type' v='straight' />
  </way>
  <way id='-38150755' action='modify'>
    <nd ref='-172980230' />
    <nd ref='-172980231' />
  </way>
  <way id='-38150756' action='modify'>
    <nd ref='-172980231' />
    <nd ref='-172980233' />
    <tag k='type' v='straight' />
  </way>
  <way id='-38150757' action='modify'>
    <nd ref='-172980233' />
    <nd ref='-172980234' />
  </way>
  <way id='-38150758' action='modify'>
    <nd ref='-172980234' />
    <nd ref='-172980235' />
    <tag k='type' v='straight' />
  </way>
  <way id='-38150759' action='modify'>
    <nd ref='-172980235' />
    <nd ref='-172980236' />
    <tag k='type' v='arc' />
  </way>
  <way id='-38150760' action='modify'>
    <nd ref='-172980236' />
    <nd ref='-172980237' />
    <nd ref='-172980238' />
    <tag k='type' v='straight' />
  </way>
  <way id='-38150761' action='modify'>
    <nd ref='-172980238' />
    <nd ref='-172980239' />
  </way>
  <way id='-38150762' action='modify'>
    <nd ref='-172980239' />
    <nd ref='-172980240' />
    <tag k='type' v='straight' />
  </way>
  <way id='-38150763' action='modify'>
    <nd ref='-172980240' />
    <nd ref='-172980241' />
  </way>
  <way id='-38150764' action='modify'>
    <nd ref='-172980241' />
    <nd ref='-172980243' />
    <tag k='type' v='straight' />
  </way>
  <way id='-38150766' action='modify'>
    <nd ref='-172980243' />
    <nd ref='-172980244' />
  </way>
  <way id='-38150767' action='modify'>
    <nd ref='-172980244' />
    <nd ref='-172980245' />
    <nd ref='-172980246' />
    <tag k='type' v='straight' />
  </way>
  <way id='-38150768' action='modify'>
    <nd ref='-172980246' />
    <nd ref='-172980247' />
  </way>
  <way id='-38150769' action='modify'>
    <nd ref='-172980247' />
    <nd ref='-172980248' />
    <tag k='type' v='straight' />
  </way>
  <way id='-38150770' action='modify'>
    <nd ref='-172980248' />
    <nd ref='-172980249' />
  </way>
  <way id='-38150771' action='modify'>
    <nd ref='-172980249' />
    <nd ref='-172980250' />
    <tag k='type' v='straight' />
  </way>
  <way id='-38150772' action='modify'>
    <nd ref='-172980250' />
    <nd ref='-172980251' />
  </way>
  <way id='-38150773' action='modify'>
    <nd ref='-172980251' />
    <nd ref='-172980252' />
    <tag k='type' v='straight' />
  </way>
  <way id='-38150774' action='modify'>
    <nd ref='-172980253' />
    <nd ref='-172980254' />
  </way>
  <way id='-38150775' action='modify'>
    <nd ref='-172980254' />
    <nd ref='-172980255' />
    <nd ref='-172980256' />
    <nd ref='-172980257' />
    <nd ref='-172980258' />
    <nd ref='-172980259' />
    <nd ref='-172980260' />
    <nd ref='-172980261' />
    <nd ref='-172980262' />
    <nd ref='-172980263' />
    <tag k='type' v='straight' />
  </way>
  <way id='-38150776' action='modify'>
    <nd ref='-172980263' />
    <nd ref='-172980264' />
  </way>
  <way id='-38150777' action='modify'>
    <nd ref='-172980264' />
    <nd ref='-172980265' />
    <nd ref='-172980266' />
    <tag k='type' v='straight' />
  </way>
  <way id='-38150778' action='modify'>
    <nd ref='-172980266' />
    <nd ref='-172980267' />
  </way>
  <way id='-38150779' action='modify'>
    <nd ref='-172980267' />
    <nd ref='-172980268' />
    <tag k='type' v='straight' />
  </way>
  <way id='-38150780' action='modify'>
    <nd ref='-172980268' />
    <nd ref='-172980269' />
  </way>
  <way id='-38150781' action='modify'>
    <nd ref='-172980269' />
    <nd ref='-172980270' />
    <nd ref='-172980271' />
    <tag k='type' v='straight' />
  </way>
  <way id='-38150782' action='modify'>
    <nd ref='-172980271' />
    <nd ref='-172980272' />
  </way>
  <way id='-38150783' action='modify'>
    <nd ref='-172980272' />
    <nd ref='-172980273' />
    <nd ref='-172980274' />
    <tag k='type' v='straight' />
  </way>
  <way id='-38150784' action='modify'>
    <nd ref='-172980274' />
    <nd ref='-172980275' />
  </way>
  <way id='-38150785' action='modify'>
    <nd ref='-172980275' />
    <nd ref='-172980276' />
    <tag k='type' v='straight' />
  </way>
  <way id='-38150786' action='modify'>
    <nd ref='-172980276' />
    <nd ref='-172980277' />
  </way>
  <way id='-38150787' action='modify'>
    <nd ref='-172980277' />
    <nd ref='-172980278' />
    <tag k='type' v='straight' />
  </way>
  <way id='-38150788' action='modify'>
    <nd ref='-172980278' />
    <nd ref='-172980279' />
  </way>
  <way id='-38150789' action='modify'>
    <nd ref='-172980279' />
    <nd ref='-172980280' />
    <nd ref='-172980281' />
    <tag k='type' v='straight' />
  </way>
  <way id='-38150790' action='modify'>
    <nd ref='-172980281' />
    <nd ref='-172980282' />
    <nd ref='-172980283' />
  </way>
  <way id='-38150791' action='modify'>
    <nd ref='-172980283' />
    <nd ref='-172980284' />
    <tag k='type' v='straight' />
  </way>
  <way id='-38150792' action='modify'>
    <nd ref='-172980284' />
    <nd ref='-172980285' />
  </way>
  <way id='-38150793' action='modify'>
    <nd ref='-172980285' />
    <nd ref='-172980286' />
    <nd ref='-172980288' />
    <nd ref='-172980289' />
    <nd ref='-172980290' />
    <tag k='type' v='straight' />
  </way>
  <way id='-38150794' action='modify'>
    <nd ref='-172980290' />
    <nd ref='-172980291' />
  </way>
  <way id='-38150795' action='modify'>
    <nd ref='-172980291' />
    <nd ref='-172980292' />
    <nd ref='-172980293' />
    <tag k='type' v='straight' />
  </way>
  <way id='-38150796' action='modify'>
    <nd ref='-172980293' />
    <nd ref='-172980294' />
  </way>
  <way id='-38150797' action='modify'>
    <nd ref='-172980294' />
    <nd ref='-172980295' />
    <nd ref='-172980296' />
    <nd ref='-172980297' />
    <tag k='type' v='straight' />
  </way>
  <way id='-38150798' action='modify'>
    <nd ref='-172980297' />
    <nd ref='-172980298' />
  </way>
  <way id='-38150799' action='modify'>
    <nd ref='-172980298' />
    <nd ref='-172980299' />
    <tag k='type' v='straight' />
  </way>
  <way id='-38150800' action='modify'>
    <nd ref='-172980299' />
    <nd ref='-172980300' />
  </way>
  <way id='-38150801' action='modify'>
    <nd ref='-172980300' />
    <nd ref='-172980301' />
    <nd ref='-172980302' />
    <tag k='type' v='straight' />
  </way>
  <way id='-38150802' action='modify'>
    <nd ref='-172980302' />
    <nd ref='-172980303' />
  </way>
  <way id='-38150803' action='modify'>
    <nd ref='-172980303' />
    <nd ref='-172980304' />
    <nd ref='-172980305' />
    <tag k='type' v='straight' />
  </way>
  <way id='-38150804' action='modify'>
    <nd ref='-172980305' />
    <nd ref='-172980306' />
  </way>
  <way id='-38150805' action='modify'>
    <nd ref='-172980306' />
    <nd ref='-172980307' />
    <nd ref='-172980308' />
    <tag k='type' v='straight' />
  </way>
  <way id='-38150806' action='modify'>
    <nd ref='-172980308' />
    <nd ref='-172980309' />
  </way>
  <way id='-38150807' action='modify'>
    <nd ref='-172980309' />
    <nd ref='-172980310' />
    <tag k='type' v='straight' />
  </way>
  <way id='-38150808' action='modify'>
    <nd ref='-172980310' />
    <nd ref='-172980311' />
  </way>
  <way id='-38150809' action='modify'>
    <nd ref='-172980311' />
    <nd ref='-172980312' />
    <tag k='type' v='straight' />
  </way>
  <way id='-38150810' action='modify'>
    <nd ref='-172980312' />
    <nd ref='-172980313' />
  </way>
  <way id='-38150811' action='modify'>
    <nd ref='-172980313' />
    <nd ref='-172980314' />
    <nd ref='-172980315' />
    <nd ref='-172980316' />
    <nd ref='-172980317' />
    <tag k='type' v='straight' />
  </way>
  <way id='-38150812' action='modify'>
    <nd ref='-172980317' />
    <nd ref='-172980318' />
  </way>
  <way id='-38150813' action='modify'>
    <nd ref='-172980318' />
    <nd ref='-172980319' />
    <nd ref='-172980320' />
    <tag k='type' v='straight' />
  </way>
  <way id='-38150814' action='modify'>
    <nd ref='-172980320' />
    <nd ref='-172980321' />
  </way>
  <way id='-38150815' action='modify'>
    <nd ref='-172980321' />
    <nd ref='-172980322' />
    <nd ref='-172980323' />
    <tag k='type' v='straight' />
  </way>
  <way id='-38150816' action='modify'>
    <nd ref='-172980323' />
    <nd ref='-172980324' />
  </way>
  <way id='-38150817' action='modify'>
    <nd ref='-172980324' />
    <nd ref='-172980325' />
    <tag k='type' v='straight' />
  </way>
  <way id='-38150818' action='modify'>
    <nd ref='-172980325' />
    <nd ref='-172980326' />
  </way>
  <way id='-38150819' action='modify'>
    <nd ref='-172980326' />
    <nd ref='-172980327' />
    <tag k='type' v='straight' />
  </way>
  <way id='-38150820' action='modify'>
    <nd ref='-172980327' />
    <nd ref='-172980328' />
  </way>
  <way id='-38150821' action='modify'>
    <nd ref='-172980328' />
    <nd ref='-172980329' />
    <nd ref='-172980330' />
    <tag k='type' v='straight' />
  </way>
  <way id='-38150822' action='modify'>
    <nd ref='-172980330' />
    <nd ref='-172980331' />
    <tag k='type' v='straight' />
  </way>
  <way id='-38150823' action='modify'>
    <nd ref='-172980331' />
    <nd ref='-172980332' />
  </way>
  <way id='-38150824' action='modify'>
    <nd ref='-172980332' />
    <nd ref='-172980333' />
    <tag k='type' v='straight' />
  </way>
  <way id='-38150825' action='modify'>
    <nd ref='-172980333' />
    <nd ref='-172980335' />
  </way>
  <way id='-38150826' action='modify'>
    <nd ref='-172980335' />
    <nd ref='-172980336' />
    <nd ref='-172980338' />
    <tag k='type' v='straight' />
  </way>
  <way id='-38150827' action='modify'>
    <nd ref='-172980338' />
    <nd ref='-172980339' />
  </way>
  <way id='-38150828' action='modify'>
    <nd ref='-172980339' />
    <nd ref='-172980340' />
    <tag k='type' v='straight' />
  </way>
  <way id='-38150829' action='modify'>
    <nd ref='-172980340' />
    <nd ref='-172980341' />
  </way>
  <way id='-38150830' action='modify'>
    <nd ref='-172980341' />
    <nd ref='-172980342' />
    <tag k='type' v='straight' />
  </way>
  <way id='-38150831' action='modify'>
    <nd ref='-172980342' />
    <nd ref='-172980343' />
  </way>
  <way id='-38150832' action='modify'>
    <nd ref='-172980343' />
    <nd ref='-172980344' />
    <nd ref='-172980345' />
    <tag k='type' v='straight' />
  </way>
  <way id='-38150833' action='modify'>
    <nd ref='-172980345' />
    <nd ref='-172980346' />
  </way>
  <way id='-38150834' action='modify'>
    <nd ref='-172980346' />
    <nd ref='-172980347' />
    <tag k='type' v='straight' />
  </way>
  <way id='-38150835' action='modify'>
    <nd ref='-172980347' />
    <nd ref='-172980348' />
  </way>
  <way id='-38150836' action='modify'>
    <nd ref='-172980348' />
    <nd ref='-172980349' />
    <tag k='type' v='straight' />
  </way>
  <way id='-38150837' action='modify'>
    <nd ref='-172980349' />
    <nd ref='-172980350' />
  </way>
  <way id='-38150838' action='modify'>
    <nd ref='-172980350' />
    <nd ref='-172980351' />
    <nd ref='-172980352' />
    <tag k='type' v='straight' />
  </way>
  <way id='-38150839' action='modify'>
    <nd ref='-172980352' />
    <nd ref='-172980353' />
  </way>
  <way id='-38150840' action='modify'>
    <nd ref='-172980353' />
    <nd ref='-172980354' />
    <tag k='type' v='straight' />
  </way>
  <way id='-38150841' action='modify'>
    <nd ref='-172980354' />
    <nd ref='-172980355' />
  </way>
  <way id='-38150842' action='modify'>
    <nd ref='-172980355' />
    <nd ref='-172980356' />
    <tag k='type' v='straight' />
  </way>
  <way id='-38150843' action='modify'>
    <nd ref='-172980356' />
    <nd ref='-172980357' />
  </way>
  <way id='-38150844' action='modify'>
    <nd ref='-172980357' />
    <nd ref='-172980358' />
    <tag k='type' v='straight' />
  </way>
  <way id='-38150845' action='modify'>
    <nd ref='-172980358' />
    <nd ref='-172980359' />
    <nd ref='-172980360' />
  </way>
  <way id='-38150846' action='modify'>
    <nd ref='-172980360' />
    <nd ref='-172980361' />
    <tag k='type' v='straight' />
  </way>
  <way id='-38150847' action='modify'>
    <nd ref='-172980361' />
    <nd ref='-172980362' />
  </way>
  <way id='-38150848' action='modify'>
    <nd ref='-172980362' />
    <nd ref='-172980363' />
    <tag k='type' v='straight' />
  </way>
  <way id='-38151398' action='modify'>
    <nd ref='-172980243' />
    <nd ref='-172981198' />
    <nd ref='-172981199' />
    <nd ref='-172981200' />
    <tag k='type' v='straight' />
  </way>
  <way id='-38151399' action='modify'>
    <nd ref='-172981200' />
    <nd ref='-172981201' />
    <nd ref='-172980247' />
  </way>
  <way id='-38151406' action='modify'>
    <nd ref='-172980252' />
    <nd ref='-172980253' />
    <tag k='type' v='straight' />
  </way>
  <relation id='-14484024' action='modify'>
    <member type='way' ref='-38150725' role='' />
    <member type='way' ref='-38150726' role='' />
    <member type='way' ref='-38150727' role='' />
    <member type='way' ref='-38150728' role='' />
    <member type='way' ref='-38150729' role='' />
    <member type='way' ref='-38150730' role='' />
    <member type='way' ref='-38150731' role='' />
    <member type='way' ref='-38150732' role='' />
    <member type='way' ref='-38150733' role='' />
    <member type='way' ref='-38150734' role='' />
    <member type='way' ref='-38150735' role='' />
    <member type='way' ref='-38150736' role='' />
    <member type='way' ref='-38150737' role='' />
    <member type='way' ref='-38150738' role='' />
    <member type='way' ref='-38150740' role='' />
    <member type='way' ref='-38150741' role='' />
    <member type='way' ref='-38150742' role='' />
    <member type='way' ref='-38150743' role='' />
    <member type='way' ref='-38150744' role='' />
    <member type='way' ref='-38150745' role='' />
    <member type='way' ref='-38150747' role='' />
    <member type='way' ref='-38150748' role='' />
    <member type='way' ref='-38150749' role='' />
    <member type='way' ref='-38150750' role='' />
    <member type='way' ref='-38150751' role='' />
    <member type='way' ref='-38150752' role='' />
    <member type='way' ref='-38150753' role='' />
    <member type='way' ref='-38150754' role='' />
    <member type='way' ref='-38150755' role='' />
    <member type='way' ref='-38150756' role='' />
    <member type='way' ref='-38150757' role='' />
    <member type='way' ref='-38150758' role='' />
    <member type='way' ref='-38150759' role='' />
    <member type='way' ref='-38150760' role='' />
    <member type='way' ref='-38150761' role='' />
    <member type='way' ref='-38150762' role='' />
    <member type='way' ref='-38150763' role='' />
    <member type='way' ref='-38150764' role='' />
    <member type='way' ref='-38150766' role='' />
    <member type='way' ref='-38150767' role='' />
    <member type='way' ref='-38150768' role='' />
    <member type='way' ref='-38150769' role='' />
    <member type='way' ref='-38150770' role='' />
    <member type='way' ref='-38150771' role='' />
    <member type='way' ref='-38150772' role='' />
    <member type='way' ref='-38150773' role='' />
    <member type='way' ref='-38151406' role='' />
    <member type='way' ref='-38150774' role='' />
    <member type='way' ref='-38150775' role='' />
    <member type='way' ref='-38150776' role='' />
    <member type='way' ref='-38150777' role='' />
    <member type='way' ref='-38150778' role='' />
    <member type='way' ref='-38150779' role='' />
    <member type='way' ref='-38150780' role='' />
    <member type='way' ref='-38150781' role='' />
    <member type='way' ref='-38150782' role='' />
    <member type='way' ref='-38150783' role='' />
    <member type='way' ref='-38150784' role='' />
    <member type='way' ref='-38150785' role='' />
    <member type='way' ref='-38150786' role='' />
    <member type='way' ref='-38150787' role='' />
    <member type='way' ref='-38150788' role='' />
    <member type='way' ref='-38150789' role='' />
    <member type='way' ref='-38150790' role='' />
    <member type='way' ref='-38150791' role='' />
    <member type='way' ref='-38150792' role='' />
    <member type='way' ref='-38150793' role='' />
    <member type='way' ref='-38150794' role='' />
    <member type='way' ref='-38150795' role='' />
    <member type='way' ref='-38150796' role='' />
    <member type='way' ref='-38150797' role='' />
    <member type='way' ref='-38150798' role='' />
    <member type='way' ref='-38150799' role='' />
    <member type='way' ref='-38150800' role='' />
    <member type='way' ref='-38150801' role='' />
    <member type='way' ref='-38150802' role='' />
    <member type='way' ref='-38150803' role='' />
    <member type='way' ref='-38150804' role='' />
    <member type='way' ref='-38150805' role='' />
    <member type='way' ref='-38150806' role='' />
    <member type='way' ref='-38150807' role='' />
    <member type='way' ref='-38150808' role='' />
    <member type='way' ref='-38150809' role='' />
    <member type='way' ref='-38150810' role='' />
    <member type='way' ref='-38150811' role='' />
    <member type='way' ref='-38150812' role='' />
    <member type='way' ref='-38150813' role='' />
    <member type='way' ref='-38150814' role='' />
    <member type='way' ref='-38150815' role='' />
    <member type='way' ref='-38150816' role='' />
    <member type='way' ref='-38150817' role='' />
    <member type='way' ref='-38150818' role='' />
    <member type='way' ref='-38150819' role='' />
    <member type='way' ref='-38150820' role='' />
    <member type='way' ref='-38150821' role='' />
    <member type='way' ref='-38150822' role='' />
    <member type='way' ref='-38150823' role='' />
    <member type='way' ref='-38150824' role='' />
    <member type='way' ref='-38150825' role='' />
    <member type='way' ref='-38150826' role='' />
    <member type='way' ref='-38150827' role='' />
    <member type='way' ref='-38150828' role='' />
    <member type='way' ref='-38150829' role='' />
    <member type='way' ref='-38150830' role='' />
    <member type='way' ref='-38150831' role='' />
    <member type='way' ref='-38150832' role='' />
    <member type='way' ref='-38150833' role='' />
    <member type='way' ref='-38150834' role='' />
    <member type='way' ref='-38150835' role='' />
    <member type='way' ref='-38150836' role='' />
    <member type='way' ref='-38150837' role='' />
    <member type='way' ref='-38150838' role='' />
    <member type='way' ref='-38150839' role='' />
    <member type='way' ref='-38150840' role='' />
    <member type='way' ref='-38150841' role='' />
    <member type='way' ref='-38150842' role='' />
    <member type='way' ref='-38150843' role='' />
    <member type='way' ref='-38150844' role='' />
    <member type='way' ref='-38150845' role='' />
    <member type='way' ref='-38150846' role='' />
    <member type='way' ref='-38150847' role='' />
    <member type='way' ref='-38150848' role='' />
    <tag k='key' v='path.nl.adz' />
    <tag k='name' v='NL ADZ' />
    <tag k='type' v='path' />
  </relation>
  <relation id='-14484084' action='modify'>
    <member type='way' ref='-38150758' role='' />
    <member type='way' ref='-38150759' role='' />
    <member type='way' ref='-38150760' role='' />
    <member type='way' ref='-38150761' role='' />
    <member type='way' ref='-38150762' role='' />
    <member type='way' ref='-38150763' role='' />
    <member type='way' ref='-38150764' role='' />
    <member type='way' ref='-38151398' role='' />
    <member type='way' ref='-38151399' role='' />
    <member type='way' ref='-38150769' role='' />
    <member type='way' ref='-38150770' role='' />
    <member type='way' ref='-38150771' role='' />
    <member type='way' ref='-38150772' role='' />
    <member type='way' ref='-38150773' role='' />
    <tag k='key' v='path.nl.adz.kev' />
    <tag k='name' v='NL ADZ (Kev)' />
    <tag k='type' v='path' />
  </relation>
</osm>
