<?xml version='1.0' encoding='UTF-8'?>
<osm version='0.6' upload='false' generator='JOSM'>
  <node id='-178435909' action='modify' lat='52.36223695174' lon='4.90730120368' />
  <node id='-178435910' action='modify' lat='52.36131497226' lon='4.90788083147'>
    <tag k='name' v='wee' />
  </node>
  <node id='-178435911' action='modify' lat='52.36000325292' lon='4.90870545913' />
  <node id='-178435912' action='modify' lat='52.35924233237' lon='4.9091616361'>
    <tag k='name' v='awe' />
  </node>
  <node id='-178435913' action='modify' lat='52.35457817593' lon='4.91197508223'>
    <tag k='name' v='wib' />
  </node>
  <node id='-178435915' action='modify' lat='52.35200337062' lon='4.91352809249' />
  <node id='-178435916' action='modify' lat='52.35020186859' lon='4.91493798749' />
  <node id='-178435917' action='modify' lat='52.34945971167' lon='4.91551846004' />
  <node id='-178435918' action='modify' lat='52.34825854228' lon='4.91646229953' />
  <node id='-178435919' action='modify' lat='52.34636124154' lon='4.91761531909'>
    <tag k='name' v='aam' />
  </node>
  <node id='-178435920' action='modify' lat='52.34531905581' lon='4.91824865073' />
  <node id='-178435921' action='modify' lat='52.34330357752' lon='4.9190962261' />
  <node id='-178435922' action='modify' lat='52.34205163967' lon='4.91973995626' />
  <node id='-178435923' action='modify' lat='52.34064890279' lon='4.92056071222'>
    <tag k='name' v='spa' />
  </node>
  <node id='-178435924' action='modify' lat='52.33966110769' lon='4.92121388287' />
  <node id='-178435925' action='modify' lat='52.33881347728' lon='4.92185353965' />
  <node id='-178435926' action='modify' lat='52.3375351923' lon='4.92295860708' />
  <node id='-178435927' action='modify' lat='52.33574061219' lon='4.92463498771' />
  <node id='-178435929' action='modify' lat='52.33217090049' lon='4.92793410748' />
  <node id='-178435930' action='modify' lat='52.33070720331' lon='4.92935299605' />
  <node id='-178435931' action='modify' lat='52.32998369937' lon='4.93001513786'>
    <tag k='name' v='mad' />
  </node>
  <node id='-178435932' action='modify' lat='52.3287637978' lon='4.93113155208' />
  <node id='-178435933' action='modify' lat='52.32689120062' lon='4.93284523219' />
  <node id='-178435934' action='modify' lat='52.32629779082' lon='4.93341385782' />
  <node id='-178435935' action='modify' lat='52.32414619617' lon='4.93589088053' />
  <node id='-178435936' action='modify' lat='52.32306058337' lon='4.93705722378'>
    <tag k='name' v='dui' />
  </node>
  <node id='-178435937' action='modify' lat='52.3230002765' lon='4.93712201446' />
  <node id='-178435938' action='modify' lat='52.31995336455' lon='4.94004964292' />
  <node id='-178435939' action='modify' lat='52.31843582923' lon='4.94143994661'>
    <tag k='name' v='str' />
  </node>
  <node id='-178435940' action='modify' lat='52.31838383469' lon='4.94148758104'>
    <tag k='name' v='daz' />
  </node>
  <node id='-178435941' action='modify' lat='52.31727208408' lon='4.94250608997'>
    <tag k='name' v='aar' />
  </node>
  <node id='-178435943' action='modify' lat='52.31131601771' lon='4.94796218985'>
    <tag k='name' v='abi' />
  </node>
  <node id='-178435944' action='modify' lat='52.30662017345' lon='4.95226333615'>
    <tag k='name' v='bul' />
  </node>
  <node id='-178435945' action='modify' lat='52.29807292881' lon='4.96009099182'>
    <tag k='name' v='hol' />
  </node>
  <node id='-178435946' action='modify' lat='52.2960408313' lon='4.96195178559' />
  <node id='-178435947' action='modify' lat='52.29487086041' lon='4.96298119292'>
    <tag k='name' v='aho' />
  </node>
  <node id='-178435948' action='modify' lat='52.29329273544' lon='4.96436655387' />
  <node id='-178435949' action='modify' lat='52.28446683329' lon='4.97232198179' />
  <node id='-178435950' action='modify' lat='52.28026613686' lon='4.97594833106' />
  <node id='-178435951' action='modify' lat='52.27826091932' lon='4.97764833043'>
    <tag k='name' v='abc' />
  </node>
  <node id='-178435952' action='modify' lat='52.27778460893' lon='4.97805212935' />
  <node id='-178435953' action='modify' lat='52.27600678287' lon='4.97961357102' />
  <node id='-178435954' action='modify' lat='52.27333565208' lon='4.98202970474'>
    <tag k='name' v='abo' />
  </node>
  <node id='-178435955' action='modify' lat='52.26833218574' lon='4.98655512795' />
  <node id='-178435956' action='modify' lat='52.26647827716' lon='4.98812422003' />
  <node id='-178435957' action='modify' lat='52.26549490812' lon='4.98887926072' />
  <node id='-178435958' action='modify' lat='52.26437701815' lon='4.9897375676' />
  <node id='-178435959' action='modify' lat='52.26252641834' lon='4.99126171832' />
  <node id='-178435960' action='modify' lat='52.24941739786' lon='5.00320896372' />
  <node id='-178435961' action='modify' lat='52.23346711926' lon='5.00733554229' />
  <node id='-178435962' action='modify' lat='52.22866175947' lon='5.00602323747'>
    <tag k='name' v='vre' />
  </node>
  <node id='-178435963' action='modify' lat='52.20923781531' lon='5.00072016265' />
  <node id='-178435964' action='modify' lat='52.20719082571' lon='5.00010430545' />
  <node id='-178435966' action='modify' lat='52.20564409702' lon='4.99963223666' />
  <node id='-178435967' action='modify' lat='52.20418279165' lon='4.99918162555' />
  <node id='-178435968' action='modify' lat='52.2014793723' lon='4.99845549126'>
    <tag k='name' v='nie' />
  </node>
  <node id='-178435969' action='modify' lat='52.1899559764' lon='4.99536082014' />
  <node id='-178435970' action='modify' lat='52.18731677036' lon='4.99460711941' />
  <node id='-178435971' action='modify' lat='52.18050924833' lon='4.99275724722' />
  <node id='-178435972' action='modify' lat='52.17681677089' lon='4.99162718385' />
  <node id='-178435973' action='modify' lat='52.17616131155' lon='4.99141797289' />
  <node id='-178435974' action='modify' lat='52.1712060151' lon='4.99063156366'>
    <tag k='name' v='bre' />
  </node>
  <node id='-178435975' action='modify' lat='52.17086301079' lon='4.990628061' />
  <node id='-178435976' action='modify' lat='52.17010711659' lon='4.99064415425' />
  <node id='-178435977' action='modify' lat='52.1686890606' lon='4.99075948924' />
  <node id='-178435978' action='modify' lat='52.16764930723' lon='4.99089019386'>
    <tag k='name' v='bra' />
  </node>
  <node id='-178435979' action='modify' lat='52.16709314903' lon='4.99096010577' />
  <node id='-178435980' action='modify' lat='52.16599676765' lon='4.99109476671' />
  <node id='-178435981' action='modify' lat='52.16563235385' lon='4.99117523298' />
  <node id='-178435982' action='modify' lat='52.15216422585' lon='5.00415712327' />
  <node id='-178435983' action='modify' lat='52.15120476444' lon='5.00618755549' />
  <node id='-178435984' action='modify' lat='52.14676254414' lon='5.01427643444' />
  <node id='-178435985' action='modify' lat='52.13528302485' lon='5.03415940807'>
    <tag k='name' v='maa' />
  </node>
  <node id='-178435986' action='modify' lat='52.13509819641' lon='5.03447949618' />
  <node id='-178435987' action='modify' lat='52.13426513832' lon='5.0358822915' />
  <node id='-178435988' action='modify' lat='52.12942947174' lon='5.04409253329' />
  <node id='-178435989' action='modify' lat='52.12808257024' lon='5.04643410176' />
  <node id='-178435990' action='modify' lat='52.12340761617' lon='5.05459338292' />
  <node id='-178435991' action='modify' lat='52.11990125782' lon='5.06040135245' />
  <node id='-178435992' action='modify' lat='52.11331008662' lon='5.07184803218' />
  <node id='-178435993' action='modify' lat='52.11181804581' lon='5.07440237862' />
  <node id='-178435994' action='modify' lat='52.11125933822' lon='5.07537513703' />
  <node id='-178435995' action='modify' lat='52.10325401246' lon='5.08931176565'>
    <tag k='name' v='uzu' />
  </node>
  <node id='-178435996' action='modify' lat='52.101981199' lon='5.09152740106' />
  <node id='-178435997' action='modify' lat='52.1000683314' lon='5.09465485677' />
  <node id='-178435998' action='modify' lat='52.09876030801' lon='5.09661884119'>
    <tag k='name' v='uam' />
  </node>
  <node id='-178435999' action='modify' lat='52.09690640134' lon='5.09940236539' />
  <node id='-178436000' action='modify' lat='52.09586500766' lon='5.10182440013' />
  <node id='-178436001' action='modify' lat='52.09546129629' lon='5.10311722487' />
  <node id='-178436002' action='modify' lat='52.09374259762' lon='5.10633319482' />
  <node id='-178436003' action='modify' lat='52.09082786849' lon='5.10907080809'>
    <tag k='name' v='utr' />
  </node>
  <node id='-178436004' action='modify' lat='52.08676052433' lon='5.11289069791' />
  <node id='-178436005' action='modify' lat='52.08378699424' lon='5.1154448135' />
  <node id='-178436006' action='modify' lat='52.08110597113' lon='5.11791046244' />
  <node id='-178436007' action='modify' lat='52.0787790559' lon='5.12161642045'>
    <tag k='name' v='jer' />
  </node>
  <node id='-178436008' action='modify' lat='52.07822070349' lon='5.1232028066'>
    <tag k='name' v='uva' />
  </node>
  <node id='-178436009' action='modify' lat='52.07525293538' lon='5.13163447112'>
    <tag k='name' v='hou' />
  </node>
  <node id='-178436010' action='modify' lat='52.07280925032' lon='5.136517821' />
  <node id='-178436011' action='modify' lat='52.07273387347' lon='5.1366233772' />
  <node id='-178436012' action='modify' lat='52.06931444346' lon='5.14368563756' />
  <node id='-178436013' action='modify' lat='52.06763476372' lon='5.14944850314'>
    <tag k='name' v='mee' />
  </node>
  <node id='-178436014' action='modify' lat='52.06453686355' lon='5.16007661685'>
    <tag k='name' v='mee.xo' />
  </node>
  <node id='-178436015' action='modify' lat='52.06258012717' lon='5.17232839557'>
    <tag k='name' v='vec' />
  </node>
  <node id='-178436016' action='modify' lat='52.0625696217' lon='5.17763301596' />
  <node id='-178436017' action='modify' lat='52.06314381813' lon='5.1940104394'>
    <tag k='name' v='bun' />
  </node>
  <node id='-178436018' action='modify' lat='52.06510574802' lon='5.24997085199' />
  <node id='-178436019' action='modify' lat='52.06519107094' lon='5.25436906339' />
  <node id='-178436020' action='modify' lat='52.06521705065' lon='5.25701567397' />
  <node id='-178436021' action='modify' lat='52.06523242604' lon='5.25849282974'>
    <tag k='name' v='dri' />
  </node>
  <node id='-178436022' action='modify' lat='52.06533659762' lon='5.26850089297' />
  <node id='-178436023' action='modify' lat='52.06540255443' lon='5.27311831579' />
  <node id='-178436024' action='modify' lat='52.06577885662' lon='5.31533054218'>
    <tag k='name' v='aus' />
  </node>
  <node id='-178436025' action='modify' lat='52.06602071321' lon='5.3424613336'>
    <tag k='name' v='mag' />
  </node>
  <node id='-178436026' action='modify' lat='52.06611217059' lon='5.35272080254'>
    <tag k='name' v='mao' />
  </node>
  <node id='-178436027' action='modify' lat='52.06612972179' lon='5.35468965635' />
  <node id='-178436028' action='modify' lat='52.06459861183' lon='5.3685603484' />
  <node id='-178436029' action='modify' lat='52.06406823195' lon='5.37077562852'>
    <tag k='name' v='mar' />
  </node>
  <node id='-178436030' action='modify' lat='52.05610078186' lon='5.40405075012'>
    <tag k='name' v='mab' />
  </node>
  <node id='-178436031' action='modify' lat='52.05448466496' lon='5.41079954895' />
  <node id='-178436032' action='modify' lat='52.05276427568' lon='5.42352989182' />
  <node id='-178436033' action='modify' lat='52.05160874593' lon='5.46983556371'>
    <tag k='name' v='dha' />
  </node>
  <node id='-178436034' action='modify' lat='52.05105709219' lon='5.49194162309'>
    <tag k='name' v='heu' />
  </node>
  <node id='-178436035' action='modify' lat='52.05062574242' lon='5.50922663027' />
  <node id='-178436036' action='modify' lat='52.05057383748' lon='5.51127634875' />
  <node id='-178436037' action='modify' lat='52.04958909555' lon='5.55001616344' />
  <node id='-178436038' action='modify' lat='52.04885382362' lon='5.55734597012' />
  <node id='-178436039' action='modify' lat='52.04581830537' lon='5.5739338132'>
    <tag k='name' v='ven' />
  </node>
  <node id='-178436040' action='modify' lat='52.03783696968' lon='5.61754311369' />
  <node id='-178436041' action='modify' lat='52.03757042503' lon='5.61898620668' />
  <node id='-178436042' action='modify' lat='52.03598027498' lon='5.62764063343' />
  <node id='-178436043' action='modify' lat='52.03035486145' lon='5.65825460021' />
  <node id='-178436044' action='modify' lat='52.02936829702' lon='5.66362316869' />
  <node id='-178436045' action='modify' lat='52.02916130318' lon='5.66473832639' />
  <node id='-178436047' action='modify' lat='52.02723056778' lon='5.67521337939'>
    <tag k='name' v='ede' />
  </node>
  <node id='-178436048' action='modify' lat='52.01459529426' lon='5.74375390008' />
  <node id='-178436049' action='modify' lat='52.01339672766' lon='5.75023233823' />
  <node id='-178436050' action='modify' lat='52.01073861195' lon='5.7646185436'>
    <tag k='name' v='buk' />
  </node>
  <node id='-178436051' action='modify' lat='52.00740956166' lon='5.78263476357' />
  <node id='-178436052' action='modify' lat='52.00693036852' lon='5.78521886862' />
  <node id='-178436053' action='modify' lat='52.00509520892' lon='5.79511800522'>
    <tag k='name' v='wol' />
  </node>
  <node id='-178436054' action='modify' lat='51.99977606307' lon='5.82380801305' />
  <node id='-178436055' action='modify' lat='51.99563637257' lon='5.83831675217' />
  <node id='-178436056' action='modify' lat='51.99453672952' lon='5.84110915387'>
    <tag k='name' v='ost' />
  </node>
  <node id='-178436057' action='modify' lat='51.99061844017' lon='5.85105858676' />
  <node id='-178436058' action='modify' lat='51.98716382109' lon='5.86907297239' />
  <node id='-178436060' action='modify' lat='51.98692385869' lon='5.87726804127'>
    <tag k='name' v='arw' />
  </node>
  <node id='-178436061' action='modify' lat='51.98685245453' lon='5.87970659003' />
  <node id='-178436062' action='modify' lat='51.98664928049' lon='5.88416442141' />
  <node id='-178436063' action='modify' lat='51.98657503765' lon='5.88527550031'>
    <tag k='name' v='aop' />
  </node>
  <node id='-178436064' action='modify' lat='51.98648625293' lon='5.88660420279'>
    <tag k='name' v='abe' />
  </node>
  <node id='-178436065' action='modify' lat='51.98620658914' lon='5.89078947768' />
  <node id='-178436066' action='modify' lat='51.98604634557' lon='5.89251325826' />
  <node id='-178436067' action='modify' lat='51.98565074102' lon='5.89607074723' />
  <node id='-178436068' action='modify' lat='51.98553924101' lon='5.89701354235' />
  <node id='-178436069' action='modify' lat='51.9853674466' lon='5.89843779534' />
  <node id='-178436070' action='modify' lat='51.98523034098' lon='5.89953750104' />
  <node id='-178436071' action='modify' lat='51.98494456525' lon='5.90155988663'>
    <tag k='name' v='arn' />
  </node>
  <node id='-178436072' action='modify' lat='51.98510935314' lon='5.9073249066' />
  <node id='-178436073' action='modify' lat='51.98560201188' lon='5.91109782189' />
  <node id='-178436074' action='modify' lat='51.98519719962' lon='5.91959508376'>
    <tag k='name' v='vel' />
  </node>
  <node id='-178436075' action='modify' lat='51.9851171864' lon='5.91993301973' />
  <node id='-178436076' action='modify' lat='51.98370345275' lon='5.92572095276'>
    <tag k='name' v='vea' />
  </node>
  <node id='-178436078' action='modify' lat='51.98033101596' lon='5.9395272278' />
  <node id='-178436079' action='modify' lat='51.97913450306' lon='5.94341812165' />
  <node id='-178436080' action='modify' lat='51.97903532546' lon='5.94369209893' />
  <node id='-178436081' action='modify' lat='51.9757256669' lon='5.95015346937' />
  <node id='-178436082' action='modify' lat='51.97353591846' lon='5.95342020009'>
    <tag k='name' v='ijw' />
  </node>
  <node id='-178436083' action='modify' lat='51.97305720521' lon='5.95413433724'>
    <tag k='name' v='for' />
  </node>
  <node id='-178436084' action='modify' lat='51.9671931' lon='5.96288170118'>
    <tag k='name' v='obr' />
  </node>
  <node id='-178436085' action='modify' lat='51.96390613383' lon='5.96778429978' />
  <node id='-178436086' action='modify' lat='51.96298915651' lon='5.96925571108'>
    <tag k='name' v='wes' />
  </node>
  <node id='-178436087' action='modify' lat='51.96200676959' lon='5.97099222176' />
  <node id='-178436088' action='modify' lat='51.95881026817' lon='5.97695678405' />
  <node id='-178436089' action='modify' lat='51.95738383417' lon='5.97995046493' />
  <node id='-178436090' action='modify' lat='51.95110194484' lon='5.99522396788' />
  <node id='-178436091' action='modify' lat='51.95068039277' lon='5.99627405338' />
  <node id='-178436092' action='modify' lat='51.94350882079' lon='6.0142937621'>
    <tag k='name' v='duv' />
  </node>
  <node id='-178436093' action='modify' lat='51.9367375937' lon='6.03130489688' />
  <node id='-178436094' action='modify' lat='51.93641514621' lon='6.03210803088' />
  <node id='-178436095' action='modify' lat='51.93525572963' lon='6.03501732143'>
    <tag k='name' v='gro' />
  </node>
  <node id='-178436096' action='modify' lat='51.92856321322' lon='6.05180919036' />
  <node id='-178436097' action='modify' lat='51.92663878167' lon='6.0578602539' />
  <node id='-178436099' action='modify' lat='51.92290144607' lon='6.07300837491'>
    <tag k='name' v='zev' />
  </node>
  <node id='-178436101' action='modify' lat='51.91970038447' lon='6.08598187432' />
  <node id='-178436102' action='modify' lat='51.91903039149' lon='6.08855545253' />
  <node id='-178436103' action='modify' lat='51.91851689541' lon='6.09042478573'>
    <tag k='name' v='zes' />
  </node>
  <node id='-178436104' action='modify' lat='51.91837298952' lon='6.09094865751' />
  <node id='-178436105' action='modify' lat='51.91808492296' lon='6.09193051356' />
  <node id='-178436106' action='modify' lat='51.91690359644' lon='6.09673555981'>
    <tag k='name' v='zeb' />
  </node>
  <node id='-178436107' action='modify' lat='51.91616915646' lon='6.0997228311' />
  <node id='-178436108' action='modify' lat='51.91417553275' lon='6.10605418414' />
  <node id='-178436109' action='modify' lat='51.90873138649' lon='6.12119039709'>
    <tag k='name' v='zeo' />
  </node>
  <node id='-178436110' action='modify' lat='51.90657611134' lon='6.12718214344'>
    <tag k='name' v='bab' />
  </node>
  <node id='-178436111' action='modify' lat='51.90624813833' lon='6.12809389561' />
  <node id='-178436112' action='modify' lat='51.90125173988' lon='6.13767779415'>
    <tag k='name' v='zeg' />
  </node>
  <node id='-178436113' action='modify' lat='51.89359762824' lon='6.14452815771' />
  <node id='-178436115' action='modify' lat='51.86941118316' lon='6.15661527765' />
  <way id='-38588742' action='modify'>
    <nd ref='-178435909' />
    <nd ref='-178435910' />
    <nd ref='-178435911' />
    <tag k='type' v='straight' />
  </way>
  <way id='-38588743' action='modify'>
    <nd ref='-178435911' />
    <nd ref='-178435912' />
  </way>
  <way id='-38588744' action='modify'>
    <nd ref='-178435912' />
    <nd ref='-178435913' />
    <nd ref='-178435915' />
    <tag k='type' v='straight' />
  </way>
  <way id='-38588746' action='modify'>
    <nd ref='-178435915' />
    <nd ref='-178435916' />
  </way>
  <way id='-38588747' action='modify'>
    <nd ref='-178435916' />
    <nd ref='-178435917' />
    <tag k='type' v='straight' />
  </way>
  <way id='-38588748' action='modify'>
    <nd ref='-178435917' />
    <nd ref='-178435918' />
  </way>
  <way id='-38588749' action='modify'>
    <nd ref='-178435918' />
    <nd ref='-178435919' />
    <nd ref='-178435920' />
    <tag k='type' v='straight' />
  </way>
  <way id='-38588750' action='modify'>
    <nd ref='-178435920' />
    <nd ref='-178435921' />
  </way>
  <way id='-38588751' action='modify'>
    <nd ref='-178435921' />
    <nd ref='-178435922' />
    <tag k='type' v='straight' />
  </way>
  <way id='-38588752' action='modify'>
    <nd ref='-178435922' />
    <nd ref='-178435923' />
  </way>
  <way id='-38588753' action='modify'>
    <nd ref='-178435923' />
    <nd ref='-178435924' />
    <tag k='type' v='straight' />
  </way>
  <way id='-38588754' action='modify'>
    <nd ref='-178435924' />
    <nd ref='-178435925' />
  </way>
  <way id='-38588755' action='modify'>
    <nd ref='-178435925' />
    <nd ref='-178435926' />
    <tag k='type' v='straight' />
  </way>
  <way id='-38588756' action='modify'>
    <nd ref='-178435926' />
    <nd ref='-178435927' />
  </way>
  <way id='-38588757' action='modify'>
    <nd ref='-178435927' />
    <nd ref='-178435929' />
    <tag k='type' v='straight' />
  </way>
  <way id='-38588759' action='modify'>
    <nd ref='-178435929' />
    <nd ref='-178435930' />
  </way>
  <way id='-38588760' action='modify'>
    <nd ref='-178435930' />
    <nd ref='-178435931' />
    <nd ref='-178435932' />
    <tag k='type' v='straight' />
  </way>
  <way id='-38588761' action='modify'>
    <nd ref='-178435932' />
    <nd ref='-178435933' />
  </way>
  <way id='-38588762' action='modify'>
    <nd ref='-178435933' />
    <nd ref='-178435934' />
    <tag k='type' v='straight' />
  </way>
  <way id='-38588763' action='modify'>
    <nd ref='-178435934' />
    <nd ref='-178435935' />
  </way>
  <way id='-38588764' action='modify'>
    <nd ref='-178435935' />
    <nd ref='-178435936' />
    <nd ref='-178435937' />
    <tag k='type' v='straight' />
  </way>
  <way id='-38588765' action='modify'>
    <nd ref='-178435937' />
    <nd ref='-178435938' />
  </way>
  <way id='-38588766' action='modify'>
    <nd ref='-178435938' />
    <nd ref='-178435939' />
    <nd ref='-178435940' />
    <nd ref='-178435941' />
    <nd ref='-178435943' />
    <nd ref='-178435944' />
    <nd ref='-178435945' />
    <nd ref='-178435946' />
    <tag k='type' v='straight' />
  </way>
  <way id='-38588767' action='modify'>
    <nd ref='-178435946' />
    <nd ref='-178435947' />
    <nd ref='-178435948' />
  </way>
  <way id='-38588768' action='modify'>
    <nd ref='-178435948' />
    <nd ref='-178435949' />
    <tag k='type' v='straight' />
  </way>
  <way id='-38588769' action='modify'>
    <nd ref='-178435949' />
    <nd ref='-178435950' />
  </way>
  <way id='-38588770' action='modify'>
    <nd ref='-178435950' />
    <nd ref='-178435951' />
    <nd ref='-178435952' />
    <tag k='type' v='straight' />
  </way>
  <way id='-38588771' action='modify'>
    <nd ref='-178435952' />
    <nd ref='-178435953' />
  </way>
  <way id='-38588772' action='modify'>
    <nd ref='-178435953' />
    <nd ref='-178435954' />
    <nd ref='-178435955' />
    <tag k='type' v='straight' />
  </way>
  <way id='-38588773' action='modify'>
    <nd ref='-178435955' />
    <nd ref='-178435956' />
  </way>
  <way id='-38588774' action='modify'>
    <nd ref='-178435956' />
    <nd ref='-178435957' />
    <nd ref='-178435958' />
    <tag k='type' v='straight' />
  </way>
  <way id='-38588775' action='modify'>
    <nd ref='-178435958' />
    <nd ref='-178435959' />
  </way>
  <way id='-38588776' action='modify'>
    <nd ref='-178435959' />
    <nd ref='-178435960' />
    <tag k='type' v='straight' />
  </way>
  <way id='-38588777' action='modify'>
    <nd ref='-178435960' />
    <nd ref='-178435961' />
  </way>
  <way id='-38588778' action='modify'>
    <nd ref='-178435961' />
    <nd ref='-178435962' />
    <nd ref='-178435963' />
    <tag k='type' v='straight' />
  </way>
  <way id='-38588779' action='modify'>
    <nd ref='-178435963' />
    <nd ref='-178435964' />
  </way>
  <way id='-38588780' action='modify'>
    <nd ref='-178435964' />
    <nd ref='-178435966' />
    <tag k='type' v='straight' />
  </way>
  <way id='-38588782' action='modify'>
    <nd ref='-178435966' />
    <nd ref='-178435967' />
  </way>
  <way id='-38588783' action='modify'>
    <nd ref='-178435967' />
    <nd ref='-178435968' />
    <nd ref='-178435969' />
    <tag k='type' v='straight' />
  </way>
  <way id='-38588784' action='modify'>
    <nd ref='-178435969' />
    <nd ref='-178435970' />
  </way>
  <way id='-38588785' action='modify'>
    <nd ref='-178435970' />
    <nd ref='-178435971' />
    <tag k='type' v='straight' />
  </way>
  <way id='-38588786' action='modify'>
    <nd ref='-178435971' />
    <nd ref='-178435972' />
  </way>
  <way id='-38588787' action='modify'>
    <nd ref='-178435972' />
    <nd ref='-178435973' />
    <tag k='type' v='straight' />
  </way>
  <way id='-38588788' action='modify'>
    <nd ref='-178435973' />
    <nd ref='-178435974' />
    <nd ref='-178435975' />
  </way>
  <way id='-38588789' action='modify'>
    <nd ref='-178435975' />
    <nd ref='-178435976' />
    <tag k='type' v='straight' />
  </way>
  <way id='-38588790' action='modify'>
    <nd ref='-178435976' />
    <nd ref='-178435977' />
  </way>
  <way id='-38588791' action='modify'>
    <nd ref='-178435977' />
    <nd ref='-178435978' />
    <nd ref='-178435979' />
    <tag k='type' v='straight' />
  </way>
  <way id='-38588792' action='modify'>
    <nd ref='-178435979' />
    <nd ref='-178435980' />
  </way>
  <way id='-38588793' action='modify'>
    <nd ref='-178435980' />
    <nd ref='-178435981' />
    <tag k='type' v='straight' />
  </way>
  <way id='-38588794' action='modify'>
    <nd ref='-178435981' />
    <nd ref='-178435982' />
  </way>
  <way id='-38588795' action='modify'>
    <nd ref='-178435982' />
    <nd ref='-178435983' />
    <tag k='type' v='straight' />
  </way>
  <way id='-38588796' action='modify'>
    <nd ref='-178435983' />
    <nd ref='-178435984' />
  </way>
  <way id='-38588797' action='modify'>
    <nd ref='-178435984' />
    <nd ref='-178435985' />
    <nd ref='-178435986' />
    <tag k='type' v='straight' />
  </way>
  <way id='-38588798' action='modify'>
    <nd ref='-178435986' />
    <nd ref='-178435987' />
  </way>
  <way id='-38588799' action='modify'>
    <nd ref='-178435987' />
    <nd ref='-178435988' />
    <tag k='type' v='straight' />
  </way>
  <way id='-38588800' action='modify'>
    <nd ref='-178435988' />
    <nd ref='-178435989' />
  </way>
  <way id='-38588801' action='modify'>
    <nd ref='-178435989' />
    <nd ref='-178435990' />
    <tag k='type' v='straight' />
  </way>
  <way id='-38588802' action='modify'>
    <nd ref='-178435990' />
    <nd ref='-178435991' />
  </way>
  <way id='-38588803' action='modify'>
    <nd ref='-178435991' />
    <nd ref='-178435992' />
    <tag k='type' v='straight' />
  </way>
  <way id='-38588804' action='modify'>
    <nd ref='-178435992' />
    <nd ref='-178435993' />
  </way>
  <way id='-38588805' action='modify'>
    <nd ref='-178435993' />
    <nd ref='-178435994' />
    <nd ref='-178435995' />
    <nd ref='-178435996' />
    <tag k='type' v='straight' />
  </way>
  <way id='-38588806' action='modify'>
    <nd ref='-178435996' />
    <nd ref='-178435997' />
  </way>
  <way id='-38588807' action='modify'>
    <nd ref='-178435997' />
    <nd ref='-178435998' />
    <nd ref='-178435999' />
    <tag k='type' v='straight' />
  </way>
  <way id='-38588808' action='modify'>
    <nd ref='-178435999' />
    <nd ref='-178436000' />
  </way>
  <way id='-38588809' action='modify'>
    <nd ref='-178436000' />
    <nd ref='-178436001' />
    <tag k='type' v='straight' />
  </way>
  <way id='-38588810' action='modify'>
    <nd ref='-178436001' />
    <nd ref='-178436002' />
  </way>
  <way id='-38588811' action='modify'>
    <nd ref='-178436002' />
    <nd ref='-178436003' />
    <nd ref='-178436004' />
    <tag k='type' v='straight' />
  </way>
  <way id='-38588812' action='modify'>
    <nd ref='-178436004' />
    <nd ref='-178436005' />
  </way>
  <way id='-38588813' action='modify'>
    <nd ref='-178436005' />
    <nd ref='-178436006' />
    <tag k='type' v='straight' />
  </way>
  <way id='-38588814' action='modify'>
    <nd ref='-178436006' />
    <nd ref='-178436007' />
  </way>
  <way id='-38588815' action='modify'>
    <nd ref='-178436007' />
    <nd ref='-178436008' />
    <nd ref='-178436009' />
    <tag k='type' v='straight' />
  </way>
  <way id='-38588816' action='modify'>
    <nd ref='-178436009' />
    <nd ref='-178436010' />
  </way>
  <way id='-38588817' action='modify'>
    <nd ref='-178436010' />
    <nd ref='-178436011' />
    <tag k='type' v='straight' />
  </way>
  <way id='-38588818' action='modify'>
    <nd ref='-178436011' />
    <nd ref='-178436012' />
  </way>
  <way id='-38588819' action='modify'>
    <nd ref='-178436012' />
    <nd ref='-178436013' />
    <nd ref='-178436014' />
    <tag k='type' v='straight' />
  </way>
  <way id='-38588820' action='modify'>
    <nd ref='-178436014' />
    <nd ref='-178436015' />
    <nd ref='-178436016' />
  </way>
  <way id='-38588821' action='modify'>
    <nd ref='-178436016' />
    <nd ref='-178436017' />
    <nd ref='-178436018' />
    <tag k='type' v='straight' />
  </way>
  <way id='-38588822' action='modify'>
    <nd ref='-178436018' />
    <nd ref='-178436019' />
  </way>
  <way id='-38588823' action='modify'>
    <nd ref='-178436019' />
    <nd ref='-178436020' />
    <nd ref='-178436021' />
    <nd ref='-178436022' />
    <tag k='type' v='straight' />
  </way>
  <way id='-38588824' action='modify'>
    <nd ref='-178436022' />
    <nd ref='-178436023' />
  </way>
  <way id='-38588825' action='modify'>
    <nd ref='-178436023' />
    <nd ref='-178436024' />
    <nd ref='-178436025' />
    <nd ref='-178436026' />
    <nd ref='-178436027' />
    <tag k='type' v='straight' />
  </way>
  <way id='-38588826' action='modify'>
    <nd ref='-178436027' />
    <nd ref='-178436028' />
  </way>
  <way id='-38588827' action='modify'>
    <nd ref='-178436028' />
    <nd ref='-178436029' />
    <nd ref='-178436030' />
    <nd ref='-178436031' />
    <tag k='type' v='straight' />
  </way>
  <way id='-38588828' action='modify'>
    <nd ref='-178436031' />
    <nd ref='-178436032' />
  </way>
  <way id='-38588829' action='modify'>
    <nd ref='-178436032' />
    <nd ref='-178436033' />
    <nd ref='-178436034' />
    <nd ref='-178436035' />
    <tag k='type' v='straight' />
  </way>
  <way id='-38588830' action='modify'>
    <nd ref='-178436035' />
    <nd ref='-178436036' />
  </way>
  <way id='-38588831' action='modify'>
    <nd ref='-178436036' />
    <nd ref='-178436037' />
    <tag k='type' v='straight' />
  </way>
  <way id='-38588832' action='modify'>
    <nd ref='-178436037' />
    <nd ref='-178436038' />
  </way>
  <way id='-38588833' action='modify'>
    <nd ref='-178436038' />
    <nd ref='-178436039' />
    <nd ref='-178436040' />
    <tag k='type' v='straight' />
  </way>
  <way id='-38588834' action='modify'>
    <nd ref='-178436040' />
    <nd ref='-178436041' />
  </way>
  <way id='-38588835' action='modify'>
    <nd ref='-178436041' />
    <nd ref='-178436042' />
    <nd ref='-178436043' />
    <nd ref='-178436044' />
    <tag k='type' v='straight' />
  </way>
  <way id='-38588836' action='modify'>
    <nd ref='-178436044' />
    <nd ref='-178436045' />
  </way>
  <way id='-38588837' action='modify'>
    <nd ref='-178436045' />
    <nd ref='-178436047' />
    <nd ref='-178436048' />
    <tag k='type' v='straight' />
  </way>
  <way id='-38588838' action='modify'>
    <nd ref='-178436048' />
    <nd ref='-178436049' />
  </way>
  <way id='-38588839' action='modify'>
    <nd ref='-178436049' />
    <nd ref='-178436050' />
    <nd ref='-178436051' />
    <tag k='type' v='straight' />
  </way>
  <way id='-38588840' action='modify'>
    <nd ref='-178436051' />
    <nd ref='-178436052' />
  </way>
  <way id='-38588841' action='modify'>
    <nd ref='-178436052' />
    <nd ref='-178436053' />
    <nd ref='-178436054' />
    <tag k='type' v='straight' />
  </way>
  <way id='-38588842' action='modify'>
    <nd ref='-178436054' />
    <nd ref='-178436055' />
  </way>
  <way id='-38588843' action='modify'>
    <nd ref='-178436055' />
    <nd ref='-178436056' />
    <nd ref='-178436057' />
    <tag k='type' v='straight' />
  </way>
  <way id='-38588844' action='modify'>
    <nd ref='-178436057' />
    <nd ref='-178436058' />
  </way>
  <way id='-38588845' action='modify'>
    <nd ref='-178436058' />
    <nd ref='-178436060' />
    <nd ref='-178436061' />
    <tag k='type' v='straight' />
  </way>
  <way id='-38588846' action='modify'>
    <nd ref='-178436061' />
    <nd ref='-178436062' />
  </way>
  <way id='-38588847' action='modify'>
    <nd ref='-178436062' />
    <nd ref='-178436063' />
    <nd ref='-178436064' />
    <nd ref='-178436065' />
    <tag k='type' v='straight' />
  </way>
  <way id='-38588848' action='modify'>
    <nd ref='-178436065' />
    <nd ref='-178436066' />
  </way>
  <way id='-38588849' action='modify'>
    <nd ref='-178436066' />
    <nd ref='-178436067' />
    <tag k='type' v='straight' />
  </way>
  <way id='-38588850' action='modify'>
    <nd ref='-178436067' />
    <nd ref='-178436068' />
  </way>
  <way id='-38588851' action='modify'>
    <nd ref='-178436068' />
    <nd ref='-178436069' />
    <tag k='type' v='straight' />
  </way>
  <way id='-38588852' action='modify'>
    <nd ref='-178436069' />
    <nd ref='-178436070' />
  </way>
  <way id='-38588853' action='modify'>
    <nd ref='-178436070' />
    <nd ref='-178436071' />
    <tag k='type' v='straight' />
  </way>
  <way id='-38588854' action='modify'>
    <nd ref='-178436071' />
    <nd ref='-178436072' />
  </way>
  <way id='-38588855' action='modify'>
    <nd ref='-178436072' />
    <nd ref='-178436073' />
    <tag k='type' v='straight' />
  </way>
  <way id='-38588856' action='modify'>
    <nd ref='-178436073' />
    <nd ref='-178436074' />
    <nd ref='-178436075' />
  </way>
  <way id='-38588857' action='modify'>
    <nd ref='-178436075' />
    <nd ref='-178436076' />
    <nd ref='-178436078' />
    <tag k='type' v='straight' />
  </way>
  <way id='-38588858' action='modify'>
    <nd ref='-178436078' />
    <nd ref='-178436079' />
  </way>
  <way id='-38588859' action='modify'>
    <nd ref='-178436079' />
    <nd ref='-178436080' />
    <tag k='type' v='straight' />
  </way>
  <way id='-38588860' action='modify'>
    <nd ref='-178436080' />
    <nd ref='-178436081' />
  </way>
  <way id='-38588861' action='modify'>
    <nd ref='-178436081' />
    <nd ref='-178436082' />
    <nd ref='-178436083' />
    <nd ref='-178436084' />
    <nd ref='-178436085' />
    <tag k='type' v='straight' />
  </way>
  <way id='-38588862' action='modify'>
    <nd ref='-178436085' />
    <nd ref='-178436086' />
    <nd ref='-178436087' />
  </way>
  <way id='-38588863' action='modify'>
    <nd ref='-178436087' />
    <nd ref='-178436088' />
    <tag k='type' v='straight' />
  </way>
  <way id='-38588864' action='modify'>
    <nd ref='-178436088' />
    <nd ref='-178436089' />
  </way>
  <way id='-38588865' action='modify'>
    <nd ref='-178436089' />
    <nd ref='-178436090' />
    <tag k='type' v='straight' />
  </way>
  <way id='-38588866' action='modify'>
    <nd ref='-178436090' />
    <nd ref='-178436091' />
  </way>
  <way id='-38588867' action='modify'>
    <nd ref='-178436091' />
    <nd ref='-178436092' />
    <nd ref='-178436093' />
    <tag k='type' v='straight' />
  </way>
  <way id='-38588868' action='modify'>
    <nd ref='-178436093' />
    <nd ref='-178436094' />
  </way>
  <way id='-38588869' action='modify'>
    <nd ref='-178436094' />
    <nd ref='-178436095' />
    <nd ref='-178436096' />
    <tag k='type' v='straight' />
  </way>
  <way id='-38588870' action='modify'>
    <nd ref='-178436096' />
    <nd ref='-178436097' />
  </way>
  <way id='-38588871' action='modify'>
    <nd ref='-178436097' />
    <nd ref='-178436099' />
    <nd ref='-178436101' />
    <tag k='type' v='straight' />
  </way>
  <way id='-38588872' action='modify'>
    <nd ref='-178436101' />
    <nd ref='-178436102' />
  </way>
  <way id='-38588873' action='modify'>
    <nd ref='-178436102' />
    <nd ref='-178436103' />
    <nd ref='-178436104' />
    <tag k='type' v='straight' />
  </way>
  <way id='-38588874' action='modify'>
    <nd ref='-178436104' />
    <nd ref='-178436105' />
  </way>
  <way id='-38588875' action='modify'>
    <nd ref='-178436105' />
    <nd ref='-178436106' />
    <nd ref='-178436107' />
    <tag k='type' v='straight' />
  </way>
  <way id='-38588876' action='modify'>
    <nd ref='-178436107' />
    <nd ref='-178436108' />
  </way>
  <way id='-38588877' action='modify'>
    <nd ref='-178436108' />
    <nd ref='-178436109' />
    <nd ref='-178436110' />
    <nd ref='-178436111' />
    <tag k='type' v='straight' />
  </way>
  <way id='-38588878' action='modify'>
    <nd ref='-178436111' />
    <nd ref='-178436112' />
    <nd ref='-178436113' />
  </way>
  <way id='-38588879' action='modify'>
    <nd ref='-178436113' />
    <nd ref='-178436115' />
    <tag k='type' v='straight' />
  </way>
  <relation id='-14488971' action='modify'>
    <member type='way' ref='-38588742' role='' />
    <member type='way' ref='-38588743' role='' />
    <member type='way' ref='-38588744' role='' />
    <member type='way' ref='-38588746' role='' />
    <member type='way' ref='-38588747' role='' />
    <member type='way' ref='-38588748' role='' />
    <member type='way' ref='-38588749' role='' />
    <member type='way' ref='-38588750' role='' />
    <member type='way' ref='-38588751' role='' />
    <member type='way' ref='-38588752' role='' />
    <member type='way' ref='-38588753' role='' />
    <member type='way' ref='-38588754' role='' />
    <member type='way' ref='-38588755' role='' />
    <member type='way' ref='-38588756' role='' />
    <member type='way' ref='-38588757' role='' />
    <member type='way' ref='-38588759' role='' />
    <member type='way' ref='-38588760' role='' />
    <member type='way' ref='-38588761' role='' />
    <member type='way' ref='-38588762' role='' />
    <member type='way' ref='-38588763' role='' />
    <member type='way' ref='-38588764' role='' />
    <member type='way' ref='-38588765' role='' />
    <member type='way' ref='-38588766' role='' />
    <member type='way' ref='-38588767' role='' />
    <member type='way' ref='-38588768' role='' />
    <member type='way' ref='-38588769' role='' />
    <member type='way' ref='-38588770' role='' />
    <member type='way' ref='-38588771' role='' />
    <member type='way' ref='-38588772' role='' />
    <member type='way' ref='-38588773' role='' />
    <member type='way' ref='-38588774' role='' />
    <member type='way' ref='-38588775' role='' />
    <member type='way' ref='-38588776' role='' />
    <member type='way' ref='-38588777' role='' />
    <member type='way' ref='-38588778' role='' />
    <member type='way' ref='-38588779' role='' />
    <member type='way' ref='-38588780' role='' />
    <member type='way' ref='-38588782' role='' />
    <member type='way' ref='-38588783' role='' />
    <member type='way' ref='-38588784' role='' />
    <member type='way' ref='-38588785' role='' />
    <member type='way' ref='-38588786' role='' />
    <member type='way' ref='-38588787' role='' />
    <member type='way' ref='-38588788' role='' />
    <member type='way' ref='-38588789' role='' />
    <member type='way' ref='-38588790' role='' />
    <member type='way' ref='-38588791' role='' />
    <member type='way' ref='-38588792' role='' />
    <member type='way' ref='-38588793' role='' />
    <member type='way' ref='-38588794' role='' />
    <member type='way' ref='-38588795' role='' />
    <member type='way' ref='-38588796' role='' />
    <member type='way' ref='-38588797' role='' />
    <member type='way' ref='-38588798' role='' />
    <member type='way' ref='-38588799' role='' />
    <member type='way' ref='-38588800' role='' />
    <member type='way' ref='-38588801' role='' />
    <member type='way' ref='-38588802' role='' />
    <member type='way' ref='-38588803' role='' />
    <member type='way' ref='-38588804' role='' />
    <member type='way' ref='-38588805' role='' />
    <member type='way' ref='-38588806' role='' />
    <member type='way' ref='-38588807' role='' />
    <member type='way' ref='-38588808' role='' />
    <member type='way' ref='-38588809' role='' />
    <member type='way' ref='-38588810' role='' />
    <member type='way' ref='-38588811' role='' />
    <member type='way' ref='-38588812' role='' />
    <member type='way' ref='-38588813' role='' />
    <member type='way' ref='-38588814' role='' />
    <member type='way' ref='-38588815' role='' />
    <member type='way' ref='-38588816' role='' />
    <member type='way' ref='-38588817' role='' />
    <member type='way' ref='-38588818' role='' />
    <member type='way' ref='-38588819' role='' />
    <member type='way' ref='-38588820' role='' />
    <member type='way' ref='-38588821' role='' />
    <member type='way' ref='-38588822' role='' />
    <member type='way' ref='-38588823' role='' />
    <member type='way' ref='-38588824' role='' />
    <member type='way' ref='-38588825' role='' />
    <member type='way' ref='-38588826' role='' />
    <member type='way' ref='-38588827' role='' />
    <member type='way' ref='-38588828' role='' />
    <member type='way' ref='-38588829' role='' />
    <member type='way' ref='-38588830' role='' />
    <member type='way' ref='-38588831' role='' />
    <member type='way' ref='-38588832' role='' />
    <member type='way' ref='-38588833' role='' />
    <member type='way' ref='-38588834' role='' />
    <member type='way' ref='-38588835' role='' />
    <member type='way' ref='-38588836' role='' />
    <member type='way' ref='-38588837' role='' />
    <member type='way' ref='-38588838' role='' />
    <member type='way' ref='-38588839' role='' />
    <member type='way' ref='-38588840' role='' />
    <member type='way' ref='-38588841' role='' />
    <member type='way' ref='-38588842' role='' />
    <member type='way' ref='-38588843' role='' />
    <member type='way' ref='-38588844' role='' />
    <member type='way' ref='-38588845' role='' />
    <member type='way' ref='-38588846' role='' />
    <member type='way' ref='-38588847' role='' />
    <member type='way' ref='-38588848' role='' />
    <member type='way' ref='-38588849' role='' />
    <member type='way' ref='-38588850' role='' />
    <member type='way' ref='-38588851' role='' />
    <member type='way' ref='-38588852' role='' />
    <member type='way' ref='-38588853' role='' />
    <member type='way' ref='-38588854' role='' />
    <member type='way' ref='-38588855' role='' />
    <member type='way' ref='-38588856' role='' />
    <member type='way' ref='-38588857' role='' />
    <member type='way' ref='-38588858' role='' />
    <member type='way' ref='-38588859' role='' />
    <member type='way' ref='-38588860' role='' />
    <member type='way' ref='-38588861' role='' />
    <member type='way' ref='-38588862' role='' />
    <member type='way' ref='-38588863' role='' />
    <member type='way' ref='-38588864' role='' />
    <member type='way' ref='-38588865' role='' />
    <member type='way' ref='-38588866' role='' />
    <member type='way' ref='-38588867' role='' />
    <member type='way' ref='-38588868' role='' />
    <member type='way' ref='-38588869' role='' />
    <member type='way' ref='-38588870' role='' />
    <member type='way' ref='-38588871' role='' />
    <member type='way' ref='-38588872' role='' />
    <member type='way' ref='-38588873' role='' />
    <member type='way' ref='-38588874' role='' />
    <member type='way' ref='-38588875' role='' />
    <member type='way' ref='-38588876' role='' />
    <member type='way' ref='-38588877' role='' />
    <member type='way' ref='-38588878' role='' />
    <member type='way' ref='-38588879' role='' />
    <tag k='key' v='path.nl.ael' />
    <tag k='name' v='NL AEL' />
    <tag k='type' v='path' />
  </relation>
</osm>
