<?xml version='1.0' encoding='UTF-8'?>
<osm version='0.6' upload='false' generator='JOSM'>
  <node id='-164248466' action='modify' lat='52.38678440593' lon='4.88057276944'>
    <tag k='name' v='sin' />
  </node>
  <node id='-164248468' action='modify' lat='52.38725950024' lon='4.87912594736' />
  <node id='-164248469' action='modify' lat='52.38869316115' lon='4.87300907258' />
  <node id='-164248470' action='modify' lat='52.38810091831' lon='4.87627743602' />
  <node id='-164248471' action='modify' lat='52.38875176836' lon='4.87263166009' />
  <node id='-164248472' action='modify' lat='52.38906672158' lon='4.86795991123' />
  <node id='-164248473' action='modify' lat='52.38895996236' lon='4.85005890896' />
  <node id='-164248474' action='modify' lat='52.38905162975' lon='4.86542936284'>
    <tag k='name' v='obr' />
  </node>
  <node id='-164248475' action='modify' lat='52.38884409522' lon='4.84148651093' />
  <node id='-164248478' action='modify' lat='52.38883959766' lon='4.83805665078'>
    <tag k='name' v='asl' />
  </node>
  <node id='-164248479' action='modify' lat='52.38881146271' lon='4.81660083701' />
  <node id='-164248480' action='modify' lat='52.38739537017' lon='4.80691820115' />
  <node id='-164248481' action='modify' lat='52.38676675604' lon='4.8049414131' />
  <node id='-164248482' action='modify' lat='52.38465330278' lon='4.79111194342' />
  <node id='-164248483' action='modify' lat='52.38438154398' lon='4.7569727844' />
  <node id='-164248484' action='modify' lat='52.3850822241' lon='4.75095927179' />
  <node id='-164248485' action='modify' lat='52.38537689934' lon='4.74968790472' />
  <node id='-164248486' action='modify' lat='52.38563124988' lon='4.74859032822'>
    <tag k='name' v='haz' />
  </node>
  <node id='-164248487' action='modify' lat='52.38618560904' lon='4.74563240469' />
  <node id='-164248488' action='modify' lat='52.38635292485' lon='4.7446215926'>
    <tag k='name' v='hal' />
  </node>
  <node id='-164248489' action='modify' lat='52.38698120778' lon='4.74082588613' />
  <node id='-164248490' action='modify' lat='52.38733316315' lon='4.73317354783' />
  <node id='-164248491' action='modify' lat='52.38418917996' lon='4.6887722598' />
  <node id='-164248492' action='modify' lat='52.38402792303' lon='4.68670964107' />
  <node id='-164248493' action='modify' lat='52.38351140575' lon='4.6805016683' />
  <node id='-164248494' action='modify' lat='52.38338616372' lon='4.67885076866' />
  <node id='-164248495' action='modify' lat='52.38298178421' lon='4.67321087385'>
    <tag k='name' v='hsp' />
  </node>
  <node id='-164248496' action='modify' lat='52.38247016712' lon='4.66607540712' />
  <node id='-164248497' action='modify' lat='52.38228925759' lon='4.66135874256' />
  <node id='-164248498' action='modify' lat='52.3822868018' lon='4.65967029199' />
  <node id='-164248499' action='modify' lat='52.38252665004' lon='4.65486913785' />
  <node id='-164248500' action='modify' lat='52.3828475371' lon='4.65247526631' />
  <node id='-164248501' action='modify' lat='52.38486325989' lon='4.64730866186' />
  <node id='-164248502' action='modify' lat='52.38573763469' lon='4.64620076751'>
    <tag k='name' v='spb' />
  </node>
  <node id='-164248503' action='modify' lat='52.38590157723' lon='4.64599303834' />
  <node id='-164248504' action='modify' lat='52.38679622171' lon='4.64433610305' />
  <node id='-164248505' action='modify' lat='52.38713426639' lon='4.64329138264' />
  <node id='-164248506' action='modify' lat='52.38794703719' lon='4.63964491814' />
  <node id='-164248507' action='modify' lat='52.38815741361' lon='4.63756290601'>
    <tag k='name' v='haa' />
  </node>
  <node id='-164248508' action='modify' lat='52.38831294098' lon='4.63602370687' />
  <node id='-164248509' action='modify' lat='52.38842257762' lon='4.63267654046' />
  <node id='-164248510' action='modify' lat='52.38838432638' lon='4.63087517544' />
  <node id='-164248511' action='modify' lat='52.38835628125' lon='4.62955444783' />
  <node id='-164248512' action='modify' lat='52.38650237447' lon='4.62347119913' />
  <node id='-164248513' action='modify' lat='52.38597219961' lon='4.62268835003'>
    <tag k='name' v='hzu' />
  </node>
  <node id='-164248514' action='modify' lat='52.38586693681' lon='4.62253292151'>
    <tag k='name' v='zij' />
  </node>
  <node id='-164248515' action='modify' lat='52.38508549583' lon='4.62137907609' />
  <node id='-164248516' action='modify' lat='52.38254097499' lon='4.61904957823' />
  <node id='-164248517' action='modify' lat='52.37990789519' lon='4.61759984359' />
  <node id='-164248518' action='modify' lat='52.37936179434' lon='4.61730440834'>
    <tag k='name' v='les' />
  </node>
  <node id='-164248519' action='modify' lat='52.37866927359' lon='4.61692996256' />
  <node id='-164248520' action='modify' lat='52.37680079782' lon='4.61593527286'>
    <tag k='name' v='hag' />
  </node>
  <node id='-164248521' action='modify' lat='52.3667483271' lon='4.61058452658' />
  <node id='-164248522' action='modify' lat='52.3634878164' lon='4.60891149871' />
  <node id='-164248523' action='modify' lat='52.35973112679' lon='4.60690855381'>
    <tag k='name' v='hee' />
  </node>
  <node id='-164248524' action='modify' lat='52.35922049545' lon='4.60663631491' />
  <node id='-164248525' action='modify' lat='52.35806975108' lon='4.60600532524' />
  <node id='-164248526' action='modify' lat='52.35666629422' lon='4.60520267352' />
  <node id='-164248527' action='modify' lat='52.35594140972' lon='4.60480704769' />
  <node id='-164248528' action='modify' lat='52.33774274674' lon='4.59511203453'>
    <tag k='name' v='woe' />
  </node>
  <node id='-164248529' action='modify' lat='52.33049084001' lon='4.59124982223' />
  <node id='-164248530' action='modify' lat='52.32383627657' lon='4.58720641059'>
    <tag k='name' v='vog' />
  </node>
  <node id='-164248531' action='modify' lat='52.31839006684' lon='4.5825031393' />
  <node id='-164248532' action='modify' lat='52.31362563788' lon='4.57737972278'>
    <tag k='name' v='doo' />
  </node>
  <node id='-164248533' action='modify' lat='52.30312140858' lon='4.56608597457'>
    <tag k='name' v='hil' />
  </node>
  <node id='-164248534' action='modify' lat='52.29681482717' lon='4.55930666499'>
    <tag k='name' v='hib' />
  </node>
  <node id='-164248535' action='modify' lat='52.28870809583' lon='4.55059368789' />
  <node id='-164248536' action='modify' lat='52.28822491389' lon='4.55008324065' />
  <node id='-164248537' action='modify' lat='52.28544525548' lon='4.54711469083'>
    <tag k='name' v='vee' />
  </node>
  <node id='-164248538' action='modify' lat='52.2790345678' lon='4.54026907548' />
  <node id='-164248539' action='modify' lat='52.27793671197' lon='4.53900307283' />
  <node id='-164248540' action='modify' lat='52.27736192641' lon='4.53828424148' />
  <node id='-164248541' action='modify' lat='52.27641398982' lon='4.53716110016'>
    <tag k='name' v='lis' />
  </node>
  <node id='-164248542' action='modify' lat='52.27591652011' lon='4.53660987251' />
  <node id='-164248543' action='modify' lat='52.27487228675' lon='4.53548261922' />
  <node id='-164248544' action='modify' lat='52.27345456163' lon='4.53405897881' />
  <node id='-164248545' action='modify' lat='52.27316669109' lon='4.53379732705' />
  <node id='-164248546' action='modify' lat='52.27284051565' lon='4.53350923888' />
  <node id='-164248547' action='modify' lat='52.27235675524' lon='4.53305795655' />
  <node id='-164248548' action='modify' lat='52.27179790028' lon='4.53250273928' />
  <node id='-164248549' action='modify' lat='52.26860465956' lon='4.52919691734' />
  <node id='-164248550' action='modify' lat='52.26789995253' lon='4.52849364449' />
  <node id='-164248551' action='modify' lat='52.2664590419' lon='4.52709072343' />
  <node id='-164248552' action='modify' lat='52.26594016725' lon='4.52656902306' />
  <node id='-164248553' action='modify' lat='52.26081632533' lon='4.52128976449' />
  <node id='-164248554' action='modify' lat='52.25875718202' lon='4.51888047092' />
  <node id='-164248555' action='modify' lat='52.25563360357' lon='4.51471902363' />
  <node id='-164248556' action='modify' lat='52.25428559454' lon='4.51278112762' />
  <node id='-164248557' action='modify' lat='52.25420719202' lon='4.51266378097' />
  <node id='-164248558' action='modify' lat='52.25219577158' lon='4.50905755028' />
  <node id='-164248559' action='modify' lat='52.25109971408' lon='4.50682863459' />
  <node id='-164248560' action='modify' lat='52.24731543882' lon='4.50021564893' />
  <node id='-164248561' action='modify' lat='52.24443710233' lon='4.49597257168'>
    <tag k='name' v='nwi' />
  </node>
  <node id='-164248562' action='modify' lat='52.23973770875' lon='4.48904558882' />
  <node id='-164248563' action='modify' lat='52.23277677049' lon='4.48316366779' />
  <node id='-164248564' action='modify' lat='52.23146459993' lon='4.48286073625' />
  <node id='-164248565' action='modify' lat='52.22795906039' lon='4.48314055508' />
  <node id='-164248566' action='modify' lat='52.22403974379' lon='4.48451846546'>
    <tag k='name' v='voh' />
  </node>
  <node id='-164248567' action='modify' lat='52.20213869082' lon='4.49221595988' />
  <node id='-164248568' action='modify' lat='52.195522978' lon='4.49378411627' />
  <node id='-164248569' action='modify' lat='52.19540430641' lon='4.4938305519' />
  <node id='-164248570' action='modify' lat='52.19422482729' lon='4.49439458482' />
  <node id='-164248571' action='modify' lat='52.19279068737' lon='4.49517577752' />
  <node id='-164248572' action='modify' lat='52.19054792633' lon='4.49616953596' />
  <node id='-164248573' action='modify' lat='52.18733896995' lon='4.49729606375' />
  <node id='-164248574' action='modify' lat='52.17528625526' lon='4.49336930975' />
  <node id='-164248575' action='modify' lat='52.17070089907' lon='4.48758528778' />
  <node id='-164248576' action='modify' lat='52.16989073535' lon='4.48657584553' />
  <node id='-164248577' action='modify' lat='52.16862931783' lon='4.48505596509' />
  <node id='-164248578' action='modify' lat='52.16778250591' lon='4.48395881363' />
  <node id='-164248579' action='modify' lat='52.16651854975' lon='4.4822846701'>
    <tag k='name' v='lei' />
  </node>
  <node id='-164248580' action='modify' lat='52.16578764698' lon='4.48131659166' />
  <node id='-164248581' action='modify' lat='52.16484276793' lon='4.47996853667' />
  <node id='-164248582' action='modify' lat='52.16417607263' lon='4.47900340545' />
  <node id='-164248583' action='modify' lat='52.16356180162' lon='4.47813570365' />
  <node id='-164248585' action='modify' lat='52.16162301478' lon='4.47541833744' />
  <node id='-164248586' action='modify' lat='52.16033488604' lon='4.47368131916' />
  <node id='-164248587' action='modify' lat='52.15761270626' lon='4.47000684248' />
  <node id='-164248588' action='modify' lat='52.15679213153' lon='4.46892235927' />
  <node id='-164248589' action='modify' lat='52.14989308221' lon='4.45967003569' />
  <node id='-164248590' action='modify' lat='52.14696765693' lon='4.45605300373'>
    <tag k='name' v='dvi' />
  </node>
  <node id='-164248591' action='modify' lat='52.14534921412' lon='4.45431366496' />
  <node id='-164248592' action='modify' lat='52.14190119461' lon='4.45079460606' />
  <node id='-164248593' action='modify' lat='52.14144069729' lon='4.45032790236' />
  <node id='-164248594' action='modify' lat='52.12804634412' lon='4.43583458528' />
  <node id='-164248595' action='modify' lat='52.1270291416' lon='4.43466950174'>
    <tag k='name' v='vos' />
  </node>
  <node id='-164248596' action='modify' lat='52.12638282988' lon='4.43386986785' />
  <node id='-164248597' action='modify' lat='52.12441625536' lon='4.43138077721' />
  <node id='-164248598' action='modify' lat='52.12338209072' lon='4.42997798257' />
  <node id='-164248599' action='modify' lat='52.10913930796' lon='4.40871879324' />
  <node id='-164248600' action='modify' lat='52.10632562451' lon='4.40404102072'>
    <tag k='name' v='sta' />
  </node>
  <node id='-164248601' action='modify' lat='52.10464523707' lon='4.40071508154' />
  <node id='-164248602' action='modify' lat='52.09498919571' lon='4.37888324127' />
  <node id='-164248603' action='modify' lat='52.09304718962' lon='4.37461383574' />
  <node id='-164248604' action='modify' lat='52.09088588015' lon='4.3698429369'>
    <tag k='name' v='dma' />
  </node>
  <node id='-164248606' action='modify' lat='52.08875750583' lon='4.36514496535' />
  <node id='-164248607' action='modify' lat='52.0872602205' lon='4.3619652079' />
  <node id='-164248609' action='modify' lat='52.08103486392' lon='4.34805124073' />
  <node id='-164248610' action='modify' lat='52.08014399922' lon='4.34600290945' />
  <node id='-164248611' action='modify' lat='52.07877977338' lon='4.34290995624'>
    <tag k='name' v='dla' />
  </node>
  <node id='-164248614' action='modify' lat='52.07362578083' lon='4.33122575149' />
  <node id='-164248615' action='modify' lat='52.07300095123' lon='4.32979747519' />
  <node id='-164248617' action='modify' lat='52.07142765676' lon='4.3261301982' />
  <node id='-164248618' action='modify' lat='52.0706142096' lon='4.32424766385' />
  <node id='-164248619' action='modify' lat='52.06903861518' lon='4.32069168414'>
    <tag k='name' v='dhs' />
  </node>
  <node id='-164248620' action='modify' lat='52.06855216416' lon='4.31976315357' />
  <node id='-164248621' action='modify' lat='52.0667455796' lon='4.31645214289' />
  <node id='-164248622' action='modify' lat='52.06504556286' lon='4.31408643454' />
  <node id='-164248623' action='modify' lat='52.06418481195' lon='4.31314497918' />
  <node id='-164248624' action='modify' lat='52.06150516427' lon='4.31069210038' />
  <node id='-164248625' action='modify' lat='52.05867280892' lon='4.3093617247' />
  <node id='-164248626' action='modify' lat='52.0575810467' lon='4.30901706085' />
  <node id='-164248627' action='modify' lat='52.0552230324' lon='4.30859053825' />
  <node id='-164248628' action='modify' lat='52.05476842799' lon='4.30856093769' />
  <node id='-164248629' action='modify' lat='52.05375678203' lon='4.30854633383'>
    <tag k='name' v='dmo' />
  </node>
  <node id='-164248630' action='modify' lat='52.04478678836' lon='4.31301159148'>
    <tag k='name' v='rwa' />
  </node>
  <node id='-164248631' action='modify' lat='52.0430541123' lon='4.31500241026' />
  <node id='-164248632' action='modify' lat='52.04093492504' lon='4.31771221909'>
    <tag k='name' v='rit.a' />
  </node>
  <node id='-164248633' action='modify' lat='52.03840039046' lon='4.32095296461'>
    <tag k='name' v='rij' />
  </node>
  <node id='-164248634' action='modify' lat='52.03752547742' lon='4.32207161669'>
    <tag k='name' v='kle' />
  </node>
  <node id='-164248635' action='modify' lat='52.03693757912' lon='4.32282328328'>
    <tag k='name' v='rit.f' />
  </node>
  <node id='-164248636' action='modify' lat='52.02584428014' lon='4.33700494192'>
    <tag k='name' v='dea' />
  </node>
  <node id='-164248637' action='modify' lat='52.02243250557' lon='4.34136584267' />
  <node id='-164248638' action='modify' lat='52.02081002962' lon='4.34337749943'>
    <tag k='name' v='tha' />
  </node>
  <node id='-164248639' action='modify' lat='52.01932953019' lon='4.3451805697'>
    <tag k='name' v='gis' />
  </node>
  <node id='-164248640' action='modify' lat='52.01849422701' lon='4.34619784221' />
  <node id='-164248641' action='modify' lat='52.01740395911' lon='4.34745848045' />
  <node id='-164248642' action='modify' lat='52.01592841336' lon='4.34902470709'>
    <tag k='name' v='siw' />
  </node>
  <node id='-164248643' action='modify' lat='52.0156874993' lon='4.34928042181'>
    <tag k='name' v='gia' />
  </node>
  <node id='-164248644' action='modify' lat='52.01538295238' lon='4.34960367674'>
    <tag k='name' v='wit.a' />
  </node>
  <node id='-164248645' action='modify' lat='52.01461420739' lon='4.35041963518' />
  <node id='-164248646' action='modify' lat='52.01399845714' lon='4.35107409418' />
  <node id='-164248647' action='modify' lat='52.01173017803' lon='4.35345589578' />
  <node id='-164248648' action='modify' lat='52.00662860622' lon='4.35698031843'>
    <tag k='name' v='del' />
  </node>
  <node id='-164248649' action='modify' lat='52.00295478415' lon='4.35838579595' />
  <node id='-164248650' action='modify' lat='52.00016164954' lon='4.35965582594'>
    <tag k='name' v='wit.f' />
  </node>
  <node id='-164248651' action='modify' lat='51.99674905347' lon='4.36160981387' />
  <node id='-164248652' action='modify' lat='51.99619994208' lon='4.3619169268' />
  <node id='-164248653' action='modify' lat='51.99116340816' lon='4.3646423228'>
    <tag k='name' v='dca' />
  </node>
  <node id='-164248654' action='modify' lat='51.98365258516' lon='4.36870604987' />
  <node id='-164248655' action='modify' lat='51.98301330801' lon='4.36905083558' />
  <node id='-164248656' action='modify' lat='51.98048036822' lon='4.37040936309' />
  <node id='-164248657' action='modify' lat='51.97839835769' lon='4.3715259798'>
    <tag k='name' v='dzo' />
  </node>
  <node id='-164248658' action='modify' lat='51.97232426084' lon='4.37478332196' />
  <node id='-164248659' action='modify' lat='51.96070153728' lon='4.38100232264' />
  <node id='-164248660' action='modify' lat='51.93988210397' lon='4.39219242076'>
    <tag k='name' v='ket' />
  </node>
  <node id='-164248661' action='modify' lat='51.92865748923' lon='4.39822330937' />
  <node id='-164248663' action='modify' lat='51.92518651311' lon='4.40191402897' />
  <node id='-164248664' action='modify' lat='51.92362998632' lon='4.40475717053' />
  <node id='-164248665' action='modify' lat='51.92193941468' lon='4.40905809268' />
  <node id='-164248666' action='modify' lat='51.92163855655' lon='4.41038238183'>
    <tag k='name' v='sch' />
  </node>
  <node id='-164248667' action='modify' lat='51.92115661251' lon='4.4125037395' />
  <node id='-164248668' action='modify' lat='51.92071528197' lon='4.41982447967' />
  <node id='-164248669' action='modify' lat='51.92203781889' lon='4.43595734814'>
    <tag k='name' v='rma' />
  </node>
  <node id='-164248670' action='modify' lat='51.92213649292' lon='4.43716103498'>
    <tag k='name' v='deb' />
  </node>
  <node id='-164248671' action='modify' lat='51.92244351473' lon='4.44090629401'>
    <tag k='name' v='sba' />
  </node>
  <node id='-164248675' action='modify' lat='51.92410579834' lon='4.46390316842' />
  <node id='-164248676' action='modify' lat='51.92448641355' lon='4.46643188462'>
    <tag k='name' v='rot' />
  </node>
  <node id='-164248677' action='modify' lat='51.92566909161' lon='4.47223216161' />
  <node id='-164248679' action='modify' lat='52.38649789305' lon='4.88144529008'>
    <tag k='name' v='awi' />
  </node>
  <node id='-164248746' action='modify' lat='51.92339121717' lon='4.45318824899' />
  <node id='-164248747' action='modify' lat='51.9234019137' lon='4.4544515588' />
  <node id='-164248755' action='modify' lat='51.92281561013' lon='4.44572851389' />
  <node id='-164248756' action='modify' lat='51.92302953406' lon='4.44750973266' />
  <node id='-164248757' action='modify' lat='51.92316483485' lon='4.44869486017' />
  <node id='-164248758' action='modify' lat='51.92358794661' lon='4.45816887683' />
  <way id='-37575021' action='modify'>
    <nd ref='-164248679' />
    <nd ref='-164248466' />
    <tag k='type' v='straight' />
  </way>
  <way id='-37575022' action='modify'>
    <nd ref='-164248466' />
    <nd ref='-164248468' />
    <tag k='type' v='straight' />
  </way>
  <way id='-37575023' action='modify'>
    <nd ref='-164248468' />
    <nd ref='-164248470' />
    <nd ref='-164248469' />
  </way>
  <way id='-37575024' action='modify'>
    <nd ref='-164248469' />
    <nd ref='-164248471' />
    <tag k='type' v='straight' />
  </way>
  <way id='-37575025' action='modify'>
    <nd ref='-164248471' />
    <nd ref='-164248472' />
  </way>
  <way id='-37575026' action='modify'>
    <nd ref='-164248472' />
    <nd ref='-164248474' />
    <nd ref='-164248473' />
    <tag k='type' v='straight' />
  </way>
  <way id='-37575027' action='modify'>
    <nd ref='-164248473' />
    <nd ref='-164248475' />
  </way>
  <way id='-37575029' action='modify'>
    <nd ref='-164248475' />
    <nd ref='-164248478' />
    <nd ref='-164248479' />
    <tag k='type' v='straight' />
  </way>
  <way id='-37575030' action='modify'>
    <nd ref='-164248479' />
    <nd ref='-164248480' />
  </way>
  <way id='-37575031' action='modify'>
    <nd ref='-164248480' />
    <nd ref='-164248481' />
    <tag k='type' v='straight' />
  </way>
  <way id='-37575032' action='modify'>
    <nd ref='-164248481' />
    <nd ref='-164248482' />
  </way>
  <way id='-37575033' action='modify'>
    <nd ref='-164248482' />
    <nd ref='-164248483' />
    <tag k='type' v='straight' />
  </way>
  <way id='-37575034' action='modify'>
    <nd ref='-164248483' />
    <nd ref='-164248484' />
  </way>
  <way id='-37575035' action='modify'>
    <nd ref='-164248484' />
    <nd ref='-164248485' />
    <tag k='type' v='straight' />
  </way>
  <way id='-37575036' action='modify'>
    <nd ref='-164248485' />
    <nd ref='-164248486' />
    <nd ref='-164248487' />
  </way>
  <way id='-37575037' action='modify'>
    <nd ref='-164248487' />
    <nd ref='-164248488' />
    <nd ref='-164248489' />
    <tag k='type' v='straight' />
  </way>
  <way id='-37575038' action='modify'>
    <nd ref='-164248489' />
    <nd ref='-164248490' />
  </way>
  <way id='-37575039' action='modify'>
    <nd ref='-164248490' />
    <nd ref='-164248491' />
    <tag k='type' v='straight' />
  </way>
  <way id='-37575040' action='modify'>
    <nd ref='-164248491' />
    <nd ref='-164248492' />
  </way>
  <way id='-37575041' action='modify'>
    <nd ref='-164248492' />
    <nd ref='-164248493' />
    <tag k='type' v='straight' />
  </way>
  <way id='-37575042' action='modify'>
    <nd ref='-164248493' />
    <nd ref='-164248494' />
  </way>
  <way id='-37575043' action='modify'>
    <nd ref='-164248494' />
    <nd ref='-164248495' />
    <nd ref='-164248496' />
    <tag k='type' v='straight' />
  </way>
  <way id='-37575044' action='modify'>
    <nd ref='-164248496' />
    <nd ref='-164248497' />
  </way>
  <way id='-37575045' action='modify'>
    <nd ref='-164248497' />
    <nd ref='-164248498' />
    <tag k='type' v='straight' />
  </way>
  <way id='-37575046' action='modify'>
    <nd ref='-164248498' />
    <nd ref='-164248499' />
  </way>
  <way id='-37575047' action='modify'>
    <nd ref='-164248499' />
    <nd ref='-164248500' />
    <tag k='type' v='straight' />
  </way>
  <way id='-37575048' action='modify'>
    <nd ref='-164248500' />
    <nd ref='-164248501' />
  </way>
  <way id='-37575049' action='modify'>
    <nd ref='-164248501' />
    <nd ref='-164248502' />
    <nd ref='-164248503' />
    <tag k='type' v='straight' />
  </way>
  <way id='-37575050' action='modify'>
    <nd ref='-164248503' />
    <nd ref='-164248504' />
  </way>
  <way id='-37575051' action='modify'>
    <nd ref='-164248504' />
    <nd ref='-164248505' />
    <tag k='type' v='straight' />
  </way>
  <way id='-37575052' action='modify'>
    <nd ref='-164248505' />
    <nd ref='-164248506' />
  </way>
  <way id='-37575053' action='modify'>
    <nd ref='-164248506' />
    <nd ref='-164248507' />
    <nd ref='-164248508' />
    <tag k='type' v='straight' />
  </way>
  <way id='-37575054' action='modify'>
    <nd ref='-164248508' />
    <nd ref='-164248509' />
  </way>
  <way id='-37575055' action='modify'>
    <nd ref='-164248509' />
    <nd ref='-164248510' />
    <nd ref='-164248511' />
    <tag k='type' v='straight' />
  </way>
  <way id='-37575056' action='modify'>
    <nd ref='-164248511' />
    <nd ref='-164248512' />
  </way>
  <way id='-37575057' action='modify'>
    <nd ref='-164248512' />
    <nd ref='-164248513' />
    <nd ref='-164248514' />
    <nd ref='-164248515' />
    <tag k='type' v='straight' />
  </way>
  <way id='-37575058' action='modify'>
    <nd ref='-164248515' />
    <nd ref='-164248516' />
  </way>
  <way id='-37575059' action='modify'>
    <nd ref='-164248516' />
    <nd ref='-164248517' />
    <tag k='type' v='straight' />
  </way>
  <way id='-37575060' action='modify'>
    <nd ref='-164248517' />
    <nd ref='-164248518' />
    <nd ref='-164248519' />
  </way>
  <way id='-37575061' action='modify'>
    <nd ref='-164248519' />
    <nd ref='-164248520' />
    <nd ref='-164248521' />
    <tag k='type' v='straight' />
  </way>
  <way id='-37575062' action='modify'>
    <nd ref='-164248521' />
    <nd ref='-164248522' />
  </way>
  <way id='-37575063' action='modify'>
    <nd ref='-164248522' />
    <nd ref='-164248523' />
    <nd ref='-164248524' />
    <tag k='type' v='straight' />
  </way>
  <way id='-37575064' action='modify'>
    <nd ref='-164248524' />
    <nd ref='-164248525' />
  </way>
  <way id='-37575065' action='modify'>
    <nd ref='-164248525' />
    <nd ref='-164248526' />
    <tag k='type' v='straight' />
  </way>
  <way id='-37575066' action='modify'>
    <nd ref='-164248526' />
    <nd ref='-164248527' />
  </way>
  <way id='-37575067' action='modify'>
    <nd ref='-164248527' />
    <nd ref='-164248528' />
    <nd ref='-164248529' />
    <tag k='type' v='straight' />
  </way>
  <way id='-37575068' action='modify'>
    <nd ref='-164248529' />
    <nd ref='-164248530' />
    <nd ref='-164248531' />
  </way>
  <way id='-37575069' action='modify'>
    <nd ref='-164248531' />
    <nd ref='-164248532' />
    <nd ref='-164248533' />
    <nd ref='-164248534' />
    <nd ref='-164248535' />
    <tag k='type' v='straight' />
  </way>
  <way id='-37575070' action='modify'>
    <nd ref='-164248535' />
    <nd ref='-164248536' />
  </way>
  <way id='-37575071' action='modify'>
    <nd ref='-164248536' />
    <nd ref='-164248537' />
    <nd ref='-164248538' />
    <tag k='type' v='straight' />
  </way>
  <way id='-37575072' action='modify'>
    <nd ref='-164248538' />
    <nd ref='-164248539' />
  </way>
  <way id='-37575073' action='modify'>
    <nd ref='-164248539' />
    <nd ref='-164248540' />
    <tag k='type' v='straight' />
  </way>
  <way id='-37575074' action='modify'>
    <nd ref='-164248540' />
    <nd ref='-164248541' />
    <nd ref='-164248542' />
  </way>
  <way id='-37575075' action='modify'>
    <nd ref='-164248542' />
    <nd ref='-164248543' />
    <tag k='type' v='straight' />
  </way>
  <way id='-37575076' action='modify'>
    <nd ref='-164248543' />
    <nd ref='-164248544' />
  </way>
  <way id='-37575077' action='modify'>
    <nd ref='-164248544' />
    <nd ref='-164248545' />
    <tag k='type' v='straight' />
  </way>
  <way id='-37575078' action='modify'>
    <nd ref='-164248545' />
    <nd ref='-164248546' />
  </way>
  <way id='-37575079' action='modify'>
    <nd ref='-164248546' />
    <nd ref='-164248547' />
    <tag k='type' v='straight' />
  </way>
  <way id='-37575080' action='modify'>
    <nd ref='-164248547' />
    <nd ref='-164248548' />
  </way>
  <way id='-37575081' action='modify'>
    <nd ref='-164248548' />
    <nd ref='-164248549' />
    <tag k='type' v='straight' />
  </way>
  <way id='-37575082' action='modify'>
    <nd ref='-164248549' />
    <nd ref='-164248550' />
  </way>
  <way id='-37575083' action='modify'>
    <nd ref='-164248550' />
    <nd ref='-164248551' />
    <tag k='type' v='straight' />
  </way>
  <way id='-37575084' action='modify'>
    <nd ref='-164248551' />
    <nd ref='-164248552' />
  </way>
  <way id='-37575085' action='modify'>
    <nd ref='-164248552' />
    <nd ref='-164248553' />
    <tag k='type' v='straight' />
  </way>
  <way id='-37575086' action='modify'>
    <nd ref='-164248553' />
    <nd ref='-164248554' />
  </way>
  <way id='-37575087' action='modify'>
    <nd ref='-164248554' />
    <nd ref='-164248555' />
    <tag k='type' v='straight' />
  </way>
  <way id='-37575088' action='modify'>
    <nd ref='-164248555' />
    <nd ref='-164248556' />
  </way>
  <way id='-37575089' action='modify'>
    <nd ref='-164248556' />
    <nd ref='-164248557' />
    <tag k='type' v='straight' />
  </way>
  <way id='-37575090' action='modify'>
    <nd ref='-164248557' />
    <nd ref='-164248558' />
  </way>
  <way id='-37575091' action='modify'>
    <nd ref='-164248558' />
    <nd ref='-164248559' />
    <tag k='type' v='straight' />
  </way>
  <way id='-37575092' action='modify'>
    <nd ref='-164248559' />
    <nd ref='-164248560' />
  </way>
  <way id='-37575093' action='modify'>
    <nd ref='-164248560' />
    <nd ref='-164248561' />
    <nd ref='-164248562' />
    <tag k='type' v='straight' />
  </way>
  <way id='-37575094' action='modify'>
    <nd ref='-164248562' />
    <nd ref='-164248563' />
  </way>
  <way id='-37575095' action='modify'>
    <nd ref='-164248563' />
    <nd ref='-164248564' />
    <tag k='type' v='straight' />
  </way>
  <way id='-37575096' action='modify'>
    <nd ref='-164248564' />
    <nd ref='-164248565' />
  </way>
  <way id='-37575097' action='modify'>
    <nd ref='-164248565' />
    <nd ref='-164248566' />
    <nd ref='-164248567' />
    <tag k='type' v='straight' />
  </way>
  <way id='-37575098' action='modify'>
    <nd ref='-164248567' />
    <nd ref='-164248568' />
  </way>
  <way id='-37575099' action='modify'>
    <nd ref='-164248568' />
    <nd ref='-164248569' />
    <tag k='type' v='straight' />
  </way>
  <way id='-37575100' action='modify'>
    <nd ref='-164248569' />
    <nd ref='-164248570' />
  </way>
  <way id='-37575101' action='modify'>
    <nd ref='-164248570' />
    <nd ref='-164248571' />
    <tag k='type' v='straight' />
  </way>
  <way id='-37575102' action='modify'>
    <nd ref='-164248571' />
    <nd ref='-164248572' />
  </way>
  <way id='-37575103' action='modify'>
    <nd ref='-164248572' />
    <nd ref='-164248573' />
    <tag k='type' v='straight' />
  </way>
  <way id='-37575104' action='modify'>
    <nd ref='-164248573' />
    <nd ref='-164248574' />
  </way>
  <way id='-37575105' action='modify'>
    <nd ref='-164248574' />
    <nd ref='-164248575' />
    <tag k='type' v='straight' />
  </way>
  <way id='-37575106' action='modify'>
    <nd ref='-164248575' />
    <nd ref='-164248576' />
  </way>
  <way id='-37575107' action='modify'>
    <nd ref='-164248576' />
    <nd ref='-164248577' />
    <tag k='type' v='straight' />
  </way>
  <way id='-37575108' action='modify'>
    <nd ref='-164248577' />
    <nd ref='-164248578' />
  </way>
  <way id='-37575109' action='modify'>
    <nd ref='-164248578' />
    <nd ref='-164248579' />
    <nd ref='-164248580' />
    <tag k='type' v='straight' />
  </way>
  <way id='-37575110' action='modify'>
    <nd ref='-164248580' />
    <nd ref='-164248581' />
  </way>
  <way id='-37575111' action='modify'>
    <nd ref='-164248581' />
    <nd ref='-164248582' />
    <tag k='type' v='straight' />
  </way>
  <way id='-37575112' action='modify'>
    <nd ref='-164248582' />
    <nd ref='-164248583' />
  </way>
  <way id='-37575113' action='modify'>
    <nd ref='-164248583' />
    <nd ref='-164248585' />
    <tag k='type' v='straight' />
  </way>
  <way id='-37575114' action='modify'>
    <nd ref='-164248585' />
    <nd ref='-164248586' />
  </way>
  <way id='-37575115' action='modify'>
    <nd ref='-164248586' />
    <nd ref='-164248587' />
    <tag k='type' v='straight' />
  </way>
  <way id='-37575116' action='modify'>
    <nd ref='-164248587' />
    <nd ref='-164248588' />
  </way>
  <way id='-37575117' action='modify'>
    <nd ref='-164248588' />
    <nd ref='-164248589' />
    <tag k='type' v='straight' />
  </way>
  <way id='-37575118' action='modify'>
    <nd ref='-164248589' />
    <nd ref='-164248590' />
    <nd ref='-164248591' />
  </way>
  <way id='-37575119' action='modify'>
    <nd ref='-164248591' />
    <nd ref='-164248592' />
    <tag k='type' v='straight' />
  </way>
  <way id='-37575120' action='modify'>
    <nd ref='-164248592' />
    <nd ref='-164248593' />
  </way>
  <way id='-37575121' action='modify'>
    <nd ref='-164248593' />
    <nd ref='-164248594' />
    <tag k='type' v='straight' />
  </way>
  <way id='-37575122' action='modify'>
    <nd ref='-164248594' />
    <nd ref='-164248595' />
    <nd ref='-164248596' />
  </way>
  <way id='-37575123' action='modify'>
    <nd ref='-164248596' />
    <nd ref='-164248597' />
    <tag k='type' v='straight' />
  </way>
  <way id='-37575124' action='modify'>
    <nd ref='-164248597' />
    <nd ref='-164248598' />
  </way>
  <way id='-37575125' action='modify'>
    <nd ref='-164248598' />
    <nd ref='-164248599' />
    <tag k='type' v='straight' />
  </way>
  <way id='-37575126' action='modify'>
    <nd ref='-164248599' />
    <nd ref='-164248600' />
    <nd ref='-164248601' />
  </way>
  <way id='-37575127' action='modify'>
    <nd ref='-164248601' />
    <nd ref='-164248602' />
    <tag k='type' v='straight' />
  </way>
  <way id='-37575128' action='modify'>
    <nd ref='-164248602' />
    <nd ref='-164248603' />
  </way>
  <way id='-37575129' action='modify'>
    <nd ref='-164248603' />
    <nd ref='-164248604' />
    <nd ref='-164248606' />
    <tag k='type' v='straight' />
  </way>
  <way id='-37575130' action='modify'>
    <nd ref='-164248606' />
    <nd ref='-164248607' />
  </way>
  <way id='-37575131' action='modify'>
    <nd ref='-164248607' />
    <nd ref='-164248609' />
    <tag k='type' v='straight' />
  </way>
  <way id='-37575132' action='modify'>
    <nd ref='-164248609' />
    <nd ref='-164248610' />
  </way>
  <way id='-37575133' action='modify'>
    <nd ref='-164248610' />
    <nd ref='-164248611' />
    <nd ref='-164248614' />
    <tag k='type' v='straight' />
  </way>
  <way id='-37575134' action='modify'>
    <nd ref='-164248614' />
    <nd ref='-164248615' />
  </way>
  <way id='-37575135' action='modify'>
    <nd ref='-164248615' />
    <nd ref='-164248617' />
    <tag k='type' v='straight' />
  </way>
  <way id='-37575136' action='modify'>
    <nd ref='-164248617' />
    <nd ref='-164248618' />
  </way>
  <way id='-37575137' action='modify'>
    <nd ref='-164248618' />
    <nd ref='-164248619' />
    <tag k='type' v='straight' />
  </way>
  <way id='-37575138' action='modify'>
    <nd ref='-164248619' />
    <nd ref='-164248620' />
  </way>
  <way id='-37575139' action='modify'>
    <nd ref='-164248620' />
    <nd ref='-164248621' />
    <tag k='type' v='straight' />
  </way>
  <way id='-37575140' action='modify'>
    <nd ref='-164248621' />
    <nd ref='-164248622' />
  </way>
  <way id='-37575141' action='modify'>
    <nd ref='-164248622' />
    <nd ref='-164248623' />
    <tag k='type' v='straight' />
  </way>
  <way id='-37575142' action='modify'>
    <nd ref='-164248623' />
    <nd ref='-164248624' />
    <nd ref='-164248625' />
  </way>
  <way id='-37575143' action='modify'>
    <nd ref='-164248625' />
    <nd ref='-164248626' />
    <tag k='type' v='straight' />
  </way>
  <way id='-37575144' action='modify'>
    <nd ref='-164248626' />
    <nd ref='-164248627' />
  </way>
  <way id='-37575145' action='modify'>
    <nd ref='-164248627' />
    <nd ref='-164248628' />
    <tag k='type' v='straight' />
  </way>
  <way id='-37575146' action='modify'>
    <nd ref='-164248628' />
    <nd ref='-164248629' />
    <nd ref='-164248630' />
    <nd ref='-164248631' />
  </way>
  <way id='-37575147' action='modify'>
    <nd ref='-164248631' />
    <nd ref='-164248632' />
    <nd ref='-164248633' />
    <nd ref='-164248634' />
    <nd ref='-164248635' />
    <nd ref='-164248636' />
    <nd ref='-164248637' />
    <tag k='type' v='straight' />
  </way>
  <way id='-37575148' action='modify'>
    <nd ref='-164248637' />
    <nd ref='-164248638' />
  </way>
  <way id='-37575149' action='modify'>
    <nd ref='-164248638' />
    <nd ref='-164248639' />
    <nd ref='-164248640' />
    <tag k='type' v='straight' />
  </way>
  <way id='-37575150' action='modify'>
    <nd ref='-164248640' />
    <nd ref='-164248641' />
  </way>
  <way id='-37575151' action='modify'>
    <nd ref='-164248641' />
    <nd ref='-164248642' />
    <nd ref='-164248643' />
    <nd ref='-164248644' />
    <nd ref='-164248645' />
    <tag k='type' v='straight' />
  </way>
  <way id='-37575152' action='modify'>
    <nd ref='-164248645' />
    <nd ref='-164248646' />
  </way>
  <way id='-37575153' action='modify'>
    <nd ref='-164248646' />
    <nd ref='-164248647' />
    <tag k='type' v='straight' />
  </way>
  <way id='-37575154' action='modify'>
    <nd ref='-164248647' />
    <nd ref='-164248648' />
  </way>
  <way id='-37575155' action='modify'>
    <nd ref='-164248648' />
    <nd ref='-164248649' />
    <tag k='type' v='straight' />
  </way>
  <way id='-37575156' action='modify'>
    <nd ref='-164248649' />
    <nd ref='-164248650' />
  </way>
  <way id='-37575157' action='modify'>
    <nd ref='-164248650' />
    <nd ref='-164248651' />
    <tag k='type' v='straight' />
  </way>
  <way id='-37575158' action='modify'>
    <nd ref='-164248651' />
    <nd ref='-164248652' />
  </way>
  <way id='-37575159' action='modify'>
    <nd ref='-164248652' />
    <nd ref='-164248653' />
    <nd ref='-164248654' />
    <tag k='type' v='straight' />
  </way>
  <way id='-37575160' action='modify'>
    <nd ref='-164248654' />
    <nd ref='-164248655' />
  </way>
  <way id='-37575161' action='modify'>
    <nd ref='-164248655' />
    <nd ref='-164248656' />
    <nd ref='-164248657' />
    <nd ref='-164248658' />
    <tag k='type' v='straight' />
  </way>
  <way id='-37575162' action='modify'>
    <nd ref='-164248658' />
    <nd ref='-164248659' />
  </way>
  <way id='-37575163' action='modify'>
    <nd ref='-164248659' />
    <nd ref='-164248660' />
    <nd ref='-164248661' />
    <tag k='type' v='straight' />
  </way>
  <way id='-37575164' action='modify'>
    <nd ref='-164248661' />
    <nd ref='-164248663' />
  </way>
  <way id='-37575165' action='modify'>
    <nd ref='-164248663' />
    <nd ref='-164248664' />
    <tag k='type' v='straight' />
  </way>
  <way id='-37575166' action='modify'>
    <nd ref='-164248664' />
    <nd ref='-164248665' />
  </way>
  <way id='-37575167' action='modify'>
    <nd ref='-164248665' />
    <nd ref='-164248666' />
    <nd ref='-164248667' />
    <tag k='type' v='straight' />
  </way>
  <way id='-37575168' action='modify'>
    <nd ref='-164248667' />
    <nd ref='-164248668' />
  </way>
  <way id='-37575169' action='modify'>
    <nd ref='-164248668' />
    <nd ref='-164248669' />
    <nd ref='-164248670' />
    <nd ref='-164248671' />
    <nd ref='-164248755' />
    <tag k='type' v='straight' />
  </way>
  <way id='-37575170' action='modify'>
    <nd ref='-164248675' />
    <nd ref='-164248676' />
  </way>
  <way id='-37575171' action='modify'>
    <nd ref='-164248676' />
    <nd ref='-164248677' />
    <tag k='type' v='straight' />
  </way>
  <way id='-37575229' action='modify'>
    <nd ref='-164248755' />
    <nd ref='-164248756' />
  </way>
  <way id='-37575230' action='modify'>
    <nd ref='-164248756' />
    <nd ref='-164248757' />
    <tag k='type' v='straight' />
  </way>
  <way id='-37575231' action='modify'>
    <nd ref='-164248757' />
    <nd ref='-164248746' />
  </way>
  <way id='-37575232' action='modify'>
    <nd ref='-164248746' />
    <nd ref='-164248747' />
    <nd ref='-164248758' />
    <nd ref='-164248675' />
    <tag k='type' v='straight' />
  </way>
  <relation id='-14479399' action='modify'>
    <member type='way' ref='-37575021' role='' />
    <member type='way' ref='-37575022' role='' />
    <member type='way' ref='-37575023' role='' />
    <member type='way' ref='-37575024' role='' />
    <member type='way' ref='-37575025' role='' />
    <member type='way' ref='-37575026' role='' />
    <member type='way' ref='-37575027' role='' />
    <member type='way' ref='-37575029' role='' />
    <member type='way' ref='-37575030' role='' />
    <member type='way' ref='-37575031' role='' />
    <member type='way' ref='-37575032' role='' />
    <member type='way' ref='-37575033' role='' />
    <member type='way' ref='-37575034' role='' />
    <member type='way' ref='-37575035' role='' />
    <member type='way' ref='-37575036' role='' />
    <member type='way' ref='-37575037' role='' />
    <member type='way' ref='-37575038' role='' />
    <member type='way' ref='-37575039' role='' />
    <member type='way' ref='-37575040' role='' />
    <member type='way' ref='-37575041' role='' />
    <member type='way' ref='-37575042' role='' />
    <member type='way' ref='-37575043' role='' />
    <member type='way' ref='-37575044' role='' />
    <member type='way' ref='-37575045' role='' />
    <member type='way' ref='-37575046' role='' />
    <member type='way' ref='-37575047' role='' />
    <member type='way' ref='-37575048' role='' />
    <member type='way' ref='-37575049' role='' />
    <member type='way' ref='-37575050' role='' />
    <member type='way' ref='-37575051' role='' />
    <member type='way' ref='-37575052' role='' />
    <member type='way' ref='-37575053' role='' />
    <member type='way' ref='-37575054' role='' />
    <member type='way' ref='-37575055' role='' />
    <member type='way' ref='-37575056' role='' />
    <member type='way' ref='-37575057' role='' />
    <member type='way' ref='-37575058' role='' />
    <member type='way' ref='-37575059' role='' />
    <member type='way' ref='-37575060' role='' />
    <member type='way' ref='-37575061' role='' />
    <member type='way' ref='-37575062' role='' />
    <member type='way' ref='-37575063' role='' />
    <member type='way' ref='-37575064' role='' />
    <member type='way' ref='-37575065' role='' />
    <member type='way' ref='-37575066' role='' />
    <member type='way' ref='-37575067' role='' />
    <member type='way' ref='-37575068' role='' />
    <member type='way' ref='-37575069' role='' />
    <member type='way' ref='-37575070' role='' />
    <member type='way' ref='-37575071' role='' />
    <member type='way' ref='-37575072' role='' />
    <member type='way' ref='-37575073' role='' />
    <member type='way' ref='-37575074' role='' />
    <member type='way' ref='-37575075' role='' />
    <member type='way' ref='-37575076' role='' />
    <member type='way' ref='-37575077' role='' />
    <member type='way' ref='-37575078' role='' />
    <member type='way' ref='-37575079' role='' />
    <member type='way' ref='-37575080' role='' />
    <member type='way' ref='-37575081' role='' />
    <member type='way' ref='-37575082' role='' />
    <member type='way' ref='-37575083' role='' />
    <member type='way' ref='-37575084' role='' />
    <member type='way' ref='-37575085' role='' />
    <member type='way' ref='-37575086' role='' />
    <member type='way' ref='-37575087' role='' />
    <member type='way' ref='-37575088' role='' />
    <member type='way' ref='-37575089' role='' />
    <member type='way' ref='-37575090' role='' />
    <member type='way' ref='-37575091' role='' />
    <member type='way' ref='-37575092' role='' />
    <member type='way' ref='-37575093' role='' />
    <member type='way' ref='-37575094' role='' />
    <member type='way' ref='-37575095' role='' />
    <member type='way' ref='-37575096' role='' />
    <member type='way' ref='-37575097' role='' />
    <member type='way' ref='-37575098' role='' />
    <member type='way' ref='-37575099' role='' />
    <member type='way' ref='-37575100' role='' />
    <member type='way' ref='-37575101' role='' />
    <member type='way' ref='-37575102' role='' />
    <member type='way' ref='-37575103' role='' />
    <member type='way' ref='-37575104' role='' />
    <member type='way' ref='-37575105' role='' />
    <member type='way' ref='-37575106' role='' />
    <member type='way' ref='-37575107' role='' />
    <member type='way' ref='-37575108' role='' />
    <member type='way' ref='-37575109' role='' />
    <member type='way' ref='-37575110' role='' />
    <member type='way' ref='-37575111' role='' />
    <member type='way' ref='-37575112' role='' />
    <member type='way' ref='-37575113' role='' />
    <member type='way' ref='-37575114' role='' />
    <member type='way' ref='-37575115' role='' />
    <member type='way' ref='-37575116' role='' />
    <member type='way' ref='-37575117' role='' />
    <member type='way' ref='-37575118' role='' />
    <member type='way' ref='-37575119' role='' />
    <member type='way' ref='-37575120' role='' />
    <member type='way' ref='-37575121' role='' />
    <member type='way' ref='-37575122' role='' />
    <member type='way' ref='-37575123' role='' />
    <member type='way' ref='-37575124' role='' />
    <member type='way' ref='-37575125' role='' />
    <member type='way' ref='-37575126' role='' />
    <member type='way' ref='-37575127' role='' />
    <member type='way' ref='-37575128' role='' />
    <member type='way' ref='-37575129' role='' />
    <member type='way' ref='-37575130' role='' />
    <member type='way' ref='-37575131' role='' />
    <member type='way' ref='-37575132' role='' />
    <member type='way' ref='-37575133' role='' />
    <member type='way' ref='-37575134' role='' />
    <member type='way' ref='-37575135' role='' />
    <member type='way' ref='-37575136' role='' />
    <member type='way' ref='-37575137' role='' />
    <member type='way' ref='-37575138' role='' />
    <member type='way' ref='-37575139' role='' />
    <member type='way' ref='-37575140' role='' />
    <member type='way' ref='-37575141' role='' />
    <member type='way' ref='-37575142' role='' />
    <member type='way' ref='-37575143' role='' />
    <member type='way' ref='-37575144' role='' />
    <member type='way' ref='-37575145' role='' />
    <member type='way' ref='-37575146' role='' />
    <member type='way' ref='-37575147' role='' />
    <member type='way' ref='-37575148' role='' />
    <member type='way' ref='-37575149' role='' />
    <member type='way' ref='-37575150' role='' />
    <member type='way' ref='-37575151' role='' />
    <member type='way' ref='-37575152' role='' />
    <member type='way' ref='-37575153' role='' />
    <member type='way' ref='-37575154' role='' />
    <member type='way' ref='-37575155' role='' />
    <member type='way' ref='-37575156' role='' />
    <member type='way' ref='-37575157' role='' />
    <member type='way' ref='-37575158' role='' />
    <member type='way' ref='-37575159' role='' />
    <member type='way' ref='-37575160' role='' />
    <member type='way' ref='-37575161' role='' />
    <member type='way' ref='-37575162' role='' />
    <member type='way' ref='-37575163' role='' />
    <member type='way' ref='-37575164' role='' />
    <member type='way' ref='-37575165' role='' />
    <member type='way' ref='-37575166' role='' />
    <member type='way' ref='-37575167' role='' />
    <member type='way' ref='-37575168' role='' />
    <member type='way' ref='-37575169' role='' />
    <member type='way' ref='-37575229' role='' />
    <member type='way' ref='-37575230' role='' />
    <member type='way' ref='-37575231' role='' />
    <member type='way' ref='-37575232' role='' />
    <member type='way' ref='-37575170' role='' />
    <member type='way' ref='-37575171' role='' />
    <tag k='key' v='path.nl.ard' />
    <tag k='name' v='NL ARD' />
    <tag k='source' v='src.nl.PDOK-Luchtfoto-RGB src.nl.ProRail.Basiskaart' />
    <tag k='type' v='path' />
  </relation>
</osm>
