<?xml version='1.0' encoding='UTF-8'?>
<osm version='0.6' upload='false' generator='JOSM'>
  <node id='-188267281' action='modify' lat='52.38725950024' lon='4.87912594736' />
  <node id='-188267282' action='modify' lat='52.38678440593' lon='4.88057276944'>
    <tag k='name' v='sin' />
  </node>
  <node id='-188267283' action='modify' lat='52.38872262635' lon='4.87303589467' />
  <node id='-188267285' action='modify' lat='52.38878123352' lon='4.87265848218' />
  <node id='-188267286' action='modify' lat='52.39186744108' lon='4.86596702993'>
    <tag k='name' v='tra' />
  </node>
  <node id='-188267289' action='modify' lat='52.39378086378' lon='4.86341356695' />
  <node id='-188267290' action='modify' lat='52.39546342871' lon='4.85706746042' />
  <node id='-188267292' action='modify' lat='52.3954077807' lon='4.84642981946' />
  <node id='-188267293' action='modify' lat='52.38993920159' lon='4.83806401223' />
  <node id='-188267294' action='modify' lat='52.38915389109' lon='4.83807810845'>
    <tag k='name' v='asl' />
  </node>
  <node id='-188267295' action='modify' lat='52.38894127776' lon='4.83808192478' />
  <node id='-188267296' action='modify' lat='52.38659323077' lon='4.83859508961' />
  <node id='-188267298' action='modify' lat='52.38528685825' lon='4.83907788724' />
  <node id='-188267299' action='modify' lat='52.3822172333' lon='4.83897594452' />
  <node id='-188267301' action='modify' lat='52.37809052176' lon='4.83727800512'>
    <tag k='name' v='era' />
  </node>
  <node id='-188267303' action='modify' lat='52.37194919442' lon='4.83475144387' />
  <node id='-188267304' action='modify' lat='52.37034881745' lon='4.83429685168' />
  <node id='-188267306' action='modify' lat='52.3678280137' lon='4.83386300437' />
  <node id='-188267307' action='modify' lat='52.36651740095' lon='4.83374029331' />
  <node id='-188267308' action='modify' lat='52.3648963804' lon='4.8336987184' />
  <node id='-188267309' action='modify' lat='52.3643194476' lon='4.83369871907' />
  <node id='-188267310' action='modify' lat='52.36224382127' lon='4.83376040921' />
  <node id='-188267311' action='modify' lat='52.36174670463' lon='4.83378320798' />
  <node id='-188267312' action='modify' lat='52.36044287298' lon='4.8338770853' />
  <node id='-188267313' action='modify' lat='52.35990969958' lon='4.83389586076' />
  <node id='-188267315' action='modify' lat='52.3578841337' lon='4.83395309204'>
    <tag k='name' v='lel' />
  </node>
  <node id='-188267316' action='modify' lat='52.35587506377' lon='4.83400985464' />
  <node id='-188267317' action='modify' lat='52.35361432727' lon='4.83401387796' />
  <node id='-188267321' action='modify' lat='52.34465215432' lon='4.83427807555' />
  <node id='-188267322' action='modify' lat='52.34363621751' lon='4.83427941665' />
  <node id='-188267323' action='modify' lat='52.34344777505' lon='4.83427271113' />
  <node id='-188267325' action='modify' lat='52.33852242536' lon='4.82702675172' />
  <node id='-188267326' action='modify' lat='52.3385233013' lon='4.8257876171'>
    <tag k='name' v='rie' />
  </node>
  <way id='-39345719' action='modify'>
    <nd ref='-188267282' />
    <nd ref='-188267281' />
    <tag k='type' v='straight' />
  </way>
  <way id='-39345720' action='modify'>
    <nd ref='-188267281' />
    <nd ref='-188267283' />
  </way>
  <way id='-39345721' action='modify'>
    <nd ref='-188267283' />
    <nd ref='-188267285' />
    <tag k='type' v='straight' />
  </way>
  <way id='-39345722' action='modify'>
    <nd ref='-188267285' />
    <nd ref='-188267286' />
  </way>
  <way id='-39345723' action='modify'>
    <nd ref='-188267286' />
    <nd ref='-188267289' />
    <tag k='type' v='straight' />
  </way>
  <way id='-39345724' action='modify'>
    <nd ref='-188267289' />
    <nd ref='-188267290' />
  </way>
  <way id='-39345725' action='modify'>
    <nd ref='-188267290' />
    <nd ref='-188267292' />
    <tag k='type' v='straight' />
  </way>
  <way id='-39345726' action='modify'>
    <nd ref='-188267292' />
    <nd ref='-188267293' />
  </way>
  <way id='-39345727' action='modify'>
    <nd ref='-188267293' />
    <nd ref='-188267294' />
    <nd ref='-188267295' />
    <tag k='type' v='straight' />
  </way>
  <way id='-39345728' action='modify'>
    <nd ref='-188267295' />
    <nd ref='-188267296' />
  </way>
  <way id='-39345729' action='modify'>
    <nd ref='-188267296' />
    <nd ref='-188267298' />
    <tag k='type' v='straight' />
  </way>
  <way id='-39345730' action='modify'>
    <nd ref='-188267298' />
    <nd ref='-188267299' />
  </way>
  <way id='-39345731' action='modify'>
    <nd ref='-188267299' />
    <nd ref='-188267301' />
    <nd ref='-188267303' />
    <tag k='type' v='straight' />
  </way>
  <way id='-39345732' action='modify'>
    <nd ref='-188267303' />
    <nd ref='-188267304' />
  </way>
  <way id='-39345733' action='modify'>
    <nd ref='-188267304' />
    <nd ref='-188267306' />
    <tag k='type' v='straight' />
  </way>
  <way id='-39345734' action='modify'>
    <nd ref='-188267306' />
    <nd ref='-188267307' />
  </way>
  <way id='-39345735' action='modify'>
    <nd ref='-188267307' />
    <nd ref='-188267308' />
    <tag k='type' v='straight' />
  </way>
  <way id='-39345736' action='modify'>
    <nd ref='-188267308' />
    <nd ref='-188267309' />
  </way>
  <way id='-39345737' action='modify'>
    <nd ref='-188267309' />
    <nd ref='-188267310' />
    <tag k='type' v='straight' />
  </way>
  <way id='-39345738' action='modify'>
    <nd ref='-188267310' />
    <nd ref='-188267311' />
  </way>
  <way id='-39345739' action='modify'>
    <nd ref='-188267311' />
    <nd ref='-188267312' />
    <tag k='type' v='straight' />
  </way>
  <way id='-39345740' action='modify'>
    <nd ref='-188267312' />
    <nd ref='-188267313' />
  </way>
  <way id='-39345741' action='modify'>
    <nd ref='-188267313' />
    <nd ref='-188267315' />
    <nd ref='-188267316' />
    <tag k='type' v='straight' />
  </way>
  <way id='-39345742' action='modify'>
    <nd ref='-188267316' />
    <nd ref='-188267317' />
  </way>
  <way id='-39345743' action='modify'>
    <nd ref='-188267317' />
    <nd ref='-188267321' />
    <tag k='type' v='straight' />
  </way>
  <way id='-39345744' action='modify'>
    <nd ref='-188267321' />
    <nd ref='-188267322' />
  </way>
  <way id='-39345745' action='modify'>
    <nd ref='-188267322' />
    <nd ref='-188267323' />
    <tag k='type' v='straight' />
  </way>
  <way id='-39345746' action='modify'>
    <nd ref='-188267323' />
    <nd ref='-188267325' />
  </way>
  <way id='-39345747' action='modify'>
    <nd ref='-188267325' />
    <nd ref='-188267326' />
    <tag k='type' v='straight' />
  </way>
  <relation id='-14496254' action='modify'>
    <member type='way' ref='-39345719' role='' />
    <member type='way' ref='-39345720' role='' />
    <member type='way' ref='-39345721' role='' />
    <member type='way' ref='-39345722' role='' />
    <member type='way' ref='-39345723' role='' />
    <member type='way' ref='-39345724' role='' />
    <member type='way' ref='-39345725' role='' />
    <member type='way' ref='-39345726' role='' />
    <member type='way' ref='-39345727' role='' />
    <member type='way' ref='-39345728' role='' />
    <member type='way' ref='-39345729' role='' />
    <member type='way' ref='-39345730' role='' />
    <member type='way' ref='-39345731' role='' />
    <member type='way' ref='-39345732' role='' />
    <member type='way' ref='-39345733' role='' />
    <member type='way' ref='-39345734' role='' />
    <member type='way' ref='-39345735' role='' />
    <member type='way' ref='-39345736' role='' />
    <member type='way' ref='-39345737' role='' />
    <member type='way' ref='-39345738' role='' />
    <member type='way' ref='-39345739' role='' />
    <member type='way' ref='-39345740' role='' />
    <member type='way' ref='-39345741' role='' />
    <member type='way' ref='-39345742' role='' />
    <member type='way' ref='-39345743' role='' />
    <member type='way' ref='-39345744' role='' />
    <member type='way' ref='-39345745' role='' />
    <member type='way' ref='-39345746' role='' />
    <member type='way' ref='-39345747' role='' />
    <tag k='key' v='path.nl.asr' />
    <tag k='name' v='NL ASR' />
    <tag k='type' v='path' />
  </relation>
</osm>
