<?xml version='1.0' encoding='UTF-8'?>
<osm version='0.6' upload='false' generator='JOSM'>
  <node id='-159024371' action='modify' lat='52.96275859676' lon='4.75929706904' />
  <node id='-159024372' action='modify' lat='52.95666275367' lon='4.76076048145'>
    <tag k='name' v='den.f' />
  </node>
  <node id='-159024373' action='modify' lat='52.95498775518' lon='4.76116252021'>
    <tag k='name' v='den' />
  </node>
  <node id='-159024374' action='modify' lat='52.94997461976' lon='4.76236560041' />
  <node id='-159024375' action='modify' lat='52.94536709063' lon='4.76199186585' />
  <node id='-159024376' action='modify' lat='52.94191452553' lon='4.76075605175' />
  <node id='-159024377' action='modify' lat='52.93897081023' lon='4.76090603975' />
  <node id='-159024378' action='modify' lat='52.93262664193' lon='4.76418250771'>
    <tag k='name' v='dez' />
  </node>
  <node id='-159024379' action='modify' lat='52.9087374362' lon='4.77651111638' />
  <node id='-159024380' action='modify' lat='52.90308145103' lon='4.78515671492' />
  <node id='-159024381' action='modify' lat='52.90274301172' lon='4.78646090255'>
    <tag k='name' v='koe' />
  </node>
  <node id='-159024382' action='modify' lat='52.89861746495' lon='4.8023527889' />
  <node id='-159024383' action='modify' lat='52.89014109159' lon='4.8149123055'>
    <tag k='name' v='bre' />
  </node>
  <node id='-159024384' action='modify' lat='52.8836760569' lon='4.81549690063' />
  <node id='-159024385' action='modify' lat='52.86955431945' lon='4.81173926334' />
  <node id='-159024386' action='modify' lat='52.86895297707' lon='4.81158172476' />
  <node id='-159024387' action='modify' lat='52.86742918384' lon='4.81118631244'>
    <tag k='name' v='ann' />
  </node>
  <node id='-159024388' action='modify' lat='52.86542610103' lon='4.81066657067' />
  <node id='-159024389' action='modify' lat='52.86455940513' lon='4.81044283558' />
  <node id='-159024390' action='modify' lat='52.83317336779' lon='4.80225891042'>
    <tag k='name' v='osl' />
  </node>
  <node id='-159024391' action='modify' lat='52.83070091442' lon='4.80161161345' />
  <node id='-159024392' action='modify' lat='52.82723047696' lon='4.80125435742'>
    <tag k='name' v='osl.xs' />
  </node>
  <node id='-159024393' action='modify' lat='52.78555402197' lon='4.80523138404'>
    <tag k='name' v='sag' />
  </node>
  <node id='-159024394' action='modify' lat='52.7718000664' lon='4.80654216473' />
  <node id='-159024395' action='modify' lat='52.76388512239' lon='4.81101310907' />
  <node id='-159024396' action='modify' lat='52.75510891675' lon='4.82106517395'>
    <tag k='name' v='saw' />
  </node>
  <node id='-159024397' action='modify' lat='52.74755070353' lon='4.82971814887' />
  <node id='-159024398' action='modify' lat='52.74160336203' lon='4.83529959795'>
    <tag k='name' v='zij' />
  </node>
  <node id='-159024399' action='modify' lat='52.73560953665' lon='4.83920540513' />
  <node id='-159024400' action='modify' lat='52.72823088342' lon='4.84298935286' />
  <node id='-159024401' action='modify' lat='52.72310170164' lon='4.84403186262' />
  <node id='-159024402' action='modify' lat='52.71721625965' lon='4.84355783827' />
  <node id='-159024403' action='modify' lat='52.71304311495' lon='4.8424198302' />
  <node id='-159024404' action='modify' lat='52.71178723558' lon='4.84181529779'>
    <tag k='name' v='nsc' />
  </node>
  <node id='-159024405' action='modify' lat='52.71142348424' lon='4.84164020851' />
  <node id='-159024406' action='modify' lat='52.70789578129' lon='4.84067342278' />
  <node id='-159024407' action='modify' lat='52.69368148744' lon='4.83941156474' />
  <node id='-159024408' action='modify' lat='52.6908437364' lon='4.83910468459' />
  <node id='-159024409' action='modify' lat='52.68335670059' lon='4.83843969942' />
  <node id='-159024410' action='modify' lat='52.6729071309' lon='4.82952601521' />
  <node id='-159024411' action='modify' lat='52.67037492021' lon='4.82382683671'>
    <tag k='name' v='her' />
  </node>
  <node id='-159024412' action='modify' lat='52.66017007325' lon='4.80086240907'>
    <tag k='name' v='kak' />
  </node>
  <node id='-159024413' action='modify' lat='52.65014435533' lon='4.77830630405'>
    <tag k='name' v='pan' />
  </node>
  <node id='-159024414' action='modify' lat='52.64366291491' lon='4.76372695341'>
    <tag k='name' v='aln' />
  </node>
  <node id='-159024415' action='modify' lat='52.64105868095' lon='4.75786959859' />
  <node id='-159024416' action='modify' lat='52.63895908346' lon='4.74952899121' />
  <node id='-159024417' action='modify' lat='52.63892897174' lon='4.74912196599' />
  <node id='-159024418' action='modify' lat='52.63880864218' lon='4.74776197006' />
  <node id='-159024419' action='modify' lat='52.63866637423' lon='4.74656570613'>
    <tag k='name' v='nka' />
  </node>
  <node id='-159024420' action='modify' lat='52.63818593324' lon='4.74252593393' />
  <node id='-159024421' action='modify' lat='52.63775534088' lon='4.73890535'>
    <tag k='name' v='alk' />
  </node>
  <node id='-159024422' action='modify' lat='52.63766057245' lon='4.73810850584' />
  <node id='-159024423' action='modify' lat='52.63724471767' lon='4.7364445044' />
  <node id='-159024424' action='modify' lat='52.63685975937' lon='4.73554998769' />
  <node id='-159024425' action='modify' lat='52.63548358695' lon='4.73349683699' />
  <node id='-159024426' action='modify' lat='52.60032769385' lon='4.70133832567'>
    <tag k='name' v='hei' />
  </node>
  <node id='-159024427' action='modify' lat='52.58452726253' lon='4.68689344095'>
    <tag k='name' v='olv' />
  </node>
  <node id='-159024428' action='modify' lat='52.55451142239' lon='4.65946704756' />
  <node id='-159024429' action='modify' lat='52.54532952737' lon='4.65912181064'>
    <tag k='name' v='cas' />
  </node>
  <node id='-159024430' action='modify' lat='52.54310596039' lon='4.6621446324' />
  <node id='-159024431' action='modify' lat='52.52224325811' lon='4.70133876958'>
    <tag k='name' v='uit' />
  </node>
  <node id='-159024432' action='modify' lat='52.4968559919' lon='4.74900797143' />
  <node id='-159024433' action='modify' lat='52.49500488525' lon='4.75486804542'>
    <tag k='name' v='kro.2008' />
  </node>
  <node id='-159024434' action='modify' lat='52.49475026338' lon='4.75699692964' />
  <node id='-159024435' action='modify' lat='52.49429230406' lon='4.76169800839'>
    <tag k='name' v='kro' />
  </node>
  <node id='-159024436' action='modify' lat='52.4932206061' lon='4.77269909221'>
    <tag k='name' v='nau' />
  </node>
  <node id='-159024437' action='modify' lat='52.49304638584' lon='4.77448745486' />
  <node id='-159024438' action='modify' lat='52.49260197181' lon='4.77729052441' />
  <node id='-159024439' action='modify' lat='52.49021676438' lon='4.78839621086' />
  <node id='-159024440' action='modify' lat='52.48979866608' lon='4.79029387374' />
  <node id='-159024441' action='modify' lat='52.48914032557' lon='4.79317096016'>
    <tag k='name' v='wor' />
  </node>
  <node id='-159024442' action='modify' lat='52.48902288722' lon='4.79368418593' />
  <node id='-159024443' action='modify' lat='52.47935667395' lon='4.80455277391' />
  <node id='-159024444' action='modify' lat='52.46933527425' lon='4.80508302259'>
    <tag k='name' v='zzs' />
  </node>
  <node id='-159024445' action='modify' lat='52.45904994777' lon='4.80562711053'>
    <tag k='name' v='kog' />
  </node>
  <node id='-159024446' action='modify' lat='52.45380854525' lon='4.80590432887' />
  <node id='-159024447' action='modify' lat='52.45192061554' lon='4.80625837241' />
  <node id='-159024448' action='modify' lat='52.45036198361' lon='4.80686589812' />
  <node id='-159024449' action='modify' lat='52.44769903169' lon='4.80820297395' />
  <node id='-159024450' action='modify' lat='52.43863926082' lon='4.81369541194'>
    <tag k='name' v='zaa' />
  </node>
  <node id='-159024451' action='modify' lat='52.43336960882' lon='4.81894252813' />
  <node id='-159024452' action='modify' lat='52.43081846867' lon='4.82269762076' />
  <node id='-159024453' action='modify' lat='52.42384459881' lon='4.82563732184' />
  <node id='-159024454' action='modify' lat='52.41779881331' lon='4.82359884299' />
  <node id='-159024455' action='modify' lat='52.40877438799' lon='4.82934950984' />
  <node id='-159024456' action='modify' lat='52.40398538355' lon='4.84061356595'>
    <tag k='name' v='awh' />
  </node>
  <node id='-159024457' action='modify' lat='52.39634201941' lon='4.85858873255'>
    <tag k='name' v='lin' />
  </node>
  <node id='-159024458' action='modify' lat='52.39605591656' lon='4.85926151017' />
  <node id='-159024459' action='modify' lat='52.39378086836' lon='4.86341356974' />
  <node id='-159024460' action='modify' lat='52.39186744566' lon='4.86596703272'>
    <tag k='name' v='tra' />
  </node>
  <node id='-159024461' action='modify' lat='52.39008316187' lon='4.86861421744'>
    <tag k='name' v='zas' />
  </node>
  <node id='-159024462' action='modify' lat='52.38981080216' lon='4.86933962581'>
    <tag k='name' v='lim' />
  </node>
  <node id='-159024463' action='modify' lat='52.3887812381' lon='4.87265848498' />
  <node id='-159024464' action='modify' lat='52.38872263093' lon='4.87303589747' />
  <node id='-159024465' action='modify' lat='52.38810092289' lon='4.87627743882'>
    <tag k='name' v='liz' />
  </node>
  <node id='-159024466' action='modify' lat='52.38725950482' lon='4.87912595016' />
  <node id='-159024467' action='modify' lat='52.38678441051' lon='4.88057277225'>
    <tag k='name' v='sin' />
  </node>
  <node id='-159024468' action='modify' lat='52.38594556573' lon='4.88312729893'>
    <tag k='name' v='sib' />
  </node>
  <node id='-159024469' action='modify' lat='52.38585820093' lon='4.88339334739' />
  <node id='-159024470' action='modify' lat='52.38491196935' lon='4.88556057228' />
  <node id='-159024471' action='modify' lat='52.38356351286' lon='4.88797313027' />
  <node id='-159024472' action='modify' lat='52.38285822763' lon='4.88959258201' />
  <node id='-159024473' action='modify' lat='52.38241041516' lon='4.89092499031' />
  <node id='-159024474' action='modify' lat='52.38191465069' lon='4.89235496372' />
  <node id='-159024475' action='modify' lat='52.37889361936' lon='4.90061248765'>
    <tag k='name' v='ams' />
  </node>
  <node id='-159024476' action='modify' lat='52.38649979061' lon='4.88143952819'>
    <tag k='name' v='awi' />
  </node>
  <way id='-37236904' action='modify'>
    <nd ref='-159024371' />
    <nd ref='-159024372' />
    <nd ref='-159024373' />
    <nd ref='-159024374' />
    <tag k='type' v='straight' />
  </way>
  <way id='-37236905' action='modify'>
    <nd ref='-159024374' />
    <nd ref='-159024375' />
  </way>
  <way id='-37236906' action='modify'>
    <nd ref='-159024375' />
    <nd ref='-159024376' />
    <tag k='type' v='straight' />
  </way>
  <way id='-37236907' action='modify'>
    <nd ref='-159024376' />
    <nd ref='-159024377' />
  </way>
  <way id='-37236908' action='modify'>
    <nd ref='-159024377' />
    <nd ref='-159024378' />
    <nd ref='-159024379' />
    <tag k='type' v='straight' />
  </way>
  <way id='-37236909' action='modify'>
    <nd ref='-159024379' />
    <nd ref='-159024380' />
  </way>
  <way id='-37236910' action='modify'>
    <nd ref='-159024380' />
    <nd ref='-159024381' />
    <nd ref='-159024382' />
    <tag k='type' v='straight' />
  </way>
  <way id='-37236911' action='modify'>
    <nd ref='-159024382' />
    <nd ref='-159024383' />
    <nd ref='-159024384' />
  </way>
  <way id='-37236912' action='modify'>
    <nd ref='-159024384' />
    <nd ref='-159024385' />
    <tag k='type' v='straight' />
  </way>
  <way id='-37236913' action='modify'>
    <nd ref='-159024385' />
    <nd ref='-159024386' />
  </way>
  <way id='-37236914' action='modify'>
    <nd ref='-159024386' />
    <nd ref='-159024387' />
    <nd ref='-159024388' />
    <tag k='type' v='straight' />
  </way>
  <way id='-37236915' action='modify'>
    <nd ref='-159024388' />
    <nd ref='-159024389' />
  </way>
  <way id='-37236916' action='modify'>
    <nd ref='-159024389' />
    <nd ref='-159024390' />
    <nd ref='-159024391' />
    <tag k='type' v='straight' />
  </way>
  <way id='-37236917' action='modify'>
    <nd ref='-159024391' />
    <nd ref='-159024392' />
  </way>
  <way id='-37236918' action='modify'>
    <nd ref='-159024392' />
    <nd ref='-159024393' />
    <nd ref='-159024394' />
    <tag k='type' v='straight' />
  </way>
  <way id='-37236919' action='modify'>
    <nd ref='-159024394' />
    <nd ref='-159024395' />
  </way>
  <way id='-37236920' action='modify'>
    <nd ref='-159024395' />
    <nd ref='-159024396' />
    <nd ref='-159024397' />
    <tag k='type' v='straight' />
  </way>
  <way id='-37236921' action='modify'>
    <nd ref='-159024397' />
    <nd ref='-159024398' />
    <nd ref='-159024399' />
  </way>
  <way id='-37236922' action='modify'>
    <nd ref='-159024399' />
    <nd ref='-159024400' />
    <tag k='type' v='straight' />
  </way>
  <way id='-37236923' action='modify'>
    <nd ref='-159024400' />
    <nd ref='-159024401' />
  </way>
  <way id='-37236924' action='modify'>
    <nd ref='-159024401' />
    <nd ref='-159024402' />
    <tag k='type' v='straight' />
  </way>
  <way id='-37236925' action='modify'>
    <nd ref='-159024402' />
    <nd ref='-159024403' />
  </way>
  <way id='-37236926' action='modify'>
    <nd ref='-159024403' />
    <nd ref='-159024404' />
    <nd ref='-159024405' />
    <tag k='type' v='straight' />
  </way>
  <way id='-37236927' action='modify'>
    <nd ref='-159024405' />
    <nd ref='-159024406' />
  </way>
  <way id='-37236928' action='modify'>
    <nd ref='-159024406' />
    <nd ref='-159024407' />
    <tag k='type' v='straight' />
  </way>
  <way id='-37236929' action='modify'>
    <nd ref='-159024407' />
    <nd ref='-159024408' />
  </way>
  <way id='-37236930' action='modify'>
    <nd ref='-159024408' />
    <nd ref='-159024409' />
    <tag k='type' v='straight' />
  </way>
  <way id='-37236931' action='modify'>
    <nd ref='-159024409' />
    <nd ref='-159024410' />
  </way>
  <way id='-37236932' action='modify'>
    <nd ref='-159024410' />
    <nd ref='-159024411' />
    <nd ref='-159024412' />
    <nd ref='-159024413' />
    <nd ref='-159024414' />
    <nd ref='-159024415' />
    <tag k='type' v='straight' />
  </way>
  <way id='-37236933' action='modify'>
    <nd ref='-159024415' />
    <nd ref='-159024416' />
  </way>
  <way id='-37236934' action='modify'>
    <nd ref='-159024416' />
    <nd ref='-159024417' />
    <tag k='type' v='straight' />
  </way>
  <way id='-37236935' action='modify'>
    <nd ref='-159024417' />
    <nd ref='-159024418' />
  </way>
  <way id='-37236936' action='modify'>
    <nd ref='-159024418' />
    <nd ref='-159024419' />
    <nd ref='-159024420' />
    <nd ref='-159024421' />
    <nd ref='-159024422' />
    <tag k='type' v='straight' />
  </way>
  <way id='-37236937' action='modify'>
    <nd ref='-159024422' />
    <nd ref='-159024423' />
  </way>
  <way id='-37236938' action='modify'>
    <nd ref='-159024423' />
    <nd ref='-159024424' />
    <tag k='type' v='straight' />
  </way>
  <way id='-37236939' action='modify'>
    <nd ref='-159024424' />
    <nd ref='-159024425' />
  </way>
  <way id='-37236940' action='modify'>
    <nd ref='-159024425' />
    <nd ref='-159024426' />
    <nd ref='-159024427' />
    <nd ref='-159024428' />
    <tag k='type' v='straight' />
  </way>
  <way id='-37236941' action='modify'>
    <nd ref='-159024428' />
    <nd ref='-159024429' />
    <nd ref='-159024430' />
  </way>
  <way id='-37236942' action='modify'>
    <nd ref='-159024430' />
    <nd ref='-159024431' />
    <nd ref='-159024432' />
    <tag k='type' v='straight' />
  </way>
  <way id='-37236943' action='modify'>
    <nd ref='-159024432' />
    <nd ref='-159024433' />
    <nd ref='-159024434' />
  </way>
  <way id='-37236944' action='modify'>
    <nd ref='-159024434' />
    <nd ref='-159024435' />
    <nd ref='-159024436' />
    <nd ref='-159024437' />
    <tag k='type' v='straight' />
  </way>
  <way id='-37236945' action='modify'>
    <nd ref='-159024437' />
    <nd ref='-159024438' />
  </way>
  <way id='-37236946' action='modify'>
    <nd ref='-159024438' />
    <nd ref='-159024439' />
    <tag k='type' v='straight' />
  </way>
  <way id='-37236947' action='modify'>
    <nd ref='-159024439' />
    <nd ref='-159024440' />
  </way>
  <way id='-37236948' action='modify'>
    <nd ref='-159024440' />
    <nd ref='-159024441' />
    <nd ref='-159024442' />
    <tag k='type' v='straight' />
  </way>
  <way id='-37236949' action='modify'>
    <nd ref='-159024442' />
    <nd ref='-159024443' />
  </way>
  <way id='-37236950' action='modify'>
    <nd ref='-159024443' />
    <nd ref='-159024444' />
    <nd ref='-159024445' />
    <nd ref='-159024446' />
    <tag k='type' v='straight' />
  </way>
  <way id='-37236951' action='modify'>
    <nd ref='-159024446' />
    <nd ref='-159024447' />
  </way>
  <way id='-37236952' action='modify'>
    <nd ref='-159024447' />
    <nd ref='-159024448' />
    <tag k='type' v='straight' />
  </way>
  <way id='-37236953' action='modify'>
    <nd ref='-159024448' />
    <nd ref='-159024449' />
  </way>
  <way id='-37236954' action='modify'>
    <nd ref='-159024449' />
    <nd ref='-159024450' />
    <tag k='type' v='straight' />
  </way>
  <way id='-37236955' action='modify'>
    <nd ref='-159024450' />
    <nd ref='-159024451' />
  </way>
  <way id='-37236956' action='modify'>
    <nd ref='-159024451' />
    <nd ref='-159024452' />
    <tag k='type' v='straight' />
  </way>
  <way id='-37236957' action='modify'>
    <nd ref='-159024452' />
    <nd ref='-159024453' />
  </way>
  <way id='-37236958' action='modify'>
    <nd ref='-159024453' />
    <nd ref='-159024454' />
    <tag k='type' v='straight' />
  </way>
  <way id='-37236959' action='modify'>
    <nd ref='-159024454' />
    <nd ref='-159024455' />
  </way>
  <way id='-37236960' action='modify'>
    <nd ref='-159024455' />
    <nd ref='-159024456' />
    <nd ref='-159024457' />
    <nd ref='-159024458' />
    <tag k='type' v='straight' />
  </way>
  <way id='-37236961' action='modify'>
    <nd ref='-159024458' />
    <nd ref='-159024459' />
  </way>
  <way id='-37236962' action='modify'>
    <nd ref='-159024459' />
    <nd ref='-159024460' />
    <tag k='type' v='straight' />
  </way>
  <way id='-37236963' action='modify'>
    <nd ref='-159024460' />
    <nd ref='-159024461' />
    <nd ref='-159024462' />
    <nd ref='-159024463' />
  </way>
  <way id='-37236964' action='modify'>
    <nd ref='-159024463' />
    <nd ref='-159024464' />
    <tag k='type' v='straight' />
  </way>
  <way id='-37236965' action='modify'>
    <nd ref='-159024464' />
    <nd ref='-159024465' />
    <nd ref='-159024466' />
  </way>
  <way id='-37236966' action='modify'>
    <nd ref='-159024466' />
    <nd ref='-159024467' />
    <tag k='type' v='straight' />
  </way>
  <way id='-37236967' action='modify'>
    <nd ref='-159024467' />
    <nd ref='-159024476' />
    <nd ref='-159024468' />
    <nd ref='-159024469' />
    <tag k='type' v='straight' />
  </way>
  <way id='-37236968' action='modify'>
    <nd ref='-159024469' />
    <nd ref='-159024470' />
  </way>
  <way id='-37236969' action='modify'>
    <nd ref='-159024470' />
    <nd ref='-159024471' />
    <tag k='type' v='straight' />
  </way>
  <way id='-37236970' action='modify'>
    <nd ref='-159024471' />
    <nd ref='-159024472' />
  </way>
  <way id='-37236971' action='modify'>
    <nd ref='-159024472' />
    <nd ref='-159024473' />
    <tag k='type' v='straight' />
  </way>
  <way id='-37236972' action='modify'>
    <nd ref='-159024473' />
    <nd ref='-159024474' />
  </way>
  <way id='-37236973' action='modify'>
    <nd ref='-159024474' />
    <nd ref='-159024475' />
    <tag k='type' v='straight' />
  </way>
  <relation id='-14476685' action='modify'>
    <member type='way' ref='-37236904' role='' />
    <member type='way' ref='-37236905' role='' />
    <member type='way' ref='-37236906' role='' />
    <member type='way' ref='-37236907' role='' />
    <member type='way' ref='-37236908' role='' />
    <member type='way' ref='-37236909' role='' />
    <member type='way' ref='-37236910' role='' />
    <member type='way' ref='-37236911' role='' />
    <member type='way' ref='-37236912' role='' />
    <member type='way' ref='-37236913' role='' />
    <member type='way' ref='-37236914' role='' />
    <member type='way' ref='-37236915' role='' />
    <member type='way' ref='-37236916' role='' />
    <member type='way' ref='-37236917' role='' />
    <member type='way' ref='-37236918' role='' />
    <member type='way' ref='-37236919' role='' />
    <member type='way' ref='-37236920' role='' />
    <member type='way' ref='-37236921' role='' />
    <member type='way' ref='-37236922' role='' />
    <member type='way' ref='-37236923' role='' />
    <member type='way' ref='-37236924' role='' />
    <member type='way' ref='-37236925' role='' />
    <member type='way' ref='-37236926' role='' />
    <member type='way' ref='-37236927' role='' />
    <member type='way' ref='-37236928' role='' />
    <member type='way' ref='-37236929' role='' />
    <member type='way' ref='-37236930' role='' />
    <member type='way' ref='-37236931' role='' />
    <member type='way' ref='-37236932' role='' />
    <member type='way' ref='-37236933' role='' />
    <member type='way' ref='-37236934' role='' />
    <member type='way' ref='-37236935' role='' />
    <member type='way' ref='-37236936' role='' />
    <member type='way' ref='-37236937' role='' />
    <member type='way' ref='-37236938' role='' />
    <member type='way' ref='-37236939' role='' />
    <member type='way' ref='-37236940' role='' />
    <member type='way' ref='-37236941' role='' />
    <member type='way' ref='-37236942' role='' />
    <member type='way' ref='-37236943' role='' />
    <member type='way' ref='-37236944' role='' />
    <member type='way' ref='-37236945' role='' />
    <member type='way' ref='-37236946' role='' />
    <member type='way' ref='-37236947' role='' />
    <member type='way' ref='-37236948' role='' />
    <member type='way' ref='-37236949' role='' />
    <member type='way' ref='-37236950' role='' />
    <member type='way' ref='-37236951' role='' />
    <member type='way' ref='-37236952' role='' />
    <member type='way' ref='-37236953' role='' />
    <member type='way' ref='-37236954' role='' />
    <member type='way' ref='-37236955' role='' />
    <member type='way' ref='-37236956' role='' />
    <member type='way' ref='-37236957' role='' />
    <member type='way' ref='-37236958' role='' />
    <member type='way' ref='-37236959' role='' />
    <member type='way' ref='-37236960' role='' />
    <member type='way' ref='-37236961' role='' />
    <member type='way' ref='-37236962' role='' />
    <member type='way' ref='-37236963' role='' />
    <member type='way' ref='-37236964' role='' />
    <member type='way' ref='-37236965' role='' />
    <member type='way' ref='-37236966' role='' />
    <member type='way' ref='-37236967' role='' />
    <member type='way' ref='-37236968' role='' />
    <member type='way' ref='-37236969' role='' />
    <member type='way' ref='-37236970' role='' />
    <member type='way' ref='-37236971' role='' />
    <member type='way' ref='-37236972' role='' />
    <member type='way' ref='-37236973' role='' />
    <tag k='key' v='path.nl.dha' />
    <tag k='name' v='NL DHA' />
    <tag k='source' v='src.nl.PDOK-Luchtfoto-RGB' />
    <tag k='type' v='path' />
  </relation>
</osm>
