<?xml version='1.0' encoding='UTF-8'?>
<osm version='0.6' upload='false' generator='JOSM'>
  <node id='-174047922' action='modify' lat='56.65291641959' lon='9.98075788095'>
    <tag k='name' v='mar.a' />
  </node>
  <node id='-174047923' action='modify' lat='56.65324385546' lon='9.97912779182'>
    <tag k='name' v='mar' />
  </node>
  <node id='-174047924' action='modify' lat='56.65434670691' lon='9.97363731131' />
  <node id='-174047925' action='modify' lat='56.65407689519' lon='9.96799796551'>
    <tag k='name' v='bad' />
  </node>
  <node id='-174047926' action='modify' lat='56.65316128769' lon='9.96609359711' />
  <node id='-174047927' action='modify' lat='56.65031332535' lon='9.96163040265' />
  <node id='-174047928' action='modify' lat='56.64877830058' lon='9.9567648755' />
  <node id='-174047929' action='modify' lat='56.64866770561' lon='9.95563566551' />
  <node id='-174047930' action='modify' lat='56.64227402813' lon='9.95017602772' />
  <node id='-174047931' action='modify' lat='56.64119442113' lon='9.95125025243' />
  <node id='-174047932' action='modify' lat='56.63939058257' lon='9.95214611024' />
  <node id='-174047933' action='modify' lat='56.6381132416' lon='9.95225608081' />
  <node id='-174047934' action='modify' lat='56.63674292969' lon='9.95284281135' />
  <node id='-174047935' action='modify' lat='56.63507723545' lon='9.95411975139'>
    <tag k='name' v='lun' />
  </node>
  <node id='-174047936' action='modify' lat='56.63008166943' lon='9.95794907078' />
  <node id='-174047937' action='modify' lat='56.62342071092' lon='9.95660528407' />
  <node id='-174047938' action='modify' lat='56.62096762569' lon='9.95359763477'>
    <tag k='name' v='fje' />
  </node>
  <node id='-174047939' action='modify' lat='56.61988650994' lon='9.9522721754' />
  <node id='-174047940' action='modify' lat='56.61461521366' lon='9.95141386852' />
  <node id='-174047941' action='modify' lat='56.61327836353' lon='9.95257660612' />
  <node id='-174047942' action='modify' lat='56.61005910211' lon='9.95303459331' />
  <node id='-174047943' action='modify' lat='56.60523929098' lon='9.95060920648' />
  <node id='-174047944' action='modify' lat='56.60310487085' lon='9.94818985328' />
  <node id='-174047945' action='modify' lat='56.60208652154' lon='9.94610309534' />
  <node id='-174047946' action='modify' lat='56.6009629474' lon='9.94144677982' />
  <node id='-174047947' action='modify' lat='56.60092133692' lon='9.9403603326'>
    <tag k='name' v='tru' />
  </node>
  <node id='-174047948' action='modify' lat='56.60062520375' lon='9.9326283478' />
  <node id='-174047949' action='modify' lat='56.6004495026' lon='9.93067771062' />
  <node id='-174047950' action='modify' lat='56.60001172134' lon='9.92760926418' />
  <node id='-174047951' action='modify' lat='56.59989692336' lon='9.92510542139' />
  <node id='-174047952' action='modify' lat='56.6000157821' lon='9.92336600885' />
  <node id='-174047953' action='modify' lat='56.59950380094' lon='9.91907548025'>
    <tag k='name' v='bro' />
  </node>
  <node id='-174047954' action='modify' lat='56.59756728999' lon='9.91633057527' />
  <node id='-174047955' action='modify' lat='56.59531503951' lon='9.91493850879' />
  <node id='-174047956' action='modify' lat='56.59122661012' lon='9.90572645992' />
  <node id='-174047957' action='modify' lat='56.59055168415' lon='9.89944740996' />
  <node id='-174047958' action='modify' lat='56.58816637804' lon='9.89296224379'>
    <tag k='name' v='vto' />
  </node>
  <node id='-174047959' action='modify' lat='56.58663038122' lon='9.89160328969' />
  <node id='-174047960' action='modify' lat='56.58477149719' lon='9.89036947355' />
  <node id='-174047961' action='modify' lat='56.58173962886' lon='9.88517537579' />
  <node id='-174047962' action='modify' lat='56.58032885937' lon='9.87948372826' />
  <node id='-174047963' action='modify' lat='56.57772064374' lon='9.87459137902' />
  <node id='-174047964' action='modify' lat='56.5765125133' lon='9.87340322251'>
    <tag k='name' v='fru' />
  </node>
  <node id='-174047965' action='modify' lat='56.5754624086' lon='9.87237050995' />
  <node id='-174047966' action='modify' lat='56.57246370459' lon='9.86671708324'>
    <tag k='name' v='gle' />
  </node>
  <node id='-174047967' action='modify' lat='56.57229385592' lon='9.86604317889' />
  <node id='-174047968' action='modify' lat='56.57007814925' lon='9.85692232713' />
  <node id='-174047969' action='modify' lat='56.56952845141' lon='9.8466293487' />
  <node id='-174047970' action='modify' lat='56.57030718796' lon='9.84251886472' />
  <node id='-174047971' action='modify' lat='56.57045126' lon='9.83681514725' />
  <node id='-174047972' action='modify' lat='56.57002495296' lon='9.83402833208' />
  <node id='-174047973' action='modify' lat='56.5698572364' lon='9.83271270856' />
  <node id='-174047974' action='modify' lat='56.56922089344' lon='9.82636568683'>
    <tag k='name' v='han' />
  </node>
  <node id='-174047975' action='modify' lat='56.56911247722' lon='9.8252843307' />
  <node id='-174047976' action='modify' lat='56.56506813415' lon='9.81998428635' />
  <node id='-174047977' action='modify' lat='56.56438202745' lon='9.82037857041' />
  <node id='-174047978' action='modify' lat='56.56152366834' lon='9.82503220304'>
    <tag k='name' v='far.ym' />
  </node>
  <node id='-174047979' action='modify' lat='56.56147785006' lon='9.82516363129' />
  <node id='-174047980' action='modify' lat='56.55595338593' lon='9.83434483275' />
  <node id='-174047981' action='modify' lat='56.5522265962' lon='9.83780622349' />
  <node id='-174047982' action='modify' lat='56.5495262553' lon='9.8409926878' />
  <node id='-174047983' action='modify' lat='56.54872417407' lon='9.84217419953' />
  <node id='-174047984' action='modify' lat='56.54752523152' lon='9.84393594404' />
  <node id='-174047987' action='modify' lat='56.54649063872' lon='9.84545680065'>
    <tag k='name' v='far' />
  </node>
  <way id='-38232049' action='modify'>
    <nd ref='-174047922' />
    <nd ref='-174047923' />
    <nd ref='-174047924' />
    <tag k='type' v='straight' />
  </way>
  <way id='-38232050' action='modify'>
    <nd ref='-174047924' />
    <nd ref='-174047925' />
    <nd ref='-174047926' />
  </way>
  <way id='-38232051' action='modify'>
    <nd ref='-174047926' />
    <nd ref='-174047927' />
    <tag k='type' v='straight' />
  </way>
  <way id='-38232052' action='modify'>
    <nd ref='-174047927' />
    <nd ref='-174047928' />
  </way>
  <way id='-38232053' action='modify'>
    <nd ref='-174047928' />
    <nd ref='-174047929' />
    <tag k='type' v='straight' />
  </way>
  <way id='-38232054' action='modify'>
    <nd ref='-174047929' />
    <nd ref='-174047930' />
  </way>
  <way id='-38232055' action='modify'>
    <nd ref='-174047930' />
    <nd ref='-174047931' />
    <tag k='type' v='straight' />
  </way>
  <way id='-38232056' action='modify'>
    <nd ref='-174047931' />
    <nd ref='-174047932' />
  </way>
  <way id='-38232057' action='modify'>
    <nd ref='-174047932' />
    <nd ref='-174047933' />
    <tag k='type' v='straight' />
  </way>
  <way id='-38232058' action='modify'>
    <nd ref='-174047933' />
    <nd ref='-174047934' />
  </way>
  <way id='-38232059' action='modify'>
    <nd ref='-174047934' />
    <nd ref='-174047935' />
    <nd ref='-174047936' />
    <tag k='type' v='straight' />
  </way>
  <way id='-38232060' action='modify'>
    <nd ref='-174047936' />
    <nd ref='-174047937' />
  </way>
  <way id='-38232061' action='modify'>
    <nd ref='-174047937' />
    <nd ref='-174047938' />
    <nd ref='-174047939' />
    <tag k='type' v='straight' />
  </way>
  <way id='-38232062' action='modify'>
    <nd ref='-174047939' />
    <nd ref='-174047940' />
  </way>
  <way id='-38232063' action='modify'>
    <nd ref='-174047940' />
    <nd ref='-174047941' />
    <tag k='type' v='straight' />
  </way>
  <way id='-38232064' action='modify'>
    <nd ref='-174047941' />
    <nd ref='-174047942' />
  </way>
  <way id='-38232065' action='modify'>
    <nd ref='-174047942' />
    <nd ref='-174047943' />
    <tag k='type' v='straight' />
  </way>
  <way id='-38232066' action='modify'>
    <nd ref='-174047943' />
    <nd ref='-174047944' />
  </way>
  <way id='-38232067' action='modify'>
    <nd ref='-174047944' />
    <nd ref='-174047945' />
    <tag k='type' v='straight' />
  </way>
  <way id='-38232068' action='modify'>
    <nd ref='-174047945' />
    <nd ref='-174047946' />
  </way>
  <way id='-38232069' action='modify'>
    <nd ref='-174047946' />
    <nd ref='-174047947' />
    <nd ref='-174047948' />
    <tag k='type' v='straight' />
  </way>
  <way id='-38232070' action='modify'>
    <nd ref='-174047948' />
    <nd ref='-174047949' />
  </way>
  <way id='-38232071' action='modify'>
    <nd ref='-174047949' />
    <nd ref='-174047950' />
    <tag k='type' v='straight' />
  </way>
  <way id='-38232072' action='modify'>
    <nd ref='-174047950' />
    <nd ref='-174047951' />
  </way>
  <way id='-38232073' action='modify'>
    <nd ref='-174047951' />
    <nd ref='-174047952' />
    <tag k='type' v='straight' />
  </way>
  <way id='-38232074' action='modify'>
    <nd ref='-174047952' />
    <nd ref='-174047953' />
    <nd ref='-174047954' />
  </way>
  <way id='-38232075' action='modify'>
    <nd ref='-174047954' />
    <nd ref='-174047955' />
    <tag k='type' v='straight' />
  </way>
  <way id='-38232076' action='modify'>
    <nd ref='-174047955' />
    <nd ref='-174047956' />
  </way>
  <way id='-38232077' action='modify'>
    <nd ref='-174047956' />
    <nd ref='-174047957' />
    <tag k='type' v='straight' />
  </way>
  <way id='-38232078' action='modify'>
    <nd ref='-174047957' />
    <nd ref='-174047958' />
    <nd ref='-174047959' />
  </way>
  <way id='-38232079' action='modify'>
    <nd ref='-174047959' />
    <nd ref='-174047960' />
    <tag k='type' v='straight' />
  </way>
  <way id='-38232080' action='modify'>
    <nd ref='-174047960' />
    <nd ref='-174047961' />
  </way>
  <way id='-38232081' action='modify'>
    <nd ref='-174047961' />
    <nd ref='-174047962' />
    <tag k='type' v='straight' />
  </way>
  <way id='-38232082' action='modify'>
    <nd ref='-174047962' />
    <nd ref='-174047963' />
  </way>
  <way id='-38232083' action='modify'>
    <nd ref='-174047963' />
    <nd ref='-174047964' />
    <nd ref='-174047965' />
    <tag k='type' v='straight' />
  </way>
  <way id='-38232084' action='modify'>
    <nd ref='-174047965' />
    <nd ref='-174047966' />
    <nd ref='-174047967' />
  </way>
  <way id='-38232085' action='modify'>
    <nd ref='-174047967' />
    <nd ref='-174047968' />
    <tag k='type' v='straight' />
  </way>
  <way id='-38232086' action='modify'>
    <nd ref='-174047968' />
    <nd ref='-174047969' />
  </way>
  <way id='-38232087' action='modify'>
    <nd ref='-174047969' />
    <nd ref='-174047970' />
    <tag k='type' v='straight' />
  </way>
  <way id='-38232088' action='modify'>
    <nd ref='-174047970' />
    <nd ref='-174047971' />
  </way>
  <way id='-38232089' action='modify'>
    <nd ref='-174047971' />
    <nd ref='-174047972' />
    <tag k='type' v='straight' />
  </way>
  <way id='-38232090' action='modify'>
    <nd ref='-174047972' />
    <nd ref='-174047973' />
  </way>
  <way id='-38232091' action='modify'>
    <nd ref='-174047973' />
    <nd ref='-174047974' />
    <nd ref='-174047975' />
    <tag k='type' v='straight' />
  </way>
  <way id='-38232092' action='modify'>
    <nd ref='-174047975' />
    <nd ref='-174047976' />
  </way>
  <way id='-38232093' action='modify'>
    <nd ref='-174047976' />
    <nd ref='-174047977' />
    <tag k='type' v='straight' />
  </way>
  <way id='-38232094' action='modify'>
    <nd ref='-174047977' />
    <nd ref='-174047978' />
  </way>
  <way id='-38232095' action='modify'>
    <nd ref='-174047978' />
    <nd ref='-174047979' />
    <tag k='type' v='straight' />
  </way>
  <way id='-38232096' action='modify'>
    <nd ref='-174047979' />
    <nd ref='-174047980' />
  </way>
  <way id='-38232097' action='modify'>
    <nd ref='-174047980' />
    <nd ref='-174047981' />
    <tag k='type' v='straight' />
  </way>
  <way id='-38232098' action='modify'>
    <nd ref='-174047981' />
    <nd ref='-174047982' />
  </way>
  <way id='-38232099' action='modify'>
    <nd ref='-174047982' />
    <nd ref='-174047983' />
    <tag k='type' v='straight' />
  </way>
  <way id='-38232100' action='modify'>
    <nd ref='-174047983' />
    <nd ref='-174047984' />
  </way>
  <way id='-38232101' action='modify'>
    <nd ref='-174047984' />
    <nd ref='-174047987' />
    <tag k='type' v='straight' />
  </way>
  <relation id='-14484688' action='modify'>
    <member type='way' ref='-38232049' role='' />
    <member type='way' ref='-38232050' role='' />
    <member type='way' ref='-38232051' role='' />
    <member type='way' ref='-38232052' role='' />
    <member type='way' ref='-38232053' role='' />
    <member type='way' ref='-38232054' role='' />
    <member type='way' ref='-38232055' role='' />
    <member type='way' ref='-38232056' role='' />
    <member type='way' ref='-38232057' role='' />
    <member type='way' ref='-38232058' role='' />
    <member type='way' ref='-38232059' role='' />
    <member type='way' ref='-38232060' role='' />
    <member type='way' ref='-38232061' role='' />
    <member type='way' ref='-38232062' role='' />
    <member type='way' ref='-38232063' role='' />
    <member type='way' ref='-38232064' role='' />
    <member type='way' ref='-38232065' role='' />
    <member type='way' ref='-38232066' role='' />
    <member type='way' ref='-38232067' role='' />
    <member type='way' ref='-38232068' role='' />
    <member type='way' ref='-38232069' role='' />
    <member type='way' ref='-38232070' role='' />
    <member type='way' ref='-38232071' role='' />
    <member type='way' ref='-38232072' role='' />
    <member type='way' ref='-38232073' role='' />
    <member type='way' ref='-38232074' role='' />
    <member type='way' ref='-38232075' role='' />
    <member type='way' ref='-38232076' role='' />
    <member type='way' ref='-38232077' role='' />
    <member type='way' ref='-38232078' role='' />
    <member type='way' ref='-38232079' role='' />
    <member type='way' ref='-38232080' role='' />
    <member type='way' ref='-38232081' role='' />
    <member type='way' ref='-38232082' role='' />
    <member type='way' ref='-38232083' role='' />
    <member type='way' ref='-38232084' role='' />
    <member type='way' ref='-38232085' role='' />
    <member type='way' ref='-38232086' role='' />
    <member type='way' ref='-38232087' role='' />
    <member type='way' ref='-38232088' role='' />
    <member type='way' ref='-38232089' role='' />
    <member type='way' ref='-38232090' role='' />
    <member type='way' ref='-38232091' role='' />
    <member type='way' ref='-38232092' role='' />
    <member type='way' ref='-38232093' role='' />
    <member type='way' ref='-38232094' role='' />
    <member type='way' ref='-38232095' role='' />
    <member type='way' ref='-38232096' role='' />
    <member type='way' ref='-38232097' role='' />
    <member type='way' ref='-38232098' role='' />
    <member type='way' ref='-38232099' role='' />
    <member type='way' ref='-38232100' role='' />
    <member type='way' ref='-38232101' role='' />
    <tag k='key' v='path.dk.maf' />
    <tag k='name' v='DK MAF' />
    <tag k='type' v='path' />
  </relation>
</osm>
