<?xml version='1.0' encoding='UTF-8'?>
<osm version='0.6' upload='false' generator='JOSM'>
  <node id='-145723783' action='modify' lat='54.77764135783' lon='11.50793343211'>
    <tag k='name' v='mar' />
  </node>
  <node id='-145723784' action='modify' lat='54.77839499123' lon='11.50414734811'>
    <tag k='name' v='mar.xb' />
  </node>
  <node id='-145723785' action='modify' lat='54.77899829267' lon='11.50354385108' />
  <node id='-145723786' action='modify' lat='54.78083598545' lon='11.50302618608' />
  <node id='-145723787' action='modify' lat='54.78149880308' lon='11.50320723519' />
  <node id='-145723788' action='modify' lat='54.7841174839' lon='11.50247499213' />
  <node id='-145723789' action='modify' lat='54.78507643859' lon='11.50176018342' />
  <node id='-145723790' action='modify' lat='54.78652952095' lon='11.50045126542' />
  <node id='-145723791' action='modify' lat='54.79695244475' lon='11.4899410294' />
  <node id='-145723792' action='modify' lat='54.80337264881' lon='11.48607864842' />
  <node id='-145723793' action='modify' lat='54.80562933675' lon='11.48552545698'>
    <tag k='name' v='mag' />
  </node>
  <node id='-145723794' action='modify' lat='54.83087173493' lon='11.47933557495' />
  <node id='-145723795' action='modify' lat='54.83473233197' lon='11.48069344394' />
  <node id='-145723796' action='modify' lat='54.83578101646' lon='11.4818785769'>
    <tag k='name' v='ban' />
  </node>
  <node id='-145723797' action='modify' lat='54.83633733003' lon='11.48250728711' />
  <node id='-145723798' action='modify' lat='54.83726569704' lon='11.48499503598' />
  <node id='-145723799' action='modify' lat='54.83734756532' lon='11.4867290841'>
    <tag k='name' v='ban.f' />
  </node>
  <node id='-145723941' action='modify' lat='54.77767520031' lon='11.50807680475' />
  <way id='-36461853' action='modify'>
    <nd ref='-145723941' />
    <nd ref='-145723783' />
    <tag k='type' v='straight' />
  </way>
  <way id='-36461854' action='modify'>
    <nd ref='-145723783' />
    <nd ref='-145723784' />
  </way>
  <way id='-36461855' action='modify'>
    <nd ref='-145723784' />
    <nd ref='-145723785' />
    <tag k='type' v='straight' />
  </way>
  <way id='-36461856' action='modify'>
    <nd ref='-145723785' />
    <nd ref='-145723786' />
  </way>
  <way id='-36461857' action='modify'>
    <nd ref='-145723786' />
    <nd ref='-145723787' />
    <tag k='type' v='straight' />
  </way>
  <way id='-36461858' action='modify'>
    <nd ref='-145723787' />
    <nd ref='-145723788' />
  </way>
  <way id='-36461859' action='modify'>
    <nd ref='-145723788' />
    <nd ref='-145723789' />
    <tag k='type' v='straight' />
  </way>
  <way id='-36461860' action='modify'>
    <nd ref='-145723789' />
    <nd ref='-145723790' />
  </way>
  <way id='-36461861' action='modify'>
    <nd ref='-145723790' />
    <nd ref='-145723791' />
    <tag k='type' v='straight' />
  </way>
  <way id='-36461862' action='modify'>
    <nd ref='-145723791' />
    <nd ref='-145723792' />
  </way>
  <way id='-36461863' action='modify'>
    <nd ref='-145723792' />
    <nd ref='-145723793' />
    <nd ref='-145723794' />
    <tag k='type' v='straight' />
  </way>
  <way id='-36461864' action='modify'>
    <nd ref='-145723794' />
    <nd ref='-145723795' />
  </way>
  <way id='-36461865' action='modify'>
    <nd ref='-145723795' />
    <nd ref='-145723796' />
    <nd ref='-145723797' />
    <tag k='type' v='straight' />
  </way>
  <way id='-36461866' action='modify'>
    <nd ref='-145723797' />
    <nd ref='-145723798' />
  </way>
  <way id='-36461867' action='modify'>
    <nd ref='-145723798' />
    <nd ref='-145723799' />
    <tag k='type' v='straight' />
  </way>
  <relation id='-14468268' action='modify'>
    <member type='way' ref='-36461853' role='' />
    <member type='way' ref='-36461854' role='' />
    <member type='way' ref='-36461855' role='' />
    <member type='way' ref='-36461856' role='' />
    <member type='way' ref='-36461857' role='' />
    <member type='way' ref='-36461858' role='' />
    <member type='way' ref='-36461859' role='' />
    <member type='way' ref='-36461860' role='' />
    <member type='way' ref='-36461861' role='' />
    <member type='way' ref='-36461862' role='' />
    <member type='way' ref='-36461863' role='' />
    <member type='way' ref='-36461864' role='' />
    <member type='way' ref='-36461865' role='' />
    <member type='way' ref='-36461866' role='' />
    <member type='way' ref='-36461867' role='' />
    <tag k='key' v='path.dk.mbh' />
    <tag k='name' v='DK MBH' />
    <tag k='type' v='path' />
  </relation>
</osm>
