<?xml version='1.0' encoding='UTF-8'?>
<osm version='0.6' upload='false' generator='JOSM'>
  <node id='-151195498' action='modify' lat='55.49587364065' lon='9.75066900486'>
    <tag k='name' v='mis' />
  </node>
  <node id='-151195499' action='modify' lat='55.49772308248' lon='9.74963042589' />
  <node id='-151195500' action='modify' lat='55.50251028044' lon='9.7499477756' />
  <node id='-151195501' action='modify' lat='55.50582267552' lon='9.7517864418'>
    <tag k='name' v='mig' />
  </node>
  <node id='-151195502' action='modify' lat='55.50656916805' lon='9.75220083117' />
  <node id='-151195503' action='modify' lat='55.50873059344' lon='9.75396036834' />
  <node id='-151195504' action='modify' lat='55.50888849673' lon='9.7541252266' />
  <node id='-151195505' action='modify' lat='55.51291793286' lon='9.75833236635' />
  <node id='-151195506' action='modify' lat='55.51529921613' lon='9.7601938194' />
  <node id='-151195507' action='modify' lat='55.51719442026' lon='9.76143836439' />
  <node id='-151195508' action='modify' lat='55.51952685389' lon='9.76372360647' />
  <node id='-151195509' action='modify' lat='55.51999453879' lon='9.76427614152' />
  <node id='-151195510' action='modify' lat='55.52287037502' lon='9.76684569776' />
  <node id='-151195511' action='modify' lat='55.52819026975' lon='9.77031647623' />
  <node id='-151195512' action='modify' lat='55.5350819859' lon='9.76848720968' />
  <node id='-151195513' action='modify' lat='55.54111500344' lon='9.76050849819'>
    <tag k='name' v='str' />
  </node>
  <node id='-151195514' action='modify' lat='55.54276017954' lon='9.75833252787'>
    <tag k='name' v='str.f' />
  </node>
  <way id='-36797240' action='modify'>
    <nd ref='-151195498' />
    <nd ref='-151195499' />
    <tag k='type' v='straight' />
  </way>
  <way id='-36797241' action='modify'>
    <nd ref='-151195499' />
    <nd ref='-151195500' />
  </way>
  <way id='-36797242' action='modify'>
    <nd ref='-151195500' />
    <nd ref='-151195501' />
    <nd ref='-151195502' />
    <tag k='type' v='straight' />
  </way>
  <way id='-36797243' action='modify'>
    <nd ref='-151195502' />
    <nd ref='-151195503' />
  </way>
  <way id='-36797244' action='modify'>
    <nd ref='-151195503' />
    <nd ref='-151195504' />
    <tag k='type' v='straight' />
  </way>
  <way id='-36797245' action='modify'>
    <nd ref='-151195504' />
    <nd ref='-151195505' />
    <tag k='type' v='straight' />
  </way>
  <way id='-36797246' action='modify'>
    <nd ref='-151195505' />
    <nd ref='-151195506' />
  </way>
  <way id='-36797247' action='modify'>
    <nd ref='-151195506' />
    <nd ref='-151195507' />
    <tag k='type' v='straight' />
  </way>
  <way id='-36797248' action='modify'>
    <nd ref='-151195507' />
    <nd ref='-151195508' />
  </way>
  <way id='-36797249' action='modify'>
    <nd ref='-151195508' />
    <nd ref='-151195509' />
    <tag k='type' v='straight' />
  </way>
  <way id='-36797250' action='modify'>
    <nd ref='-151195509' />
    <nd ref='-151195510' />
  </way>
  <way id='-36797251' action='modify'>
    <nd ref='-151195510' />
    <nd ref='-151195511' />
    <tag k='type' v='straight' />
  </way>
  <way id='-36797252' action='modify'>
    <nd ref='-151195511' />
    <nd ref='-151195512' />
  </way>
  <way id='-36797253' action='modify'>
    <nd ref='-151195512' />
    <nd ref='-151195513' />
    <nd ref='-151195514' />
    <tag k='type' v='straight' />
  </way>
  <relation id='-14471041' action='modify'>
    <member type='way' ref='-36797240' role='' />
    <member type='way' ref='-36797241' role='' />
    <member type='way' ref='-36797242' role='' />
    <member type='way' ref='-36797243' role='' />
    <member type='way' ref='-36797244' role='' />
    <member type='way' ref='-36797245' role='' />
    <member type='way' ref='-36797246' role='' />
    <member type='way' ref='-36797247' role='' />
    <member type='way' ref='-36797248' role='' />
    <member type='way' ref='-36797249' role='' />
    <member type='way' ref='-36797250' role='' />
    <member type='way' ref='-36797251' role='' />
    <member type='way' ref='-36797252' role='' />
    <member type='way' ref='-36797253' role='' />
    <tag k='key' v='path.dk.mfs' />
    <tag k='name' v='DK MFS' />
    <tag k='type' v='path' />
  </relation>
</osm>
