<?xml version='1.0' encoding='UTF-8'?>
<osm version='0.6' upload='false' generator='JOSM'>
  <node id='-144405605' action='modify' lat='55.00141540393' lon='11.89423027728' />
  <node id='-144405606' action='modify' lat='54.99781548997' lon='11.89233203406'>
    <tag k='name' v='mas' />
  </node>
  <node id='-144405607' action='modify' lat='55.00320424205' lon='11.89938962191' />
  <node id='-144405608' action='modify' lat='55.00393955812' lon='11.90627216756' />
  <node id='-144405609' action='modify' lat='55.00441565709' lon='11.908240913' />
  <node id='-144405610' action='modify' lat='55.00448641802' lon='11.90842330322' />
  <node id='-144405611' action='modify' lat='55.00495311124' lon='11.91304344868'>
    <tag k='name' v='vos' />
  </node>
  <node id='-144405612' action='modify' lat='55.00486714125' lon='11.91352754563' />
  <node id='-144405613' action='modify' lat='55.00476561561' lon='11.91397547454' />
  <node id='-144405614' action='modify' lat='55.00447795979' lon='11.91641091764' />
  <node id='-144405615' action='modify' lat='55.00440412228' lon='11.93006336153' />
  <node id='-144405616' action='modify' lat='55.00447795825' lon='11.93213402957' />
  <node id='-144405617' action='modify' lat='55.00493021007' lon='11.93774521083' />
  <node id='-144405618' action='modify' lat='55.00487944737' lon='11.94046765298' />
  <node id='-144405619' action='modify' lat='55.00456564013' lon='11.94272875518' />
  <node id='-144405620' action='modify' lat='55.00441027387' lon='11.94682180613' />
  <node id='-144405621' action='modify' lat='55.00464255389' lon='11.94989025325'>
    <tag k='name' v='flo' />
  </node>
  <node id='-144405622' action='modify' lat='55.0045702565' lon='11.95372044504' />
  <node id='-144405623' action='modify' lat='55.00319809028' lon='11.967040295' />
  <node id='-144405624' action='modify' lat='55.00307809888' lon='11.96801662177'>
    <tag k='name' v='nyr' />
  </node>
  <node id='-144405625' action='modify' lat='55.00178895593' lon='11.97128891408' />
  <node id='-144405626' action='modify' lat='55.00077668696' lon='11.9726622051' />
  <node id='-144405627' action='modify' lat='54.99905976962' lon='11.9741266939' />
  <node id='-144405628' action='modify' lat='54.99801973829' lon='11.9747194621' />
  <node id='-144405629' action='modify' lat='54.99572419064' lon='11.97784423292' />
  <node id='-144405630' action='modify' lat='54.99320077977' lon='11.98439687222' />
  <node id='-144405631' action='modify' lat='54.9925691325' lon='11.986789404'>
    <tag k='name' v='bak' />
  </node>
  <node id='-144405632' action='modify' lat='54.99250604424' lon='11.98719709978' />
  <node id='-144405633' action='modify' lat='54.99262837614' lon='11.991614694' />
  <node id='-144405634' action='modify' lat='54.99372394019' lon='11.99606179655' />
  <node id='-144405635' action='modify' lat='54.9941793906' lon='11.99827193677' />
  <node id='-144405636' action='modify' lat='54.99534562139' lon='12.00684895446'>
    <tag k='name' v='ves' />
  </node>
  <node id='-144405637' action='modify' lat='54.99665350386' lon='12.01646804273' />
  <node id='-144405638' action='modify' lat='54.99658426615' lon='12.02202021807' />
  <node id='-144405639' action='modify' lat='54.99622885193' lon='12.02391653985' />
  <node id='-144405640' action='modify' lat='54.99584420096' lon='12.02704667777'>
    <tag k='name' v='ste' />
  </node>
  <node id='-144405641' action='modify' lat='54.99620423438' lon='12.02989518374' />
  <node id='-144405642' action='modify' lat='54.99835846881' lon='12.03715133959'>
    <tag k='name' v='sti' />
  </node>
  <node id='-144405643' action='modify' lat='54.99874283985' lon='12.03844606608' />
  <node id='-144405644' action='modify' lat='54.99929977302' lon='12.04117923707' />
  <node id='-144405645' action='modify' lat='54.99964900617' lon='12.0442530486' />
  <node id='-144405646' action='modify' lat='55.00013669826' lon='12.04691111505' />
  <node id='-144405647' action='modify' lat='55.00350421509' lon='12.05721348256' />
  <node id='-144405648' action='modify' lat='55.00419491524' lon='12.06069230497' />
  <node id='-144405649' action='modify' lat='55.0043526861' lon='12.0625668768'>
    <tag k='name' v='sko' />
  </node>
  <node id='-144405650' action='modify' lat='55.00505634896' lon='12.07092761457' />
  <node id='-144405651' action='modify' lat='55.00591776419' lon='12.07464515626' />
  <node id='-144405652' action='modify' lat='55.0071508573' lon='12.07772808339'>
    <tag k='name' v='lan' />
  </node>
  <node id='-144405653' action='modify' lat='55.00768360756' lon='12.0790600723' />
  <node id='-144405654' action='modify' lat='55.00818504214' lon='12.08062380284' />
  <node id='-144405655' action='modify' lat='55.00871262' lon='12.08262204856' />
  <node id='-144405656' action='modify' lat='55.00945244936' lon='12.08484291494' />
  <node id='-144405657' action='modify' lat='55.0125838771' lon='12.09334551752' />
  <node id='-144405658' action='modify' lat='55.01346358897' lon='12.09932683825' />
  <node id='-144405659' action='modify' lat='55.01307602733' lon='12.10466979861' />
  <node id='-144405660' action='modify' lat='55.0129837502' lon='12.10809229732' />
  <node id='-144405661' action='modify' lat='55.01314039455' lon='12.11190554973'>
    <tag k='name' v='sta' />
  </node>
  <node id='-144405662' action='modify' lat='55.01365821723' lon='12.12451120877' />
  <node id='-144405663' action='modify' lat='55.01377116714' lon='12.12756497603' />
  <node id='-144405664' action='modify' lat='55.0140868234' lon='12.13777456103'>
    <tag k='name' v='vie' />
  </node>
  <node id='-144405665' action='modify' lat='55.01414335072' lon='12.13960288882' />
  <node id='-144405666' action='modify' lat='55.01301143029' lon='12.14665173948' />
  <node id='-144405667' action='modify' lat='55.01241470012' lon='12.14766025007' />
  <node id='-144405668' action='modify' lat='55.01128888605' lon='12.15039610326' />
  <node id='-144405669' action='modify' lat='55.00619772323' lon='12.16476200938' />
  <node id='-144405670' action='modify' lat='55.00140743507' lon='12.16902136266' />
  <node id='-144405671' action='modify' lat='54.99723946771' lon='12.16855656973'>
    <tag k='name' v='kal' />
  </node>
  <node id='-144405672' action='modify' lat='54.99560489112' lon='12.1683743023' />
  <node id='-144405673' action='modify' lat='54.99485332462' lon='12.16829716623' />
  <node id='-144405674' action='modify' lat='54.99381196571' lon='12.16869774862'>
    <tag k='name' v='kal.f' />
  </node>
  <way id='-36384029' action='modify'>
    <nd ref='-144405606' />
    <nd ref='-144405605' />
    <tag k='type' v='straight' />
  </way>
  <way id='-36384030' action='modify'>
    <nd ref='-144405605' />
    <nd ref='-144405607' />
  </way>
  <way id='-36384031' action='modify'>
    <nd ref='-144405607' />
    <nd ref='-144405608' />
    <tag k='type' v='straight' />
  </way>
  <way id='-36384032' action='modify'>
    <nd ref='-144405608' />
    <nd ref='-144405609' />
  </way>
  <way id='-36384033' action='modify'>
    <nd ref='-144405609' />
    <nd ref='-144405610' />
    <tag k='type' v='straight' />
  </way>
  <way id='-36384034' action='modify'>
    <nd ref='-144405610' />
    <nd ref='-144405611' />
    <nd ref='-144405612' />
  </way>
  <way id='-36384035' action='modify'>
    <nd ref='-144405612' />
    <nd ref='-144405613' />
    <tag k='type' v='straight' />
  </way>
  <way id='-36384036' action='modify'>
    <nd ref='-144405613' />
    <nd ref='-144405614' />
  </way>
  <way id='-36384037' action='modify'>
    <nd ref='-144405614' />
    <nd ref='-144405615' />
    <tag k='type' v='straight' />
  </way>
  <way id='-36384038' action='modify'>
    <nd ref='-144405615' />
    <nd ref='-144405616' />
  </way>
  <way id='-36384039' action='modify'>
    <nd ref='-144405616' />
    <nd ref='-144405617' />
    <tag k='type' v='straight' />
  </way>
  <way id='-36384040' action='modify'>
    <nd ref='-144405617' />
    <nd ref='-144405618' />
  </way>
  <way id='-36384041' action='modify'>
    <nd ref='-144405618' />
    <nd ref='-144405619' />
    <tag k='type' v='straight' />
  </way>
  <way id='-36384042' action='modify'>
    <nd ref='-144405619' />
    <nd ref='-144405620' />
  </way>
  <way id='-36384043' action='modify'>
    <nd ref='-144405620' />
    <nd ref='-144405621' />
    <tag k='type' v='straight' />
  </way>
  <way id='-36384044' action='modify'>
    <nd ref='-144405621' />
    <nd ref='-144405622' />
  </way>
  <way id='-36384045' action='modify'>
    <nd ref='-144405622' />
    <nd ref='-144405623' />
    <tag k='type' v='straight' />
  </way>
  <way id='-36384046' action='modify'>
    <nd ref='-144405623' />
    <nd ref='-144405624' />
    <nd ref='-144405625' />
  </way>
  <way id='-36384047' action='modify'>
    <nd ref='-144405625' />
    <nd ref='-144405626' />
    <tag k='type' v='straight' />
  </way>
  <way id='-36384048' action='modify'>
    <nd ref='-144405626' />
    <nd ref='-144405627' />
  </way>
  <way id='-36384049' action='modify'>
    <nd ref='-144405627' />
    <nd ref='-144405628' />
    <tag k='type' v='straight' />
  </way>
  <way id='-36384050' action='modify'>
    <nd ref='-144405628' />
    <nd ref='-144405629' />
  </way>
  <way id='-36384051' action='modify'>
    <nd ref='-144405629' />
    <nd ref='-144405630' />
    <tag k='type' v='straight' />
  </way>
  <way id='-36384052' action='modify'>
    <nd ref='-144405630' />
    <nd ref='-144405631' />
  </way>
  <way id='-36384053' action='modify'>
    <nd ref='-144405631' />
    <nd ref='-144405632' />
    <tag k='type' v='straight' />
  </way>
  <way id='-36384054' action='modify'>
    <nd ref='-144405632' />
    <nd ref='-144405633' />
  </way>
  <way id='-36384055' action='modify'>
    <nd ref='-144405633' />
    <nd ref='-144405634' />
    <tag k='type' v='straight' />
  </way>
  <way id='-36384056' action='modify'>
    <nd ref='-144405634' />
    <nd ref='-144405635' />
  </way>
  <way id='-36384057' action='modify'>
    <nd ref='-144405635' />
    <nd ref='-144405636' />
    <nd ref='-144405637' />
    <tag k='type' v='straight' />
  </way>
  <way id='-36384058' action='modify'>
    <nd ref='-144405637' />
    <nd ref='-144405638' />
  </way>
  <way id='-36384059' action='modify'>
    <nd ref='-144405638' />
    <nd ref='-144405639' />
    <tag k='type' v='straight' />
  </way>
  <way id='-36384060' action='modify'>
    <nd ref='-144405639' />
    <nd ref='-144405640' />
    <nd ref='-144405641' />
  </way>
  <way id='-36384061' action='modify'>
    <nd ref='-144405641' />
    <nd ref='-144405642' />
    <nd ref='-144405643' />
    <tag k='type' v='straight' />
  </way>
  <way id='-36384062' action='modify'>
    <nd ref='-144405643' />
    <nd ref='-144405644' />
  </way>
  <way id='-36384063' action='modify'>
    <nd ref='-144405644' />
    <nd ref='-144405645' />
    <tag k='type' v='straight' />
  </way>
  <way id='-36384064' action='modify'>
    <nd ref='-144405645' />
    <nd ref='-144405646' />
  </way>
  <way id='-36384065' action='modify'>
    <nd ref='-144405646' />
    <nd ref='-144405647' />
    <tag k='type' v='straight' />
  </way>
  <way id='-36384066' action='modify'>
    <nd ref='-144405647' />
    <nd ref='-144405648' />
  </way>
  <way id='-36384067' action='modify'>
    <nd ref='-144405648' />
    <nd ref='-144405649' />
    <nd ref='-144405650' />
    <tag k='type' v='straight' />
  </way>
  <way id='-36384068' action='modify'>
    <nd ref='-144405650' />
    <nd ref='-144405651' />
  </way>
  <way id='-36384069' action='modify'>
    <nd ref='-144405651' />
    <nd ref='-144405652' />
    <nd ref='-144405653' />
    <tag k='type' v='straight' />
  </way>
  <way id='-36384070' action='modify'>
    <nd ref='-144405653' />
    <nd ref='-144405654' />
  </way>
  <way id='-36384071' action='modify'>
    <nd ref='-144405654' />
    <nd ref='-144405655' />
    <tag k='type' v='straight' />
  </way>
  <way id='-36384072' action='modify'>
    <nd ref='-144405655' />
    <nd ref='-144405656' />
  </way>
  <way id='-36384073' action='modify'>
    <nd ref='-144405656' />
    <nd ref='-144405657' />
    <tag k='type' v='straight' />
  </way>
  <way id='-36384074' action='modify'>
    <nd ref='-144405657' />
    <nd ref='-144405658' />
  </way>
  <way id='-36384075' action='modify'>
    <nd ref='-144405658' />
    <nd ref='-144405659' />
    <tag k='type' v='straight' />
  </way>
  <way id='-36384076' action='modify'>
    <nd ref='-144405659' />
    <nd ref='-144405660' />
  </way>
  <way id='-36384077' action='modify'>
    <nd ref='-144405660' />
    <nd ref='-144405661' />
    <nd ref='-144405662' />
    <tag k='type' v='straight' />
  </way>
  <way id='-36384078' action='modify'>
    <nd ref='-144405662' />
    <nd ref='-144405663' />
  </way>
  <way id='-36384079' action='modify'>
    <nd ref='-144405663' />
    <nd ref='-144405664' />
    <nd ref='-144405665' />
    <tag k='type' v='straight' />
  </way>
  <way id='-36384080' action='modify'>
    <nd ref='-144405665' />
    <nd ref='-144405666' />
  </way>
  <way id='-36384081' action='modify'>
    <nd ref='-144405666' />
    <nd ref='-144405667' />
    <tag k='type' v='straight' />
  </way>
  <way id='-36384082' action='modify'>
    <nd ref='-144405667' />
    <nd ref='-144405668' />
  </way>
  <way id='-36384083' action='modify'>
    <nd ref='-144405668' />
    <nd ref='-144405669' />
    <tag k='type' v='straight' />
  </way>
  <way id='-36384084' action='modify'>
    <nd ref='-144405669' />
    <nd ref='-144405670' />
  </way>
  <way id='-36384085' action='modify'>
    <nd ref='-144405670' />
    <nd ref='-144405671' />
    <nd ref='-144405672' />
    <tag k='type' v='straight' />
  </way>
  <way id='-36384086' action='modify'>
    <nd ref='-144405672' />
    <nd ref='-144405673' />
  </way>
  <way id='-36384087' action='modify'>
    <nd ref='-144405673' />
    <nd ref='-144405674' />
    <tag k='type' v='straight' />
  </way>
  <relation id='-14467649' action='modify'>
    <member type='way' ref='-36384029' role='' />
    <member type='way' ref='-36384030' role='' />
    <member type='way' ref='-36384031' role='' />
    <member type='way' ref='-36384032' role='' />
    <member type='way' ref='-36384033' role='' />
    <member type='way' ref='-36384034' role='' />
    <member type='way' ref='-36384035' role='' />
    <member type='way' ref='-36384036' role='' />
    <member type='way' ref='-36384037' role='' />
    <member type='way' ref='-36384038' role='' />
    <member type='way' ref='-36384039' role='' />
    <member type='way' ref='-36384040' role='' />
    <member type='way' ref='-36384041' role='' />
    <member type='way' ref='-36384042' role='' />
    <member type='way' ref='-36384043' role='' />
    <member type='way' ref='-36384044' role='' />
    <member type='way' ref='-36384045' role='' />
    <member type='way' ref='-36384046' role='' />
    <member type='way' ref='-36384047' role='' />
    <member type='way' ref='-36384048' role='' />
    <member type='way' ref='-36384049' role='' />
    <member type='way' ref='-36384050' role='' />
    <member type='way' ref='-36384051' role='' />
    <member type='way' ref='-36384052' role='' />
    <member type='way' ref='-36384053' role='' />
    <member type='way' ref='-36384054' role='' />
    <member type='way' ref='-36384055' role='' />
    <member type='way' ref='-36384056' role='' />
    <member type='way' ref='-36384057' role='' />
    <member type='way' ref='-36384058' role='' />
    <member type='way' ref='-36384059' role='' />
    <member type='way' ref='-36384060' role='' />
    <member type='way' ref='-36384061' role='' />
    <member type='way' ref='-36384062' role='' />
    <member type='way' ref='-36384063' role='' />
    <member type='way' ref='-36384064' role='' />
    <member type='way' ref='-36384065' role='' />
    <member type='way' ref='-36384066' role='' />
    <member type='way' ref='-36384067' role='' />
    <member type='way' ref='-36384068' role='' />
    <member type='way' ref='-36384069' role='' />
    <member type='way' ref='-36384070' role='' />
    <member type='way' ref='-36384071' role='' />
    <member type='way' ref='-36384072' role='' />
    <member type='way' ref='-36384073' role='' />
    <member type='way' ref='-36384074' role='' />
    <member type='way' ref='-36384075' role='' />
    <member type='way' ref='-36384076' role='' />
    <member type='way' ref='-36384077' role='' />
    <member type='way' ref='-36384078' role='' />
    <member type='way' ref='-36384079' role='' />
    <member type='way' ref='-36384080' role='' />
    <member type='way' ref='-36384081' role='' />
    <member type='way' ref='-36384082' role='' />
    <member type='way' ref='-36384083' role='' />
    <member type='way' ref='-36384084' role='' />
    <member type='way' ref='-36384085' role='' />
    <member type='way' ref='-36384086' role='' />
    <member type='way' ref='-36384087' role='' />
    <tag k='key' v='path.dk.mkh' />
    <tag k='name' v='DK MKH' />
    <tag k='type' v='path' />
  </relation>
</osm>
