<?xml version='1.0' encoding='UTF-8'?>
<osm version='0.6' upload='false' generator='JOSM'>
  <node id='-146290838' action='modify' lat='54.77759340182' lon='11.50795220757' />
  <node id='-146290839' action='modify' lat='54.77743336253' lon='11.5072763117' />
  <node id='-146290840' action='modify' lat='54.77695621488' lon='11.50163428841'>
    <tag k='name' v='mar' />
  </node>
  <node id='-146290841' action='modify' lat='54.77703211485' lon='11.49942934379' />
  <node id='-146290842' action='modify' lat='54.77719300153' lon='11.49713739619' />
  <node id='-146290843' action='modify' lat='54.77714195102' lon='11.49391069874' />
  <node id='-146290844' action='modify' lat='54.77707233658' lon='11.49298935995' />
  <node id='-146290845' action='modify' lat='54.77700272202' lon='11.49025753006' />
  <node id='-146290846' action='modify' lat='54.77704371728' lon='11.48876085743' />
  <node id='-146290847' action='modify' lat='54.77483223697' lon='11.47975801885' />
  <node id='-146290848' action='modify' lat='54.77289525325' lon='11.47614776552' />
  <node id='-146290849' action='modify' lat='54.76506901866' lon='11.47141634881' />
  <node id='-146290850' action='modify' lat='54.74965986501' lon='11.47332480554'>
    <tag k='name' v='soh' />
  </node>
  <node id='-146290851' action='modify' lat='54.7354908572' lon='11.47507902673'>
    <tag k='name' v='bur' />
  </node>
  <node id='-146290852' action='modify' lat='54.72546903792' lon='11.47631942689' />
  <node id='-146290853' action='modify' lat='54.7239851039' lon='11.47643744677' />
  <node id='-146290854' action='modify' lat='54.71420652187' lon='11.47695242822' />
  <node id='-146290855' action='modify' lat='54.71185137592' lon='11.47634356946' />
  <node id='-146290856' action='modify' lat='54.70977083745' lon='11.47501862237'>
    <tag k='name' v='hol' />
  </node>
  <node id='-146290857' action='modify' lat='54.70857873922' lon='11.47425949037' />
  <node id='-146290858' action='modify' lat='54.70293467728' lon='11.46151363313' />
  <node id='-146290859' action='modify' lat='54.70272406297' lon='11.45293226593'>
    <tag k='name' v='hoj' />
  </node>
  <node id='-146290860' action='modify' lat='54.70163280523' lon='11.40847026765' />
  <node id='-146290861' action='modify' lat='54.69964272007' lon='11.40144824445' />
  <node id='-146290862' action='modify' lat='54.69674508101' lon='11.39814407088'>
    <tag k='name' v='rod' />
  </node>
  <node id='-146290863' action='modify' lat='54.69642489921' lon='11.39777898252' />
  <node id='-146290864' action='modify' lat='54.69401911999' lon='11.39664172053' />
  <node id='-146290865' action='modify' lat='54.69279137199' lon='11.39684556842' />
  <node id='-146290866' action='modify' lat='54.68959160861' lon='11.39624475896' />
  <node id='-146290867' action='modify' lat='54.68112590997' lon='11.39123975694' />
  <node id='-146290868' action='modify' lat='54.67592157504' lon='11.38578950822' />
  <node id='-146290869' action='modify' lat='54.67174191876' lon='11.37883391749'>
    <tag k='name' v='ven' />
  </node>
  <node id='-146290870' action='modify' lat='54.6678656365' lon='11.37238382757' />
  <node id='-146290871' action='modify' lat='54.66470734704' lon='11.36512576997' />
  <node id='-146290872' action='modify' lat='54.66374554017' lon='11.36198222101' />
  <node id='-146290873' action='modify' lat='54.66198940824' lon='11.35882794321' />
  <node id='-146290874' action='modify' lat='54.65921782525' lon='11.35592165743'>
    <tag k='name' v='roh' />
  </node>
  <node id='-146290875' action='modify' lat='54.65818833271' lon='11.35484218061' />
  <node id='-146290876' action='modify' lat='54.65682917106' lon='11.3530719173' />
  <node id='-146290877' action='modify' lat='54.65383760722' lon='11.34764312625'>
    <tag k='name' v='roh.f' />
  </node>
  <way id='-36497002' action='modify'>
    <nd ref='-146290838' />
    <nd ref='-146290839' />
    <tag k='type' v='straight' />
  </way>
  <way id='-36497003' action='modify'>
    <nd ref='-146290839' />
    <nd ref='-146290840' />
    <nd ref='-146290841' />
  </way>
  <way id='-36497004' action='modify'>
    <nd ref='-146290841' />
    <nd ref='-146290842' />
    <tag k='type' v='straight' />
  </way>
  <way id='-36497005' action='modify'>
    <nd ref='-146290842' />
    <nd ref='-146290843' />
  </way>
  <way id='-36497006' action='modify'>
    <nd ref='-146290843' />
    <nd ref='-146290844' />
    <tag k='type' v='straight' />
  </way>
  <way id='-36497007' action='modify'>
    <nd ref='-146290844' />
    <nd ref='-146290845' />
  </way>
  <way id='-36497008' action='modify'>
    <nd ref='-146290845' />
    <nd ref='-146290846' />
    <tag k='type' v='straight' />
  </way>
  <way id='-36497009' action='modify'>
    <nd ref='-146290846' />
    <nd ref='-146290847' />
  </way>
  <way id='-36497010' action='modify'>
    <nd ref='-146290847' />
    <nd ref='-146290848' />
    <tag k='type' v='straight' />
  </way>
  <way id='-36497011' action='modify'>
    <nd ref='-146290848' />
    <nd ref='-146290849' />
  </way>
  <way id='-36497012' action='modify'>
    <nd ref='-146290849' />
    <nd ref='-146290850' />
    <nd ref='-146290851' />
    <nd ref='-146290852' />
    <tag k='type' v='straight' />
  </way>
  <way id='-36497013' action='modify'>
    <nd ref='-146290852' />
    <nd ref='-146290853' />
  </way>
  <way id='-36497014' action='modify'>
    <nd ref='-146290853' />
    <nd ref='-146290854' />
    <tag k='type' v='straight' />
  </way>
  <way id='-36497015' action='modify'>
    <nd ref='-146290854' />
    <nd ref='-146290855' />
  </way>
  <way id='-36497016' action='modify'>
    <nd ref='-146290855' />
    <nd ref='-146290856' />
    <nd ref='-146290857' />
    <tag k='type' v='straight' />
  </way>
  <way id='-36497017' action='modify'>
    <nd ref='-146290857' />
    <nd ref='-146290858' />
  </way>
  <way id='-36497018' action='modify'>
    <nd ref='-146290858' />
    <nd ref='-146290859' />
    <nd ref='-146290860' />
    <tag k='type' v='straight' />
  </way>
  <way id='-36497019' action='modify'>
    <nd ref='-146290860' />
    <nd ref='-146290861' />
  </way>
  <way id='-36497020' action='modify'>
    <nd ref='-146290861' />
    <nd ref='-146290862' />
    <nd ref='-146290863' />
    <tag k='type' v='straight' />
  </way>
  <way id='-36497021' action='modify'>
    <nd ref='-146290863' />
    <nd ref='-146290864' />
  </way>
  <way id='-36497022' action='modify'>
    <nd ref='-146290864' />
    <nd ref='-146290865' />
    <tag k='type' v='straight' />
  </way>
  <way id='-36497023' action='modify'>
    <nd ref='-146290865' />
    <nd ref='-146290866' />
  </way>
  <way id='-36497024' action='modify'>
    <nd ref='-146290866' />
    <nd ref='-146290867' />
    <tag k='type' v='straight' />
  </way>
  <way id='-36497025' action='modify'>
    <nd ref='-146290867' />
    <nd ref='-146290868' />
  </way>
  <way id='-36497026' action='modify'>
    <nd ref='-146290868' />
    <nd ref='-146290869' />
    <nd ref='-146290870' />
    <tag k='type' v='straight' />
  </way>
  <way id='-36497027' action='modify'>
    <nd ref='-146290870' />
    <nd ref='-146290871' />
  </way>
  <way id='-36497028' action='modify'>
    <nd ref='-146290871' />
    <nd ref='-146290872' />
    <tag k='type' v='straight' />
  </way>
  <way id='-36497029' action='modify'>
    <nd ref='-146290872' />
    <nd ref='-146290873' />
  </way>
  <way id='-36497030' action='modify'>
    <nd ref='-146290873' />
    <nd ref='-146290874' />
    <nd ref='-146290875' />
    <tag k='type' v='straight' />
  </way>
  <way id='-36497031' action='modify'>
    <nd ref='-146290875' />
    <nd ref='-146290876' />
  </way>
  <way id='-36497032' action='modify'>
    <nd ref='-146290876' />
    <nd ref='-146290877' />
    <tag k='type' v='straight' />
  </way>
  <relation id='-14468583' action='modify'>
    <member type='way' ref='-36497002' role='' />
    <member type='way' ref='-36497003' role='' />
    <member type='way' ref='-36497004' role='' />
    <member type='way' ref='-36497005' role='' />
    <member type='way' ref='-36497006' role='' />
    <member type='way' ref='-36497007' role='' />
    <member type='way' ref='-36497008' role='' />
    <member type='way' ref='-36497009' role='' />
    <member type='way' ref='-36497010' role='' />
    <member type='way' ref='-36497011' role='' />
    <member type='way' ref='-36497012' role='' />
    <member type='way' ref='-36497013' role='' />
    <member type='way' ref='-36497014' role='' />
    <member type='way' ref='-36497015' role='' />
    <member type='way' ref='-36497016' role='' />
    <member type='way' ref='-36497017' role='' />
    <member type='way' ref='-36497018' role='' />
    <member type='way' ref='-36497019' role='' />
    <member type='way' ref='-36497020' role='' />
    <member type='way' ref='-36497021' role='' />
    <member type='way' ref='-36497022' role='' />
    <member type='way' ref='-36497023' role='' />
    <member type='way' ref='-36497024' role='' />
    <member type='way' ref='-36497025' role='' />
    <member type='way' ref='-36497026' role='' />
    <member type='way' ref='-36497027' role='' />
    <member type='way' ref='-36497028' role='' />
    <member type='way' ref='-36497029' role='' />
    <member type='way' ref='-36497030' role='' />
    <member type='way' ref='-36497031' role='' />
    <member type='way' ref='-36497032' role='' />
    <tag k='key' v='path.dk.mrh' />
    <tag k='name' v='DK MRH' />
    <tag k='type' v='path' />
  </relation>
</osm>
