<?xml version='1.0' encoding='UTF-8'?>
<osm version='0.6' upload='false' generator='JOSM'>
  <node id='-146100138' action='modify' lat='54.77764599873' lon='11.50792538548' />
  <node id='-146100139' action='modify' lat='54.77748595965' lon='11.50724948961' />
  <node id='-146100140' action='modify' lat='54.77699953067' lon='11.50163428841'>
    <tag k='name' v='mar' />
  </node>
  <node id='-146100141' action='modify' lat='54.77707852454' lon='11.49944007263' />
  <node id='-146100142' action='modify' lat='54.77723941103' lon='11.49714812503' />
  <node id='-146100143' action='modify' lat='54.77717907867' lon='11.4938999699' />
  <node id='-146100144' action='modify' lat='54.7771094643' lon='11.49297863111' />
  <node id='-146100145' action='modify' lat='54.77704913174' lon='11.49026289448' />
  <node id='-146100146' action='modify' lat='54.77709012695' lon='11.48876622185' />
  <node id='-146100147' action='modify' lat='54.77696791469' lon='11.48530349002' />
  <node id='-146100148' action='modify' lat='54.77658967394' lon='11.48155241937' />
  <node id='-146100149' action='modify' lat='54.77650768131' lon='11.47681429915' />
  <node id='-146100150' action='modify' lat='54.7772595218' lon='11.46350853011' />
  <node id='-146100151' action='modify' lat='54.77730631758' lon='11.46262071959' />
  <node id='-146100152' action='modify' lat='54.77812736886' lon='11.45129710369' />
  <node id='-146100153' action='modify' lat='54.78256687333' lon='11.44251822352' />
  <node id='-146100154' action='modify' lat='54.78434503873' lon='11.44152212057'>
    <tag k='name' v='eri' />
  </node>
  <node id='-146100155' action='modify' lat='54.79558867215' lon='11.43522258282' />
  <node id='-146100156' action='modify' lat='54.79831620691' lon='11.43451450109' />
  <node id='-146100157' action='modify' lat='54.80717400944' lon='11.43304876678'>
    <tag k='name' v='nor' />
  </node>
  <node id='-146100158' action='modify' lat='54.80774986783' lon='11.43295346618' />
  <node id='-146100159' action='modify' lat='54.81209956464' lon='11.43065212011' />
  <node id='-146100160' action='modify' lat='54.83207058882' lon='11.41474126697' />
  <node id='-146100161' action='modify' lat='54.83446199673' lon='11.41212880075'>
    <tag k='name' v='hav' />
  </node>
  <node id='-146100162' action='modify' lat='54.83805811864' lon='11.40012859225' />
  <node id='-146100163' action='modify' lat='54.8388984088' lon='11.37320993185' />
  <node id='-146100164' action='modify' lat='54.83929382433' lon='11.36882184863' />
  <node id='-146100165' action='modify' lat='54.84007272606' lon='11.36423397167'>
    <tag k='name' v='sto' />
  </node>
  <node id='-146100166' action='modify' lat='54.84052331395' lon='11.36157988429' />
  <node id='-146100167' action='modify' lat='54.84098667971' lon='11.35957359195' />
  <node id='-146100168' action='modify' lat='54.84610188418' lon='11.34092687488' />
  <node id='-146100169' action='modify' lat='54.84693582343' lon='11.33836268306' />
  <node id='-146100170' action='modify' lat='54.85457019928' lon='11.31799935222' />
  <node id='-146100171' action='modify' lat='54.85750991339' lon='11.31282805324'>
    <tag k='name' v='ves' />
  </node>
  <node id='-146100172' action='modify' lat='54.85819540415' lon='11.31211995006' />
  <node id='-146100173' action='modify' lat='54.86277122583' lon='11.31217358351' />
  <node id='-146100174' action='modify' lat='54.8762270331' lon='11.32266640127' />
  <node id='-146100175' action='modify' lat='54.88137325867' lon='11.32493286788'>
    <tag k='name' v='lin' />
  </node>
  <node id='-146100176' action='modify' lat='54.88335904765' lon='11.32521986425' />
  <node id='-146100177' action='modify' lat='54.89061012952' lon='11.32544516444' />
  <node id='-146100178' action='modify' lat='54.89490462116' lon='11.3264429462' />
  <node id='-146100179' action='modify' lat='54.89691731404' lon='11.32743155268'>
    <tag k='name' v='bir' />
  </node>
  <node id='-146100180' action='modify' lat='54.90412142337' lon='11.33097051501' />
  <node id='-146100181' action='modify' lat='54.90802435152' lon='11.3244071576' />
  <node id='-146100182' action='modify' lat='54.90798117614' lon='11.32397532195' />
  <node id='-146100183' action='modify' lat='54.90794571216' lon='11.32119118631' />
  <node id='-146100184' action='modify' lat='54.90798029807' lon='11.32057675761'>
    <tag k='name' v='tor' />
  </node>
  <way id='-36483834' action='modify'>
    <nd ref='-146100138' />
    <nd ref='-146100139' />
    <tag k='type' v='straight' />
  </way>
  <way id='-36483835' action='modify'>
    <nd ref='-146100139' />
    <nd ref='-146100140' />
    <nd ref='-146100141' />
  </way>
  <way id='-36483836' action='modify'>
    <nd ref='-146100141' />
    <nd ref='-146100142' />
    <tag k='type' v='straight' />
  </way>
  <way id='-36483837' action='modify'>
    <nd ref='-146100142' />
    <nd ref='-146100143' />
  </way>
  <way id='-36483838' action='modify'>
    <nd ref='-146100143' />
    <nd ref='-146100144' />
    <tag k='type' v='straight' />
  </way>
  <way id='-36483839' action='modify'>
    <nd ref='-146100144' />
    <nd ref='-146100145' />
  </way>
  <way id='-36483840' action='modify'>
    <nd ref='-146100145' />
    <nd ref='-146100146' />
    <tag k='type' v='straight' />
  </way>
  <way id='-36483841' action='modify'>
    <nd ref='-146100146' />
    <nd ref='-146100147' />
  </way>
  <way id='-36483842' action='modify'>
    <nd ref='-146100147' />
    <nd ref='-146100148' />
    <tag k='type' v='straight' />
  </way>
  <way id='-36483843' action='modify'>
    <nd ref='-146100148' />
    <nd ref='-146100149' />
  </way>
  <way id='-36483844' action='modify'>
    <nd ref='-146100149' />
    <nd ref='-146100150' />
    <tag k='type' v='straight' />
  </way>
  <way id='-36483845' action='modify'>
    <nd ref='-146100150' />
    <nd ref='-146100151' />
  </way>
  <way id='-36483846' action='modify'>
    <nd ref='-146100151' />
    <nd ref='-146100152' />
    <tag k='type' v='straight' />
  </way>
  <way id='-36483847' action='modify'>
    <nd ref='-146100152' />
    <nd ref='-146100153' />
  </way>
  <way id='-36483848' action='modify'>
    <nd ref='-146100153' />
    <nd ref='-146100154' />
    <nd ref='-146100155' />
    <tag k='type' v='straight' />
  </way>
  <way id='-36483849' action='modify'>
    <nd ref='-146100155' />
    <nd ref='-146100156' />
  </way>
  <way id='-36483850' action='modify'>
    <nd ref='-146100156' />
    <nd ref='-146100157' />
    <nd ref='-146100158' />
    <tag k='type' v='straight' />
  </way>
  <way id='-36483851' action='modify'>
    <nd ref='-146100158' />
    <nd ref='-146100159' />
  </way>
  <way id='-36483852' action='modify'>
    <nd ref='-146100159' />
    <nd ref='-146100160' />
    <tag k='type' v='straight' />
  </way>
  <way id='-36483853' action='modify'>
    <nd ref='-146100160' />
    <nd ref='-146100161' />
    <nd ref='-146100162' />
  </way>
  <way id='-36483854' action='modify'>
    <nd ref='-146100162' />
    <nd ref='-146100163' />
    <tag k='type' v='straight' />
  </way>
  <way id='-36483855' action='modify'>
    <nd ref='-146100163' />
    <nd ref='-146100164' />
  </way>
  <way id='-36483856' action='modify'>
    <nd ref='-146100164' />
    <nd ref='-146100165' />
    <nd ref='-146100166' />
    <tag k='type' v='straight' />
  </way>
  <way id='-36483857' action='modify'>
    <nd ref='-146100166' />
    <nd ref='-146100167' />
  </way>
  <way id='-36483858' action='modify'>
    <nd ref='-146100167' />
    <nd ref='-146100168' />
    <tag k='type' v='straight' />
  </way>
  <way id='-36483859' action='modify'>
    <nd ref='-146100168' />
    <nd ref='-146100169' />
  </way>
  <way id='-36483860' action='modify'>
    <nd ref='-146100169' />
    <nd ref='-146100170' />
    <tag k='type' v='straight' />
  </way>
  <way id='-36483861' action='modify'>
    <nd ref='-146100170' />
    <nd ref='-146100171' />
  </way>
  <way id='-36483862' action='modify'>
    <nd ref='-146100171' />
    <nd ref='-146100172' />
    <tag k='type' v='straight' />
  </way>
  <way id='-36483863' action='modify'>
    <nd ref='-146100172' />
    <nd ref='-146100173' />
  </way>
  <way id='-36483864' action='modify'>
    <nd ref='-146100173' />
    <nd ref='-146100174' />
    <tag k='type' v='straight' />
  </way>
  <way id='-36483865' action='modify'>
    <nd ref='-146100174' />
    <nd ref='-146100175' />
    <nd ref='-146100176' />
  </way>
  <way id='-36483866' action='modify'>
    <nd ref='-146100176' />
    <nd ref='-146100177' />
    <tag k='type' v='straight' />
  </way>
  <way id='-36483867' action='modify'>
    <nd ref='-146100177' />
    <nd ref='-146100178' />
  </way>
  <way id='-36483868' action='modify'>
    <nd ref='-146100178' />
    <nd ref='-146100179' />
    <nd ref='-146100180' />
    <tag k='type' v='straight' />
  </way>
  <way id='-36483869' action='modify'>
    <nd ref='-146100180' />
    <nd ref='-146100181' />
  </way>
  <way id='-36483870' action='modify'>
    <nd ref='-146100181' />
    <nd ref='-146100182' />
    <tag k='type' v='straight' />
  </way>
  <way id='-36483871' action='modify'>
    <nd ref='-146100182' />
    <nd ref='-146100183' />
  </way>
  <way id='-36483872' action='modify'>
    <nd ref='-146100183' />
    <nd ref='-146100184' />
    <tag k='type' v='straight' />
  </way>
  <relation id='-14468456' action='modify'>
    <member type='way' ref='-36483834' role='' />
    <member type='way' ref='-36483835' role='' />
    <member type='way' ref='-36483836' role='' />
    <member type='way' ref='-36483837' role='' />
    <member type='way' ref='-36483838' role='' />
    <member type='way' ref='-36483839' role='' />
    <member type='way' ref='-36483840' role='' />
    <member type='way' ref='-36483841' role='' />
    <member type='way' ref='-36483842' role='' />
    <member type='way' ref='-36483843' role='' />
    <member type='way' ref='-36483844' role='' />
    <member type='way' ref='-36483845' role='' />
    <member type='way' ref='-36483846' role='' />
    <member type='way' ref='-36483847' role='' />
    <member type='way' ref='-36483848' role='' />
    <member type='way' ref='-36483849' role='' />
    <member type='way' ref='-36483850' role='' />
    <member type='way' ref='-36483851' role='' />
    <member type='way' ref='-36483852' role='' />
    <member type='way' ref='-36483853' role='' />
    <member type='way' ref='-36483854' role='' />
    <member type='way' ref='-36483855' role='' />
    <member type='way' ref='-36483856' role='' />
    <member type='way' ref='-36483857' role='' />
    <member type='way' ref='-36483858' role='' />
    <member type='way' ref='-36483859' role='' />
    <member type='way' ref='-36483860' role='' />
    <member type='way' ref='-36483861' role='' />
    <member type='way' ref='-36483862' role='' />
    <member type='way' ref='-36483863' role='' />
    <member type='way' ref='-36483864' role='' />
    <member type='way' ref='-36483865' role='' />
    <member type='way' ref='-36483866' role='' />
    <member type='way' ref='-36483867' role='' />
    <member type='way' ref='-36483868' role='' />
    <member type='way' ref='-36483869' role='' />
    <member type='way' ref='-36483870' role='' />
    <member type='way' ref='-36483871' role='' />
    <member type='way' ref='-36483872' role='' />
    <tag k='key' v='path.dk.mtr' />
    <tag k='name' v='DK MTR' />
    <tag k='type' v='path' />
  </relation>
</osm>
