<?xml version='1.0' encoding='UTF-8'?>
<osm version='0.6' upload='false' generator='JOSM'>
  <node id='-188774521' action='modify' lat='55.24789706224' lon='9.49098944168' />
  <node id='-188774522' action='modify' lat='55.24784256854' lon='9.49050843179'>
    <tag k='name' v='has' />
  </node>
  <node id='-188774523' action='modify' lat='55.24775694818' lon='9.49263810575' />
  <node id='-188774524' action='modify' lat='55.24717900589' lon='9.49456929624' />
  <node id='-188774525' action='modify' lat='55.2468426335' lon='9.49650585115' />
  <node id='-188774526' action='modify' lat='55.2466836201' lon='9.49967622221' />
  <node id='-188774527' action='modify' lat='55.24537785144' lon='9.50271784723' />
  <node id='-188774528' action='modify' lat='55.24269278718' lon='9.50415551126' />
  <node id='-188774529' action='modify' lat='55.24152451354' lon='9.50618862569' />
  <node id='-188774530' action='modify' lat='55.24033785492' lon='9.511992926' />
  <node id='-188774531' action='modify' lat='55.24002895086' lon='9.51333939493' />
  <node id='-188774532' action='modify' lat='55.23806536597' lon='9.52162205637' />
  <node id='-188774533' action='modify' lat='55.23645038237' lon='9.52356934011'>
    <tag k='name' v='bro' />
  </node>
  <node id='-188774534' action='modify' lat='55.23605274377' lon='9.52340840757' />
  <node id='-188774535' action='modify' lat='55.23454779861' lon='9.52215849817' />
  <node id='-188774536' action='modify' lat='55.23411649285' lon='9.52186881959' />
  <node id='-188774537' action='modify' lat='55.23261147442' lon='9.5210963434' />
  <node id='-188774538' action='modify' lat='55.23149796884' lon='9.52128409803' />
  <node id='-188774539' action='modify' lat='55.23017028683' lon='9.52209948957' />
  <node id='-188774540' action='modify' lat='55.22928616064' lon='9.52231406629' />
  <node id='-188774541' action='modify' lat='55.22826245415' lon='9.52215521425'>
    <tag k='name' v='van' />
  </node>
  <node id='-188774542' action='modify' lat='55.22755762186' lon='9.52204584539' />
  <node id='-188774543' action='modify' lat='55.22708340783' lon='9.52200293005' />
  <node id='-188774544' action='modify' lat='55.22447975521' lon='9.52191385577' />
  <node id='-188774545' action='modify' lat='55.22407278174' lon='9.52179908216' />
  <node id='-188774546' action='modify' lat='55.21849150639' lon='9.51949774683' />
  <node id='-188774547' action='modify' lat='55.21795904426' lon='9.51899885058' />
  <node id='-188774548' action='modify' lat='55.21352155721' lon='9.51168178439' />
  <node id='-188774549' action='modify' lat='55.21308696291' lon='9.5113277328' />
  <node id='-188774550' action='modify' lat='55.20747965884' lon='9.50874208331' />
  <node id='-188774551' action='modify' lat='55.20582363904' lon='9.50880109191' />
  <node id='-188774552' action='modify' lat='55.20511459879' lon='9.50938679743'>
    <tag k='name' v='nvi' />
  </node>
  <node id='-188774553' action='modify' lat='55.20106512854' lon='9.51273167857' />
  <node id='-188774554' action='modify' lat='55.19972853173' lon='9.51306579351' />
  <node id='-188774555' action='modify' lat='55.19382539303' lon='9.51257226706' />
  <node id='-188774556' action='modify' lat='55.19211673957' lon='9.51481460989' />
  <node id='-188774557' action='modify' lat='55.19206162079' lon='9.5163059181' />
  <node id='-188774558' action='modify' lat='55.19221144649' lon='9.51815040666'>
    <tag k='name' v='svi' />
  </node>
  <node id='-188774559' action='modify' lat='55.19254460886' lon='9.51993873319' />
  <node id='-188774560' action='modify' lat='55.19479440799' lon='9.52564685252' />
  <node id='-188774561' action='modify' lat='55.19494607077' lon='9.52698110461' />
  <node id='-188774562' action='modify' lat='55.19503147095' lon='9.53002908252' />
  <node id='-188774563' action='modify' lat='55.19482971708' lon='9.53131018996' />
  <node id='-188774564' action='modify' lat='55.1941713907' lon='9.5333862251' />
  <node id='-188774565' action='modify' lat='55.19383456991' lon='9.53419625223' />
  <node id='-188774566' action='modify' lat='55.19283327674' lon='9.53567146719' />
  <node id='-188774567' action='modify' lat='55.19255768704' lon='9.53864871919' />
  <node id='-188774568' action='modify' lat='55.19289145654' lon='9.54034923971' />
  <node id='-188774569' action='modify' lat='55.19311499174' lon='9.54235552669' />
  <node id='-188774570' action='modify' lat='55.19356205224' lon='9.54909323573' />
  <node id='-188774571' action='modify' lat='55.19369065776' lon='9.55019830585' />
  <node id='-188774572' action='modify' lat='55.19496023524' lon='9.5571549447' />
  <node id='-188774573' action='modify' lat='55.19514062338' lon='9.55817752006' />
  <node id='-188774574' action='modify' lat='55.19569730176' lon='9.5615841208'>
    <tag k='name' v='kje' />
  </node>
  <node id='-188774575' action='modify' lat='55.19645251415' lon='9.56620572925' />
  <node id='-188774576' action='modify' lat='55.19706487016' lon='9.56766485631' />
  <node id='-188774577' action='modify' lat='55.19965810645' lon='9.57108735502' />
  <node id='-188774578' action='modify' lat='55.20177359987' lon='9.57195638537' />
  <node id='-188774579' action='modify' lat='55.20453489575' lon='9.57136629939' />
  <node id='-188774580' action='modify' lat='55.2053675297' lon='9.57130729616' />
  <node id='-188774581' action='modify' lat='55.20599811821' lon='9.57131266057' />
  <node id='-188774582' action='modify' lat='55.20701744646' lon='9.57246064603' />
  <node id='-188774583' action='modify' lat='55.20791125036' lon='9.57446693838' />
  <node id='-188774584' action='modify' lat='55.20805437651' lon='9.57489706738'>
    <tag k='name' v='olu' />
  </node>
  <node id='-188774585' action='modify' lat='55.20829998757' lon='9.57608699262' />
  <node id='-188774586' action='modify' lat='55.20865199044' lon='9.58168208063' />
  <node id='-188774587' action='modify' lat='55.20911111993' lon='9.58336650789' />
  <node id='-188774588' action='modify' lat='55.2119943321' lon='9.58869873941' />
  <node id='-188774589' action='modify' lat='55.21231263572' lon='9.58937465608' />
  <node id='-188774590' action='modify' lat='55.21259420987' lon='9.59022759855' />
  <node id='-188774591' action='modify' lat='55.21266154253' lon='9.59126293123' />
  <node id='-188774592' action='modify' lat='55.21250080997' lon='9.59340879044' />
  <node id='-188774593' action='modify' lat='55.2124455337' lon='9.59426670235' />
  <node id='-188774594' action='modify' lat='55.21199127454' lon='9.60125683665' />
  <node id='-188774595' action='modify' lat='55.21222081763' lon='9.6034240669' />
  <node id='-188774596' action='modify' lat='55.21372417389' lon='9.60996907343' />
  <node id='-188774597' action='modify' lat='55.21389799773' lon='9.61086987376' />
  <node id='-188774598' action='modify' lat='55.21434889561' lon='9.61360211509'>
    <tag k='name' v='hej' />
  </node>
  <node id='-188774599' action='modify' lat='55.21478858674' lon='9.6162664783' />
  <node id='-188774600' action='modify' lat='55.21464169295' lon='9.62018249273' />
  <node id='-188774601' action='modify' lat='55.21277478661' lon='9.62654470325' />
  <node id='-188774602' action='modify' lat='55.21208921133' lon='9.63168382108' />
  <node id='-188774603' action='modify' lat='55.21205554453' lon='9.63309466302' />
  <node id='-188774604' action='modify' lat='55.21337158905' lon='9.63595389783' />
  <node id='-188774605' action='modify' lat='55.21410429051' lon='9.63634012296'>
    <tag k='name' v='hal' />
  </node>
  <node id='-188774606' action='modify' lat='55.21462332124' lon='9.63661372125' />
  <node id='-188774607' action='modify' lat='55.21537923825' lon='9.63682829797' />
  <node id='-188774608' action='modify' lat='55.21777237068' lon='9.63711261213' />
  <node id='-188774609' action='modify' lat='55.21977674092' lon='9.63644741893' />
  <node id='-188774610' action='modify' lat='55.22200437713' lon='9.6341192615' />
  <node id='-188774611' action='modify' lat='55.22313038754' lon='9.63369010806'>
    <tag k='name' v='sod' />
  </node>
  <node id='-188774612' action='modify' lat='55.22379129185' lon='9.63390468478' />
  <node id='-188774613' action='modify' lat='55.22545574296' lon='9.63520823836' />
  <node id='-188774614' action='modify' lat='55.22635831141' lon='9.63542281508' />
  <node id='-188774615' action='modify' lat='55.2297858851' lon='9.6347325153'>
    <tag k='name' v='hyr' />
  </node>
  <node id='-188774616' action='modify' lat='55.23597321863' lon='9.63348626018' />
  <node id='-188774617' action='modify' lat='55.2370621263' lon='9.63354527414' />
  <node id='-188774618' action='modify' lat='55.24568060093' lon='9.63803528666' />
  <node id='-188774619' action='modify' lat='55.24678759965' lon='9.63900087118' />
  <node id='-188774620' action='modify' lat='55.25142782644' lon='9.64566095731'>
    <tag k='name' v='osb' />
  </node>
  <node id='-188774621' action='modify' lat='55.25191543855' lon='9.64636086881' />
  <node id='-188774622' action='modify' lat='55.25256363462' lon='9.64812039793' />
  <node id='-188774623' action='modify' lat='55.25276848684' lon='9.64911817968' />
  <node id='-188774624' action='modify' lat='55.25303142993' lon='9.65232073724' />
  <node id='-188774625' action='modify' lat='55.2528479845' lon='9.66066240191' />
  <node id='-188774626' action='modify' lat='55.25292747895' lon='9.66197131991' />
  <node id='-188774627' action='modify' lat='55.25400801214' lon='9.66955471368'>
    <tag k='name' v='haj' />
  </node>
  <node id='-188774628' action='modify' lat='55.25415656518' lon='9.67059730411' />
  <node id='-188774629' action='modify' lat='55.25375298882' lon='9.67418073535' />
  <node id='-188774630' action='modify' lat='55.25201634075' lon='9.67787145495' />
  <node id='-188774631' action='modify' lat='55.25147209387' lon='9.67919110179' />
  <node id='-188774632' action='modify' lat='55.25032853963' lon='9.68261360049' />
  <node id='-188774633' action='modify' lat='55.24989128655' lon='9.68490957677'>
    <tag k='name' v='rad' />
  </node>
  <node id='-188774634' action='modify' lat='55.24992492134' lon='9.68571423948' />
  <node id='-188774635' action='modify' lat='55.25013896023' lon='9.68811213434' />
  <node id='-188774636' action='modify' lat='55.25025820997' lon='9.68907236516' />
  <node id='-188774637' action='modify' lat='55.25054868861' lon='9.69097673357' />
  <node id='-188774638' action='modify' lat='55.25090031781' lon='9.69200133741' />
  <node id='-188774639' action='modify' lat='55.25230068843' lon='9.6943777746' />
  <node id='-188774640' action='modify' lat='55.25269357679' lon='9.69486325711' />
  <node id='-188774641' action='modify' lat='55.25547121732' lon='9.69703315616'>
    <tag k='name' v='arb' />
  </node>
  <node id='-188774642' action='modify' lat='55.25633914897' lon='9.69739119983' />
  <node id='-188774643' action='modify' lat='55.25812484777' lon='9.69755886912' />
  <node id='-188774644' action='modify' lat='55.2586445442' lon='9.69793974817' />
  <node id='-188774645' action='modify' lat='55.26081498039' lon='9.70192551076' />
  <node id='-188774646' action='modify' lat='55.26131630678' lon='9.70295547366' />
  <node id='-188774647' action='modify' lat='55.26203159863' lon='9.70541237712' />
  <node id='-188774648' action='modify' lat='55.26195517918' lon='9.70851837516' />
  <node id='-188774649' action='modify' lat='55.2618202545' lon='9.70892600007'>
    <tag k='name' v='arh' />
  </node>
  <node id='-188774650' action='modify' lat='55.26152394258' lon='9.70982119191'>
    <tag k='name' v='arh.f' />
  </node>
  <way id='-39398141' action='modify'>
    <nd ref='-188774522' />
    <nd ref='-188774521' />
    <tag k='type' v='straight' />
  </way>
  <way id='-39398142' action='modify'>
    <nd ref='-188774521' />
    <nd ref='-188774523' />
  </way>
  <way id='-39398143' action='modify'>
    <nd ref='-188774523' />
    <nd ref='-188774524' />
    <tag k='type' v='straight' />
  </way>
  <way id='-39398144' action='modify'>
    <nd ref='-188774524' />
    <nd ref='-188774525' />
  </way>
  <way id='-39398145' action='modify'>
    <nd ref='-188774525' />
    <nd ref='-188774526' />
    <tag k='type' v='straight' />
  </way>
  <way id='-39398146' action='modify'>
    <nd ref='-188774526' />
    <nd ref='-188774527' />
  </way>
  <way id='-39398147' action='modify'>
    <nd ref='-188774527' />
    <nd ref='-188774528' />
    <tag k='type' v='straight' />
  </way>
  <way id='-39398148' action='modify'>
    <nd ref='-188774528' />
    <nd ref='-188774529' />
  </way>
  <way id='-39398149' action='modify'>
    <nd ref='-188774529' />
    <nd ref='-188774530' />
    <tag k='type' v='straight' />
  </way>
  <way id='-39398150' action='modify'>
    <nd ref='-188774530' />
    <nd ref='-188774531' />
  </way>
  <way id='-39398151' action='modify'>
    <nd ref='-188774531' />
    <nd ref='-188774532' />
    <tag k='type' v='straight' />
  </way>
  <way id='-39398152' action='modify'>
    <nd ref='-188774532' />
    <nd ref='-188774533' />
    <nd ref='-188774534' />
  </way>
  <way id='-39398153' action='modify'>
    <nd ref='-188774534' />
    <nd ref='-188774535' />
    <tag k='type' v='straight' />
  </way>
  <way id='-39398154' action='modify'>
    <nd ref='-188774535' />
    <nd ref='-188774536' />
  </way>
  <way id='-39398155' action='modify'>
    <nd ref='-188774536' />
    <nd ref='-188774537' />
    <tag k='type' v='straight' />
  </way>
  <way id='-39398156' action='modify'>
    <nd ref='-188774537' />
    <nd ref='-188774538' />
  </way>
  <way id='-39398157' action='modify'>
    <nd ref='-188774538' />
    <nd ref='-188774539' />
    <tag k='type' v='straight' />
  </way>
  <way id='-39398158' action='modify'>
    <nd ref='-188774539' />
    <nd ref='-188774540' />
  </way>
  <way id='-39398159' action='modify'>
    <nd ref='-188774540' />
    <nd ref='-188774541' />
    <nd ref='-188774542' />
    <tag k='type' v='straight' />
  </way>
  <way id='-39398160' action='modify'>
    <nd ref='-188774542' />
    <nd ref='-188774543' />
  </way>
  <way id='-39398161' action='modify'>
    <nd ref='-188774543' />
    <nd ref='-188774544' />
    <tag k='type' v='straight' />
  </way>
  <way id='-39398162' action='modify'>
    <nd ref='-188774544' />
    <nd ref='-188774545' />
  </way>
  <way id='-39398163' action='modify'>
    <nd ref='-188774545' />
    <nd ref='-188774546' />
    <tag k='type' v='straight' />
  </way>
  <way id='-39398164' action='modify'>
    <nd ref='-188774546' />
    <nd ref='-188774547' />
  </way>
  <way id='-39398165' action='modify'>
    <nd ref='-188774547' />
    <nd ref='-188774548' />
    <tag k='type' v='straight' />
  </way>
  <way id='-39398166' action='modify'>
    <nd ref='-188774548' />
    <nd ref='-188774549' />
  </way>
  <way id='-39398167' action='modify'>
    <nd ref='-188774549' />
    <nd ref='-188774550' />
    <tag k='type' v='straight' />
  </way>
  <way id='-39398168' action='modify'>
    <nd ref='-188774550' />
    <nd ref='-188774551' />
  </way>
  <way id='-39398169' action='modify'>
    <nd ref='-188774551' />
    <nd ref='-188774552' />
    <nd ref='-188774553' />
    <tag k='type' v='straight' />
  </way>
  <way id='-39398170' action='modify'>
    <nd ref='-188774553' />
    <nd ref='-188774554' />
  </way>
  <way id='-39398171' action='modify'>
    <nd ref='-188774554' />
    <nd ref='-188774555' />
    <nd ref='-188774556' />
    <nd ref='-188774557' />
    <tag k='type' v='straight' />
  </way>
  <way id='-39398172' action='modify'>
    <nd ref='-188774557' />
    <nd ref='-188774558' />
    <nd ref='-188774559' />
  </way>
  <way id='-39398173' action='modify'>
    <nd ref='-188774559' />
    <nd ref='-188774560' />
    <tag k='type' v='straight' />
  </way>
  <way id='-39398174' action='modify'>
    <nd ref='-188774560' />
    <nd ref='-188774561' />
  </way>
  <way id='-39398175' action='modify'>
    <nd ref='-188774561' />
    <nd ref='-188774562' />
    <tag k='type' v='straight' />
  </way>
  <way id='-39398176' action='modify'>
    <nd ref='-188774562' />
    <nd ref='-188774563' />
  </way>
  <way id='-39398177' action='modify'>
    <nd ref='-188774563' />
    <nd ref='-188774564' />
    <tag k='type' v='straight' />
  </way>
  <way id='-39398178' action='modify'>
    <nd ref='-188774564' />
    <nd ref='-188774565' />
  </way>
  <way id='-39398179' action='modify'>
    <nd ref='-188774565' />
    <nd ref='-188774566' />
    <tag k='type' v='straight' />
  </way>
  <way id='-39398180' action='modify'>
    <nd ref='-188774566' />
    <nd ref='-188774567' />
  </way>
  <way id='-39398181' action='modify'>
    <nd ref='-188774567' />
    <nd ref='-188774568' />
    <tag k='type' v='straight' />
  </way>
  <way id='-39398182' action='modify'>
    <nd ref='-188774568' />
    <nd ref='-188774569' />
  </way>
  <way id='-39398183' action='modify'>
    <nd ref='-188774569' />
    <nd ref='-188774570' />
    <tag k='type' v='straight' />
  </way>
  <way id='-39398184' action='modify'>
    <nd ref='-188774570' />
    <nd ref='-188774571' />
  </way>
  <way id='-39398185' action='modify'>
    <nd ref='-188774571' />
    <nd ref='-188774572' />
    <tag k='type' v='straight' />
  </way>
  <way id='-39398186' action='modify'>
    <nd ref='-188774572' />
    <nd ref='-188774573' />
  </way>
  <way id='-39398187' action='modify'>
    <nd ref='-188774573' />
    <nd ref='-188774574' />
    <nd ref='-188774575' />
    <tag k='type' v='straight' />
  </way>
  <way id='-39398188' action='modify'>
    <nd ref='-188774575' />
    <nd ref='-188774576' />
  </way>
  <way id='-39398189' action='modify'>
    <nd ref='-188774576' />
    <nd ref='-188774577' />
    <tag k='type' v='straight' />
  </way>
  <way id='-39398190' action='modify'>
    <nd ref='-188774577' />
    <nd ref='-188774578' />
  </way>
  <way id='-39398191' action='modify'>
    <nd ref='-188774578' />
    <nd ref='-188774579' />
    <tag k='type' v='straight' />
  </way>
  <way id='-39398192' action='modify'>
    <nd ref='-188774579' />
    <nd ref='-188774580' />
  </way>
  <way id='-39398193' action='modify'>
    <nd ref='-188774580' />
    <nd ref='-188774581' />
    <tag k='type' v='straight' />
  </way>
  <way id='-39398194' action='modify'>
    <nd ref='-188774581' />
    <nd ref='-188774582' />
  </way>
  <way id='-39398195' action='modify'>
    <nd ref='-188774582' />
    <nd ref='-188774583' />
    <tag k='type' v='straight' />
  </way>
  <way id='-39398196' action='modify'>
    <nd ref='-188774583' />
    <nd ref='-188774584' />
    <nd ref='-188774585' />
  </way>
  <way id='-39398197' action='modify'>
    <nd ref='-188774585' />
    <nd ref='-188774586' />
    <tag k='type' v='straight' />
  </way>
  <way id='-39398198' action='modify'>
    <nd ref='-188774586' />
    <nd ref='-188774587' />
  </way>
  <way id='-39398199' action='modify'>
    <nd ref='-188774587' />
    <nd ref='-188774588' />
    <tag k='type' v='straight' />
  </way>
  <way id='-39398200' action='modify'>
    <nd ref='-188774588' />
    <nd ref='-188774589' />
  </way>
  <way id='-39398201' action='modify'>
    <nd ref='-188774589' />
    <nd ref='-188774590' />
    <tag k='type' v='straight' />
  </way>
  <way id='-39398202' action='modify'>
    <nd ref='-188774590' />
    <nd ref='-188774591' />
  </way>
  <way id='-39398203' action='modify'>
    <nd ref='-188774591' />
    <nd ref='-188774592' />
    <tag k='type' v='straight' />
  </way>
  <way id='-39398204' action='modify'>
    <nd ref='-188774592' />
    <nd ref='-188774593' />
  </way>
  <way id='-39398205' action='modify'>
    <nd ref='-188774593' />
    <nd ref='-188774594' />
    <tag k='type' v='straight' />
  </way>
  <way id='-39398206' action='modify'>
    <nd ref='-188774594' />
    <nd ref='-188774595' />
  </way>
  <way id='-39398207' action='modify'>
    <nd ref='-188774595' />
    <nd ref='-188774596' />
    <tag k='type' v='straight' />
  </way>
  <way id='-39398208' action='modify'>
    <nd ref='-188774596' />
    <nd ref='-188774597' />
  </way>
  <way id='-39398209' action='modify'>
    <nd ref='-188774597' />
    <nd ref='-188774598' />
    <nd ref='-188774599' />
    <tag k='type' v='straight' />
  </way>
  <way id='-39398210' action='modify'>
    <nd ref='-188774599' />
    <nd ref='-188774600' />
  </way>
  <way id='-39398211' action='modify'>
    <nd ref='-188774600' />
    <nd ref='-188774601' />
    <tag k='type' v='straight' />
  </way>
  <way id='-39398212' action='modify'>
    <nd ref='-188774601' />
    <nd ref='-188774602' />
  </way>
  <way id='-39398213' action='modify'>
    <nd ref='-188774602' />
    <nd ref='-188774603' />
    <tag k='type' v='straight' />
  </way>
  <way id='-39398214' action='modify'>
    <nd ref='-188774603' />
    <nd ref='-188774604' />
  </way>
  <way id='-39398215' action='modify'>
    <nd ref='-188774604' />
    <nd ref='-188774605' />
    <nd ref='-188774606' />
    <tag k='type' v='straight' />
  </way>
  <way id='-39398216' action='modify'>
    <nd ref='-188774606' />
    <nd ref='-188774607' />
  </way>
  <way id='-39398217' action='modify'>
    <nd ref='-188774607' />
    <nd ref='-188774608' />
    <tag k='type' v='straight' />
  </way>
  <way id='-39398218' action='modify'>
    <nd ref='-188774608' />
    <nd ref='-188774609' />
  </way>
  <way id='-39398219' action='modify'>
    <nd ref='-188774609' />
    <nd ref='-188774610' />
    <tag k='type' v='straight' />
  </way>
  <way id='-39398220' action='modify'>
    <nd ref='-188774610' />
    <nd ref='-188774611' />
    <nd ref='-188774612' />
  </way>
  <way id='-39398221' action='modify'>
    <nd ref='-188774612' />
    <nd ref='-188774613' />
    <tag k='type' v='straight' />
  </way>
  <way id='-39398222' action='modify'>
    <nd ref='-188774613' />
    <nd ref='-188774614' />
  </way>
  <way id='-39398223' action='modify'>
    <nd ref='-188774614' />
    <nd ref='-188774615' />
    <nd ref='-188774616' />
    <tag k='type' v='straight' />
  </way>
  <way id='-39398224' action='modify'>
    <nd ref='-188774616' />
    <nd ref='-188774617' />
  </way>
  <way id='-39398225' action='modify'>
    <nd ref='-188774617' />
    <nd ref='-188774618' />
    <tag k='type' v='straight' />
  </way>
  <way id='-39398226' action='modify'>
    <nd ref='-188774618' />
    <nd ref='-188774619' />
  </way>
  <way id='-39398227' action='modify'>
    <nd ref='-188774619' />
    <nd ref='-188774620' />
    <nd ref='-188774621' />
    <tag k='type' v='straight' />
  </way>
  <way id='-39398228' action='modify'>
    <nd ref='-188774621' />
    <nd ref='-188774622' />
  </way>
  <way id='-39398229' action='modify'>
    <nd ref='-188774622' />
    <nd ref='-188774623' />
    <tag k='type' v='straight' />
  </way>
  <way id='-39398230' action='modify'>
    <nd ref='-188774623' />
    <nd ref='-188774624' />
  </way>
  <way id='-39398231' action='modify'>
    <nd ref='-188774624' />
    <nd ref='-188774625' />
    <tag k='type' v='straight' />
  </way>
  <way id='-39398232' action='modify'>
    <nd ref='-188774625' />
    <nd ref='-188774626' />
  </way>
  <way id='-39398233' action='modify'>
    <nd ref='-188774626' />
    <nd ref='-188774627' />
    <nd ref='-188774628' />
    <tag k='type' v='straight' />
  </way>
  <way id='-39398234' action='modify'>
    <nd ref='-188774628' />
    <nd ref='-188774629' />
  </way>
  <way id='-39398235' action='modify'>
    <nd ref='-188774629' />
    <nd ref='-188774630' />
    <tag k='type' v='straight' />
  </way>
  <way id='-39398236' action='modify'>
    <nd ref='-188774630' />
    <nd ref='-188774631' />
  </way>
  <way id='-39398237' action='modify'>
    <nd ref='-188774631' />
    <nd ref='-188774632' />
    <tag k='type' v='straight' />
  </way>
  <way id='-39398238' action='modify'>
    <nd ref='-188774632' />
    <nd ref='-188774633' />
    <nd ref='-188774634' />
  </way>
  <way id='-39398239' action='modify'>
    <nd ref='-188774634' />
    <nd ref='-188774635' />
    <tag k='type' v='straight' />
  </way>
  <way id='-39398240' action='modify'>
    <nd ref='-188774635' />
    <nd ref='-188774636' />
  </way>
  <way id='-39398241' action='modify'>
    <nd ref='-188774636' />
    <nd ref='-188774637' />
    <tag k='type' v='straight' />
  </way>
  <way id='-39398242' action='modify'>
    <nd ref='-188774637' />
    <nd ref='-188774638' />
  </way>
  <way id='-39398243' action='modify'>
    <nd ref='-188774638' />
    <nd ref='-188774639' />
    <tag k='type' v='straight' />
  </way>
  <way id='-39398244' action='modify'>
    <nd ref='-188774639' />
    <nd ref='-188774640' />
  </way>
  <way id='-39398245' action='modify'>
    <nd ref='-188774640' />
    <nd ref='-188774641' />
    <tag k='type' v='straight' />
  </way>
  <way id='-39398246' action='modify'>
    <nd ref='-188774641' />
    <nd ref='-188774642' />
  </way>
  <way id='-39398247' action='modify'>
    <nd ref='-188774642' />
    <nd ref='-188774643' />
    <tag k='type' v='straight' />
  </way>
  <way id='-39398248' action='modify'>
    <nd ref='-188774643' />
    <nd ref='-188774644' />
  </way>
  <way id='-39398249' action='modify'>
    <nd ref='-188774644' />
    <nd ref='-188774645' />
    <tag k='type' v='straight' />
  </way>
  <way id='-39398250' action='modify'>
    <nd ref='-188774645' />
    <nd ref='-188774646' />
  </way>
  <way id='-39398251' action='modify'>
    <nd ref='-188774646' />
    <nd ref='-188774647' />
    <tag k='type' v='straight' />
  </way>
  <way id='-39398252' action='modify'>
    <nd ref='-188774647' />
    <nd ref='-188774648' />
  </way>
  <way id='-39398253' action='modify'>
    <nd ref='-188774648' />
    <nd ref='-188774649' />
    <nd ref='-188774650' />
    <tag k='type' v='straight' />
  </way>
  <relation id='-14496829' action='modify'>
    <member type='way' ref='-39398141' role='' />
    <member type='way' ref='-39398142' role='' />
    <member type='way' ref='-39398143' role='' />
    <member type='way' ref='-39398144' role='' />
    <member type='way' ref='-39398145' role='' />
    <member type='way' ref='-39398146' role='' />
    <member type='way' ref='-39398147' role='' />
    <member type='way' ref='-39398148' role='' />
    <member type='way' ref='-39398149' role='' />
    <member type='way' ref='-39398150' role='' />
    <member type='way' ref='-39398151' role='' />
    <member type='way' ref='-39398152' role='' />
    <member type='way' ref='-39398153' role='' />
    <member type='way' ref='-39398154' role='' />
    <member type='way' ref='-39398155' role='' />
    <member type='way' ref='-39398156' role='' />
    <member type='way' ref='-39398157' role='' />
    <member type='way' ref='-39398158' role='' />
    <member type='way' ref='-39398159' role='' />
    <member type='way' ref='-39398160' role='' />
    <member type='way' ref='-39398161' role='' />
    <member type='way' ref='-39398162' role='' />
    <member type='way' ref='-39398163' role='' />
    <member type='way' ref='-39398164' role='' />
    <member type='way' ref='-39398165' role='' />
    <member type='way' ref='-39398166' role='' />
    <member type='way' ref='-39398167' role='' />
    <member type='way' ref='-39398168' role='' />
    <member type='way' ref='-39398169' role='' />
    <member type='way' ref='-39398170' role='' />
    <member type='way' ref='-39398171' role='' />
    <member type='way' ref='-39398172' role='' />
    <member type='way' ref='-39398173' role='' />
    <member type='way' ref='-39398174' role='' />
    <member type='way' ref='-39398175' role='' />
    <member type='way' ref='-39398176' role='' />
    <member type='way' ref='-39398177' role='' />
    <member type='way' ref='-39398178' role='' />
    <member type='way' ref='-39398179' role='' />
    <member type='way' ref='-39398180' role='' />
    <member type='way' ref='-39398181' role='' />
    <member type='way' ref='-39398182' role='' />
    <member type='way' ref='-39398183' role='' />
    <member type='way' ref='-39398184' role='' />
    <member type='way' ref='-39398185' role='' />
    <member type='way' ref='-39398186' role='' />
    <member type='way' ref='-39398187' role='' />
    <member type='way' ref='-39398188' role='' />
    <member type='way' ref='-39398189' role='' />
    <member type='way' ref='-39398190' role='' />
    <member type='way' ref='-39398191' role='' />
    <member type='way' ref='-39398192' role='' />
    <member type='way' ref='-39398193' role='' />
    <member type='way' ref='-39398194' role='' />
    <member type='way' ref='-39398195' role='' />
    <member type='way' ref='-39398196' role='' />
    <member type='way' ref='-39398197' role='' />
    <member type='way' ref='-39398198' role='' />
    <member type='way' ref='-39398199' role='' />
    <member type='way' ref='-39398200' role='' />
    <member type='way' ref='-39398201' role='' />
    <member type='way' ref='-39398202' role='' />
    <member type='way' ref='-39398203' role='' />
    <member type='way' ref='-39398204' role='' />
    <member type='way' ref='-39398205' role='' />
    <member type='way' ref='-39398206' role='' />
    <member type='way' ref='-39398207' role='' />
    <member type='way' ref='-39398208' role='' />
    <member type='way' ref='-39398209' role='' />
    <member type='way' ref='-39398210' role='' />
    <member type='way' ref='-39398211' role='' />
    <member type='way' ref='-39398212' role='' />
    <member type='way' ref='-39398213' role='' />
    <member type='way' ref='-39398214' role='' />
    <member type='way' ref='-39398215' role='' />
    <member type='way' ref='-39398216' role='' />
    <member type='way' ref='-39398217' role='' />
    <member type='way' ref='-39398218' role='' />
    <member type='way' ref='-39398219' role='' />
    <member type='way' ref='-39398220' role='' />
    <member type='way' ref='-39398221' role='' />
    <member type='way' ref='-39398222' role='' />
    <member type='way' ref='-39398223' role='' />
    <member type='way' ref='-39398224' role='' />
    <member type='way' ref='-39398225' role='' />
    <member type='way' ref='-39398226' role='' />
    <member type='way' ref='-39398227' role='' />
    <member type='way' ref='-39398228' role='' />
    <member type='way' ref='-39398229' role='' />
    <member type='way' ref='-39398230' role='' />
    <member type='way' ref='-39398231' role='' />
    <member type='way' ref='-39398232' role='' />
    <member type='way' ref='-39398233' role='' />
    <member type='way' ref='-39398234' role='' />
    <member type='way' ref='-39398235' role='' />
    <member type='way' ref='-39398236' role='' />
    <member type='way' ref='-39398237' role='' />
    <member type='way' ref='-39398238' role='' />
    <member type='way' ref='-39398239' role='' />
    <member type='way' ref='-39398240' role='' />
    <member type='way' ref='-39398241' role='' />
    <member type='way' ref='-39398242' role='' />
    <member type='way' ref='-39398243' role='' />
    <member type='way' ref='-39398244' role='' />
    <member type='way' ref='-39398245' role='' />
    <member type='way' ref='-39398246' role='' />
    <member type='way' ref='-39398247' role='' />
    <member type='way' ref='-39398248' role='' />
    <member type='way' ref='-39398249' role='' />
    <member type='way' ref='-39398250' role='' />
    <member type='way' ref='-39398251' role='' />
    <member type='way' ref='-39398252' role='' />
    <member type='way' ref='-39398253' role='' />
    <tag k='key' v='path.dk.has' />
    <tag k='name' v='DK HAS' />
    <tag k='type' v='path' />
  </relation>
</osm>
