<?xml version='1.0' encoding='UTF-8'?>
<osm version='0.6' upload='false' generator='JOSM'>
  <node id='-168352518' action='modify' lat='55.89538341014' lon='9.7661536511'>
    <tag k='name' v='lun' />
  </node>
  <node id='-168352519' action='modify' lat='55.89546267389' lon='9.76478039682' />
  <node id='-168352520' action='modify' lat='55.90227486438' lon='9.76043521821' />
  <node id='-168352521' action='modify' lat='55.90356197837' lon='9.76347147882' />
  <node id='-168352522' action='modify' lat='55.90523696545' lon='9.76623147458' />
  <node id='-168352523' action='modify' lat='55.90710883748' lon='9.76831823319' />
  <node id='-168352524' action='modify' lat='55.91000592633' lon='9.7701957795' />
  <node id='-168352525' action='modify' lat='55.91033967149' lon='9.77029770344' />
  <node id='-168352526' action='modify' lat='55.91486449287' lon='9.76950108469' />
  <node id='-168352527' action='modify' lat='55.91836071958' lon='9.7677200979' />
  <node id='-168352528' action='modify' lat='55.92080758858' lon='9.76750284165' />
  <node id='-168352529' action='modify' lat='55.92499456667' lon='9.76863204896' />
  <node id='-168352530' action='modify' lat='55.92578351765' lon='9.7686186406'>
    <tag k='name' v='lum' />
  </node>
  <node id='-168352531' action='modify' lat='55.92675578557' lon='9.76834773749' />
  <node id='-168352532' action='modify' lat='55.92733733138' lon='9.76809292763' />
  <node id='-168352533' action='modify' lat='55.93068368143' lon='9.76938306749' />
  <node id='-168352534' action='modify' lat='55.93384043266' lon='9.7731703493' />
  <node id='-168352535' action='modify' lat='55.93520612555' lon='9.77412521571' />
  <node id='-168352536' action='modify' lat='55.93620369697' lon='9.77448194951' />
  <node id='-168352537' action='modify' lat='55.93863141406' lon='9.77740555733' />
  <node id='-168352538' action='modify' lat='55.93918273702' lon='9.7787037465' />
  <node id='-168352539' action='modify' lat='55.94058429537' lon='9.78091120183' />
  <node id='-168352540' action='modify' lat='55.94469703863' lon='9.78480040491' />
  <node id='-168352541' action='modify' lat='55.94499457736' lon='9.78504371206'>
    <tag k='name' v='ste' />
  </node>
  <node id='-168352542' action='modify' lat='55.95176338787' lon='9.77918922365' />
  <node id='-168352543' action='modify' lat='55.95205322334' lon='9.77796077192' />
  <node id='-168352544' action='modify' lat='55.95499800734' lon='9.77324276894' />
  <node id='-168352545' action='modify' lat='55.95648758405' lon='9.7725748989' />
  <node id='-168352546' action='modify' lat='55.95917378414' lon='9.76848184526' />
  <node id='-168352547' action='modify' lat='55.96091844008' lon='9.76397036433' />
  <node id='-168352548' action='modify' lat='55.96250086837' lon='9.76063370168' />
  <node id='-168352549' action='modify' lat='55.96462822663' lon='9.75714208051'>
    <tag k='name' v='mon' />
  </node>
  <node id='-168352550' action='modify' lat='55.96538030694' lon='9.7559076494' />
  <node id='-168352551' action='modify' lat='55.96601081084' lon='9.7547221157' />
  <node id='-168352552' action='modify' lat='55.96846368087' lon='9.74941133916' />
  <node id='-168352553' action='modify' lat='55.96896654324' lon='9.74824458092'>
    <tag k='name' v='ost' />
  </node>
  <node id='-168352554' action='modify' lat='55.96962551168' lon='9.74657356203' />
  <node id='-168352555' action='modify' lat='55.97277158939' lon='9.73449825168' />
  <node id='-168352556' action='modify' lat='55.97319184418' lon='9.73233639657' />
  <node id='-168352557' action='modify' lat='55.9735550633' lon='9.72825407445' />
  <node id='-168352558' action='modify' lat='55.97218621973' lon='9.71915602148' />
  <node id='-168352559' action='modify' lat='55.97120016697' lon='9.71678189287'>
    <tag k='name' v='ves' />
  </node>
  <node id='-168352560' action='modify' lat='55.96797732122' lon='9.7090226385' />
  <node id='-168352561' action='modify' lat='55.96710516368' lon='9.7031915161' />
  <node id='-168352562' action='modify' lat='55.96770261623' lon='9.69720214337' />
  <node id='-168352563' action='modify' lat='55.97149577586' lon='9.69014524877' />
  <node id='-168352564' action='modify' lat='55.97352654472' lon='9.68948274583' />
  <node id='-168352565' action='modify' lat='55.97558722488' lon='9.68990117043' />
  <node id='-168352566' action='modify' lat='55.97633644368' lon='9.69043275408'>
    <tag k='name' v='gam' />
  </node>
  <node id='-168352567' action='modify' lat='55.97719006697' lon='9.69103842705' />
  <node id='-168352568' action='modify' lat='55.97990634395' lon='9.69100355566' />
  <node id='-168352569' action='modify' lat='55.98286851754' lon='9.68877195776' />
  <node id='-168352570' action='modify' lat='55.98533982159' lon='9.68037664622' />
  <node id='-168352571' action='modify' lat='55.98450406684' lon='9.67477082938' />
  <node id='-168352572' action='modify' lat='55.98435101823' lon='9.67242926091' />
  <node id='-168352573' action='modify' lat='55.98441403832' lon='9.66937958926' />
  <node id='-168352574' action='modify' lat='55.98438102781' lon='9.66772198409' />
  <node id='-168352575' action='modify' lat='55.9842348527' lon='9.66476731089'>
    <tag k='name' v='ton' />
  </node>
  <node id='-168352576' action='modify' lat='55.98412744613' lon='9.66259628266' />
  <node id='-168352577' action='modify' lat='55.98371181017' lon='9.65978264272' />
  <node id='-168352578' action='modify' lat='55.98085474438' lon='9.64710652292' />
  <node id='-168352579' action='modify' lat='55.97977578551' lon='9.64391737908' />
  <node id='-168352580' action='modify' lat='55.97588063324' lon='9.63648229703' />
  <node id='-168352581' action='modify' lat='55.97477602264' lon='9.63348090515' />
  <node id='-168352582' action='modify' lat='55.97351668884' lon='9.62831817597'>
    <tag k='name' v='rin' />
  </node>
  <node id='-168352583' action='modify' lat='55.9721186746' lon='9.62258711323' />
  <node id='-168352584' action='modify' lat='55.97180647563' lon='9.61783557862' />
  <node id='-168352585' action='modify' lat='55.97227335327' lon='9.61105822997'>
    <tag k='name' v='bra' />
  </node>
  <node id='-168352586' action='modify' lat='55.97259748126' lon='9.60635303378' />
  <node id='-168352587' action='modify' lat='55.9754011243' lon='9.59986477554' />
  <node id='-168352588' action='modify' lat='55.98140023772' lon='9.5957452909'>
    <tag k='name' v='lil' />
  </node>
  <node id='-168352589' action='modify' lat='55.99021051189' lon='9.5896942736'>
    <tag k='name' v='rod' />
  </node>
  <node id='-168352590' action='modify' lat='55.99049424512' lon='9.5894993788' />
  <node id='-168352591' action='modify' lat='55.99242500501' lon='9.58900853857' />
  <node id='-168352592' action='modify' lat='55.99523546425' lon='9.5895235227' />
  <node id='-168352593' action='modify' lat='55.99613548882' lon='9.58947658271' />
  <node id='-168352594' action='modify' lat='55.99680555038' lon='9.58936857828'>
    <tag k='name' v='sla' />
  </node>
  <node id='-168352595' action='modify' lat='56.00235858' lon='9.58847343653' />
  <node id='-168352596' action='modify' lat='56.00338291664' lon='9.58821326226' />
  <node id='-168352597' action='modify' lat='56.00909213147' lon='9.58609051787'>
    <tag k='name' v='vos' />
  </node>
  <node id='-168352598' action='modify' lat='56.01634150376' lon='9.58339467511' />
  <node id='-168352599' action='modify' lat='56.02177286174' lon='9.57457154721' />
  <node id='-168352600' action='modify' lat='56.02280626229' lon='9.56793323676'>
    <tag k='name' v='vin' />
  </node>
  <node id='-168352601' action='modify' lat='56.02367058495' lon='9.56238090456' />
  <node id='-168352602' action='modify' lat='56.02400334969' lon='9.56060796708' />
  <node id='-168352603' action='modify' lat='56.02489520901' lon='9.55648809403' />
  <node id='-168352604' action='modify' lat='56.02530890483' lon='9.54860239953' />
  <node id='-168352605' action='modify' lat='56.024607418' lon='9.54263716668' />
  <node id='-168352606' action='modify' lat='56.02371630076' lon='9.53937023744' />
  <node id='-168352607' action='modify' lat='56.02343524629' lon='9.53871980175' />
  <node id='-168352608' action='modify' lat='56.02249538606' lon='9.53584849566' />
  <node id='-168352609' action='modify' lat='56.02230875947' lon='9.53514575824' />
  <node id='-168352610' action='modify' lat='56.0217278909' lon='9.52975183457' />
  <node id='-168352611' action='modify' lat='56.02211913545' lon='9.5229765746' />
  <node id='-168352612' action='modify' lat='56.0223994515' lon='9.52055453718' />
  <node id='-168352613' action='modify' lat='56.02368434089' lon='9.51326301711'>
    <tag k='name' v='bry' />
  </node>
  <node id='-168352614' action='modify' lat='56.02397337237' lon='9.51162278116' />
  <node id='-168352615' action='modify' lat='56.02413529525' lon='9.51050349954'>
    <tag k='name' v='brv' />
  </node>
  <node id='-168352616' action='modify' lat='56.02356265791' lon='9.50621008739' />
  <node id='-168352617' action='modify' lat='56.02312196184' lon='9.50491860375' />
  <node id='-168352618' action='modify' lat='56.02439232205' lon='9.49602305755' />
  <node id='-168352619' action='modify' lat='56.02516126315' lon='9.49522107705' />
  <node id='-168352620' action='modify' lat='56.02636411321' lon='9.49348927304'>
    <tag k='name' v='ska' />
  </node>
  <node id='-168352621' action='modify' lat='56.02727165009' lon='9.49110321634' />
  <node id='-168352622' action='modify' lat='56.02835527716' lon='9.48736421697' />
  <node id='-168352623' action='modify' lat='56.02863254928' lon='9.48153510556' />
  <node id='-168352624' action='modify' lat='56.02831630908' lon='9.47958446972' />
  <node id='-168352625' action='modify' lat='56.03139091966' lon='9.47340667181' />
  <node id='-168352626' action='modify' lat='56.03229384798' lon='9.4736876332' />
  <node id='-168352627' action='modify' lat='56.03525500472' lon='9.47315990891' />
  <node id='-168352628' action='modify' lat='56.03801852144' lon='9.47120927207' />
  <node id='-168352629' action='modify' lat='56.04028590358' lon='9.47061985597'>
    <tag k='name' v='vra' />
  </node>
  <node id='-168352630' action='modify' lat='56.04054098936' lon='9.47067685358' />
  <node id='-168352631' action='modify' lat='56.04147029817' lon='9.47103828058' />
  <node id='-168352632' action='modify' lat='56.04221118181' lon='9.4714325653' />
  <node id='-168352633' action='modify' lat='56.04442700646' lon='9.47105571359' />
  <node id='-168352634' action='modify' lat='56.04607942786' lon='9.4691526863' />
  <node id='-168352635' action='modify' lat='56.05019444352' lon='9.46983128518' />
  <node id='-168352636' action='modify' lat='56.05083554951' lon='9.47079688042' />
  <node id='-168352637' action='modify' lat='56.05440787253' lon='9.47207897633' />
  <node id='-168352638' action='modify' lat='56.0557243811' lon='9.47143792838' />
  <node id='-168352639' action='modify' lat='56.06156350589' lon='9.4771859023' />
  <node id='-168352640' action='modify' lat='56.06746013945' lon='9.49821710318' />
  <node id='-168352641' action='modify' lat='56.06819378572' lon='9.50046345457' />
  <node id='-168352642' action='modify' lat='56.07144326377' lon='9.50949332726'>
    <tag k='name' v='fog' />
  </node>
  <node id='-168352643' action='modify' lat='56.07510585256' lon='9.51967209309' />
  <node id='-168352644' action='modify' lat='56.07658690692' lon='9.52277249423'>
    <tag k='name' v='kor' />
  </node>
  <node id='-168352645' action='modify' lat='56.07716111772' lon='9.52361695334' />
  <node id='-168352646' action='modify' lat='56.08020115348' lon='9.52767580613' />
  <node id='-168352647' action='modify' lat='56.08562053439' lon='9.5305940482' />
  <node id='-168352648' action='modify' lat='56.08689557187' lon='9.53069328994' />
  <node id='-168352649' action='modify' lat='56.08853046135' lon='9.5311881575' />
  <node id='-168352650' action='modify' lat='56.09253321512' lon='9.53288599715' />
  <node id='-168352651' action='modify' lat='56.09640613875' lon='9.53946009144' />
  <node id='-168352652' action='modify' lat='56.09720880337' lon='9.54456835851' />
  <node id='-168352653' action='modify' lat='56.09734868898' lon='9.54608380526' />
  <node id='-168352654' action='modify' lat='56.09739841991' lon='9.54678863685'>
    <tag k='name' v='the' />
  </node>
  <node id='-168352655' action='modify' lat='56.09745939962' lon='9.54765289754' />
  <node id='-168352656' action='modify' lat='56.09755963737' lon='9.54872309893' />
  <node id='-168352657' action='modify' lat='56.09769578075' lon='9.54956799477' />
  <node id='-168352658' action='modify' lat='56.09969598499' lon='9.55285638437' />
  <node id='-168352659' action='modify' lat='56.10021808572' lon='9.55309510097' />
  <node id='-168352660' action='modify' lat='56.10133257505' lon='9.55422431096' />
  <node id='-168352661' action='modify' lat='56.1021867457' lon='9.55559894308' />
  <node id='-168352662' action='modify' lat='56.10292421931' lon='9.55644115672' />
  <node id='-168352663' action='modify' lat='56.10348965603' lon='9.55698028073' />
  <node id='-168352664' action='modify' lat='56.10424804622' lon='9.55782517657' />
  <node id='-168352665' action='modify' lat='56.10464892493' lon='9.55834686622' />
  <node id='-168352666' action='modify' lat='56.10626735626' lon='9.55934732884' />
  <node id='-168352667' action='modify' lat='56.10719321154' lon='9.55946266383' />
  <node id='-168352668' action='modify' lat='56.10898577683' lon='9.56098615989' />
  <node id='-168352669' action='modify' lat='56.10963188779' lon='9.56215292081' />
  <node id='-168352670' action='modify' lat='56.11167932983' lon='9.56353828177' />
  <node id='-168352671' action='modify' lat='56.11251625958' lon='9.5635040836' />
  <node id='-168352672' action='modify' lat='56.11385003784' lon='9.56430472299' />
  <node id='-168352673' action='modify' lat='56.11540751829' lon='9.56649541721' />
  <node id='-168352674' action='modify' lat='56.11614473861' lon='9.56821471319' />
  <node id='-168352675' action='modify' lat='56.11653353066' lon='9.56949144468' />
  <node id='-168352676' action='modify' lat='56.11829127029' lon='9.57215890154' />
  <node id='-168352677' action='modify' lat='56.11850509448' lon='9.57230508193' />
  <node id='-168352678' action='modify' lat='56.12163680972' lon='9.57051470742' />
  <node id='-168352679' action='modify' lat='56.12431976024' lon='9.56360667676' />
  <node id='-168352680' action='modify' lat='56.12745772931' lon='9.56199198693' />
  <node id='-168352681' action='modify' lat='56.12860730707' lon='9.5625767085' />
  <node id='-168352682' action='modify' lat='56.13242951816' lon='9.56128388375'>
    <tag k='name' v='vir' />
  </node>
  <node id='-168352683' action='modify' lat='56.13370450056' lon='9.55943584174' />
  <node id='-168352684' action='modify' lat='56.13451535467' lon='9.55810010299' />
  <node id='-168352685' action='modify' lat='56.13615569539' lon='9.55504238471' />
  <node id='-168352686' action='modify' lat='56.1377937251' lon='9.55301195115' />
  <node id='-168352687' action='modify' lat='56.14100382032' lon='9.55056309432' />
  <node id='-168352688' action='modify' lat='56.14402088612' lon='9.54480170935' />
  <node id='-168352689' action='modify' lat='56.14432870542' lon='9.543227254' />
  <node id='-168352690' action='modify' lat='56.14568995996' lon='9.53954994142' />
  <node id='-168352691' action='modify' lat='56.14795512038' lon='9.53559636533' />
  <node id='-168352692' action='modify' lat='56.15087452994' lon='9.53254937589' />
  <node id='-168352693' action='modify' lat='56.1554925421' lon='9.52999966988'>
    <tag k='name' v='orn' />
  </node>
  <node id='-168352694' action='modify' lat='56.16009446328' lon='9.52745854318' />
  <node id='-168352695' action='modify' lat='56.16365267509' lon='9.53241346328' />
  <node id='-168352696' action='modify' lat='56.16370667802' lon='9.5342616758' />
  <node id='-168352697' action='modify' lat='56.16374402907' lon='9.53555747733' />
  <node id='-168352698' action='modify' lat='56.1638067565' lon='9.53711718187' />
  <node id='-168352699' action='modify' lat='56.16384409419' lon='9.5403680192' />
  <node id='-168352701' action='modify' lat='56.16399461674' lon='9.5442166064'>
    <tag k='name' v='sil' />
  </node>
  <way id='-37856253' action='modify'>
    <nd ref='-168352518' />
    <nd ref='-168352519' />
    <tag k='type' v='straight' />
  </way>
  <way id='-37856254' action='modify'>
    <nd ref='-168352519' />
    <nd ref='-168352520' />
  </way>
  <way id='-37856255' action='modify'>
    <nd ref='-168352520' />
    <nd ref='-168352521' />
    <tag k='type' v='straight' />
  </way>
  <way id='-37856256' action='modify'>
    <nd ref='-168352521' />
    <nd ref='-168352522' />
  </way>
  <way id='-37856257' action='modify'>
    <nd ref='-168352522' />
    <nd ref='-168352523' />
    <tag k='type' v='straight' />
  </way>
  <way id='-37856258' action='modify'>
    <nd ref='-168352523' />
    <nd ref='-168352524' />
  </way>
  <way id='-37856259' action='modify'>
    <nd ref='-168352524' />
    <nd ref='-168352525' />
    <tag k='type' v='straight' />
  </way>
  <way id='-37856260' action='modify'>
    <nd ref='-168352525' />
    <nd ref='-168352526' />
  </way>
  <way id='-37856261' action='modify'>
    <nd ref='-168352526' />
    <nd ref='-168352527' />
    <tag k='type' v='straight' />
  </way>
  <way id='-37856262' action='modify'>
    <nd ref='-168352527' />
    <nd ref='-168352528' />
  </way>
  <way id='-37856263' action='modify'>
    <nd ref='-168352528' />
    <nd ref='-168352529' />
    <tag k='type' v='straight' />
  </way>
  <way id='-37856264' action='modify'>
    <nd ref='-168352529' />
    <nd ref='-168352530' />
    <nd ref='-168352531' />
  </way>
  <way id='-37856265' action='modify'>
    <nd ref='-168352531' />
    <nd ref='-168352532' />
    <tag k='type' v='straight' />
  </way>
  <way id='-37856266' action='modify'>
    <nd ref='-168352532' />
    <nd ref='-168352533' />
  </way>
  <way id='-37856267' action='modify'>
    <nd ref='-168352533' />
    <nd ref='-168352534' />
    <tag k='type' v='straight' />
  </way>
  <way id='-37856268' action='modify'>
    <nd ref='-168352534' />
    <nd ref='-168352535' />
  </way>
  <way id='-37856269' action='modify'>
    <nd ref='-168352535' />
    <nd ref='-168352536' />
    <tag k='type' v='straight' />
  </way>
  <way id='-37856270' action='modify'>
    <nd ref='-168352536' />
    <nd ref='-168352537' />
  </way>
  <way id='-37856271' action='modify'>
    <nd ref='-168352537' />
    <nd ref='-168352538' />
    <tag k='type' v='straight' />
  </way>
  <way id='-37856272' action='modify'>
    <nd ref='-168352538' />
    <nd ref='-168352539' />
  </way>
  <way id='-37856273' action='modify'>
    <nd ref='-168352539' />
    <nd ref='-168352540' />
    <tag k='type' v='straight' />
  </way>
  <way id='-37856274' action='modify'>
    <nd ref='-168352540' />
    <nd ref='-168352541' />
    <nd ref='-168352542' />
  </way>
  <way id='-37856275' action='modify'>
    <nd ref='-168352542' />
    <nd ref='-168352543' />
    <tag k='type' v='straight' />
  </way>
  <way id='-37856276' action='modify'>
    <nd ref='-168352543' />
    <nd ref='-168352544' />
  </way>
  <way id='-37856277' action='modify'>
    <nd ref='-168352544' />
    <nd ref='-168352545' />
    <tag k='type' v='straight' />
  </way>
  <way id='-37856278' action='modify'>
    <nd ref='-168352545' />
    <nd ref='-168352546' />
  </way>
  <way id='-37856279' action='modify'>
    <nd ref='-168352546' />
    <nd ref='-168352547' />
    <tag k='type' v='straight' />
  </way>
  <way id='-37856280' action='modify'>
    <nd ref='-168352547' />
    <nd ref='-168352548' />
  </way>
  <way id='-37856281' action='modify'>
    <nd ref='-168352548' />
    <nd ref='-168352549' />
    <nd ref='-168352550' />
    <tag k='type' v='straight' />
  </way>
  <way id='-37856282' action='modify'>
    <nd ref='-168352550' />
    <nd ref='-168352551' />
  </way>
  <way id='-37856283' action='modify'>
    <nd ref='-168352551' />
    <nd ref='-168352552' />
    <tag k='type' v='straight' />
  </way>
  <way id='-37856284' action='modify'>
    <nd ref='-168352552' />
    <nd ref='-168352553' />
    <nd ref='-168352554' />
  </way>
  <way id='-37856285' action='modify'>
    <nd ref='-168352554' />
    <nd ref='-168352555' />
    <tag k='type' v='straight' />
  </way>
  <way id='-37856286' action='modify'>
    <nd ref='-168352555' />
    <nd ref='-168352556' />
  </way>
  <way id='-37856287' action='modify'>
    <nd ref='-168352556' />
    <nd ref='-168352557' />
    <tag k='type' v='straight' />
  </way>
  <way id='-37856288' action='modify'>
    <nd ref='-168352557' />
    <nd ref='-168352558' />
  </way>
  <way id='-37856289' action='modify'>
    <nd ref='-168352558' />
    <nd ref='-168352559' />
    <nd ref='-168352560' />
    <tag k='type' v='straight' />
  </way>
  <way id='-37856290' action='modify'>
    <nd ref='-168352560' />
    <nd ref='-168352561' />
  </way>
  <way id='-37856291' action='modify'>
    <nd ref='-168352561' />
    <nd ref='-168352562' />
    <tag k='type' v='straight' />
  </way>
  <way id='-37856292' action='modify'>
    <nd ref='-168352562' />
    <nd ref='-168352563' />
  </way>
  <way id='-37856293' action='modify'>
    <nd ref='-168352563' />
    <nd ref='-168352564' />
    <tag k='type' v='straight' />
  </way>
  <way id='-37856294' action='modify'>
    <nd ref='-168352564' />
    <nd ref='-168352565' />
  </way>
  <way id='-37856295' action='modify'>
    <nd ref='-168352565' />
    <nd ref='-168352566' />
    <nd ref='-168352567' />
    <tag k='type' v='straight' />
  </way>
  <way id='-37856296' action='modify'>
    <nd ref='-168352567' />
    <nd ref='-168352568' />
  </way>
  <way id='-37856297' action='modify'>
    <nd ref='-168352568' />
    <nd ref='-168352569' />
    <tag k='type' v='straight' />
  </way>
  <way id='-37856298' action='modify'>
    <nd ref='-168352569' />
    <nd ref='-168352570' />
  </way>
  <way id='-37856299' action='modify'>
    <nd ref='-168352570' />
    <nd ref='-168352571' />
    <tag k='type' v='straight' />
  </way>
  <way id='-37856300' action='modify'>
    <nd ref='-168352571' />
    <nd ref='-168352572' />
  </way>
  <way id='-37856301' action='modify'>
    <nd ref='-168352572' />
    <nd ref='-168352573' />
    <tag k='type' v='straight' />
  </way>
  <way id='-37856302' action='modify'>
    <nd ref='-168352573' />
    <nd ref='-168352574' />
  </way>
  <way id='-37856303' action='modify'>
    <nd ref='-168352574' />
    <nd ref='-168352575' />
    <nd ref='-168352576' />
    <tag k='type' v='straight' />
  </way>
  <way id='-37856304' action='modify'>
    <nd ref='-168352576' />
    <nd ref='-168352577' />
  </way>
  <way id='-37856305' action='modify'>
    <nd ref='-168352577' />
    <nd ref='-168352578' />
    <tag k='type' v='straight' />
  </way>
  <way id='-37856306' action='modify'>
    <nd ref='-168352578' />
    <nd ref='-168352579' />
  </way>
  <way id='-37856307' action='modify'>
    <nd ref='-168352579' />
    <nd ref='-168352580' />
    <tag k='type' v='straight' />
  </way>
  <way id='-37856308' action='modify'>
    <nd ref='-168352580' />
    <nd ref='-168352581' />
  </way>
  <way id='-37856309' action='modify'>
    <nd ref='-168352581' />
    <nd ref='-168352582' />
    <nd ref='-168352583' />
    <tag k='type' v='straight' />
  </way>
  <way id='-37856310' action='modify'>
    <nd ref='-168352583' />
    <nd ref='-168352584' />
  </way>
  <way id='-37856311' action='modify'>
    <nd ref='-168352584' />
    <nd ref='-168352585' />
    <nd ref='-168352586' />
    <tag k='type' v='straight' />
  </way>
  <way id='-37856312' action='modify'>
    <nd ref='-168352586' />
    <nd ref='-168352587' />
  </way>
  <way id='-37856313' action='modify'>
    <nd ref='-168352587' />
    <nd ref='-168352588' />
    <nd ref='-168352589' />
    <nd ref='-168352590' />
    <tag k='type' v='straight' />
  </way>
  <way id='-37856314' action='modify'>
    <nd ref='-168352590' />
    <nd ref='-168352591' />
  </way>
  <way id='-37856315' action='modify'>
    <nd ref='-168352591' />
    <nd ref='-168352592' />
    <tag k='type' v='straight' />
  </way>
  <way id='-37856316' action='modify'>
    <nd ref='-168352592' />
    <nd ref='-168352593' />
  </way>
  <way id='-37856317' action='modify'>
    <nd ref='-168352593' />
    <nd ref='-168352594' />
    <nd ref='-168352595' />
    <tag k='type' v='straight' />
  </way>
  <way id='-37856318' action='modify'>
    <nd ref='-168352595' />
    <nd ref='-168352596' />
  </way>
  <way id='-37856319' action='modify'>
    <nd ref='-168352596' />
    <nd ref='-168352597' />
    <nd ref='-168352598' />
    <tag k='type' v='straight' />
  </way>
  <way id='-37856320' action='modify'>
    <nd ref='-168352598' />
    <nd ref='-168352599' />
  </way>
  <way id='-37856321' action='modify'>
    <nd ref='-168352599' />
    <nd ref='-168352600' />
    <nd ref='-168352601' />
    <tag k='type' v='straight' />
  </way>
  <way id='-37856322' action='modify'>
    <nd ref='-168352601' />
    <nd ref='-168352602' />
  </way>
  <way id='-37856323' action='modify'>
    <nd ref='-168352602' />
    <nd ref='-168352603' />
    <tag k='type' v='straight' />
  </way>
  <way id='-37856324' action='modify'>
    <nd ref='-168352603' />
    <nd ref='-168352604' />
  </way>
  <way id='-37856325' action='modify'>
    <nd ref='-168352604' />
    <nd ref='-168352605' />
    <tag k='type' v='straight' />
  </way>
  <way id='-37856326' action='modify'>
    <nd ref='-168352605' />
    <nd ref='-168352606' />
  </way>
  <way id='-37856327' action='modify'>
    <nd ref='-168352606' />
    <nd ref='-168352607' />
    <tag k='type' v='straight' />
  </way>
  <way id='-37856328' action='modify'>
    <nd ref='-168352607' />
    <nd ref='-168352608' />
  </way>
  <way id='-37856329' action='modify'>
    <nd ref='-168352608' />
    <nd ref='-168352609' />
    <tag k='type' v='straight' />
  </way>
  <way id='-37856330' action='modify'>
    <nd ref='-168352609' />
    <nd ref='-168352610' />
  </way>
  <way id='-37856331' action='modify'>
    <nd ref='-168352610' />
    <nd ref='-168352611' />
    <tag k='type' v='straight' />
  </way>
  <way id='-37856332' action='modify'>
    <nd ref='-168352611' />
    <nd ref='-168352612' />
  </way>
  <way id='-37856333' action='modify'>
    <nd ref='-168352612' />
    <nd ref='-168352613' />
    <nd ref='-168352614' />
    <tag k='type' v='straight' />
  </way>
  <way id='-37856334' action='modify'>
    <nd ref='-168352614' />
    <nd ref='-168352615' />
    <nd ref='-168352616' />
  </way>
  <way id='-37856335' action='modify'>
    <nd ref='-168352616' />
    <nd ref='-168352617' />
    <tag k='type' v='straight' />
  </way>
  <way id='-37856336' action='modify'>
    <nd ref='-168352617' />
    <nd ref='-168352618' />
  </way>
  <way id='-37856337' action='modify'>
    <nd ref='-168352618' />
    <nd ref='-168352619' />
    <tag k='type' v='straight' />
  </way>
  <way id='-37856338' action='modify'>
    <nd ref='-168352619' />
    <nd ref='-168352620' />
    <nd ref='-168352621' />
  </way>
  <way id='-37856339' action='modify'>
    <nd ref='-168352621' />
    <nd ref='-168352622' />
    <tag k='type' v='straight' />
  </way>
  <way id='-37856340' action='modify'>
    <nd ref='-168352622' />
    <nd ref='-168352623' />
  </way>
  <way id='-37856341' action='modify'>
    <nd ref='-168352623' />
    <nd ref='-168352624' />
    <tag k='type' v='straight' />
  </way>
  <way id='-37856342' action='modify'>
    <nd ref='-168352624' />
    <nd ref='-168352625' />
  </way>
  <way id='-37856343' action='modify'>
    <nd ref='-168352625' />
    <nd ref='-168352626' />
    <tag k='type' v='straight' />
  </way>
  <way id='-37856344' action='modify'>
    <nd ref='-168352626' />
    <nd ref='-168352627' />
  </way>
  <way id='-37856345' action='modify'>
    <nd ref='-168352627' />
    <nd ref='-168352628' />
    <tag k='type' v='straight' />
  </way>
  <way id='-37856346' action='modify'>
    <nd ref='-168352628' />
    <nd ref='-168352629' />
  </way>
  <way id='-37856347' action='modify'>
    <nd ref='-168352629' />
    <nd ref='-168352630' />
    <tag k='type' v='straight' />
  </way>
  <way id='-37856348' action='modify'>
    <nd ref='-168352630' />
    <nd ref='-168352631' />
  </way>
  <way id='-37856349' action='modify'>
    <nd ref='-168352631' />
    <nd ref='-168352632' />
    <tag k='type' v='straight' />
  </way>
  <way id='-37856350' action='modify'>
    <nd ref='-168352632' />
    <nd ref='-168352633' />
  </way>
  <way id='-37856351' action='modify'>
    <nd ref='-168352633' />
    <nd ref='-168352634' />
    <tag k='type' v='straight' />
  </way>
  <way id='-37856352' action='modify'>
    <nd ref='-168352634' />
    <nd ref='-168352635' />
  </way>
  <way id='-37856353' action='modify'>
    <nd ref='-168352635' />
    <nd ref='-168352636' />
    <tag k='type' v='straight' />
  </way>
  <way id='-37856354' action='modify'>
    <nd ref='-168352636' />
    <nd ref='-168352637' />
  </way>
  <way id='-37856355' action='modify'>
    <nd ref='-168352637' />
    <nd ref='-168352638' />
    <tag k='type' v='straight' />
  </way>
  <way id='-37856356' action='modify'>
    <nd ref='-168352638' />
    <nd ref='-168352639' />
  </way>
  <way id='-37856357' action='modify'>
    <nd ref='-168352639' />
    <nd ref='-168352640' />
    <tag k='type' v='straight' />
  </way>
  <way id='-37856358' action='modify'>
    <nd ref='-168352640' />
    <nd ref='-168352641' />
  </way>
  <way id='-37856359' action='modify'>
    <nd ref='-168352641' />
    <nd ref='-168352642' />
    <nd ref='-168352643' />
    <tag k='type' v='straight' />
  </way>
  <way id='-37856360' action='modify'>
    <nd ref='-168352643' />
    <nd ref='-168352644' />
    <nd ref='-168352645' />
  </way>
  <way id='-37856361' action='modify'>
    <nd ref='-168352645' />
    <nd ref='-168352646' />
    <tag k='type' v='straight' />
  </way>
  <way id='-37856362' action='modify'>
    <nd ref='-168352646' />
    <nd ref='-168352647' />
  </way>
  <way id='-37856363' action='modify'>
    <nd ref='-168352647' />
    <nd ref='-168352648' />
    <tag k='type' v='straight' />
  </way>
  <way id='-37856364' action='modify'>
    <nd ref='-168352648' />
    <nd ref='-168352649' />
  </way>
  <way id='-37856365' action='modify'>
    <nd ref='-168352649' />
    <nd ref='-168352650' />
    <tag k='type' v='straight' />
  </way>
  <way id='-37856366' action='modify'>
    <nd ref='-168352650' />
    <nd ref='-168352651' />
  </way>
  <way id='-37856367' action='modify'>
    <nd ref='-168352651' />
    <nd ref='-168352652' />
    <tag k='type' v='straight' />
  </way>
  <way id='-37856368' action='modify'>
    <nd ref='-168352652' />
    <nd ref='-168352653' />
  </way>
  <way id='-37856369' action='modify'>
    <nd ref='-168352653' />
    <nd ref='-168352654' />
    <nd ref='-168352655' />
    <tag k='type' v='straight' />
  </way>
  <way id='-37856370' action='modify'>
    <nd ref='-168352655' />
    <nd ref='-168352656' />
  </way>
  <way id='-37856371' action='modify'>
    <nd ref='-168352656' />
    <nd ref='-168352657' />
    <tag k='type' v='straight' />
  </way>
  <way id='-37856372' action='modify'>
    <nd ref='-168352657' />
    <nd ref='-168352658' />
  </way>
  <way id='-37856373' action='modify'>
    <nd ref='-168352658' />
    <nd ref='-168352659' />
    <tag k='type' v='straight' />
  </way>
  <way id='-37856374' action='modify'>
    <nd ref='-168352659' />
    <nd ref='-168352660' />
  </way>
  <way id='-37856375' action='modify'>
    <nd ref='-168352660' />
    <nd ref='-168352661' />
    <tag k='type' v='straight' />
  </way>
  <way id='-37856376' action='modify'>
    <nd ref='-168352661' />
    <nd ref='-168352662' />
  </way>
  <way id='-37856377' action='modify'>
    <nd ref='-168352662' />
    <nd ref='-168352663' />
    <tag k='type' v='straight' />
  </way>
  <way id='-37856378' action='modify'>
    <nd ref='-168352663' />
    <nd ref='-168352664' />
  </way>
  <way id='-37856379' action='modify'>
    <nd ref='-168352664' />
    <nd ref='-168352665' />
    <tag k='type' v='straight' />
  </way>
  <way id='-37856380' action='modify'>
    <nd ref='-168352665' />
    <nd ref='-168352666' />
  </way>
  <way id='-37856381' action='modify'>
    <nd ref='-168352666' />
    <nd ref='-168352667' />
    <tag k='type' v='straight' />
  </way>
  <way id='-37856382' action='modify'>
    <nd ref='-168352667' />
    <nd ref='-168352668' />
  </way>
  <way id='-37856383' action='modify'>
    <nd ref='-168352668' />
    <nd ref='-168352669' />
    <tag k='type' v='straight' />
  </way>
  <way id='-37856384' action='modify'>
    <nd ref='-168352669' />
    <nd ref='-168352670' />
  </way>
  <way id='-37856385' action='modify'>
    <nd ref='-168352670' />
    <nd ref='-168352671' />
    <tag k='type' v='straight' />
  </way>
  <way id='-37856386' action='modify'>
    <nd ref='-168352671' />
    <nd ref='-168352672' />
  </way>
  <way id='-37856387' action='modify'>
    <nd ref='-168352672' />
    <nd ref='-168352673' />
    <tag k='type' v='straight' />
  </way>
  <way id='-37856388' action='modify'>
    <nd ref='-168352673' />
    <nd ref='-168352674' />
  </way>
  <way id='-37856389' action='modify'>
    <nd ref='-168352674' />
    <nd ref='-168352675' />
    <tag k='type' v='straight' />
  </way>
  <way id='-37856390' action='modify'>
    <nd ref='-168352675' />
    <nd ref='-168352676' />
  </way>
  <way id='-37856391' action='modify'>
    <nd ref='-168352676' />
    <nd ref='-168352677' />
    <tag k='type' v='straight' />
  </way>
  <way id='-37856392' action='modify'>
    <nd ref='-168352677' />
    <nd ref='-168352678' />
  </way>
  <way id='-37856393' action='modify'>
    <nd ref='-168352678' />
    <nd ref='-168352679' />
    <tag k='type' v='straight' />
  </way>
  <way id='-37856394' action='modify'>
    <nd ref='-168352679' />
    <nd ref='-168352680' />
  </way>
  <way id='-37856395' action='modify'>
    <nd ref='-168352680' />
    <nd ref='-168352681' />
    <tag k='type' v='straight' />
  </way>
  <way id='-37856396' action='modify'>
    <nd ref='-168352681' />
    <nd ref='-168352682' />
  </way>
  <way id='-37856397' action='modify'>
    <nd ref='-168352682' />
    <nd ref='-168352683' />
    <tag k='type' v='straight' />
  </way>
  <way id='-37856398' action='modify'>
    <nd ref='-168352683' />
    <nd ref='-168352684' />
  </way>
  <way id='-37856399' action='modify'>
    <nd ref='-168352684' />
    <nd ref='-168352685' />
    <tag k='type' v='straight' />
  </way>
  <way id='-37856400' action='modify'>
    <nd ref='-168352685' />
    <nd ref='-168352686' />
  </way>
  <way id='-37856401' action='modify'>
    <nd ref='-168352686' />
    <nd ref='-168352687' />
    <tag k='type' v='straight' />
  </way>
  <way id='-37856402' action='modify'>
    <nd ref='-168352687' />
    <nd ref='-168352688' />
  </way>
  <way id='-37856403' action='modify'>
    <nd ref='-168352688' />
    <nd ref='-168352689' />
    <tag k='type' v='straight' />
  </way>
  <way id='-37856404' action='modify'>
    <nd ref='-168352689' />
    <nd ref='-168352690' />
  </way>
  <way id='-37856405' action='modify'>
    <nd ref='-168352690' />
    <nd ref='-168352691' />
    <tag k='type' v='straight' />
  </way>
  <way id='-37856406' action='modify'>
    <nd ref='-168352691' />
    <nd ref='-168352692' />
  </way>
  <way id='-37856407' action='modify'>
    <nd ref='-168352692' />
    <nd ref='-168352693' />
    <nd ref='-168352694' />
    <tag k='type' v='straight' />
  </way>
  <way id='-37856408' action='modify'>
    <nd ref='-168352694' />
    <nd ref='-168352695' />
  </way>
  <way id='-37856409' action='modify'>
    <nd ref='-168352695' />
    <nd ref='-168352696' />
    <tag k='type' v='straight' />
  </way>
  <way id='-37856410' action='modify'>
    <nd ref='-168352696' />
    <nd ref='-168352697' />
  </way>
  <way id='-37856411' action='modify'>
    <nd ref='-168352697' />
    <nd ref='-168352698' />
    <tag k='type' v='straight' />
  </way>
  <way id='-37856412' action='modify'>
    <nd ref='-168352698' />
    <nd ref='-168352699' />
  </way>
  <way id='-37856413' action='modify'>
    <nd ref='-168352699' />
    <nd ref='-168352701' />
    <tag k='type' v='straight' />
  </way>
  <relation id='-14481820' action='modify'>
    <member type='way' ref='-37856253' role='' />
    <member type='way' ref='-37856254' role='' />
    <member type='way' ref='-37856255' role='' />
    <member type='way' ref='-37856256' role='' />
    <member type='way' ref='-37856257' role='' />
    <member type='way' ref='-37856258' role='' />
    <member type='way' ref='-37856259' role='' />
    <member type='way' ref='-37856260' role='' />
    <member type='way' ref='-37856261' role='' />
    <member type='way' ref='-37856262' role='' />
    <member type='way' ref='-37856263' role='' />
    <member type='way' ref='-37856264' role='' />
    <member type='way' ref='-37856265' role='' />
    <member type='way' ref='-37856266' role='' />
    <member type='way' ref='-37856267' role='' />
    <member type='way' ref='-37856268' role='' />
    <member type='way' ref='-37856269' role='' />
    <member type='way' ref='-37856270' role='' />
    <member type='way' ref='-37856271' role='' />
    <member type='way' ref='-37856272' role='' />
    <member type='way' ref='-37856273' role='' />
    <member type='way' ref='-37856274' role='' />
    <member type='way' ref='-37856275' role='' />
    <member type='way' ref='-37856276' role='' />
    <member type='way' ref='-37856277' role='' />
    <member type='way' ref='-37856278' role='' />
    <member type='way' ref='-37856279' role='' />
    <member type='way' ref='-37856280' role='' />
    <member type='way' ref='-37856281' role='' />
    <member type='way' ref='-37856282' role='' />
    <member type='way' ref='-37856283' role='' />
    <member type='way' ref='-37856284' role='' />
    <member type='way' ref='-37856285' role='' />
    <member type='way' ref='-37856286' role='' />
    <member type='way' ref='-37856287' role='' />
    <member type='way' ref='-37856288' role='' />
    <member type='way' ref='-37856289' role='' />
    <member type='way' ref='-37856290' role='' />
    <member type='way' ref='-37856291' role='' />
    <member type='way' ref='-37856292' role='' />
    <member type='way' ref='-37856293' role='' />
    <member type='way' ref='-37856294' role='' />
    <member type='way' ref='-37856295' role='' />
    <member type='way' ref='-37856296' role='' />
    <member type='way' ref='-37856297' role='' />
    <member type='way' ref='-37856298' role='' />
    <member type='way' ref='-37856299' role='' />
    <member type='way' ref='-37856300' role='' />
    <member type='way' ref='-37856301' role='' />
    <member type='way' ref='-37856302' role='' />
    <member type='way' ref='-37856303' role='' />
    <member type='way' ref='-37856304' role='' />
    <member type='way' ref='-37856305' role='' />
    <member type='way' ref='-37856306' role='' />
    <member type='way' ref='-37856307' role='' />
    <member type='way' ref='-37856308' role='' />
    <member type='way' ref='-37856309' role='' />
    <member type='way' ref='-37856310' role='' />
    <member type='way' ref='-37856311' role='' />
    <member type='way' ref='-37856312' role='' />
    <member type='way' ref='-37856313' role='' />
    <member type='way' ref='-37856314' role='' />
    <member type='way' ref='-37856315' role='' />
    <member type='way' ref='-37856316' role='' />
    <member type='way' ref='-37856317' role='' />
    <member type='way' ref='-37856318' role='' />
    <member type='way' ref='-37856319' role='' />
    <member type='way' ref='-37856320' role='' />
    <member type='way' ref='-37856321' role='' />
    <member type='way' ref='-37856322' role='' />
    <member type='way' ref='-37856323' role='' />
    <member type='way' ref='-37856324' role='' />
    <member type='way' ref='-37856325' role='' />
    <member type='way' ref='-37856326' role='' />
    <member type='way' ref='-37856327' role='' />
    <member type='way' ref='-37856328' role='' />
    <member type='way' ref='-37856329' role='' />
    <member type='way' ref='-37856330' role='' />
    <member type='way' ref='-37856331' role='' />
    <member type='way' ref='-37856332' role='' />
    <member type='way' ref='-37856333' role='' />
    <member type='way' ref='-37856334' role='' />
    <member type='way' ref='-37856335' role='' />
    <member type='way' ref='-37856336' role='' />
    <member type='way' ref='-37856337' role='' />
    <member type='way' ref='-37856338' role='' />
    <member type='way' ref='-37856339' role='' />
    <member type='way' ref='-37856340' role='' />
    <member type='way' ref='-37856341' role='' />
    <member type='way' ref='-37856342' role='' />
    <member type='way' ref='-37856343' role='' />
    <member type='way' ref='-37856344' role='' />
    <member type='way' ref='-37856345' role='' />
    <member type='way' ref='-37856346' role='' />
    <member type='way' ref='-37856347' role='' />
    <member type='way' ref='-37856348' role='' />
    <member type='way' ref='-37856349' role='' />
    <member type='way' ref='-37856350' role='' />
    <member type='way' ref='-37856351' role='' />
    <member type='way' ref='-37856352' role='' />
    <member type='way' ref='-37856353' role='' />
    <member type='way' ref='-37856354' role='' />
    <member type='way' ref='-37856355' role='' />
    <member type='way' ref='-37856356' role='' />
    <member type='way' ref='-37856357' role='' />
    <member type='way' ref='-37856358' role='' />
    <member type='way' ref='-37856359' role='' />
    <member type='way' ref='-37856360' role='' />
    <member type='way' ref='-37856361' role='' />
    <member type='way' ref='-37856362' role='' />
    <member type='way' ref='-37856363' role='' />
    <member type='way' ref='-37856364' role='' />
    <member type='way' ref='-37856365' role='' />
    <member type='way' ref='-37856366' role='' />
    <member type='way' ref='-37856367' role='' />
    <member type='way' ref='-37856368' role='' />
    <member type='way' ref='-37856369' role='' />
    <member type='way' ref='-37856370' role='' />
    <member type='way' ref='-37856371' role='' />
    <member type='way' ref='-37856372' role='' />
    <member type='way' ref='-37856373' role='' />
    <member type='way' ref='-37856374' role='' />
    <member type='way' ref='-37856375' role='' />
    <member type='way' ref='-37856376' role='' />
    <member type='way' ref='-37856377' role='' />
    <member type='way' ref='-37856378' role='' />
    <member type='way' ref='-37856379' role='' />
    <member type='way' ref='-37856380' role='' />
    <member type='way' ref='-37856381' role='' />
    <member type='way' ref='-37856382' role='' />
    <member type='way' ref='-37856383' role='' />
    <member type='way' ref='-37856384' role='' />
    <member type='way' ref='-37856385' role='' />
    <member type='way' ref='-37856386' role='' />
    <member type='way' ref='-37856387' role='' />
    <member type='way' ref='-37856388' role='' />
    <member type='way' ref='-37856389' role='' />
    <member type='way' ref='-37856390' role='' />
    <member type='way' ref='-37856391' role='' />
    <member type='way' ref='-37856392' role='' />
    <member type='way' ref='-37856393' role='' />
    <member type='way' ref='-37856394' role='' />
    <member type='way' ref='-37856395' role='' />
    <member type='way' ref='-37856396' role='' />
    <member type='way' ref='-37856397' role='' />
    <member type='way' ref='-37856398' role='' />
    <member type='way' ref='-37856399' role='' />
    <member type='way' ref='-37856400' role='' />
    <member type='way' ref='-37856401' role='' />
    <member type='way' ref='-37856402' role='' />
    <member type='way' ref='-37856403' role='' />
    <member type='way' ref='-37856404' role='' />
    <member type='way' ref='-37856405' role='' />
    <member type='way' ref='-37856406' role='' />
    <member type='way' ref='-37856407' role='' />
    <member type='way' ref='-37856408' role='' />
    <member type='way' ref='-37856409' role='' />
    <member type='way' ref='-37856410' role='' />
    <member type='way' ref='-37856411' role='' />
    <member type='way' ref='-37856412' role='' />
    <member type='way' ref='-37856413' role='' />
    <tag k='key' v='path.dk.hbs' />
    <tag k='name' v='DK HBS' />
    <tag k='type' v='path' />
  </relation>
</osm>
