<?xml version='1.0' encoding='UTF-8'?>
<osm version='0.6' upload='false' generator='JOSM'>
  <node id='-159235093' action='modify' lat='56.36486163384' lon='8.6204179363' />
  <node id='-159235094' action='modify' lat='56.36538647392' lon='8.62054275984'>
    <tag k='name' v='hol' />
  </node>
  <node id='-159235096' action='modify' lat='56.36161490941' lon='8.61173294417' />
  <node id='-159235097' action='modify' lat='56.36160933763' lon='8.61591182582' />
  <node id='-159235098' action='modify' lat='56.36327600713' lon='8.61943289503' />
  <node id='-159235099' action='modify' lat='56.36170965006' lon='8.61121276922' />
  <node id='-159235100' action='modify' lat='56.35964821141' lon='8.60335002512' />
  <node id='-159235101' action='modify' lat='56.3548442233' lon='8.60701695018' />
  <node id='-159235102' action='modify' lat='56.35322916673' lon='8.61279036136'>
    <tag k='name' v='son' />
  </node>
  <node id='-159235103' action='modify' lat='56.35235199904' lon='8.61592590742' />
  <node id='-159235104' action='modify' lat='56.35054960515' lon='8.61986540124' />
  <node id='-159235105' action='modify' lat='56.34948990136' lon='8.62131245367' />
  <node id='-159235106' action='modify' lat='56.34710620419' lon='8.62660311095' />
  <node id='-159235107' action='modify' lat='56.3444124289' lon='8.63655611739' />
  <node id='-159235108' action='modify' lat='56.3436554318' lon='8.63959439032' />
  <node id='-159235109' action='modify' lat='56.33541296956' lon='8.67557018861' />
  <node id='-159235110' action='modify' lat='56.3349044702' lon='8.67750540309' />
  <node id='-159235111' action='modify' lat='56.32880604336' lon='8.69840651684' />
  <node id='-159235112' action='modify' lat='56.32481170488' lon='8.70608380709' />
  <node id='-159235113' action='modify' lat='56.32473509248' lon='8.70617216627' />
  <node id='-159235114' action='modify' lat='56.32287433745' lon='8.70797395639' />
  <node id='-159235115' action='modify' lat='56.32196970322' lon='8.70870335115'>
    <tag k='name' v='tvi' />
  </node>
  <node id='-159235116' action='modify' lat='56.32019967503' lon='8.71013045177' />
  <node id='-159235117' action='modify' lat='56.31618305236' lon='8.71611244909' />
  <node id='-159235118' action='modify' lat='56.31232593908' lon='8.72534528241' />
  <node id='-159235119' action='modify' lat='56.30788146277' lon='8.73185031049' />
  <node id='-159235120' action='modify' lat='56.28188902473' lon='8.75306457147' />
  <node id='-159235121' action='modify' lat='56.27926881816' lon='8.75693902306' />
  <node id='-159235122' action='modify' lat='56.27409227621' lon='8.7700040625' />
  <node id='-159235123' action='modify' lat='56.27278174191' lon='8.77369411223' />
  <node id='-159235124' action='modify' lat='56.26991479239' lon='8.78283239834' />
  <node id='-159235125' action='modify' lat='56.26688601779' lon='8.7874773138' />
  <node id='-159235126' action='modify' lat='56.26680670193' lon='8.78752760522' />
  <node id='-159235127' action='modify' lat='56.26518555084' lon='8.78823348371'>
    <tag k='name' v='aul' />
  </node>
  <node id='-159235128' action='modify' lat='56.26150406301' lon='8.78809543544' />
  <node id='-159235129' action='modify' lat='56.25948065023' lon='8.78753340628' />
  <node id='-159235130' action='modify' lat='56.25789919254' lon='8.78703877263' />
  <node id='-159235131' action='modify' lat='56.25285237254' lon='8.78540396556' />
  <node id='-159235132' action='modify' lat='56.25166493361' lon='8.7849862249' />
  <node id='-159235133' action='modify' lat='56.24984680184' lon='8.78430925415' />
  <node id='-159235134' action='modify' lat='56.24788964351' lon='8.78363572028' />
  <node id='-159235135' action='modify' lat='56.23143785215' lon='8.77845534869'>
    <tag k='name' v='tro' />
  </node>
  <node id='-159235136' action='modify' lat='56.21169311675' lon='8.77224102482' />
  <node id='-159235137' action='modify' lat='56.20934258282' lon='8.77169519596' />
  <node id='-159235138' action='modify' lat='56.20256613872' lon='8.77062097125' />
  <node id='-159235139' action='modify' lat='56.20067274272' lon='8.77014219627' />
  <node id='-159235140' action='modify' lat='56.19970400046' lon='8.76979686253' />
  <node id='-159235141' action='modify' lat='56.19886132041' lon='8.76948304441' />
  <node id='-159235142' action='modify' lat='56.19827415688' lon='8.76925505631'>
    <tag k='name' v='vil' />
  </node>
  <node id='-159235143' action='modify' lat='56.19640890159' lon='8.76847386226' />
  <node id='-159235144' action='modify' lat='56.19586572209' lon='8.76825794443' />
  <node id='-159235145' action='modify' lat='56.19425292573' lon='8.76780465178' />
  <node id='-159235146' action='modify' lat='56.19338139822' lon='8.76764841311' />
  <node id='-159235147' action='modify' lat='56.19087116897' lon='8.76785896651' />
  <node id='-159235148' action='modify' lat='56.19072714668' lon='8.76792602174' />
  <node id='-159235149' action='modify' lat='56.18669075777' lon='8.77409744974' />
  <node id='-159235150' action='modify' lat='56.17164762386' lon='8.83231446013' />
  <node id='-159235151' action='modify' lat='56.16980160583' lon='8.84232915871' />
  <node id='-159235152' action='modify' lat='56.16948098188' lon='8.84509766555'>
    <tag k='name' v='ski' />
  </node>
  <node id='-159235153' action='modify' lat='56.16593121397' lon='8.87574747071' />
  <node id='-159235154' action='modify' lat='56.16081999582' lon='8.89058411054' />
  <node id='-159235155' action='modify' lat='56.15875489306' lon='8.8935303658'>
    <tag k='name' v='god' />
  </node>
  <node id='-159235156' action='modify' lat='56.15092158904' lon='8.90470459923' />
  <node id='-159235157' action='modify' lat='56.14758532039' lon='8.91162469849' />
  <node id='-159235158' action='modify' lat='56.13801939623' lon='8.94057243928' />
  <node id='-159235159' action='modify' lat='56.13775524006' lon='8.94137576155' />
  <node id='-159235160' action='modify' lat='56.13503324657' lon='8.94976571068' />
  <node id='-159235161' action='modify' lat='56.13356848378' lon='8.96740794048' />
  <node id='-159235162' action='modify' lat='56.13358268328' lon='8.9676238583' />
  <node id='-159235163' action='modify' lat='56.13298256379' lon='8.97560208768' />
  <node id='-159235164' action='modify' lat='56.13253368575' lon='8.97801780076' />
  <node id='-159235165' action='modify' lat='56.13239213816' lon='8.97880673687'>
    <tag k='name' v='her' />
  </node>
  <node id='-159235167' action='modify' lat='56.13073595256' lon='8.99015709624' />
  <node id='-159235168' action='modify' lat='56.12763599721' lon='8.99802133374' />
  <node id='-159235169' action='modify' lat='56.10090667369' lon='9.02812267405' />
  <node id='-159235170' action='modify' lat='56.0984284048' lon='9.03097982465' />
  <node id='-159235171' action='modify' lat='56.09803281448' lon='9.03142620428'>
    <tag k='name' v='nor' />
  </node>
  <node id='-159235172' action='modify' lat='56.09638682123' lon='9.03328347515' />
  <node id='-159235173' action='modify' lat='56.09157109566' lon='9.04162667558' />
  <node id='-159235174' action='modify' lat='56.08857385681' lon='9.04923878543' />
  <node id='-159235175' action='modify' lat='56.08523666688' lon='9.05621789329' />
  <node id='-159235176' action='modify' lat='56.07650024081' lon='9.07130263679' />
  <node id='-159235177' action='modify' lat='56.07289029254' lon='9.0761453655' />
  <node id='-159235178' action='modify' lat='56.07026289456' lon='9.07887652382' />
  <node id='-159235179' action='modify' lat='56.06914189116' lon='9.0800084167' />
  <node id='-159235180' action='modify' lat='56.06755446515' lon='9.08156476848' />
  <node id='-159235181' action='modify' lat='56.06703641338' lon='9.08208779924'>
    <tag k='name' v='kol' />
  </node>
  <node id='-159235182' action='modify' lat='56.06512135845' lon='9.08410951361' />
  <node id='-159235183' action='modify' lat='56.06390324956' lon='9.08543519609' />
  <node id='-159235184' action='modify' lat='56.05569217923' lon='9.09154258601' />
  <node id='-159235185' action='modify' lat='56.03861836227' lon='9.09988297199'>
    <tag k='name' v='sob' />
  </node>
  <node id='-159235186' action='modify' lat='56.01696967936' lon='9.11045282945' />
  <node id='-159235187' action='modify' lat='56.01210799228' lon='9.11174263739'>
    <tag k='name' v='fas' />
  </node>
  <node id='-159235188' action='modify' lat='56.00940653081' lon='9.11172419652' />
  <node id='-159235189' action='modify' lat='55.99836295688' lon='9.11032810673' />
  <node id='-159235190' action='modify' lat='55.9950048294' lon='9.11046557061' />
  <node id='-159235191' action='modify' lat='55.98254871144' lon='9.11307133701' />
  <node id='-159235192' action='modify' lat='55.97883223475' lon='9.11331139438' />
  <node id='-159235194' action='modify' lat='55.96647129735' lon='9.11237463288' />
  <node id='-159235195' action='modify' lat='55.96146906482' lon='9.11365069382' />
  <node id='-159235196' action='modify' lat='55.95648307862' lon='9.11667421326' />
  <node id='-159235197' action='modify' lat='55.94473333057' lon='9.13006761579'>
    <tag k='name' v='brd' />
  </node>
  <node id='-159235198' action='modify' lat='55.94454946284' lon='9.13039773569' />
  <node id='-159235199' action='modify' lat='55.94298845337' lon='9.1332288073' />
  <node id='-159235200' action='modify' lat='55.94086951743' lon='9.13852650639' />
  <node id='-159235201' action='modify' lat='55.93904453033' lon='9.14562798969' />
  <node id='-159235202' action='modify' lat='55.93817284746' lon='9.14937972955' />
  <node id='-159235203' action='modify' lat='55.92911497303' lon='9.19272355668' />
  <node id='-159235204' action='modify' lat='55.92835614141' lon='9.19733896784' />
  <node id='-159235205' action='modify' lat='55.92285379244' lon='9.24240410194' />
  <node id='-159235206' action='modify' lat='55.92014253454' lon='9.25079001904' />
  <node id='-159235207' action='modify' lat='55.91426584629' lon='9.25419710509' />
  <node id='-159235208' action='modify' lat='55.91402533388' lon='9.25417095356' />
  <node id='-159235209' action='modify' lat='55.91199418344' lon='9.25376499182' />
  <node id='-159235210' action='modify' lat='55.91191868138' lon='9.25374309317' />
  <node id='-159235211' action='modify' lat='55.908743834' lon='9.25219818413'>
    <tag k='name' v='thy' />
  </node>
  <node id='-159235212' action='modify' lat='55.90433407308' lon='9.24849607017' />
  <node id='-159235213' action='modify' lat='55.89884184753' lon='9.24287583645' />
  <node id='-159235214' action='modify' lat='55.89000716909' lon='9.23924513094' />
  <node id='-159235215' action='modify' lat='55.88024950483' lon='9.24052712646' />
  <node id='-159235216' action='modify' lat='55.87823303306' lon='9.24065284747' />
  <node id='-159235217' action='modify' lat='55.87711155917' lon='9.24064103049' />
  <node id='-159235218' action='modify' lat='55.87457586235' lon='9.24083027164' />
  <node id='-159235219' action='modify' lat='55.87278042606' lon='9.24121921524' />
  <node id='-159235220' action='modify' lat='55.87200276697' lon='9.24143651092' />
  <node id='-159235221' action='modify' lat='55.86992038177' lon='9.24188385117' />
  <node id='-159235222' action='modify' lat='55.86672477647' lon='9.2423035191' />
  <node id='-159235223' action='modify' lat='55.85895422682' lon='9.23867650263' />
  <node id='-159235224' action='modify' lat='55.85193380799' lon='9.22999754481' />
  <node id='-159235225' action='modify' lat='55.84417819' lon='9.23214470814' />
  <node id='-159235226' action='modify' lat='55.8441200238' lon='9.23229049807' />
  <node id='-159235227' action='modify' lat='55.84345590233' lon='9.23423677549' />
  <node id='-159235228' action='modify' lat='55.84303735587' lon='9.23567263134'>
    <tag k='name' v='giv' />
  </node>
  <node id='-159235229' action='modify' lat='55.84159564244' lon='9.24061842196' />
  <node id='-159235230' action='modify' lat='55.84116868507' lon='9.2420011007' />
  <node id='-159235231' action='modify' lat='55.84112576317' lon='9.24213051729' />
  <node id='-159235232' action='modify' lat='55.83610733939' lon='9.24821309678' />
  <node id='-159235233' action='modify' lat='55.83383023438' lon='9.24861542813' />
  <node id='-159235234' action='modify' lat='55.83120087269' lon='9.24850143425' />
  <node id='-159235235' action='modify' lat='55.82505947966' lon='9.24715295367' />
  <node id='-159235236' action='modify' lat='55.82224042696' lon='9.24674928054' />
  <node id='-159235237' action='modify' lat='55.82202495913' lon='9.2467372106' />
  <node id='-159235238' action='modify' lat='55.81780237718' lon='9.24844242565' />
  <node id='-159235239' action='modify' lat='55.81652861926' lon='9.24953743681' />
  <node id='-159235240' action='modify' lat='55.81431630191' lon='9.2506874346' />
  <node id='-159235241' action='modify' lat='55.80535121304' lon='9.25269707903' />
  <node id='-159235242' action='modify' lat='55.80329504072' lon='9.25352722272'>
    <tag k='name' v='far' />
  </node>
  <node id='-159235243' action='modify' lat='55.80110533899' lon='9.25574540958' />
  <node id='-159235244' action='modify' lat='55.80000177311' lon='9.25720319018' />
  <node id='-159235245' action='modify' lat='55.7994168102' lon='9.2579542087' />
  <node id='-159235246' action='modify' lat='55.7942882089' lon='9.26437005267' />
  <node id='-159235247' action='modify' lat='55.79091274843' lon='9.27084892921' />
  <node id='-159235248' action='modify' lat='55.78701292526' lon='9.28436323866' />
  <node id='-159235249' action='modify' lat='55.78606279272' lon='9.29011523657' />
  <node id='-159235250' action='modify' lat='55.78573702817' lon='9.29508805141' />
  <node id='-159235251' action='modify' lat='55.78472276535' lon='9.30023856394' />
  <node id='-159235252' action='modify' lat='55.77899451486' lon='9.31621715359' />
  <node id='-159235253' action='modify' lat='55.77744209122' lon='9.31926100298' />
  <node id='-159235254' action='modify' lat='55.77741062246' lon='9.31930437617' />
  <node id='-159235255' action='modify' lat='55.77696318567' lon='9.31991532417' />
  <node id='-159235256' action='modify' lat='55.77592660771' lon='9.32131603293' />
  <node id='-159235257' action='modify' lat='55.77413176063' lon='9.32489879362'>
    <tag k='name' v='gad' />
  </node>
  <node id='-159235258' action='modify' lat='55.77402351652' lon='9.32520322435' />
  <node id='-159235259' action='modify' lat='55.77355489671' lon='9.32664041259' />
  <node id='-159235260' action='modify' lat='55.77353207697' lon='9.32671867244' />
  <node id='-159235261' action='modify' lat='55.7728867467' lon='9.32989641957' />
  <node id='-159235262' action='modify' lat='55.77120868712' lon='9.34313177995' />
  <node id='-159235263' action='modify' lat='55.76999186959' lon='9.34850625627' />
  <node id='-159235264' action='modify' lat='55.76498275293' lon='9.36271324687' />
  <node id='-159235265' action='modify' lat='55.76411470216' lon='9.36487510733' />
  <node id='-159235266' action='modify' lat='55.76079623866' lon='9.37202319436' />
  <node id='-159235267' action='modify' lat='55.75992658551' lon='9.37371566825' />
  <node id='-159235268' action='modify' lat='55.75907929689' lon='9.37517075777'>
    <tag k='name' v='mol' />
  </node>
  <node id='-159235269' action='modify' lat='55.75510145035' lon='9.38200168245' />
  <node id='-159235270' action='modify' lat='55.75401658096' lon='9.3842708306' />
  <node id='-159235271' action='modify' lat='55.75292715229' lon='9.38710190289' />
  <node id='-159235272' action='modify' lat='55.75191430008' lon='9.39520351522' />
  <node id='-159235273' action='modify' lat='55.75356111533' lon='9.41442891821' />
  <node id='-159235274' action='modify' lat='55.75371167995' lon='9.41639162466' />
  <node id='-159235275' action='modify' lat='55.75390865797' lon='9.41921330921' />
  <node id='-159235276' action='modify' lat='55.7539611099' lon='9.41990531914' />
  <node id='-159235277' action='modify' lat='55.75398076304' lon='9.42014448761'>
    <tag k='name' v='jel' />
  </node>
  <node id='-159235278' action='modify' lat='55.75446373925' lon='9.4260220968' />
  <node id='-159235279' action='modify' lat='55.7563945757' lon='9.43299785189' />
  <node id='-159235280' action='modify' lat='55.75980924687' lon='9.43946935169' />
  <node id='-159235281' action='modify' lat='55.76220688425' lon='9.44285228781' />
  <node id='-159235282' action='modify' lat='55.76383666567' lon='9.44451659784' />
  <node id='-159235283' action='modify' lat='55.76490202239' lon='9.4457946711' />
  <node id='-159235284' action='modify' lat='55.76593641703' lon='9.44722965293' />
  <node id='-159235285' action='modify' lat='55.7678248017' lon='9.45466721' />
  <node id='-159235286' action='modify' lat='55.76746532428' lon='9.45841580562' />
  <node id='-159235287' action='modify' lat='55.7665256551' lon='9.46533054046' />
  <node id='-159235288' action='modify' lat='55.76639437914' lon='9.46787997946'>
    <tag k='name' v='hor' />
  </node>
  <node id='-159235289' action='modify' lat='55.76651056627' lon='9.46921303734' />
  <node id='-159235290' action='modify' lat='55.7665648874' lon='9.46965426072' />
  <node id='-159235291' action='modify' lat='55.76555880204' lon='9.47692170672' />
  <node id='-159235292' action='modify' lat='55.7652392788' lon='9.47757147186' />
  <node id='-159235293' action='modify' lat='55.76440065931' lon='9.47994455628' />
  <node id='-159235294' action='modify' lat='55.76420826093' lon='9.48070496254' />
  <node id='-159235295' action='modify' lat='55.76309949962' lon='9.48349311881' />
  <node id='-159235296' action='modify' lat='55.76284031882' lon='9.48392830722' />
  <node id='-159235297' action='modify' lat='55.76137574514' lon='9.4903045886' />
  <node id='-159235298' action='modify' lat='55.76138819538' lon='9.49116021328' />
  <node id='-159235299' action='modify' lat='55.76039178633' lon='9.49650987916' />
  <node id='-159235300' action='modify' lat='55.76025181165' lon='9.49683040313' />
  <node id='-159235301' action='modify' lat='55.75952627444' lon='9.4988869869' />
  <node id='-159235302' action='modify' lat='55.75857320817' lon='9.50224444203' />
  <node id='-159235303' action='modify' lat='55.75828834021' lon='9.50339108638'>
    <tag k='name' v='hoj' />
  </node>
  <node id='-159235304' action='modify' lat='55.75819854072' lon='9.50654804572' />
  <node id='-159235305' action='modify' lat='55.75861508924' lon='9.50844973259' />
  <node id='-159235306' action='modify' lat='55.7587694074' lon='9.50897008114' />
  <node id='-159235307' action='modify' lat='55.75938705162' lon='9.51269432768' />
  <node id='-159235308' action='modify' lat='55.75946100221' lon='9.51480120286' />
  <node id='-159235309' action='modify' lat='55.75889203142' lon='9.51943807237' />
  <node id='-159235310' action='modify' lat='55.75870337892' lon='9.52001474731' />
  <node id='-159235311' action='modify' lat='55.75825891002' lon='9.52472738855' />
  <node id='-159235312' action='modify' lat='55.75831399728' lon='9.52528864078' />
  <node id='-159235313' action='modify' lat='55.75641532875' lon='9.53228115968' />
  <node id='-159235314' action='modify' lat='55.75627873576' lon='9.53240923516' />
  <node id='-159235315' action='modify' lat='55.75499126707' lon='9.53382745251' />
  <node id='-159235316' action='modify' lat='55.75453203899' lon='9.53445441954' />
  <node id='-159235317' action='modify' lat='55.7510569024' lon='9.53534625404' />
  <node id='-159235318' action='modify' lat='55.75052668005' lon='9.53500762515' />
  <node id='-159235319' action='modify' lat='55.74659073316' lon='9.53641176157' />
  <node id='-159235320' action='modify' lat='55.74640277601' lon='9.53675508432' />
  <node id='-159235321' action='modify' lat='55.74602270727' lon='9.53736931019'>
    <tag k='name' v='gre' />
  </node>
  <node id='-159235322' action='modify' lat='55.74348932435' lon='9.53858032756' />
  <node id='-159235323' action='modify' lat='55.74215877951' lon='9.53845761649' />
  <node id='-159235324' action='modify' lat='55.73937864366' lon='9.53676447205' />
  <node id='-159235325' action='modify' lat='55.73796339728' lon='9.53508540921' />
  <node id='-159235326' action='modify' lat='55.73472350165' lon='9.53425057165' />
  <node id='-159235327' action='modify' lat='55.73354971872' lon='9.53494526379' />
  <node id='-159235328' action='modify' lat='55.7310680091' lon='9.5349989073' />
  <node id='-159235329' action='modify' lat='55.7303804418' lon='9.53464955024' />
  <node id='-159235330' action='modify' lat='55.72807977976' lon='9.53438401155' />
  <node id='-159235331' action='modify' lat='55.7275896491' lon='9.53452281587' />
  <node id='-159235332' action='modify' lat='55.72595608758' lon='9.53455768459' />
  <node id='-159235333' action='modify' lat='55.72560036539' lon='9.53446984224' />
  <node id='-159235334' action='modify' lat='55.72437494942' lon='9.53440345757' />
  <node id='-159235335' action='modify' lat='55.72048583996' lon='9.53495934539' />
  <node id='-159235336' action='modify' lat='55.71907141931' lon='9.53539989822' />
  <node id='-159235337' action='modify' lat='55.71887539809' lon='9.53550249271' />
  <node id='-159235338' action='modify' lat='55.71769169609' lon='9.53587934308' />
  <node id='-159235339' action='modify' lat='55.71637991293' lon='9.5360335701'>
    <tag k='name' v='ven' />
  </node>
  <node id='-159235340' action='modify' lat='55.71495476698' lon='9.53680772301'>
    <tag k='name' v='vsy' />
  </node>
  <node id='-159235341' action='modify' lat='55.71473303958' lon='9.53708566658' />
  <node id='-159235342' action='modify' lat='55.71464502811' lon='9.53719831936' />
  <node id='-159235343' action='modify' lat='55.71294972984' lon='9.53794263236' />
  <node id='-159235344' action='modify' lat='55.7126607512' lon='9.53788697653' />
  <node id='-159235345' action='modify' lat='55.71176509273' lon='9.53798688881' />
  <node id='-159235346' action='modify' lat='55.71145230627' lon='9.53811965816' />
  <node id='-159235347' action='modify' lat='55.70990269199' lon='9.53796140782' />
  <node id='-159235348' action='modify' lat='55.70982638116' lon='9.53791245684' />
  <node id='-159235349' action='modify' lat='55.70915204119' lon='9.53762680024' />
  <node id='-159235350' action='modify' lat='55.70829370385' lon='9.53745111555' />
  <node id='-159235351' action='modify' lat='55.7068467273' lon='9.53697368369' />
  <node id='-159235353' action='modify' lat='55.70663430064' lon='9.53689539867'>
    <tag k='name' v='vej' />
  </node>
  <way id='-37251183' action='modify'>
    <nd ref='-159235094' />
    <nd ref='-159235093' />
    <tag k='type' v='straight' />
  </way>
  <way id='-37251184' action='modify'>
    <nd ref='-159235093' />
    <nd ref='-159235098' />
    <nd ref='-159235097' />
    <nd ref='-159235096' />
  </way>
  <way id='-37251185' action='modify'>
    <nd ref='-159235096' />
    <nd ref='-159235099' />
    <tag k='type' v='straight' />
  </way>
  <way id='-37251186' action='modify'>
    <nd ref='-159235099' />
    <nd ref='-159235100' />
    <nd ref='-159235101' />
  </way>
  <way id='-37251187' action='modify'>
    <nd ref='-159235101' />
    <nd ref='-159235102' />
    <nd ref='-159235103' />
    <tag k='type' v='straight' />
  </way>
  <way id='-37251188' action='modify'>
    <nd ref='-159235103' />
    <nd ref='-159235104' />
  </way>
  <way id='-37251189' action='modify'>
    <nd ref='-159235104' />
    <nd ref='-159235105' />
    <tag k='type' v='straight' />
  </way>
  <way id='-37251190' action='modify'>
    <nd ref='-159235105' />
    <nd ref='-159235106' />
  </way>
  <way id='-37251191' action='modify'>
    <nd ref='-159235106' />
    <nd ref='-159235107' />
    <tag k='type' v='straight' />
  </way>
  <way id='-37251192' action='modify'>
    <nd ref='-159235107' />
    <nd ref='-159235108' />
  </way>
  <way id='-37251193' action='modify'>
    <nd ref='-159235108' />
    <nd ref='-159235109' />
    <tag k='type' v='straight' />
  </way>
  <way id='-37251194' action='modify'>
    <nd ref='-159235109' />
    <nd ref='-159235110' />
  </way>
  <way id='-37251195' action='modify'>
    <nd ref='-159235110' />
    <nd ref='-159235111' />
    <tag k='type' v='straight' />
  </way>
  <way id='-37251196' action='modify'>
    <nd ref='-159235111' />
    <nd ref='-159235112' />
  </way>
  <way id='-37251197' action='modify'>
    <nd ref='-159235112' />
    <nd ref='-159235113' />
    <tag k='type' v='straight' />
  </way>
  <way id='-37251198' action='modify'>
    <nd ref='-159235113' />
    <nd ref='-159235114' />
  </way>
  <way id='-37251199' action='modify'>
    <nd ref='-159235114' />
    <nd ref='-159235115' />
    <nd ref='-159235116' />
    <tag k='type' v='straight' />
  </way>
  <way id='-37251200' action='modify'>
    <nd ref='-159235116' />
    <nd ref='-159235117' />
  </way>
  <way id='-37251201' action='modify'>
    <nd ref='-159235117' />
    <nd ref='-159235118' />
    <tag k='type' v='straight' />
  </way>
  <way id='-37251202' action='modify'>
    <nd ref='-159235118' />
    <nd ref='-159235119' />
  </way>
  <way id='-37251203' action='modify'>
    <nd ref='-159235119' />
    <nd ref='-159235120' />
    <tag k='type' v='straight' />
  </way>
  <way id='-37251204' action='modify'>
    <nd ref='-159235120' />
    <nd ref='-159235121' />
  </way>
  <way id='-37251205' action='modify'>
    <nd ref='-159235121' />
    <nd ref='-159235122' />
    <tag k='type' v='straight' />
  </way>
  <way id='-37251206' action='modify'>
    <nd ref='-159235122' />
    <nd ref='-159235123' />
  </way>
  <way id='-37251207' action='modify'>
    <nd ref='-159235123' />
    <nd ref='-159235124' />
    <tag k='type' v='straight' />
  </way>
  <way id='-37251208' action='modify'>
    <nd ref='-159235124' />
    <nd ref='-159235125' />
  </way>
  <way id='-37251209' action='modify'>
    <nd ref='-159235125' />
    <nd ref='-159235126' />
    <tag k='type' v='straight' />
  </way>
  <way id='-37251210' action='modify'>
    <nd ref='-159235126' />
    <nd ref='-159235127' />
    <nd ref='-159235128' />
  </way>
  <way id='-37251211' action='modify'>
    <nd ref='-159235128' />
    <nd ref='-159235129' />
    <tag k='type' v='straight' />
  </way>
  <way id='-37251212' action='modify'>
    <nd ref='-159235129' />
    <nd ref='-159235130' />
  </way>
  <way id='-37251213' action='modify'>
    <nd ref='-159235130' />
    <nd ref='-159235131' />
    <tag k='type' v='straight' />
  </way>
  <way id='-37251214' action='modify'>
    <nd ref='-159235131' />
    <nd ref='-159235132' />
  </way>
  <way id='-37251215' action='modify'>
    <nd ref='-159235132' />
    <nd ref='-159235133' />
    <tag k='type' v='straight' />
  </way>
  <way id='-37251216' action='modify'>
    <nd ref='-159235133' />
    <nd ref='-159235134' />
  </way>
  <way id='-37251217' action='modify'>
    <nd ref='-159235134' />
    <nd ref='-159235135' />
    <nd ref='-159235136' />
    <tag k='type' v='straight' />
  </way>
  <way id='-37251218' action='modify'>
    <nd ref='-159235136' />
    <nd ref='-159235137' />
  </way>
  <way id='-37251219' action='modify'>
    <nd ref='-159235137' />
    <nd ref='-159235138' />
    <tag k='type' v='straight' />
  </way>
  <way id='-37251220' action='modify'>
    <nd ref='-159235138' />
    <nd ref='-159235139' />
  </way>
  <way id='-37251221' action='modify'>
    <nd ref='-159235139' />
    <nd ref='-159235140' />
    <tag k='type' v='straight' />
  </way>
  <way id='-37251222' action='modify'>
    <nd ref='-159235140' />
    <nd ref='-159235141' />
  </way>
  <way id='-37251223' action='modify'>
    <nd ref='-159235141' />
    <nd ref='-159235142' />
    <tag k='type' v='straight' />
  </way>
  <way id='-37251224' action='modify'>
    <nd ref='-159235142' />
    <nd ref='-159235143' />
  </way>
  <way id='-37251225' action='modify'>
    <nd ref='-159235143' />
    <nd ref='-159235144' />
    <tag k='type' v='straight' />
  </way>
  <way id='-37251226' action='modify'>
    <nd ref='-159235144' />
    <nd ref='-159235145' />
  </way>
  <way id='-37251227' action='modify'>
    <nd ref='-159235145' />
    <nd ref='-159235146' />
    <tag k='type' v='straight' />
  </way>
  <way id='-37251228' action='modify'>
    <nd ref='-159235146' />
    <nd ref='-159235147' />
  </way>
  <way id='-37251229' action='modify'>
    <nd ref='-159235147' />
    <nd ref='-159235148' />
    <tag k='type' v='straight' />
  </way>
  <way id='-37251230' action='modify'>
    <nd ref='-159235148' />
    <nd ref='-159235149' />
  </way>
  <way id='-37251231' action='modify'>
    <nd ref='-159235149' />
    <nd ref='-159235150' />
    <tag k='type' v='straight' />
  </way>
  <way id='-37251232' action='modify'>
    <nd ref='-159235150' />
    <nd ref='-159235151' />
  </way>
  <way id='-37251233' action='modify'>
    <nd ref='-159235151' />
    <nd ref='-159235152' />
    <nd ref='-159235153' />
    <tag k='type' v='straight' />
  </way>
  <way id='-37251234' action='modify'>
    <nd ref='-159235153' />
    <nd ref='-159235154' />
  </way>
  <way id='-37251235' action='modify'>
    <nd ref='-159235154' />
    <nd ref='-159235155' />
    <nd ref='-159235156' />
    <tag k='type' v='straight' />
  </way>
  <way id='-37251236' action='modify'>
    <nd ref='-159235156' />
    <nd ref='-159235157' />
  </way>
  <way id='-37251237' action='modify'>
    <nd ref='-159235157' />
    <nd ref='-159235158' />
    <tag k='type' v='straight' />
  </way>
  <way id='-37251238' action='modify'>
    <nd ref='-159235158' />
    <nd ref='-159235159' />
  </way>
  <way id='-37251239' action='modify'>
    <nd ref='-159235159' />
    <nd ref='-159235160' />
    <tag k='type' v='straight' />
  </way>
  <way id='-37251240' action='modify'>
    <nd ref='-159235160' />
    <nd ref='-159235161' />
  </way>
  <way id='-37251241' action='modify'>
    <nd ref='-159235161' />
    <nd ref='-159235162' />
    <tag k='type' v='straight' />
  </way>
  <way id='-37251242' action='modify'>
    <nd ref='-159235162' />
    <nd ref='-159235163' />
  </way>
  <way id='-37251243' action='modify'>
    <nd ref='-159235163' />
    <nd ref='-159235164' />
    <tag k='type' v='straight' />
  </way>
  <way id='-37251244' action='modify'>
    <nd ref='-159235164' />
    <nd ref='-159235165' />
  </way>
  <way id='-37251245' action='modify'>
    <nd ref='-159235165' />
    <nd ref='-159235167' />
    <tag k='type' v='straight' />
  </way>
  <way id='-37251246' action='modify'>
    <nd ref='-159235167' />
    <nd ref='-159235168' />
  </way>
  <way id='-37251247' action='modify'>
    <nd ref='-159235168' />
    <nd ref='-159235169' />
    <tag k='type' v='straight' />
  </way>
  <way id='-37251248' action='modify'>
    <nd ref='-159235169' />
    <nd ref='-159235170' />
  </way>
  <way id='-37251249' action='modify'>
    <nd ref='-159235170' />
    <nd ref='-159235171' />
    <nd ref='-159235172' />
    <tag k='type' v='straight' />
  </way>
  <way id='-37251250' action='modify'>
    <nd ref='-159235172' />
    <nd ref='-159235173' />
  </way>
  <way id='-37251251' action='modify'>
    <nd ref='-159235173' />
    <nd ref='-159235174' />
    <tag k='type' v='straight' />
  </way>
  <way id='-37251252' action='modify'>
    <nd ref='-159235174' />
    <nd ref='-159235175' />
  </way>
  <way id='-37251253' action='modify'>
    <nd ref='-159235175' />
    <nd ref='-159235176' />
    <tag k='type' v='straight' />
  </way>
  <way id='-37251254' action='modify'>
    <nd ref='-159235176' />
    <nd ref='-159235177' />
  </way>
  <way id='-37251255' action='modify'>
    <nd ref='-159235177' />
    <nd ref='-159235178' />
    <tag k='type' v='straight' />
  </way>
  <way id='-37251256' action='modify'>
    <nd ref='-159235178' />
    <nd ref='-159235179' />
  </way>
  <way id='-37251257' action='modify'>
    <nd ref='-159235179' />
    <nd ref='-159235180' />
    <tag k='type' v='straight' />
  </way>
  <way id='-37251258' action='modify'>
    <nd ref='-159235180' />
    <nd ref='-159235181' />
    <nd ref='-159235182' />
  </way>
  <way id='-37251259' action='modify'>
    <nd ref='-159235182' />
    <nd ref='-159235183' />
    <tag k='type' v='straight' />
  </way>
  <way id='-37251260' action='modify'>
    <nd ref='-159235183' />
    <nd ref='-159235184' />
  </way>
  <way id='-37251261' action='modify'>
    <nd ref='-159235184' />
    <nd ref='-159235185' />
    <nd ref='-159235186' />
    <tag k='type' v='straight' />
  </way>
  <way id='-37251262' action='modify'>
    <nd ref='-159235186' />
    <nd ref='-159235187' />
    <nd ref='-159235188' />
  </way>
  <way id='-37251263' action='modify'>
    <nd ref='-159235188' />
    <nd ref='-159235189' />
    <tag k='type' v='straight' />
  </way>
  <way id='-37251264' action='modify'>
    <nd ref='-159235189' />
    <nd ref='-159235190' />
  </way>
  <way id='-37251265' action='modify'>
    <nd ref='-159235190' />
    <nd ref='-159235191' />
    <tag k='type' v='straight' />
  </way>
  <way id='-37251266' action='modify'>
    <nd ref='-159235191' />
    <nd ref='-159235192' />
  </way>
  <way id='-37251267' action='modify'>
    <nd ref='-159235192' />
    <nd ref='-159235194' />
    <tag k='type' v='straight' />
  </way>
  <way id='-37251268' action='modify'>
    <nd ref='-159235194' />
    <nd ref='-159235195' />
  </way>
  <way id='-37251269' action='modify'>
    <nd ref='-159235195' />
    <nd ref='-159235196' />
    <tag k='type' v='straight' />
  </way>
  <way id='-37251270' action='modify'>
    <nd ref='-159235196' />
    <nd ref='-159235197' />
    <nd ref='-159235198' />
  </way>
  <way id='-37251271' action='modify'>
    <nd ref='-159235198' />
    <nd ref='-159235199' />
    <tag k='type' v='straight' />
  </way>
  <way id='-37251272' action='modify'>
    <nd ref='-159235199' />
    <nd ref='-159235200' />
  </way>
  <way id='-37251273' action='modify'>
    <nd ref='-159235200' />
    <nd ref='-159235201' />
    <tag k='type' v='straight' />
  </way>
  <way id='-37251274' action='modify'>
    <nd ref='-159235201' />
    <nd ref='-159235202' />
  </way>
  <way id='-37251275' action='modify'>
    <nd ref='-159235202' />
    <nd ref='-159235203' />
    <tag k='type' v='straight' />
  </way>
  <way id='-37251276' action='modify'>
    <nd ref='-159235203' />
    <nd ref='-159235204' />
  </way>
  <way id='-37251277' action='modify'>
    <nd ref='-159235204' />
    <nd ref='-159235205' />
    <tag k='type' v='straight' />
  </way>
  <way id='-37251278' action='modify'>
    <nd ref='-159235205' />
    <nd ref='-159235206' />
    <nd ref='-159235207' />
  </way>
  <way id='-37251279' action='modify'>
    <nd ref='-159235207' />
    <nd ref='-159235208' />
    <tag k='type' v='straight' />
  </way>
  <way id='-37251280' action='modify'>
    <nd ref='-159235208' />
    <nd ref='-159235209' />
  </way>
  <way id='-37251281' action='modify'>
    <nd ref='-159235209' />
    <nd ref='-159235210' />
    <tag k='type' v='straight' />
  </way>
  <way id='-37251282' action='modify'>
    <nd ref='-159235210' />
    <nd ref='-159235211' />
    <nd ref='-159235212' />
  </way>
  <way id='-37251283' action='modify'>
    <nd ref='-159235212' />
    <nd ref='-159235213' />
    <tag k='type' v='straight' />
  </way>
  <way id='-37251284' action='modify'>
    <nd ref='-159235213' />
    <nd ref='-159235214' />
  </way>
  <way id='-37251285' action='modify'>
    <nd ref='-159235214' />
    <nd ref='-159235215' />
    <tag k='type' v='straight' />
  </way>
  <way id='-37251286' action='modify'>
    <nd ref='-159235215' />
    <nd ref='-159235216' />
  </way>
  <way id='-37251287' action='modify'>
    <nd ref='-159235216' />
    <nd ref='-159235217' />
    <tag k='type' v='straight' />
  </way>
  <way id='-37251288' action='modify'>
    <nd ref='-159235217' />
    <nd ref='-159235218' />
    <nd ref='-159235219' />
  </way>
  <way id='-37251289' action='modify'>
    <nd ref='-159235219' />
    <nd ref='-159235220' />
    <tag k='type' v='straight' />
  </way>
  <way id='-37251290' action='modify'>
    <nd ref='-159235220' />
    <nd ref='-159235221' />
  </way>
  <way id='-37251291' action='modify'>
    <nd ref='-159235221' />
    <nd ref='-159235222' />
    <tag k='type' v='straight' />
  </way>
  <way id='-37251292' action='modify'>
    <nd ref='-159235222' />
    <nd ref='-159235223' />
  </way>
  <way id='-37251293' action='modify'>
    <nd ref='-159235223' />
    <nd ref='-159235224' />
    <tag k='type' v='straight' />
  </way>
  <way id='-37251294' action='modify'>
    <nd ref='-159235224' />
    <nd ref='-159235225' />
  </way>
  <way id='-37251295' action='modify'>
    <nd ref='-159235225' />
    <nd ref='-159235226' />
    <tag k='type' v='straight' />
  </way>
  <way id='-37251296' action='modify'>
    <nd ref='-159235226' />
    <nd ref='-159235227' />
  </way>
  <way id='-37251297' action='modify'>
    <nd ref='-159235227' />
    <nd ref='-159235228' />
    <nd ref='-159235229' />
    <tag k='type' v='straight' />
  </way>
  <way id='-37251298' action='modify'>
    <nd ref='-159235229' />
    <nd ref='-159235230' />
  </way>
  <way id='-37251299' action='modify'>
    <nd ref='-159235230' />
    <nd ref='-159235231' />
    <tag k='type' v='straight' />
  </way>
  <way id='-37251300' action='modify'>
    <nd ref='-159235231' />
    <nd ref='-159235232' />
  </way>
  <way id='-37251301' action='modify'>
    <nd ref='-159235232' />
    <nd ref='-159235233' />
    <nd ref='-159235234' />
    <nd ref='-159235235' />
    <tag k='type' v='straight' />
  </way>
  <way id='-37251302' action='modify'>
    <nd ref='-159235235' />
    <nd ref='-159235236' />
  </way>
  <way id='-37251303' action='modify'>
    <nd ref='-159235236' />
    <nd ref='-159235237' />
    <tag k='type' v='straight' />
  </way>
  <way id='-37251304' action='modify'>
    <nd ref='-159235237' />
    <nd ref='-159235238' />
  </way>
  <way id='-37251305' action='modify'>
    <nd ref='-159235238' />
    <nd ref='-159235239' />
    <tag k='type' v='straight' />
  </way>
  <way id='-37251306' action='modify'>
    <nd ref='-159235239' />
    <nd ref='-159235240' />
  </way>
  <way id='-37251307' action='modify'>
    <nd ref='-159235240' />
    <nd ref='-159235241' />
    <tag k='type' v='straight' />
  </way>
  <way id='-37251308' action='modify'>
    <nd ref='-159235241' />
    <nd ref='-159235242' />
    <nd ref='-159235243' />
  </way>
  <way id='-37251309' action='modify'>
    <nd ref='-159235243' />
    <nd ref='-159235244' />
    <tag k='type' v='straight' />
  </way>
  <way id='-37251310' action='modify'>
    <nd ref='-159235244' />
    <nd ref='-159235245' />
  </way>
  <way id='-37251311' action='modify'>
    <nd ref='-159235245' />
    <nd ref='-159235246' />
    <tag k='type' v='straight' />
  </way>
  <way id='-37251312' action='modify'>
    <nd ref='-159235246' />
    <nd ref='-159235247' />
  </way>
  <way id='-37251313' action='modify'>
    <nd ref='-159235247' />
    <nd ref='-159235248' />
    <tag k='type' v='straight' />
  </way>
  <way id='-37251314' action='modify'>
    <nd ref='-159235248' />
    <nd ref='-159235249' />
  </way>
  <way id='-37251315' action='modify'>
    <nd ref='-159235249' />
    <nd ref='-159235250' />
    <tag k='type' v='straight' />
  </way>
  <way id='-37251316' action='modify'>
    <nd ref='-159235250' />
    <nd ref='-159235251' />
  </way>
  <way id='-37251317' action='modify'>
    <nd ref='-159235251' />
    <nd ref='-159235252' />
    <tag k='type' v='straight' />
  </way>
  <way id='-37251318' action='modify'>
    <nd ref='-159235252' />
    <nd ref='-159235253' />
  </way>
  <way id='-37251319' action='modify'>
    <nd ref='-159235253' />
    <nd ref='-159235254' />
    <tag k='type' v='straight' />
  </way>
  <way id='-37251320' action='modify'>
    <nd ref='-159235254' />
    <nd ref='-159235255' />
  </way>
  <way id='-37251321' action='modify'>
    <nd ref='-159235255' />
    <nd ref='-159235256' />
    <tag k='type' v='straight' />
  </way>
  <way id='-37251322' action='modify'>
    <nd ref='-159235256' />
    <nd ref='-159235257' />
  </way>
  <way id='-37251323' action='modify'>
    <nd ref='-159235257' />
    <nd ref='-159235258' />
    <tag k='type' v='straight' />
  </way>
  <way id='-37251324' action='modify'>
    <nd ref='-159235258' />
    <nd ref='-159235259' />
  </way>
  <way id='-37251325' action='modify'>
    <nd ref='-159235259' />
    <nd ref='-159235260' />
    <tag k='type' v='straight' />
  </way>
  <way id='-37251326' action='modify'>
    <nd ref='-159235260' />
    <nd ref='-159235261' />
  </way>
  <way id='-37251327' action='modify'>
    <nd ref='-159235261' />
    <nd ref='-159235262' />
    <tag k='type' v='straight' />
  </way>
  <way id='-37251328' action='modify'>
    <nd ref='-159235262' />
    <nd ref='-159235263' />
  </way>
  <way id='-37251329' action='modify'>
    <nd ref='-159235263' />
    <nd ref='-159235264' />
    <tag k='type' v='straight' />
  </way>
  <way id='-37251330' action='modify'>
    <nd ref='-159235264' />
    <nd ref='-159235265' />
  </way>
  <way id='-37251331' action='modify'>
    <nd ref='-159235265' />
    <nd ref='-159235266' />
    <tag k='type' v='straight' />
  </way>
  <way id='-37251332' action='modify'>
    <nd ref='-159235266' />
    <nd ref='-159235267' />
  </way>
  <way id='-37251333' action='modify'>
    <nd ref='-159235267' />
    <nd ref='-159235268' />
    <nd ref='-159235269' />
    <tag k='type' v='straight' />
  </way>
  <way id='-37251334' action='modify'>
    <nd ref='-159235269' />
    <nd ref='-159235270' />
  </way>
  <way id='-37251335' action='modify'>
    <nd ref='-159235270' />
    <nd ref='-159235271' />
    <tag k='type' v='straight' />
  </way>
  <way id='-37251336' action='modify'>
    <nd ref='-159235271' />
    <nd ref='-159235272' />
  </way>
  <way id='-37251337' action='modify'>
    <nd ref='-159235272' />
    <nd ref='-159235273' />
    <tag k='type' v='straight' />
  </way>
  <way id='-37251338' action='modify'>
    <nd ref='-159235273' />
    <nd ref='-159235274' />
  </way>
  <way id='-37251339' action='modify'>
    <nd ref='-159235274' />
    <nd ref='-159235275' />
    <tag k='type' v='straight' />
  </way>
  <way id='-37251340' action='modify'>
    <nd ref='-159235275' />
    <nd ref='-159235276' />
  </way>
  <way id='-37251341' action='modify'>
    <nd ref='-159235276' />
    <nd ref='-159235277' />
    <nd ref='-159235278' />
    <tag k='type' v='straight' />
  </way>
  <way id='-37251342' action='modify'>
    <nd ref='-159235278' />
    <nd ref='-159235279' />
  </way>
  <way id='-37251343' action='modify'>
    <nd ref='-159235279' />
    <nd ref='-159235280' />
    <tag k='type' v='straight' />
  </way>
  <way id='-37251344' action='modify'>
    <nd ref='-159235280' />
    <nd ref='-159235281' />
  </way>
  <way id='-37251345' action='modify'>
    <nd ref='-159235281' />
    <nd ref='-159235282' />
    <tag k='type' v='straight' />
  </way>
  <way id='-37251346' action='modify'>
    <nd ref='-159235282' />
    <nd ref='-159235283' />
  </way>
  <way id='-37251347' action='modify'>
    <nd ref='-159235283' />
    <nd ref='-159235284' />
    <tag k='type' v='straight' />
  </way>
  <way id='-37251348' action='modify'>
    <nd ref='-159235284' />
    <nd ref='-159235285' />
    <nd ref='-159235286' />
  </way>
  <way id='-37251349' action='modify'>
    <nd ref='-159235286' />
    <nd ref='-159235287' />
    <tag k='type' v='straight' />
  </way>
  <way id='-37251350' action='modify'>
    <nd ref='-159235287' />
    <nd ref='-159235288' />
    <nd ref='-159235289' />
  </way>
  <way id='-37251351' action='modify'>
    <nd ref='-159235289' />
    <nd ref='-159235290' />
    <tag k='type' v='straight' />
  </way>
  <way id='-37251352' action='modify'>
    <nd ref='-159235290' />
    <nd ref='-159235291' />
  </way>
  <way id='-37251353' action='modify'>
    <nd ref='-159235291' />
    <nd ref='-159235292' />
    <tag k='type' v='straight' />
  </way>
  <way id='-37251354' action='modify'>
    <nd ref='-159235292' />
    <nd ref='-159235293' />
  </way>
  <way id='-37251355' action='modify'>
    <nd ref='-159235293' />
    <nd ref='-159235294' />
    <tag k='type' v='straight' />
  </way>
  <way id='-37251356' action='modify'>
    <nd ref='-159235294' />
    <nd ref='-159235295' />
  </way>
  <way id='-37251357' action='modify'>
    <nd ref='-159235295' />
    <nd ref='-159235296' />
    <tag k='type' v='straight' />
  </way>
  <way id='-37251358' action='modify'>
    <nd ref='-159235296' />
    <nd ref='-159235297' />
  </way>
  <way id='-37251359' action='modify'>
    <nd ref='-159235297' />
    <nd ref='-159235298' />
    <tag k='type' v='straight' />
  </way>
  <way id='-37251360' action='modify'>
    <nd ref='-159235298' />
    <nd ref='-159235299' />
  </way>
  <way id='-37251361' action='modify'>
    <nd ref='-159235299' />
    <nd ref='-159235300' />
    <tag k='type' v='straight' />
  </way>
  <way id='-37251362' action='modify'>
    <nd ref='-159235300' />
    <nd ref='-159235301' />
  </way>
  <way id='-37251363' action='modify'>
    <nd ref='-159235301' />
    <nd ref='-159235302' />
    <tag k='type' v='straight' />
  </way>
  <way id='-37251364' action='modify'>
    <nd ref='-159235302' />
    <nd ref='-159235303' />
    <nd ref='-159235304' />
    <nd ref='-159235305' />
  </way>
  <way id='-37251365' action='modify'>
    <nd ref='-159235305' />
    <nd ref='-159235306' />
    <tag k='type' v='straight' />
  </way>
  <way id='-37251366' action='modify'>
    <nd ref='-159235306' />
    <nd ref='-159235307' />
  </way>
  <way id='-37251367' action='modify'>
    <nd ref='-159235307' />
    <nd ref='-159235308' />
    <tag k='type' v='straight' />
  </way>
  <way id='-37251368' action='modify'>
    <nd ref='-159235308' />
    <nd ref='-159235309' />
  </way>
  <way id='-37251369' action='modify'>
    <nd ref='-159235309' />
    <nd ref='-159235310' />
    <tag k='type' v='straight' />
  </way>
  <way id='-37251370' action='modify'>
    <nd ref='-159235310' />
    <nd ref='-159235311' />
  </way>
  <way id='-37251371' action='modify'>
    <nd ref='-159235311' />
    <nd ref='-159235312' />
    <tag k='type' v='straight' />
  </way>
  <way id='-37251372' action='modify'>
    <nd ref='-159235312' />
    <nd ref='-159235313' />
  </way>
  <way id='-37251373' action='modify'>
    <nd ref='-159235313' />
    <nd ref='-159235314' />
    <tag k='type' v='straight' />
  </way>
  <way id='-37251374' action='modify'>
    <nd ref='-159235314' />
    <nd ref='-159235315' />
  </way>
  <way id='-37251375' action='modify'>
    <nd ref='-159235315' />
    <nd ref='-159235316' />
    <tag k='type' v='straight' />
  </way>
  <way id='-37251376' action='modify'>
    <nd ref='-159235316' />
    <nd ref='-159235317' />
  </way>
  <way id='-37251377' action='modify'>
    <nd ref='-159235317' />
    <nd ref='-159235318' />
    <tag k='type' v='straight' />
  </way>
  <way id='-37251378' action='modify'>
    <nd ref='-159235318' />
    <nd ref='-159235319' />
  </way>
  <way id='-37251379' action='modify'>
    <nd ref='-159235319' />
    <nd ref='-159235320' />
    <tag k='type' v='straight' />
  </way>
  <way id='-37251380' action='modify'>
    <nd ref='-159235320' />
    <nd ref='-159235321' />
    <nd ref='-159235322' />
  </way>
  <way id='-37251381' action='modify'>
    <nd ref='-159235322' />
    <nd ref='-159235323' />
    <tag k='type' v='straight' />
  </way>
  <way id='-37251382' action='modify'>
    <nd ref='-159235323' />
    <nd ref='-159235324' />
  </way>
  <way id='-37251383' action='modify'>
    <nd ref='-159235324' />
    <nd ref='-159235325' />
    <tag k='type' v='straight' />
  </way>
  <way id='-37251384' action='modify'>
    <nd ref='-159235325' />
    <nd ref='-159235326' />
  </way>
  <way id='-37251385' action='modify'>
    <nd ref='-159235326' />
    <nd ref='-159235327' />
    <tag k='type' v='straight' />
  </way>
  <way id='-37251386' action='modify'>
    <nd ref='-159235327' />
    <nd ref='-159235328' />
  </way>
  <way id='-37251387' action='modify'>
    <nd ref='-159235328' />
    <nd ref='-159235329' />
    <tag k='type' v='straight' />
  </way>
  <way id='-37251388' action='modify'>
    <nd ref='-159235329' />
    <nd ref='-159235330' />
  </way>
  <way id='-37251389' action='modify'>
    <nd ref='-159235330' />
    <nd ref='-159235331' />
    <tag k='type' v='straight' />
  </way>
  <way id='-37251390' action='modify'>
    <nd ref='-159235331' />
    <nd ref='-159235332' />
  </way>
  <way id='-37251391' action='modify'>
    <nd ref='-159235332' />
    <nd ref='-159235333' />
    <tag k='type' v='straight' />
  </way>
  <way id='-37251392' action='modify'>
    <nd ref='-159235333' />
    <nd ref='-159235334' />
  </way>
  <way id='-37251393' action='modify'>
    <nd ref='-159235334' />
    <nd ref='-159235335' />
    <tag k='type' v='straight' />
  </way>
  <way id='-37251394' action='modify'>
    <nd ref='-159235335' />
    <nd ref='-159235336' />
  </way>
  <way id='-37251395' action='modify'>
    <nd ref='-159235336' />
    <nd ref='-159235337' />
    <tag k='type' v='straight' />
  </way>
  <way id='-37251396' action='modify'>
    <nd ref='-159235337' />
    <nd ref='-159235338' />
  </way>
  <way id='-37251397' action='modify'>
    <nd ref='-159235338' />
    <nd ref='-159235339' />
    <tag k='type' v='straight' />
  </way>
  <way id='-37251398' action='modify'>
    <nd ref='-159235339' />
    <nd ref='-159235340' />
    <nd ref='-159235341' />
  </way>
  <way id='-37251399' action='modify'>
    <nd ref='-159235341' />
    <nd ref='-159235342' />
    <tag k='type' v='straight' />
  </way>
  <way id='-37251400' action='modify'>
    <nd ref='-159235342' />
    <nd ref='-159235343' />
  </way>
  <way id='-37251401' action='modify'>
    <nd ref='-159235343' />
    <nd ref='-159235344' />
    <tag k='type' v='straight' />
  </way>
  <way id='-37251402' action='modify'>
    <nd ref='-159235344' />
    <nd ref='-159235345' />
  </way>
  <way id='-37251403' action='modify'>
    <nd ref='-159235345' />
    <nd ref='-159235346' />
    <tag k='type' v='straight' />
  </way>
  <way id='-37251404' action='modify'>
    <nd ref='-159235346' />
    <nd ref='-159235347' />
  </way>
  <way id='-37251405' action='modify'>
    <nd ref='-159235347' />
    <nd ref='-159235348' />
    <tag k='type' v='straight' />
  </way>
  <way id='-37251406' action='modify'>
    <nd ref='-159235348' />
    <nd ref='-159235349' />
  </way>
  <way id='-37251407' action='modify'>
    <nd ref='-159235349' />
    <nd ref='-159235350' />
    <tag k='type' v='straight' />
  </way>
  <way id='-37251408' action='modify'>
    <nd ref='-159235350' />
    <nd ref='-159235351' />
  </way>
  <way id='-37251409' action='modify'>
    <nd ref='-159235351' />
    <nd ref='-159235353' />
    <tag k='type' v='straight' />
  </way>
  <relation id='-14476657' action='modify'>
    <member type='way' ref='-37251183' role='' />
    <member type='way' ref='-37251184' role='' />
    <member type='way' ref='-37251185' role='' />
    <member type='way' ref='-37251186' role='' />
    <member type='way' ref='-37251187' role='' />
    <member type='way' ref='-37251188' role='' />
    <member type='way' ref='-37251189' role='' />
    <member type='way' ref='-37251190' role='' />
    <member type='way' ref='-37251191' role='' />
    <member type='way' ref='-37251192' role='' />
    <member type='way' ref='-37251193' role='' />
    <member type='way' ref='-37251194' role='' />
    <member type='way' ref='-37251195' role='' />
    <member type='way' ref='-37251196' role='' />
    <member type='way' ref='-37251197' role='' />
    <member type='way' ref='-37251198' role='' />
    <member type='way' ref='-37251199' role='' />
    <member type='way' ref='-37251200' role='' />
    <member type='way' ref='-37251201' role='' />
    <member type='way' ref='-37251202' role='' />
    <member type='way' ref='-37251203' role='' />
    <member type='way' ref='-37251204' role='' />
    <member type='way' ref='-37251205' role='' />
    <member type='way' ref='-37251206' role='' />
    <member type='way' ref='-37251207' role='' />
    <member type='way' ref='-37251208' role='' />
    <member type='way' ref='-37251209' role='' />
    <member type='way' ref='-37251210' role='' />
    <member type='way' ref='-37251211' role='' />
    <member type='way' ref='-37251212' role='' />
    <member type='way' ref='-37251213' role='' />
    <member type='way' ref='-37251214' role='' />
    <member type='way' ref='-37251215' role='' />
    <member type='way' ref='-37251216' role='' />
    <member type='way' ref='-37251217' role='' />
    <member type='way' ref='-37251218' role='' />
    <member type='way' ref='-37251219' role='' />
    <member type='way' ref='-37251220' role='' />
    <member type='way' ref='-37251221' role='' />
    <member type='way' ref='-37251222' role='' />
    <member type='way' ref='-37251223' role='' />
    <member type='way' ref='-37251224' role='' />
    <member type='way' ref='-37251225' role='' />
    <member type='way' ref='-37251226' role='' />
    <member type='way' ref='-37251227' role='' />
    <member type='way' ref='-37251228' role='' />
    <member type='way' ref='-37251229' role='' />
    <member type='way' ref='-37251230' role='' />
    <member type='way' ref='-37251231' role='' />
    <member type='way' ref='-37251232' role='' />
    <member type='way' ref='-37251233' role='' />
    <member type='way' ref='-37251234' role='' />
    <member type='way' ref='-37251235' role='' />
    <member type='way' ref='-37251236' role='' />
    <member type='way' ref='-37251237' role='' />
    <member type='way' ref='-37251238' role='' />
    <member type='way' ref='-37251239' role='' />
    <member type='way' ref='-37251240' role='' />
    <member type='way' ref='-37251241' role='' />
    <member type='way' ref='-37251242' role='' />
    <member type='way' ref='-37251243' role='' />
    <member type='way' ref='-37251244' role='' />
    <member type='way' ref='-37251245' role='' />
    <member type='way' ref='-37251246' role='' />
    <member type='way' ref='-37251247' role='' />
    <member type='way' ref='-37251248' role='' />
    <member type='way' ref='-37251249' role='' />
    <member type='way' ref='-37251250' role='' />
    <member type='way' ref='-37251251' role='' />
    <member type='way' ref='-37251252' role='' />
    <member type='way' ref='-37251253' role='' />
    <member type='way' ref='-37251254' role='' />
    <member type='way' ref='-37251255' role='' />
    <member type='way' ref='-37251256' role='' />
    <member type='way' ref='-37251257' role='' />
    <member type='way' ref='-37251258' role='' />
    <member type='way' ref='-37251259' role='' />
    <member type='way' ref='-37251260' role='' />
    <member type='way' ref='-37251261' role='' />
    <member type='way' ref='-37251262' role='' />
    <member type='way' ref='-37251263' role='' />
    <member type='way' ref='-37251264' role='' />
    <member type='way' ref='-37251265' role='' />
    <member type='way' ref='-37251266' role='' />
    <member type='way' ref='-37251267' role='' />
    <member type='way' ref='-37251268' role='' />
    <member type='way' ref='-37251269' role='' />
    <member type='way' ref='-37251270' role='' />
    <member type='way' ref='-37251271' role='' />
    <member type='way' ref='-37251272' role='' />
    <member type='way' ref='-37251273' role='' />
    <member type='way' ref='-37251274' role='' />
    <member type='way' ref='-37251275' role='' />
    <member type='way' ref='-37251276' role='' />
    <member type='way' ref='-37251277' role='' />
    <member type='way' ref='-37251278' role='' />
    <member type='way' ref='-37251279' role='' />
    <member type='way' ref='-37251280' role='' />
    <member type='way' ref='-37251281' role='' />
    <member type='way' ref='-37251282' role='' />
    <member type='way' ref='-37251283' role='' />
    <member type='way' ref='-37251284' role='' />
    <member type='way' ref='-37251285' role='' />
    <member type='way' ref='-37251286' role='' />
    <member type='way' ref='-37251287' role='' />
    <member type='way' ref='-37251288' role='' />
    <member type='way' ref='-37251289' role='' />
    <member type='way' ref='-37251290' role='' />
    <member type='way' ref='-37251291' role='' />
    <member type='way' ref='-37251292' role='' />
    <member type='way' ref='-37251293' role='' />
    <member type='way' ref='-37251294' role='' />
    <member type='way' ref='-37251295' role='' />
    <member type='way' ref='-37251296' role='' />
    <member type='way' ref='-37251297' role='' />
    <member type='way' ref='-37251298' role='' />
    <member type='way' ref='-37251299' role='' />
    <member type='way' ref='-37251300' role='' />
    <member type='way' ref='-37251301' role='' />
    <member type='way' ref='-37251302' role='' />
    <member type='way' ref='-37251303' role='' />
    <member type='way' ref='-37251304' role='' />
    <member type='way' ref='-37251305' role='' />
    <member type='way' ref='-37251306' role='' />
    <member type='way' ref='-37251307' role='' />
    <member type='way' ref='-37251308' role='' />
    <member type='way' ref='-37251309' role='' />
    <member type='way' ref='-37251310' role='' />
    <member type='way' ref='-37251311' role='' />
    <member type='way' ref='-37251312' role='' />
    <member type='way' ref='-37251313' role='' />
    <member type='way' ref='-37251314' role='' />
    <member type='way' ref='-37251315' role='' />
    <member type='way' ref='-37251316' role='' />
    <member type='way' ref='-37251317' role='' />
    <member type='way' ref='-37251318' role='' />
    <member type='way' ref='-37251319' role='' />
    <member type='way' ref='-37251320' role='' />
    <member type='way' ref='-37251321' role='' />
    <member type='way' ref='-37251322' role='' />
    <member type='way' ref='-37251323' role='' />
    <member type='way' ref='-37251324' role='' />
    <member type='way' ref='-37251325' role='' />
    <member type='way' ref='-37251326' role='' />
    <member type='way' ref='-37251327' role='' />
    <member type='way' ref='-37251328' role='' />
    <member type='way' ref='-37251329' role='' />
    <member type='way' ref='-37251330' role='' />
    <member type='way' ref='-37251331' role='' />
    <member type='way' ref='-37251332' role='' />
    <member type='way' ref='-37251333' role='' />
    <member type='way' ref='-37251334' role='' />
    <member type='way' ref='-37251335' role='' />
    <member type='way' ref='-37251336' role='' />
    <member type='way' ref='-37251337' role='' />
    <member type='way' ref='-37251338' role='' />
    <member type='way' ref='-37251339' role='' />
    <member type='way' ref='-37251340' role='' />
    <member type='way' ref='-37251341' role='' />
    <member type='way' ref='-37251342' role='' />
    <member type='way' ref='-37251343' role='' />
    <member type='way' ref='-37251344' role='' />
    <member type='way' ref='-37251345' role='' />
    <member type='way' ref='-37251346' role='' />
    <member type='way' ref='-37251347' role='' />
    <member type='way' ref='-37251348' role='' />
    <member type='way' ref='-37251349' role='' />
    <member type='way' ref='-37251350' role='' />
    <member type='way' ref='-37251351' role='' />
    <member type='way' ref='-37251352' role='' />
    <member type='way' ref='-37251353' role='' />
    <member type='way' ref='-37251354' role='' />
    <member type='way' ref='-37251355' role='' />
    <member type='way' ref='-37251356' role='' />
    <member type='way' ref='-37251357' role='' />
    <member type='way' ref='-37251358' role='' />
    <member type='way' ref='-37251359' role='' />
    <member type='way' ref='-37251360' role='' />
    <member type='way' ref='-37251361' role='' />
    <member type='way' ref='-37251362' role='' />
    <member type='way' ref='-37251363' role='' />
    <member type='way' ref='-37251364' role='' />
    <member type='way' ref='-37251365' role='' />
    <member type='way' ref='-37251366' role='' />
    <member type='way' ref='-37251367' role='' />
    <member type='way' ref='-37251368' role='' />
    <member type='way' ref='-37251369' role='' />
    <member type='way' ref='-37251370' role='' />
    <member type='way' ref='-37251371' role='' />
    <member type='way' ref='-37251372' role='' />
    <member type='way' ref='-37251373' role='' />
    <member type='way' ref='-37251374' role='' />
    <member type='way' ref='-37251375' role='' />
    <member type='way' ref='-37251376' role='' />
    <member type='way' ref='-37251377' role='' />
    <member type='way' ref='-37251378' role='' />
    <member type='way' ref='-37251379' role='' />
    <member type='way' ref='-37251380' role='' />
    <member type='way' ref='-37251381' role='' />
    <member type='way' ref='-37251382' role='' />
    <member type='way' ref='-37251383' role='' />
    <member type='way' ref='-37251384' role='' />
    <member type='way' ref='-37251385' role='' />
    <member type='way' ref='-37251386' role='' />
    <member type='way' ref='-37251387' role='' />
    <member type='way' ref='-37251388' role='' />
    <member type='way' ref='-37251389' role='' />
    <member type='way' ref='-37251390' role='' />
    <member type='way' ref='-37251391' role='' />
    <member type='way' ref='-37251392' role='' />
    <member type='way' ref='-37251393' role='' />
    <member type='way' ref='-37251394' role='' />
    <member type='way' ref='-37251395' role='' />
    <member type='way' ref='-37251396' role='' />
    <member type='way' ref='-37251397' role='' />
    <member type='way' ref='-37251398' role='' />
    <member type='way' ref='-37251399' role='' />
    <member type='way' ref='-37251400' role='' />
    <member type='way' ref='-37251401' role='' />
    <member type='way' ref='-37251402' role='' />
    <member type='way' ref='-37251403' role='' />
    <member type='way' ref='-37251404' role='' />
    <member type='way' ref='-37251405' role='' />
    <member type='way' ref='-37251406' role='' />
    <member type='way' ref='-37251407' role='' />
    <member type='way' ref='-37251408' role='' />
    <member type='way' ref='-37251409' role='' />
    <tag k='key' v='path.dk.hbv' />
    <tag k='name' v='DK HBV' />
    <tag k='type' v='path' />
  </relation>
</osm>
