<?xml version='1.0' encoding='UTF-8'?>
<osm version='0.6' upload='false' generator='JOSM'>
  <node id='-187050500' action='modify' lat='55.25208584379' lon='9.47346630414' />
  <node id='-187050501' action='modify' lat='55.25222939625' lon='9.47384871535'>
    <tag k='name' v='hav' />
  </node>
  <node id='-187050502' action='modify' lat='55.25245814907' lon='9.47445809573' />
  <node id='-187050503' action='modify' lat='55.25265382858' lon='9.47491809592' />
  <node id='-187050504' action='modify' lat='55.25274937524' lon='9.47513133153' />
  <node id='-187050505' action='modify' lat='55.25310709989' lon='9.47775855526' />
  <node id='-187050506' action='modify' lat='55.25296187019' lon='9.47923511133' />
  <node id='-187050507' action='modify' lat='55.25304824371' lon='9.48179930314' />
  <node id='-187050508' action='modify' lat='55.25333335143' lon='9.48311894998' />
  <node id='-187050509' action='modify' lat='55.25352979251' lon='9.4843876335' />
  <node id='-187050510' action='modify' lat='55.25360218793' lon='9.48511152017'>
    <tag k='name' v='hab' />
  </node>
  <node id='-187050511' action='modify' lat='55.25367196272' lon='9.48580920428' />
  <node id='-187050512' action='modify' lat='55.25317207167' lon='9.48876768082' />
  <node id='-187050513' action='modify' lat='55.25270580676' lon='9.48940872878' />
  <node id='-187050514' action='modify' lat='55.25250401172' lon='9.4895938012' />
  <node id='-187050515' action='modify' lat='55.25144761661' lon='9.49236940947'>
    <tag k='name' v='had' />
  </node>
  <node id='-187050516' action='modify' lat='55.25142469665' lon='9.49307799071' />
  <node id='-187050517' action='modify' lat='55.25136965996' lon='9.49662655324' />
  <node id='-187050518' action='modify' lat='55.25129169273' lon='9.49895202577' />
  <node id='-187050519' action='modify' lat='55.25122748305' lon='9.50027703702' />
  <node id='-187050520' action='modify' lat='55.25147667566' lon='9.50272053212' />
  <node id='-187050521' action='modify' lat='55.25295040543' lon='9.50739294022' />
  <node id='-187050522' action='modify' lat='55.25332494575' lon='9.50965940416' />
  <node id='-187050523' action='modify' lat='55.25368266522' lon='9.52049552858' />
  <node id='-187050524' action='modify' lat='55.25361846245' lon='9.52300070643' />
  <node id='-187050525' action='modify' lat='55.25292747589' lon='9.53275858819' />
  <node id='-187050526' action='modify' lat='55.25299626751' lon='9.53425794572'>
    <tag k='name' v='ves' />
  </node>
  <node id='-187050527' action='modify' lat='55.25407401274' lon='9.53622400224' />
  <node id='-187050528' action='modify' lat='55.25712211423' lon='9.53810690761' />
  <node id='-187050529' action='modify' lat='55.25770067088' lon='9.53856691584'>
    <tag k='name' v='nas' />
  </node>
  <node id='-187050530' action='modify' lat='55.25835412321' lon='9.54000055522' />
  <node id='-187050531' action='modify' lat='55.25902667032' lon='9.54298317164' />
  <node id='-187050532' action='modify' lat='55.25933389828' lon='9.54393267363' />
  <node id='-187050533' action='modify' lat='55.26045579514' lon='9.54658269614' />
  <node id='-187050534' action='modify' lat='55.26092196913' lon='9.54740076989' />
  <node id='-187050535' action='modify' lat='55.26137438193' lon='9.54809009761' />
  <node id='-187050536' action='modify' lat='55.26197657205' lon='9.54935878247' />
  <node id='-187050537' action='modify' lat='55.26310756437' lon='9.55310046405' />
  <node id='-187050538' action='modify' lat='55.26473674959' lon='9.55585777223' />
  <node id='-187050539' action='modify' lat='55.26683247231' lon='9.55800277507'>
    <tag k='name' v='oas' />
  </node>
  <node id='-187050540' action='modify' lat='55.26782376245' lon='9.55901741445' />
  <node id='-187050541' action='modify' lat='55.2684671131' lon='9.55958068103' />
  <node id='-187050542' action='modify' lat='55.27246605583' lon='9.56216632783' />
  <node id='-187050543' action='modify' lat='55.27405818554' lon='9.56529914796' />
  <node id='-187050544' action='modify' lat='55.27557996962' lon='9.57432746351' />
  <node id='-187050545' action='modify' lat='55.27611166357' lon='9.57609772146' />
  <node id='-187050546' action='modify' lat='55.27672585288' lon='9.57745491922' />
  <node id='-187050547' action='modify' lat='55.27771281383' lon='9.57843660772'>
    <tag k='name' v='von' />
  </node>
  <node id='-187050548' action='modify' lat='55.27950333669' lon='9.57721888483' />
  <node id='-187050549' action='modify' lat='55.28359435089' lon='9.56722496867' />
  <node id='-187050550' action='modify' lat='55.28438238041' lon='9.56618381208'>
    <tag k='name' v='vil' />
  </node>
  <node id='-187050551' action='modify' lat='55.28503939142' lon='9.56593751371' />
  <node id='-187050552' action='modify' lat='55.28619722136' lon='9.56587314069' />
  <node id='-187050553' action='modify' lat='55.28742222366' lon='9.56548690259' />
  <node id='-187050554' action='modify' lat='55.28815231927' lon='9.56497728288' />
  <node id='-187050555' action='modify' lat='55.28866857124' lon='9.56473051965' />
  <node id='-187050556' action='modify' lat='55.29044332708' lon='9.56408678949' />
  <node id='-187050557' action='modify' lat='55.29119780337' lon='9.56350743234' />
  <node id='-187050558' action='modify' lat='55.29186979447' lon='9.56258475244' />
  <node id='-187050559' action='modify' lat='55.29319236189' lon='9.56153332651' />
  <node id='-187050560' action='modify' lat='55.29333439019' lon='9.56159501731' />
  <node id='-187050561' action='modify' lat='55.29368563924' lon='9.56170499057'>
    <tag k='name' v='sig' />
  </node>
  <node id='-187050562' action='modify' lat='55.29551362077' lon='9.56147968233' />
  <node id='-187050563' action='modify' lat='55.29706970448' lon='9.56075012147' />
  <node id='-187050564' action='modify' lat='55.297787405' lon='9.56062674254' />
  <node id='-187050565' action='modify' lat='55.29797522701' lon='9.56068306893' />
  <node id='-187050566' action='modify' lat='55.29890516192' lon='9.56053018302' />
  <node id='-187050567' action='modify' lat='55.30006258739' lon='9.5598998639' />
  <node id='-187050568' action='modify' lat='55.30136045178' lon='9.55973893136' />
  <node id='-187050569' action='modify' lat='55.30217210675' lon='9.56022555993'>
    <tag k='name' v='sil' />
  </node>
  <node id='-187050570' action='modify' lat='55.3027025516' lon='9.56054359406' />
  <node id='-187050571' action='modify' lat='55.30347511786' lon='9.56077157915' />
  <node id='-187050572' action='modify' lat='55.30534081493' lon='9.56060528219' />
  <node id='-187050573' action='modify' lat='55.30674842682' lon='9.56049799383' />
  <node id='-187050574' action='modify' lat='55.3098565989' lon='9.56035315454' />
  <node id='-187050575' action='modify' lat='55.31125794761' lon='9.56010102153' />
  <node id='-187050576' action='modify' lat='55.31358425524' lon='9.55955385089' />
  <node id='-187050577' action='modify' lat='55.31598368942' lon='9.55957530856' />
  <node id='-187050578' action='modify' lat='55.31808383834' lon='9.55994008899' />
  <node id='-187050579' action='modify' lat='55.31914302823' lon='9.55990253806' />
  <node id='-187050580' action='modify' lat='55.31956812992' lon='9.55978679004'>
    <tag k='name' v='fje' />
  </node>
  <node id='-187050581' action='modify' lat='55.32066003188' lon='9.55948947787' />
  <node id='-187050582' action='modify' lat='55.32369386505' lon='9.55587386012' />
  <node id='-187050583' action='modify' lat='55.32366944881' lon='9.5546185863' />
  <node id='-187050584' action='modify' lat='55.32361810507' lon='9.55397212516' />
  <node id='-187050585' action='modify' lat='55.32355957249' lon='9.55359398782' />
  <node id='-187050586' action='modify' lat='55.32347106324' lon='9.55244600236' />
  <node id='-187050587' action='modify' lat='55.32369691403' lon='9.55010175169' />
  <node id='-187050588' action='modify' lat='55.32403873981' lon='9.54857825696'>
    <tag k='name' v='gam' />
  </node>
  <node id='-187050589' action='modify' lat='55.32509166675' lon='9.54652368486' />
  <node id='-187050590' action='modify' lat='55.32549146647' lon='9.54589604795' />
  <node id='-187050591' action='modify' lat='55.32626358733' lon='9.5443350023' />
  <node id='-187050592' action='modify' lat='55.32659318375' lon='9.54345523775' />
  <node id='-187050593' action='modify' lat='55.32711809091' lon='9.54182981908' />
  <node id='-187050594' action='modify' lat='55.32726152363' lon='9.54057990968' />
  <node id='-187050595' action='modify' lat='55.32735002441' lon='9.540199036' />
  <node id='-187050596' action='modify' lat='55.32770097385' lon='9.5392763561' />
  <node id='-187050597' action='modify' lat='55.32865309927' lon='9.53752755582' />
  <node id='-187050598' action='modify' lat='55.32930919803' lon='9.53681408823' />
  <node id='-187050599' action='modify' lat='55.32979745052' lon='9.53636884153' />
  <node id='-187050600' action='modify' lat='55.33070070177' lon='9.53517794073' />
  <node id='-187050601' action='modify' lat='55.33225082824' lon='9.53038215101' />
  <node id='-187050602' action='modify' lat='55.33288550819' lon='9.52820419729' />
  <node id='-187050603' action='modify' lat='55.33549120394' lon='9.51787583111'>
    <tag k='name' v='kel' />
  </node>
  <node id='-187050604' action='modify' lat='55.33573839107' lon='9.51689600408' />
  <node id='-187050605' action='modify' lat='55.33765748762' lon='9.51299070776' />
  <node id='-187050606' action='modify' lat='55.338475989' lon='9.50930372087'>
    <tag k='name' v='fav' />
  </node>
  <node id='-187050607' action='modify' lat='55.33985106282' lon='9.50310944974' />
  <node id='-187050608' action='modify' lat='55.34068086767' lon='9.50101732671' />
  <node id='-187050609' action='modify' lat='55.34183402349' lon='9.49963867128' />
  <node id='-187050610' action='modify' lat='55.34257532327' lon='9.4991290462' />
  <node id='-187050611' action='modify' lat='55.3431179125' lon='9.49882392767' />
  <node id='-187050612' action='modify' lat='55.34388399539' lon='9.49806153238' />
  <node id='-187050613' action='modify' lat='55.35188915965' lon='9.48828487515' />
  <node id='-187050614' action='modify' lat='55.35236493006' lon='9.48785841197' />
  <node id='-187050615' action='modify' lat='55.35323106983' lon='9.48735147446' />
  <node id='-187050616' action='modify' lat='55.3542664495' lon='9.48410868108' />
  <node id='-187050617' action='modify' lat='55.35422598999' lon='9.48294305211'>
    <tag k='name' v='chr' />
  </node>
  <node id='-187050618' action='modify' lat='55.35415361137' lon='9.48085784376'>
    <tag k='name' v='chr.f' />
  </node>
  <way id='-39270968' action='modify'>
    <nd ref='-187050500' />
    <nd ref='-187050501' />
    <nd ref='-187050502' />
    <tag k='type' v='straight' />
  </way>
  <way id='-39270969' action='modify'>
    <nd ref='-187050502' />
    <nd ref='-187050503' />
  </way>
  <way id='-39270970' action='modify'>
    <nd ref='-187050503' />
    <nd ref='-187050504' />
    <tag k='type' v='straight' />
  </way>
  <way id='-39270971' action='modify'>
    <nd ref='-187050504' />
    <nd ref='-187050505' />
  </way>
  <way id='-39270972' action='modify'>
    <nd ref='-187050505' />
    <nd ref='-187050506' />
    <tag k='type' v='straight' />
  </way>
  <way id='-39270973' action='modify'>
    <nd ref='-187050506' />
    <nd ref='-187050507' />
  </way>
  <way id='-39270974' action='modify'>
    <nd ref='-187050507' />
    <nd ref='-187050508' />
    <tag k='type' v='straight' />
  </way>
  <way id='-39270975' action='modify'>
    <nd ref='-187050508' />
    <nd ref='-187050509' />
  </way>
  <way id='-39270976' action='modify'>
    <nd ref='-187050509' />
    <nd ref='-187050510' />
    <nd ref='-187050511' />
    <tag k='type' v='straight' />
  </way>
  <way id='-39270977' action='modify'>
    <nd ref='-187050511' />
    <nd ref='-187050512' />
    <nd ref='-187050513' />
  </way>
  <way id='-39270978' action='modify'>
    <nd ref='-187050513' />
    <nd ref='-187050514' />
    <tag k='type' v='straight' />
  </way>
  <way id='-39270979' action='modify'>
    <nd ref='-187050514' />
    <nd ref='-187050515' />
    <nd ref='-187050516' />
  </way>
  <way id='-39270980' action='modify'>
    <nd ref='-187050516' />
    <nd ref='-187050517' />
    <tag k='type' v='straight' />
  </way>
  <way id='-39270981' action='modify'>
    <nd ref='-187050517' />
    <nd ref='-187050518' />
  </way>
  <way id='-39270982' action='modify'>
    <nd ref='-187050518' />
    <nd ref='-187050519' />
    <tag k='type' v='straight' />
  </way>
  <way id='-39270983' action='modify'>
    <nd ref='-187050519' />
    <nd ref='-187050520' />
  </way>
  <way id='-39270984' action='modify'>
    <nd ref='-187050520' />
    <nd ref='-187050521' />
    <tag k='type' v='straight' />
  </way>
  <way id='-39270985' action='modify'>
    <nd ref='-187050521' />
    <nd ref='-187050522' />
  </way>
  <way id='-39270986' action='modify'>
    <nd ref='-187050522' />
    <nd ref='-187050523' />
    <tag k='type' v='straight' />
  </way>
  <way id='-39270987' action='modify'>
    <nd ref='-187050523' />
    <nd ref='-187050524' />
  </way>
  <way id='-39270988' action='modify'>
    <nd ref='-187050524' />
    <nd ref='-187050525' />
    <tag k='type' v='straight' />
  </way>
  <way id='-39270989' action='modify'>
    <nd ref='-187050525' />
    <nd ref='-187050526' />
    <nd ref='-187050527' />
  </way>
  <way id='-39270990' action='modify'>
    <nd ref='-187050527' />
    <nd ref='-187050528' />
    <tag k='type' v='straight' />
  </way>
  <way id='-39270991' action='modify'>
    <nd ref='-187050528' />
    <nd ref='-187050529' />
    <nd ref='-187050530' />
  </way>
  <way id='-39270992' action='modify'>
    <nd ref='-187050530' />
    <nd ref='-187050531' />
    <tag k='type' v='straight' />
  </way>
  <way id='-39270993' action='modify'>
    <nd ref='-187050531' />
    <nd ref='-187050532' />
  </way>
  <way id='-39270994' action='modify'>
    <nd ref='-187050532' />
    <nd ref='-187050533' />
    <tag k='type' v='straight' />
  </way>
  <way id='-39270995' action='modify'>
    <nd ref='-187050533' />
    <nd ref='-187050534' />
  </way>
  <way id='-39270996' action='modify'>
    <nd ref='-187050534' />
    <nd ref='-187050535' />
    <tag k='type' v='straight' />
  </way>
  <way id='-39270997' action='modify'>
    <nd ref='-187050535' />
    <nd ref='-187050536' />
  </way>
  <way id='-39270998' action='modify'>
    <nd ref='-187050536' />
    <nd ref='-187050537' />
    <tag k='type' v='straight' />
  </way>
  <way id='-39270999' action='modify'>
    <nd ref='-187050537' />
    <nd ref='-187050538' />
  </way>
  <way id='-39271000' action='modify'>
    <nd ref='-187050538' />
    <nd ref='-187050539' />
    <nd ref='-187050540' />
    <tag k='type' v='straight' />
  </way>
  <way id='-39271001' action='modify'>
    <nd ref='-187050540' />
    <nd ref='-187050541' />
  </way>
  <way id='-39271002' action='modify'>
    <nd ref='-187050541' />
    <nd ref='-187050542' />
    <tag k='type' v='straight' />
  </way>
  <way id='-39271003' action='modify'>
    <nd ref='-187050542' />
    <nd ref='-187050543' />
  </way>
  <way id='-39271004' action='modify'>
    <nd ref='-187050543' />
    <nd ref='-187050544' />
    <tag k='type' v='straight' />
  </way>
  <way id='-39271005' action='modify'>
    <nd ref='-187050544' />
    <nd ref='-187050545' />
  </way>
  <way id='-39271006' action='modify'>
    <nd ref='-187050545' />
    <nd ref='-187050546' />
    <tag k='type' v='straight' />
  </way>
  <way id='-39271007' action='modify'>
    <nd ref='-187050546' />
    <nd ref='-187050547' />
    <nd ref='-187050548' />
  </way>
  <way id='-39271008' action='modify'>
    <nd ref='-187050548' />
    <nd ref='-187050549' />
    <tag k='type' v='straight' />
  </way>
  <way id='-39271009' action='modify'>
    <nd ref='-187050549' />
    <nd ref='-187050550' />
    <nd ref='-187050551' />
  </way>
  <way id='-39271010' action='modify'>
    <nd ref='-187050551' />
    <nd ref='-187050552' />
    <tag k='type' v='straight' />
  </way>
  <way id='-39271011' action='modify'>
    <nd ref='-187050552' />
    <nd ref='-187050553' />
  </way>
  <way id='-39271012' action='modify'>
    <nd ref='-187050553' />
    <nd ref='-187050554' />
    <tag k='type' v='straight' />
  </way>
  <way id='-39271013' action='modify'>
    <nd ref='-187050554' />
    <nd ref='-187050555' />
  </way>
  <way id='-39271014' action='modify'>
    <nd ref='-187050555' />
    <nd ref='-187050556' />
    <tag k='type' v='straight' />
  </way>
  <way id='-39271015' action='modify'>
    <nd ref='-187050556' />
    <nd ref='-187050557' />
  </way>
  <way id='-39271016' action='modify'>
    <nd ref='-187050557' />
    <nd ref='-187050558' />
    <tag k='type' v='straight' />
  </way>
  <way id='-39271017' action='modify'>
    <nd ref='-187050558' />
    <nd ref='-187050559' />
  </way>
  <way id='-39271018' action='modify'>
    <nd ref='-187050559' />
    <nd ref='-187050560' />
    <tag k='type' v='straight' />
  </way>
  <way id='-39271019' action='modify'>
    <nd ref='-187050560' />
    <nd ref='-187050561' />
    <nd ref='-187050562' />
  </way>
  <way id='-39271020' action='modify'>
    <nd ref='-187050562' />
    <nd ref='-187050563' />
    <tag k='type' v='straight' />
  </way>
  <way id='-39271021' action='modify'>
    <nd ref='-187050563' />
    <nd ref='-187050564' />
  </way>
  <way id='-39271022' action='modify'>
    <nd ref='-187050564' />
    <nd ref='-187050565' />
    <tag k='type' v='straight' />
  </way>
  <way id='-39271023' action='modify'>
    <nd ref='-187050565' />
    <nd ref='-187050566' />
  </way>
  <way id='-39271024' action='modify'>
    <nd ref='-187050566' />
    <nd ref='-187050567' />
    <tag k='type' v='straight' />
  </way>
  <way id='-39271025' action='modify'>
    <nd ref='-187050567' />
    <nd ref='-187050568' />
  </way>
  <way id='-39271026' action='modify'>
    <nd ref='-187050568' />
    <nd ref='-187050569' />
    <nd ref='-187050570' />
    <tag k='type' v='straight' />
  </way>
  <way id='-39271027' action='modify'>
    <nd ref='-187050570' />
    <nd ref='-187050571' />
  </way>
  <way id='-39271028' action='modify'>
    <nd ref='-187050571' />
    <nd ref='-187050572' />
    <tag k='type' v='straight' />
  </way>
  <way id='-39271029' action='modify'>
    <nd ref='-187050572' />
    <nd ref='-187050573' />
  </way>
  <way id='-39271030' action='modify'>
    <nd ref='-187050573' />
    <nd ref='-187050574' />
    <tag k='type' v='straight' />
  </way>
  <way id='-39271031' action='modify'>
    <nd ref='-187050574' />
    <nd ref='-187050575' />
  </way>
  <way id='-39271032' action='modify'>
    <nd ref='-187050575' />
    <nd ref='-187050576' />
    <tag k='type' v='straight' />
  </way>
  <way id='-39271033' action='modify'>
    <nd ref='-187050576' />
    <nd ref='-187050577' />
  </way>
  <way id='-39271034' action='modify'>
    <nd ref='-187050577' />
    <nd ref='-187050578' />
    <tag k='type' v='straight' />
  </way>
  <way id='-39271035' action='modify'>
    <nd ref='-187050578' />
    <nd ref='-187050579' />
  </way>
  <way id='-39271036' action='modify'>
    <nd ref='-187050579' />
    <nd ref='-187050580' />
    <nd ref='-187050581' />
    <tag k='type' v='straight' />
  </way>
  <way id='-39271037' action='modify'>
    <nd ref='-187050581' />
    <nd ref='-187050582' />
  </way>
  <way id='-39271038' action='modify'>
    <nd ref='-187050582' />
    <nd ref='-187050583' />
    <tag k='type' v='straight' />
  </way>
  <way id='-39271039' action='modify'>
    <nd ref='-187050583' />
    <nd ref='-187050584' />
  </way>
  <way id='-39271040' action='modify'>
    <nd ref='-187050584' />
    <nd ref='-187050585' />
    <tag k='type' v='straight' />
  </way>
  <way id='-39271041' action='modify'>
    <nd ref='-187050585' />
    <nd ref='-187050586' />
  </way>
  <way id='-39271042' action='modify'>
    <nd ref='-187050586' />
    <nd ref='-187050587' />
    <tag k='type' v='straight' />
  </way>
  <way id='-39271043' action='modify'>
    <nd ref='-187050587' />
    <nd ref='-187050588' />
    <nd ref='-187050589' />
  </way>
  <way id='-39271044' action='modify'>
    <nd ref='-187050589' />
    <nd ref='-187050590' />
    <tag k='type' v='straight' />
  </way>
  <way id='-39271045' action='modify'>
    <nd ref='-187050590' />
    <nd ref='-187050591' />
  </way>
  <way id='-39271046' action='modify'>
    <nd ref='-187050591' />
    <nd ref='-187050592' />
    <tag k='type' v='straight' />
  </way>
  <way id='-39271047' action='modify'>
    <nd ref='-187050592' />
    <nd ref='-187050593' />
    <nd ref='-187050594' />
  </way>
  <way id='-39271048' action='modify'>
    <nd ref='-187050594' />
    <nd ref='-187050595' />
    <tag k='type' v='straight' />
  </way>
  <way id='-39271049' action='modify'>
    <nd ref='-187050595' />
    <nd ref='-187050596' />
  </way>
  <way id='-39271050' action='modify'>
    <nd ref='-187050596' />
    <nd ref='-187050597' />
    <tag k='type' v='straight' />
  </way>
  <way id='-39271051' action='modify'>
    <nd ref='-187050597' />
    <nd ref='-187050598' />
  </way>
  <way id='-39271052' action='modify'>
    <nd ref='-187050598' />
    <nd ref='-187050599' />
    <tag k='type' v='straight' />
  </way>
  <way id='-39271053' action='modify'>
    <nd ref='-187050599' />
    <nd ref='-187050600' />
  </way>
  <way id='-39271054' action='modify'>
    <nd ref='-187050600' />
    <nd ref='-187050601' />
    <tag k='type' v='straight' />
  </way>
  <way id='-39271055' action='modify'>
    <nd ref='-187050601' />
    <nd ref='-187050602' />
  </way>
  <way id='-39271056' action='modify'>
    <nd ref='-187050602' />
    <nd ref='-187050603' />
    <nd ref='-187050604' />
    <tag k='type' v='straight' />
  </way>
  <way id='-39271057' action='modify'>
    <nd ref='-187050604' />
    <nd ref='-187050605' />
  </way>
  <way id='-39271058' action='modify'>
    <nd ref='-187050605' />
    <nd ref='-187050606' />
    <nd ref='-187050607' />
    <tag k='type' v='straight' />
  </way>
  <way id='-39271059' action='modify'>
    <nd ref='-187050607' />
    <nd ref='-187050608' />
  </way>
  <way id='-39271060' action='modify'>
    <nd ref='-187050608' />
    <nd ref='-187050609' />
    <tag k='type' v='straight' />
  </way>
  <way id='-39271061' action='modify'>
    <nd ref='-187050609' />
    <nd ref='-187050610' />
  </way>
  <way id='-39271062' action='modify'>
    <nd ref='-187050610' />
    <nd ref='-187050611' />
    <tag k='type' v='straight' />
  </way>
  <way id='-39271063' action='modify'>
    <nd ref='-187050611' />
    <nd ref='-187050612' />
  </way>
  <way id='-39271064' action='modify'>
    <nd ref='-187050612' />
    <nd ref='-187050613' />
    <tag k='type' v='straight' />
  </way>
  <way id='-39271065' action='modify'>
    <nd ref='-187050613' />
    <nd ref='-187050614' />
  </way>
  <way id='-39271066' action='modify'>
    <nd ref='-187050614' />
    <nd ref='-187050615' />
    <tag k='type' v='straight' />
  </way>
  <way id='-39271067' action='modify'>
    <nd ref='-187050615' />
    <nd ref='-187050616' />
  </way>
  <way id='-39271068' action='modify'>
    <nd ref='-187050616' />
    <nd ref='-187050617' />
    <nd ref='-187050618' />
    <tag k='type' v='straight' />
  </way>
  <relation id='-14495671' action='modify'>
    <member type='way' ref='-39270968' role='' />
    <member type='way' ref='-39270969' role='' />
    <member type='way' ref='-39270970' role='' />
    <member type='way' ref='-39270971' role='' />
    <member type='way' ref='-39270972' role='' />
    <member type='way' ref='-39270973' role='' />
    <member type='way' ref='-39270974' role='' />
    <member type='way' ref='-39270975' role='' />
    <member type='way' ref='-39270976' role='' />
    <member type='way' ref='-39270977' role='' />
    <member type='way' ref='-39270978' role='' />
    <member type='way' ref='-39270979' role='' />
    <member type='way' ref='-39270980' role='' />
    <member type='way' ref='-39270981' role='' />
    <member type='way' ref='-39270982' role='' />
    <member type='way' ref='-39270983' role='' />
    <member type='way' ref='-39270984' role='' />
    <member type='way' ref='-39270985' role='' />
    <member type='way' ref='-39270986' role='' />
    <member type='way' ref='-39270987' role='' />
    <member type='way' ref='-39270988' role='' />
    <member type='way' ref='-39270989' role='' />
    <member type='way' ref='-39270990' role='' />
    <member type='way' ref='-39270991' role='' />
    <member type='way' ref='-39270992' role='' />
    <member type='way' ref='-39270993' role='' />
    <member type='way' ref='-39270994' role='' />
    <member type='way' ref='-39270995' role='' />
    <member type='way' ref='-39270996' role='' />
    <member type='way' ref='-39270997' role='' />
    <member type='way' ref='-39270998' role='' />
    <member type='way' ref='-39270999' role='' />
    <member type='way' ref='-39271000' role='' />
    <member type='way' ref='-39271001' role='' />
    <member type='way' ref='-39271002' role='' />
    <member type='way' ref='-39271003' role='' />
    <member type='way' ref='-39271004' role='' />
    <member type='way' ref='-39271005' role='' />
    <member type='way' ref='-39271006' role='' />
    <member type='way' ref='-39271007' role='' />
    <member type='way' ref='-39271008' role='' />
    <member type='way' ref='-39271009' role='' />
    <member type='way' ref='-39271010' role='' />
    <member type='way' ref='-39271011' role='' />
    <member type='way' ref='-39271012' role='' />
    <member type='way' ref='-39271013' role='' />
    <member type='way' ref='-39271014' role='' />
    <member type='way' ref='-39271015' role='' />
    <member type='way' ref='-39271016' role='' />
    <member type='way' ref='-39271017' role='' />
    <member type='way' ref='-39271018' role='' />
    <member type='way' ref='-39271019' role='' />
    <member type='way' ref='-39271020' role='' />
    <member type='way' ref='-39271021' role='' />
    <member type='way' ref='-39271022' role='' />
    <member type='way' ref='-39271023' role='' />
    <member type='way' ref='-39271024' role='' />
    <member type='way' ref='-39271025' role='' />
    <member type='way' ref='-39271026' role='' />
    <member type='way' ref='-39271027' role='' />
    <member type='way' ref='-39271028' role='' />
    <member type='way' ref='-39271029' role='' />
    <member type='way' ref='-39271030' role='' />
    <member type='way' ref='-39271031' role='' />
    <member type='way' ref='-39271032' role='' />
    <member type='way' ref='-39271033' role='' />
    <member type='way' ref='-39271034' role='' />
    <member type='way' ref='-39271035' role='' />
    <member type='way' ref='-39271036' role='' />
    <member type='way' ref='-39271037' role='' />
    <member type='way' ref='-39271038' role='' />
    <member type='way' ref='-39271039' role='' />
    <member type='way' ref='-39271040' role='' />
    <member type='way' ref='-39271041' role='' />
    <member type='way' ref='-39271042' role='' />
    <member type='way' ref='-39271043' role='' />
    <member type='way' ref='-39271044' role='' />
    <member type='way' ref='-39271045' role='' />
    <member type='way' ref='-39271046' role='' />
    <member type='way' ref='-39271047' role='' />
    <member type='way' ref='-39271048' role='' />
    <member type='way' ref='-39271049' role='' />
    <member type='way' ref='-39271050' role='' />
    <member type='way' ref='-39271051' role='' />
    <member type='way' ref='-39271052' role='' />
    <member type='way' ref='-39271053' role='' />
    <member type='way' ref='-39271054' role='' />
    <member type='way' ref='-39271055' role='' />
    <member type='way' ref='-39271056' role='' />
    <member type='way' ref='-39271057' role='' />
    <member type='way' ref='-39271058' role='' />
    <member type='way' ref='-39271059' role='' />
    <member type='way' ref='-39271060' role='' />
    <member type='way' ref='-39271061' role='' />
    <member type='way' ref='-39271062' role='' />
    <member type='way' ref='-39271063' role='' />
    <member type='way' ref='-39271064' role='' />
    <member type='way' ref='-39271065' role='' />
    <member type='way' ref='-39271066' role='' />
    <member type='way' ref='-39271067' role='' />
    <member type='way' ref='-39271068' role='' />
    <tag k='key' v='path.dk.hcf' />
    <tag k='name' v='DK HCF' />
    <tag k='type' v='path' />
  </relation>
</osm>
