<?xml version='1.0' encoding='UTF-8'?>
<osm version='0.6' upload='false' generator='JOSM'>
  <node id='-139333852' action='modify' lat='55.92459332032' lon='12.30997681349' />
  <node id='-139333853' action='modify' lat='55.92733931423' lon='12.31108467557'>
    <tag k='name' v='hil' />
  </node>
  <node id='-139333855' action='modify' lat='55.92032213454' lon='12.30999290675' />
  <node id='-139333856' action='modify' lat='55.91283724367' lon='12.3137112564' />
  <node id='-139333857' action='modify' lat='55.91050098082' lon='12.31421973691'>
    <tag k='name' v='fav' />
  </node>
  <node id='-139333858' action='modify' lat='55.90462812899' lon='12.3097353909'>
    <tag k='name' v='sth' />
  </node>
  <node id='-139333859' action='modify' lat='55.90326436804' lon='12.30674847865' />
  <node id='-139333860' action='modify' lat='55.89379585546' lon='12.28030030821'>
    <tag k='name' v='bro' />
  </node>
  <node id='-139333861' action='modify' lat='55.89280482905' lon='12.27753247089' />
  <node id='-139333862' action='modify' lat='55.89231170176' lon='12.27615188884' />
  <node id='-139333863' action='modify' lat='55.89094115202' lon='12.27230590099' />
  <node id='-139333864' action='modify' lat='55.88951504679' lon='12.26519896206' />
  <node id='-139333865' action='modify' lat='55.88688187514' lon='12.21589653624' />
  <node id='-139333866' action='modify' lat='55.8868004889' lon='12.21329493351' />
  <node id='-139333867' action='modify' lat='55.88669092843' lon='12.20370309133' />
  <node id='-139333868' action='modify' lat='55.88670327082' lon='12.20196498999'>
    <tag k='name' v='gor' />
  </node>
  <node id='-139333869' action='modify' lat='55.89430607796' lon='12.18724902376' />
  <node id='-139333870' action='modify' lat='55.89634324716' lon='12.18666690062' />
  <node id='-139333871' action='modify' lat='55.90108093626' lon='12.18295544118'>
    <tag k='name' v='bor' />
  </node>
  <node id='-139333872' action='modify' lat='55.90470183759' lon='12.17182829883' />
  <node id='-139333874' action='modify' lat='55.90673102133' lon='12.15464564331' />
  <node id='-139333875' action='modify' lat='55.90685125168' lon='12.1536676739' />
  <node id='-139333876' action='modify' lat='55.90744039457' lon='12.14901127935'>
    <tag k='name' v='ska' />
  </node>
  <node id='-139333877' action='modify' lat='55.91029862592' lon='12.12641974069'>
    <tag k='name' v='str' />
  </node>
  <node id='-139333878' action='modify' lat='55.9111259106' lon='12.11988054929' />
  <node id='-139333879' action='modify' lat='55.91307205578' lon='12.11142691962' />
  <node id='-139333880' action='modify' lat='55.91508396201' lon='12.10502929982' />
  <node id='-139333881' action='modify' lat='55.91567816617' lon='12.10262117203' />
  <node id='-139333882' action='modify' lat='55.91579080377' lon='12.10200881269'>
    <tag k='name' v='gri' />
  </node>
  <node id='-139333883' action='modify' lat='55.9183524811' lon='12.08808165865' />
  <node id='-139333884' action='modify' lat='55.91917625446' lon='12.08496202194' />
  <node id='-139333885' action='modify' lat='55.92248951009' lon='12.07533397278' />
  <node id='-139333886' action='modify' lat='55.9229405005' lon='12.07391038359'>
    <tag k='name' v='ols' />
  </node>
  <node id='-139333887' action='modify' lat='55.92379752594' lon='12.06993222822' />
  <node id='-139333888' action='modify' lat='55.92450582227' lon='12.06535270345' />
  <node id='-139333889' action='modify' lat='55.92523046429' lon='12.06245631977' />
  <node id='-139333890' action='modify' lat='55.92778126563' lon='12.05578634121' />
  <node id='-139333891' action='modify' lat='55.92959112267' lon='12.05269469519' />
  <node id='-139333892' action='modify' lat='55.93517964369' lon='12.04631560561'>
    <tag k='name' v='kre' />
  </node>
  <node id='-139333893' action='modify' lat='55.93600789537' lon='12.04537010873' />
  <node id='-139333894' action='modify' lat='55.93654548226' lon='12.04480186324' />
  <node id='-139333895' action='modify' lat='55.93753647866' lon='12.04416704615' />
  <node id='-139333896' action='modify' lat='55.93890183862' lon='12.0436329429' />
  <node id='-139333897' action='modify' lat='55.94081234817' lon='12.04210411213' />
  <node id='-139333898' action='modify' lat='55.941803664' lon='12.04073847836'>
    <tag k='name' v='krk' />
  </node>
  <node id='-139333899' action='modify' lat='55.94659243517' lon='12.03414098895'>
    <tag k='name' v='lil' />
  </node>
  <node id='-139333900' action='modify' lat='55.95485153838' lon='12.0227605063' />
  <node id='-139333901' action='modify' lat='55.95611691318' lon='12.02137546932' />
  <node id='-139333902' action='modify' lat='55.95653753849' lon='12.02101971971' />
  <node id='-139333903' action='modify' lat='55.95735536963' lon='12.02043911128' />
  <node id='-139333904' action='modify' lat='55.95782502354' lon='12.02014913756' />
  <node id='-139333905' action='modify' lat='55.95817875311' lon='12.01995146415' />
  <node id='-139333906' action='modify' lat='55.95831245504' lon='12.01988238497' />
  <node id='-139333907' action='modify' lat='55.96040836387' lon='12.01981065243' />
  <node id='-139333908' action='modify' lat='55.96080218236' lon='12.01994560477' />
  <node id='-139333909' action='modify' lat='55.96140361668' lon='12.02010729483' />
  <node id='-139333910' action='modify' lat='55.96202015247' lon='12.02025295098' />
  <node id='-139333911' action='modify' lat='55.963699693' lon='12.02032248736' />
  <node id='-139333912' action='modify' lat='55.96848254623' lon='12.01934749223'>
    <tag k='name' v='fre' />
  </node>
  <node id='-139333913' action='modify' lat='55.97057573935' lon='12.01554440792' />
  <node id='-139333914' action='modify' lat='55.97067524056' lon='12.01023827792' />
  <node id='-139333915' action='modify' lat='55.9722579582' lon='12.00473402969' />
  <node id='-139333916' action='modify' lat='55.97533317786' lon='12.00082217333'>
    <tag k='name' v='han' />
  </node>
  <node id='-139333917' action='modify' lat='55.98995994899' lon='11.98221182029' />
  <node id='-139333918' action='modify' lat='55.99187219205' lon='11.97739898622' />
  <node id='-139333919' action='modify' lat='55.99170008135' lon='11.97256515371' />
  <node id='-139333920' action='modify' lat='55.99132272938' lon='11.97078170026'>
    <tag k='name' v='mel' />
  </node>
  <node id='-139333921' action='modify' lat='55.98542513655' lon='11.94291056226'>
    <tag k='name' v='dys' />
  </node>
  <node id='-139333922' action='modify' lat='55.98319572164' lon='11.93237578942' />
  <node id='-139333923' action='modify' lat='55.98216888514' lon='11.92880397272' />
  <node id='-139333924' action='modify' lat='55.97697495871' lon='11.9140666832'>
    <tag k='name' v='ost' />
  </node>
  <node id='-139333925' action='modify' lat='55.97169643416' lon='11.8990913817' />
  <node id='-139333926' action='modify' lat='55.97131869513' lon='11.89808542241' />
  <node id='-139333927' action='modify' lat='55.9666637421' lon='11.88626250508'>
    <tag k='name' v='ull' />
  </node>
  <node id='-139333928' action='modify' lat='55.96391809049' lon='11.87928960812' />
  <node id='-139333929' action='modify' lat='55.96272410621' lon='11.876986889' />
  <node id='-139333930' action='modify' lat='55.960413902' lon='11.87330688181'>
    <tag k='name' v='vib' />
  </node>
  <node id='-139333931' action='modify' lat='55.95810258371' lon='11.86962531977' />
  <node id='-139333932' action='modify' lat='55.95660696243' lon='11.86185042232' />
  <node id='-139333933' action='modify' lat='55.95758214934' lon='11.85828766975' />
  <node id='-139333934' action='modify' lat='55.95809066929' lon='11.85713314387' />
  <node id='-139333935' action='modify' lat='55.95980609837' lon='11.8544179244' />
  <node id='-139333936' action='modify' lat='55.96025749688' lon='11.853900713' />
  <node id='-139333937' action='modify' lat='55.96122142597' lon='11.8533018708' />
  <node id='-139333938' action='modify' lat='55.96282984606' lon='11.85294144561' />
  <node id='-139333939' action='modify' lat='55.96380031023' lon='11.85260659696'>
    <tag k='name' v='hun' />
  </node>
  <node id='-139333940' action='modify' lat='55.96420558742' lon='11.8524196262' />
  <node id='-139333941' action='modify' lat='55.96448743319' lon='11.85227834652' />
  <node id='-139333942' action='modify' lat='55.96498120927' lon='11.85189783643' />
  <node id='-139333943' action='modify' lat='55.96578605174' lon='11.85094079363' />
  <node id='-139333944' action='modify' lat='55.96617857423' lon='11.84857999985' />
  <node id='-139333945' action='modify' lat='55.96589295214' lon='11.84735829347' />
  <node id='-139333946' action='modify' lat='55.96582486667' lon='11.84700031506'>
    <tag k='name' v='huh' />
  </node>
  <node id='-139333947' action='modify' lat='55.96579220908' lon='11.84632141739' />
  <node id='-139333948' action='modify' lat='55.96579475205' lon='11.846186161'>
    <tag k='name' v='huh.f' />
  </node>
  <node id='-139333949' action='modify' lat='55.96581356975' lon='11.84518527674' />
  <way id='-36095440' action='modify'>
    <nd ref='-139333853' />
    <nd ref='-139333852' />
    <tag k='type' v='straight' />
  </way>
  <way id='-36095441' action='modify'>
    <nd ref='-139333852' />
    <nd ref='-139333855' />
  </way>
  <way id='-36095442' action='modify'>
    <nd ref='-139333855' />
    <nd ref='-139333856' />
    <tag k='type' v='straight' />
  </way>
  <way id='-36095443' action='modify'>
    <nd ref='-139333856' />
    <nd ref='-139333857' />
    <nd ref='-139333858' />
    <nd ref='-139333859' />
  </way>
  <way id='-36095444' action='modify'>
    <nd ref='-139333859' />
    <nd ref='-139333860' />
    <nd ref='-139333861' />
    <tag k='type' v='straight' />
  </way>
  <way id='-36095445' action='modify'>
    <nd ref='-139333861' />
    <nd ref='-139333862' />
  </way>
  <way id='-36095446' action='modify'>
    <nd ref='-139333862' />
    <nd ref='-139333863' />
    <tag k='type' v='straight' />
  </way>
  <way id='-36095447' action='modify'>
    <nd ref='-139333863' />
    <nd ref='-139333864' />
  </way>
  <way id='-36095448' action='modify'>
    <nd ref='-139333864' />
    <nd ref='-139333865' />
    <tag k='type' v='straight' />
  </way>
  <way id='-36095449' action='modify'>
    <nd ref='-139333865' />
    <nd ref='-139333866' />
  </way>
  <way id='-36095450' action='modify'>
    <nd ref='-139333866' />
    <nd ref='-139333867' />
    <tag k='type' v='straight' />
  </way>
  <way id='-36095451' action='modify'>
    <nd ref='-139333867' />
    <nd ref='-139333868' />
    <nd ref='-139333869' />
  </way>
  <way id='-36095452' action='modify'>
    <nd ref='-139333869' />
    <nd ref='-139333870' />
    <tag k='type' v='straight' />
  </way>
  <way id='-36095453' action='modify'>
    <nd ref='-139333870' />
    <nd ref='-139333871' />
    <nd ref='-139333872' />
  </way>
  <way id='-36095455' action='modify'>
    <nd ref='-139333872' />
    <nd ref='-139333874' />
    <tag k='type' v='straight' />
  </way>
  <way id='-36095456' action='modify'>
    <nd ref='-139333874' />
    <nd ref='-139333875' />
  </way>
  <way id='-36095457' action='modify'>
    <nd ref='-139333875' />
    <nd ref='-139333876' />
    <nd ref='-139333877' />
    <nd ref='-139333878' />
    <tag k='type' v='straight' />
  </way>
  <way id='-36095458' action='modify'>
    <nd ref='-139333878' />
    <nd ref='-139333879' />
  </way>
  <way id='-36095459' action='modify'>
    <nd ref='-139333879' />
    <nd ref='-139333880' />
    <tag k='type' v='straight' />
  </way>
  <way id='-36095460' action='modify'>
    <nd ref='-139333880' />
    <nd ref='-139333881' />
  </way>
  <way id='-36095461' action='modify'>
    <nd ref='-139333881' />
    <nd ref='-139333882' />
    <nd ref='-139333883' />
    <tag k='type' v='straight' />
  </way>
  <way id='-36095462' action='modify'>
    <nd ref='-139333883' />
    <nd ref='-139333884' />
  </way>
  <way id='-36095463' action='modify'>
    <nd ref='-139333884' />
    <nd ref='-139333885' />
    <tag k='type' v='straight' />
  </way>
  <way id='-36095464' action='modify'>
    <nd ref='-139333885' />
    <nd ref='-139333886' />
    <nd ref='-139333887' />
  </way>
  <way id='-36095465' action='modify'>
    <nd ref='-139333887' />
    <nd ref='-139333888' />
    <tag k='type' v='straight' />
  </way>
  <way id='-36095466' action='modify'>
    <nd ref='-139333888' />
    <nd ref='-139333889' />
  </way>
  <way id='-36095467' action='modify'>
    <nd ref='-139333889' />
    <nd ref='-139333890' />
    <tag k='type' v='straight' />
  </way>
  <way id='-36095468' action='modify'>
    <nd ref='-139333890' />
    <nd ref='-139333891' />
  </way>
  <way id='-36095469' action='modify'>
    <nd ref='-139333891' />
    <nd ref='-139333892' />
    <nd ref='-139333893' />
    <tag k='type' v='straight' />
  </way>
  <way id='-36095470' action='modify'>
    <nd ref='-139333893' />
    <nd ref='-139333894' />
    <nd ref='-139333895' />
  </way>
  <way id='-36095471' action='modify'>
    <nd ref='-139333895' />
    <nd ref='-139333896' />
    <tag k='type' v='straight' />
  </way>
  <way id='-36095472' action='modify'>
    <nd ref='-139333896' />
    <nd ref='-139333897' />
  </way>
  <way id='-36095473' action='modify'>
    <nd ref='-139333897' />
    <nd ref='-139333898' />
    <nd ref='-139333899' />
    <nd ref='-139333900' />
    <tag k='type' v='straight' />
  </way>
  <way id='-36095474' action='modify'>
    <nd ref='-139333900' />
    <nd ref='-139333901' />
  </way>
  <way id='-36095475' action='modify'>
    <nd ref='-139333901' />
    <nd ref='-139333902' />
    <tag k='type' v='straight' />
  </way>
  <way id='-36095476' action='modify'>
    <nd ref='-139333902' />
    <nd ref='-139333903' />
  </way>
  <way id='-36095477' action='modify'>
    <nd ref='-139333903' />
    <nd ref='-139333904' />
    <tag k='type' v='straight' />
  </way>
  <way id='-36095478' action='modify'>
    <nd ref='-139333904' />
    <nd ref='-139333905' />
  </way>
  <way id='-36095479' action='modify'>
    <nd ref='-139333905' />
    <nd ref='-139333906' />
    <tag k='type' v='straight' />
  </way>
  <way id='-36095480' action='modify'>
    <nd ref='-139333906' />
    <nd ref='-139333907' />
  </way>
  <way id='-36095481' action='modify'>
    <nd ref='-139333907' />
    <nd ref='-139333908' />
    <tag k='type' v='straight' />
  </way>
  <way id='-36095482' action='modify'>
    <nd ref='-139333908' />
    <nd ref='-139333909' />
  </way>
  <way id='-36095483' action='modify'>
    <nd ref='-139333909' />
    <nd ref='-139333910' />
    <tag k='type' v='straight' />
  </way>
  <way id='-36095484' action='modify'>
    <nd ref='-139333910' />
    <nd ref='-139333911' />
  </way>
  <way id='-36095485' action='modify'>
    <nd ref='-139333911' />
    <nd ref='-139333912' />
    <tag k='type' v='straight' />
  </way>
  <way id='-36095486' action='modify'>
    <nd ref='-139333912' />
    <nd ref='-139333913' />
  </way>
  <way id='-36095487' action='modify'>
    <nd ref='-139333913' />
    <nd ref='-139333914' />
    <tag k='type' v='straight' />
  </way>
  <way id='-36095488' action='modify'>
    <nd ref='-139333914' />
    <nd ref='-139333915' />
  </way>
  <way id='-36095489' action='modify'>
    <nd ref='-139333915' />
    <nd ref='-139333916' />
    <nd ref='-139333917' />
    <tag k='type' v='straight' />
  </way>
  <way id='-36095490' action='modify'>
    <nd ref='-139333917' />
    <nd ref='-139333918' />
    <nd ref='-139333919' />
  </way>
  <way id='-36095491' action='modify'>
    <nd ref='-139333919' />
    <nd ref='-139333920' />
    <nd ref='-139333921' />
    <nd ref='-139333922' />
    <tag k='type' v='straight' />
  </way>
  <way id='-36095492' action='modify'>
    <nd ref='-139333922' />
    <nd ref='-139333923' />
  </way>
  <way id='-36095493' action='modify'>
    <nd ref='-139333923' />
    <nd ref='-139333924' />
    <nd ref='-139333925' />
    <tag k='type' v='straight' />
  </way>
  <way id='-36095494' action='modify'>
    <nd ref='-139333925' />
    <nd ref='-139333926' />
  </way>
  <way id='-36095495' action='modify'>
    <nd ref='-139333926' />
    <nd ref='-139333927' />
    <nd ref='-139333928' />
    <tag k='type' v='straight' />
  </way>
  <way id='-36095496' action='modify'>
    <nd ref='-139333928' />
    <nd ref='-139333929' />
  </way>
  <way id='-36095497' action='modify'>
    <nd ref='-139333929' />
    <nd ref='-139333930' />
    <nd ref='-139333931' />
    <tag k='type' v='straight' />
  </way>
  <way id='-36095498' action='modify'>
    <nd ref='-139333931' />
    <nd ref='-139333932' />
    <nd ref='-139333933' />
  </way>
  <way id='-36095499' action='modify'>
    <nd ref='-139333933' />
    <nd ref='-139333934' />
    <tag k='type' v='straight' />
  </way>
  <way id='-36095500' action='modify'>
    <nd ref='-139333934' />
    <nd ref='-139333935' />
  </way>
  <way id='-36095501' action='modify'>
    <nd ref='-139333935' />
    <nd ref='-139333936' />
    <tag k='type' v='straight' />
  </way>
  <way id='-36095502' action='modify'>
    <nd ref='-139333936' />
    <nd ref='-139333937' />
  </way>
  <way id='-36095503' action='modify'>
    <nd ref='-139333937' />
    <nd ref='-139333938' />
    <tag k='type' v='straight' />
  </way>
  <way id='-36095504' action='modify'>
    <nd ref='-139333938' />
    <nd ref='-139333939' />
    <nd ref='-139333940' />
  </way>
  <way id='-36095505' action='modify'>
    <nd ref='-139333940' />
    <nd ref='-139333941' />
    <tag k='type' v='straight' />
  </way>
  <way id='-36095506' action='modify'>
    <nd ref='-139333941' />
    <nd ref='-139333942' />
  </way>
  <way id='-36095507' action='modify'>
    <nd ref='-139333942' />
    <nd ref='-139333943' />
    <tag k='type' v='straight' />
  </way>
  <way id='-36095508' action='modify'>
    <nd ref='-139333943' />
    <nd ref='-139333944' />
  </way>
  <way id='-36095509' action='modify'>
    <nd ref='-139333944' />
    <nd ref='-139333945' />
    <tag k='type' v='straight' />
  </way>
  <way id='-36095510' action='modify'>
    <nd ref='-139333945' />
    <nd ref='-139333946' />
    <nd ref='-139333947' />
  </way>
  <way id='-36095511' action='modify'>
    <nd ref='-139333947' />
    <nd ref='-139333948' />
    <nd ref='-139333949' />
    <tag k='type' v='straight' />
  </way>
  <relation id='-14465670' action='modify'>
    <member type='way' ref='-36095440' role='' />
    <member type='way' ref='-36095441' role='' />
    <member type='way' ref='-36095442' role='' />
    <member type='way' ref='-36095443' role='' />
    <member type='way' ref='-36095444' role='' />
    <member type='way' ref='-36095445' role='' />
    <member type='way' ref='-36095446' role='' />
    <member type='way' ref='-36095447' role='' />
    <member type='way' ref='-36095448' role='' />
    <member type='way' ref='-36095449' role='' />
    <member type='way' ref='-36095450' role='' />
    <member type='way' ref='-36095451' role='' />
    <member type='way' ref='-36095452' role='' />
    <member type='way' ref='-36095453' role='' />
    <member type='way' ref='-36095455' role='' />
    <member type='way' ref='-36095456' role='' />
    <member type='way' ref='-36095457' role='' />
    <member type='way' ref='-36095458' role='' />
    <member type='way' ref='-36095459' role='' />
    <member type='way' ref='-36095460' role='' />
    <member type='way' ref='-36095461' role='' />
    <member type='way' ref='-36095462' role='' />
    <member type='way' ref='-36095463' role='' />
    <member type='way' ref='-36095464' role='' />
    <member type='way' ref='-36095465' role='' />
    <member type='way' ref='-36095466' role='' />
    <member type='way' ref='-36095467' role='' />
    <member type='way' ref='-36095468' role='' />
    <member type='way' ref='-36095469' role='' />
    <member type='way' ref='-36095470' role='' />
    <member type='way' ref='-36095471' role='' />
    <member type='way' ref='-36095472' role='' />
    <member type='way' ref='-36095473' role='' />
    <member type='way' ref='-36095474' role='' />
    <member type='way' ref='-36095475' role='' />
    <member type='way' ref='-36095476' role='' />
    <member type='way' ref='-36095477' role='' />
    <member type='way' ref='-36095478' role='' />
    <member type='way' ref='-36095479' role='' />
    <member type='way' ref='-36095480' role='' />
    <member type='way' ref='-36095481' role='' />
    <member type='way' ref='-36095482' role='' />
    <member type='way' ref='-36095483' role='' />
    <member type='way' ref='-36095484' role='' />
    <member type='way' ref='-36095485' role='' />
    <member type='way' ref='-36095486' role='' />
    <member type='way' ref='-36095487' role='' />
    <member type='way' ref='-36095488' role='' />
    <member type='way' ref='-36095489' role='' />
    <member type='way' ref='-36095490' role='' />
    <member type='way' ref='-36095491' role='' />
    <member type='way' ref='-36095492' role='' />
    <member type='way' ref='-36095493' role='' />
    <member type='way' ref='-36095494' role='' />
    <member type='way' ref='-36095495' role='' />
    <member type='way' ref='-36095496' role='' />
    <member type='way' ref='-36095497' role='' />
    <member type='way' ref='-36095498' role='' />
    <member type='way' ref='-36095499' role='' />
    <member type='way' ref='-36095500' role='' />
    <member type='way' ref='-36095501' role='' />
    <member type='way' ref='-36095502' role='' />
    <member type='way' ref='-36095503' role='' />
    <member type='way' ref='-36095504' role='' />
    <member type='way' ref='-36095505' role='' />
    <member type='way' ref='-36095506' role='' />
    <member type='way' ref='-36095507' role='' />
    <member type='way' ref='-36095508' role='' />
    <member type='way' ref='-36095509' role='' />
    <member type='way' ref='-36095510' role='' />
    <member type='way' ref='-36095511' role='' />
    <tag k='key' v='path.dk.hfh' />
    <tag k='name' v='DK HFH' />
    <tag k='type' v='path' />
  </relation>
</osm>
