<?xml version='1.0' encoding='UTF-8'?>
<osm version='0.6' upload='false' generator='JOSM'>
  <node id='-181814666' action='modify' lat='57.456433099' lon='9.98541438885'>
    <tag k='name' v='hjo' />
  </node>
  <node id='-181814667' action='modify' lat='57.45643630073' lon='9.98550943897' />
  <node id='-181814668' action='modify' lat='57.45596970985' lon='9.98158201442' />
  <node id='-181814669' action='modify' lat='57.45580449882' lon='9.98074114189' />
  <node id='-181814670' action='modify' lat='57.45454586739' lon='9.97610209882'>
    <tag k='name' v='kva' />
  </node>
  <node id='-181814671' action='modify' lat='57.45480888889' lon='9.9720400545' />
  <node id='-181814672' action='modify' lat='57.45556930701' lon='9.96943294734' />
  <node id='-181814673' action='modify' lat='57.45817798299' lon='9.96479071543' />
  <node id='-181814674' action='modify' lat='57.46020220255' lon='9.9629917294'>
    <tag k='name' v='teg' />
  </node>
  <node id='-181814675' action='modify' lat='57.46187008976' lon='9.96150935202' />
  <node id='-181814676' action='modify' lat='57.47079093451' lon='9.96273279056' />
  <node id='-181814677' action='modify' lat='57.47233632939' lon='9.96472701296' />
  <node id='-181814678' action='modify' lat='57.47327348897' lon='9.9658051549'>
    <tag k='name' v='her' />
  </node>
  <node id='-181814680' action='modify' lat='57.48043580973' lon='9.96859443816'>
    <tag k='name' v='vel' />
  </node>
  <node id='-181814681' action='modify' lat='57.48150279007' lon='9.9688442038' />
  <node id='-181814682' action='modify' lat='57.48679194418' lon='9.96608421072' />
  <node id='-181814683' action='modify' lat='57.49261888893' lon='9.95676569124'>
    <tag k='name' v='lan' />
  </node>
  <node id='-181814684' action='modify' lat='57.49693341414' lon='9.94986489281' />
  <node id='-181814685' action='modify' lat='57.50097523432' lon='9.94749650292' />
  <node id='-181814686' action='modify' lat='57.50178709752' lon='9.94761996817'>
    <tag k='name' v='vid' />
  </node>
  <node id='-181814687' action='modify' lat='57.52513251732' lon='9.95117143157'>
    <tag k='name' v='son' />
  </node>
  <node id='-181814688' action='modify' lat='57.52630262108' lon='9.9513494955' />
  <node id='-181814689' action='modify' lat='57.52891848928' lon='9.9505743371' />
  <node id='-181814690' action='modify' lat='57.52953840705' lon='9.95007276468' />
  <node id='-181814691' action='modify' lat='57.53160040537' lon='9.9494156228' />
  <node id='-181814692' action='modify' lat='57.53293577232' lon='9.94954089178'>
    <tag k='name' v='tor' />
  </node>
  <node id='-181814693' action='modify' lat='57.53721846999' lon='9.94994267687' />
  <node id='-181814694' action='modify' lat='57.54136667174' lon='9.95232582025' />
  <node id='-181814695' action='modify' lat='57.54502011069' lon='9.9566758721'>
    <tag k='name' v='rau' />
  </node>
  <node id='-181814696' action='modify' lat='57.55643025457' lon='9.97026443347' />
  <node id='-181814697' action='modify' lat='57.55821159542' lon='9.97179329261' />
  <node id='-181814698' action='modify' lat='57.55946133323' lon='9.97249622454'>
    <tag k='name' v='hor' />
  </node>
  <node id='-181814699' action='modify' lat='57.5615495763' lon='9.97367083892' />
  <node id='-181814700' action='modify' lat='57.56250631181' lon='9.97411474451' />
  <node id='-181814701' action='modify' lat='57.57222724023' lon='9.97769220617'>
    <tag k='name' v='emm' />
  </node>
  <node id='-181814702' action='modify' lat='57.57432028291' lon='9.97846260533' />
  <node id='-181814703' action='modify' lat='57.57767871743' lon='9.97856486555' />
  <node id='-181814704' action='modify' lat='57.58524574243' lon='9.97638385861'>
    <tag k='name' v='lil' />
  </node>
  <node id='-181814705' action='modify' lat='57.58560851448' lon='9.97627928719' />
  <node id='-181814706' action='modify' lat='57.58924265237' lon='9.97267640859' />
  <node id='-181814707' action='modify' lat='57.58940186823' lon='9.97235454485' />
  <node id='-181814708' action='modify' lat='57.59056452312' lon='9.96981784634' />
  <node id='-181814709' action='modify' lat='57.59065437128' lon='9.96959522299' />
  <node id='-181814710' action='modify' lat='57.59150576182' lon='9.96599301562' />
  <node id='-181814711' action='modify' lat='57.59157476344' lon='9.96539085969'>
    <tag k='name' v='col' />
  </node>
  <node id='-181814712' action='modify' lat='57.59176379847' lon='9.96314048633'>
    <tag k='name' v='hir' />
  </node>
  <node id='-181814713' action='modify' lat='57.59185795695' lon='9.96135413378' />
  <node id='-181814714' action='modify' lat='57.59194852068' lon='9.95777874917'>
    <tag k='name' v='hir.f' />
  </node>
  <node id='-181814737' action='modify' lat='57.45551201767' lon='9.97958033658' />
  <node id='-181814738' action='modify' lat='57.45487106088' lon='9.97743108679' />
  <node id='-181814761' action='modify' lat='57.45640970018' lon='9.97768523937'>
    <tag k='name' v='hjv' />
  </node>
  <node id='-181814762' action='modify' lat='57.45690108425' lon='9.97812866628' />
  <node id='-181814763' action='modify' lat='57.46081100159' lon='9.97636913717' />
  <node id='-181814764' action='modify' lat='57.46231426937' lon='9.97142849207' />
  <node id='-181814765' action='modify' lat='57.46852606651' lon='9.96580702372' />
  <node id='-181814766' action='modify' lat='57.47646090842' lon='9.96766403183'>
    <tag k='name' v='vel.yv' />
  </node>
  <way id='-38834272' action='modify'>
    <nd ref='-181814667' />
    <nd ref='-181814666' />
    <tag k='type' v='straight' />
  </way>
  <way id='-38834273' action='modify'>
    <nd ref='-181814666' />
    <nd ref='-181814668' />
  </way>
  <way id='-38834274' action='modify'>
    <nd ref='-181814668' />
    <nd ref='-181814669' />
    <tag k='type' v='straight' />
  </way>
  <way id='-38834275' action='modify'>
    <nd ref='-181814738' />
    <nd ref='-181814670' />
    <nd ref='-181814671' />
  </way>
  <way id='-38834276' action='modify'>
    <nd ref='-181814671' />
    <nd ref='-181814672' />
    <tag k='type' v='straight' />
  </way>
  <way id='-38834277' action='modify'>
    <nd ref='-181814672' />
    <nd ref='-181814673' />
  </way>
  <way id='-38834278' action='modify'>
    <nd ref='-181814673' />
    <nd ref='-181814674' />
    <nd ref='-181814675' />
    <tag k='type' v='straight' />
  </way>
  <way id='-38834279' action='modify'>
    <nd ref='-181814675' />
    <nd ref='-181814676' />
  </way>
  <way id='-38834280' action='modify'>
    <nd ref='-181814676' />
    <nd ref='-181814677' />
    <tag k='type' v='straight' />
  </way>
  <way id='-38834281' action='modify'>
    <nd ref='-181814677' />
    <nd ref='-181814678' />
    <nd ref='-181814766' />
  </way>
  <way id='-38834282' action='modify'>
    <nd ref='-181814766' />
    <nd ref='-181814680' />
    <nd ref='-181814681' />
    <tag k='type' v='straight' />
  </way>
  <way id='-38834283' action='modify'>
    <nd ref='-181814681' />
    <nd ref='-181814682' />
  </way>
  <way id='-38834284' action='modify'>
    <nd ref='-181814682' />
    <nd ref='-181814683' />
    <nd ref='-181814684' />
    <tag k='type' v='straight' />
  </way>
  <way id='-38834285' action='modify'>
    <nd ref='-181814684' />
    <nd ref='-181814685' />
  </way>
  <way id='-38834286' action='modify'>
    <nd ref='-181814685' />
    <nd ref='-181814686' />
    <nd ref='-181814687' />
    <nd ref='-181814688' />
    <tag k='type' v='straight' />
  </way>
  <way id='-38834287' action='modify'>
    <nd ref='-181814688' />
    <nd ref='-181814689' />
  </way>
  <way id='-38834288' action='modify'>
    <nd ref='-181814689' />
    <nd ref='-181814690' />
    <tag k='type' v='straight' />
  </way>
  <way id='-38834289' action='modify'>
    <nd ref='-181814690' />
    <nd ref='-181814691' />
  </way>
  <way id='-38834290' action='modify'>
    <nd ref='-181814691' />
    <nd ref='-181814692' />
    <nd ref='-181814693' />
    <tag k='type' v='straight' />
  </way>
  <way id='-38834291' action='modify'>
    <nd ref='-181814693' />
    <nd ref='-181814694' />
  </way>
  <way id='-38834292' action='modify'>
    <nd ref='-181814694' />
    <nd ref='-181814695' />
    <nd ref='-181814696' />
    <tag k='type' v='straight' />
  </way>
  <way id='-38834293' action='modify'>
    <nd ref='-181814696' />
    <nd ref='-181814697' />
  </way>
  <way id='-38834294' action='modify'>
    <nd ref='-181814697' />
    <nd ref='-181814698' />
    <nd ref='-181814699' />
    <tag k='type' v='straight' />
  </way>
  <way id='-38834295' action='modify'>
    <nd ref='-181814699' />
    <nd ref='-181814700' />
  </way>
  <way id='-38834296' action='modify'>
    <nd ref='-181814700' />
    <nd ref='-181814701' />
    <nd ref='-181814702' />
    <tag k='type' v='straight' />
  </way>
  <way id='-38834297' action='modify'>
    <nd ref='-181814702' />
    <nd ref='-181814703' />
  </way>
  <way id='-38834298' action='modify'>
    <nd ref='-181814703' />
    <nd ref='-181814704' />
    <nd ref='-181814705' />
    <tag k='type' v='straight' />
  </way>
  <way id='-38834299' action='modify'>
    <nd ref='-181814705' />
    <nd ref='-181814706' />
  </way>
  <way id='-38834300' action='modify'>
    <nd ref='-181814706' />
    <nd ref='-181814707' />
    <tag k='type' v='straight' />
  </way>
  <way id='-38834301' action='modify'>
    <nd ref='-181814707' />
    <nd ref='-181814708' />
  </way>
  <way id='-38834302' action='modify'>
    <nd ref='-181814708' />
    <nd ref='-181814709' />
    <tag k='type' v='straight' />
  </way>
  <way id='-38834303' action='modify'>
    <nd ref='-181814709' />
    <nd ref='-181814710' />
  </way>
  <way id='-38834304' action='modify'>
    <nd ref='-181814710' />
    <nd ref='-181814711' />
    <tag k='type' v='straight' />
  </way>
  <way id='-38834305' action='modify'>
    <nd ref='-181814711' />
    <nd ref='-181814712' />
    <nd ref='-181814713' />
  </way>
  <way id='-38834306' action='modify'>
    <nd ref='-181814713' />
    <nd ref='-181814714' />
    <tag k='type' v='straight' />
  </way>
  <way id='-38834333' action='modify'>
    <nd ref='-181814669' />
    <nd ref='-181814737' />
  </way>
  <way id='-38834334' action='modify'>
    <nd ref='-181814737' />
    <nd ref='-181814738' />
    <tag k='type' v='straight' />
  </way>
  <way id='-38834365' action='modify'>
    <nd ref='-181814761' />
    <nd ref='-181814762' />
    <tag k='type' v='straight' />
  </way>
  <way id='-38834366' action='modify'>
    <nd ref='-181814762' />
    <nd ref='-181814763' />
  </way>
  <way id='-38834367' action='modify'>
    <nd ref='-181814763' />
    <nd ref='-181814764' />
    <tag k='type' v='straight' />
  </way>
  <way id='-38834368' action='modify'>
    <nd ref='-181814764' />
    <nd ref='-181814765' />
  </way>
  <way id='-38834369' action='modify'>
    <nd ref='-181814765' />
    <nd ref='-181814766' />
    <tag k='type' v='straight' />
  </way>
  <relation id='-14491105' action='modify'>
    <member type='way' ref='-38834272' role='' />
    <member type='way' ref='-38834273' role='' />
    <member type='way' ref='-38834274' role='' />
    <member type='way' ref='-38834333' role='' />
    <member type='way' ref='-38834334' role='' />
    <member type='way' ref='-38834275' role='' />
    <member type='way' ref='-38834276' role='' />
    <member type='way' ref='-38834277' role='' />
    <member type='way' ref='-38834278' role='' />
    <member type='way' ref='-38834279' role='' />
    <member type='way' ref='-38834280' role='' />
    <member type='way' ref='-38834281' role='' />
    <member type='way' ref='-38834282' role='' />
    <member type='way' ref='-38834283' role='' />
    <member type='way' ref='-38834284' role='' />
    <member type='way' ref='-38834285' role='' />
    <member type='way' ref='-38834286' role='' />
    <member type='way' ref='-38834287' role='' />
    <member type='way' ref='-38834288' role='' />
    <member type='way' ref='-38834289' role='' />
    <member type='way' ref='-38834290' role='' />
    <member type='way' ref='-38834291' role='' />
    <member type='way' ref='-38834292' role='' />
    <member type='way' ref='-38834293' role='' />
    <member type='way' ref='-38834294' role='' />
    <member type='way' ref='-38834295' role='' />
    <member type='way' ref='-38834296' role='' />
    <member type='way' ref='-38834297' role='' />
    <member type='way' ref='-38834298' role='' />
    <member type='way' ref='-38834299' role='' />
    <member type='way' ref='-38834300' role='' />
    <member type='way' ref='-38834301' role='' />
    <member type='way' ref='-38834302' role='' />
    <member type='way' ref='-38834303' role='' />
    <member type='way' ref='-38834304' role='' />
    <member type='way' ref='-38834305' role='' />
    <member type='way' ref='-38834306' role='' />
    <tag k='key' v='path.dk.hhh' />
    <tag k='name' v='DK HHH' />
    <tag k='type' v='path' />
  </relation>
  <relation id='-14491110' action='modify'>
    <member type='way' ref='-38834365' role='' />
    <member type='way' ref='-38834366' role='' />
    <member type='way' ref='-38834367' role='' />
    <member type='way' ref='-38834368' role='' />
    <member type='way' ref='-38834369' role='' />
    <tag k='key' v='path.dk.hhh.hjv' />
    <tag k='name' v='DK HHH (Hjv)' />
    <tag k='type' v='path' />
  </relation>
</osm>
