<?xml version='1.0' encoding='UTF-8'?>
<osm version='0.6' upload='false' generator='JOSM'>
  <node id='-139145241' action='modify' lat='55.73106690204' lon='12.56678939818'>
    <tag k='name' v='hel' />
  </node>
  <node id='-139145242' action='modify' lat='55.7329035255' lon='12.56625628215' />
  <node id='-139145243' action='modify' lat='55.73601013068' lon='12.56443530053' />
  <node id='-139145244' action='modify' lat='55.73919995191' lon='12.56127899885' />
  <node id='-139145245' action='modify' lat='55.74247278647' lon='12.55804028802'>
    <tag k='name' v='ber' />
  </node>
  <node id='-139145247' action='modify' lat='55.74577322731' lon='12.55477398366' />
  <node id='-139145248' action='modify' lat='55.74630615624' lon='12.55421340197' />
  <node id='-139145249' action='modify' lat='55.74811021008' lon='12.55219638079' />
  <node id='-139145250' action='modify' lat='55.75164561171' lon='12.54616945714' />
  <node id='-139145251' action='modify' lat='55.75352352585' lon='12.54161094263'>
    <tag k='name' v='gen' />
  </node>
  <node id='-139145252' action='modify' lat='55.75938856157' lon='12.52737253636' />
  <node id='-139145253' action='modify' lat='55.75975529475' lon='12.52644717425' />
  <node id='-139145254' action='modify' lat='55.76160701826' lon='12.52147704095' />
  <node id='-139145255' action='modify' lat='55.7619431951' lon='12.52053597212' />
  <node id='-139145256' action='modify' lat='55.76199375936' lon='12.52039101586'>
    <tag k='name' v='jag' />
  </node>
  <node id='-139145257' action='modify' lat='55.7624807839' lon='12.51897453994' />
  <node id='-139145258' action='modify' lat='55.76341187358' lon='12.51613944501' />
  <node id='-139145259' action='modify' lat='55.76378007795' lon='12.51509874791' />
  <node id='-139145260' action='modify' lat='55.76653093746' lon='12.50751077861' />
  <node id='-139145261' action='modify' lat='55.76735781724' lon='12.50525772303' />
  <node id='-139145262' action='modify' lat='55.76837826679' lon='12.50252069925'>
    <tag k='name' v='lyn' />
  </node>
  <node id='-139145263' action='modify' lat='55.76940381665' lon='12.49976992339' />
  <node id='-139145264' action='modify' lat='55.7725586097' lon='12.4948641631' />
  <node id='-139145265' action='modify' lat='55.77655642632' lon='12.49155968159' />
  <node id='-139145266' action='modify' lat='55.77958091697' lon='12.48727887601' />
  <node id='-139145267' action='modify' lat='55.7808497445' lon='12.4844720963'>
    <tag k='name' v='sor' />
  </node>
  <node id='-139145268' action='modify' lat='55.78147242422' lon='12.48309462994' />
  <node id='-139145269' action='modify' lat='55.78642248947' lon='12.47757196158' />
  <node id='-139145270' action='modify' lat='55.79000097155' lon='12.47588086259'>
    <tag k='name' v='vir.1928' />
  </node>
  <node id='-139145271' action='modify' lat='55.79689454575' lon='12.472622698'>
    <tag k='name' v='vir' />
  </node>
  <node id='-139145272' action='modify' lat='55.79710325686' lon='12.47252404422' />
  <node id='-139145273' action='modify' lat='55.80080306832' lon='12.47023611993' />
  <node id='-139145274' action='modify' lat='55.80283223698' lon='12.46870189637' />
  <node id='-139145275' action='modify' lat='55.80434499858' lon='12.4679857479' />
  <node id='-139145276' action='modify' lat='55.80513489797' lon='12.46785431966' />
  <node id='-139145277' action='modify' lat='55.8069256792' lon='12.46808767185' />
  <node id='-139145278' action='modify' lat='55.80775146732' lon='12.46837376597'>
    <tag k='name' v='hol' />
  </node>
  <node id='-139145279' action='modify' lat='55.80792052207' lon='12.4684323357' />
  <node id='-139145280' action='modify' lat='55.80857243258' lon='12.46870726079' />
  <node id='-139145281' action='modify' lat='55.809401435' lon='12.46905594796' />
  <node id='-139145282' action='modify' lat='55.81429068283' lon='12.46489584178' />
  <node id='-139145283' action='modify' lat='55.81465539248' lon='12.46350645751' />
  <node id='-139145284' action='modify' lat='55.8168933087' lon='12.45955824584' />
  <node id='-139145285' action='modify' lat='55.82405980255' lon='12.45373248786' />
  <node id='-139145286' action='modify' lat='55.82831748513' lon='12.44826882809' />
  <node id='-139145287' action='modify' lat='55.8299173855' lon='12.44525670737' />
  <node id='-139145288' action='modify' lat='55.83163321304' lon='12.44231700629' />
  <node id='-139145289' action='modify' lat='55.83714474038' lon='12.43359178036' />
  <node id='-139145290' action='modify' lat='55.83923225897' lon='12.42835342616' />
  <node id='-139145291' action='modify' lat='55.83967505153' lon='12.42656171054' />
  <node id='-139145292' action='modify' lat='55.84006369243' lon='12.42501825686' />
  <node id='-139145293' action='modify' lat='55.84041868715' lon='12.42365850614'>
    <tag k='name' v='bir' />
  </node>
  <node id='-139145294' action='modify' lat='55.84314586449' lon='12.41321207369' />
  <node id='-139145295' action='modify' lat='55.84336328753' lon='12.41238623589' />
  <node id='-139145296' action='modify' lat='55.84774082523' lon='12.39613741368' />
  <node id='-139145297' action='modify' lat='55.85077065143' lon='12.38852305403'>
    <tag k='name' v='hov' />
  </node>
  <node id='-139145298' action='modify' lat='55.85134699176' lon='12.38758384913' />
  <node id='-139145299' action='modify' lat='55.85824520554' lon='12.37690865725' />
  <node id='-139145300' action='modify' lat='55.86096681766' lon='12.37381875247' />
  <node id='-139145301' action='modify' lat='55.8627520194' lon='12.37247228354' />
  <node id='-139145302' action='modify' lat='55.86657050951' lon='12.36562594637' />
  <node id='-139145303' action='modify' lat='55.8668910831' lon='12.36423924431' />
  <node id='-139145304' action='modify' lat='55.87069260667' lon='12.35721493888'>
    <tag k='name' v='all' />
  </node>
  <node id='-139145305' action='modify' lat='55.87150674934' lon='12.35641658038' />
  <node id='-139145306' action='modify' lat='55.8992253164' lon='12.33134865224' />
  <node id='-139145307' action='modify' lat='55.90273498096' lon='12.32639729708' />
  <node id='-139145308' action='modify' lat='55.90496106267' lon='12.32130378351' />
  <node id='-139145309' action='modify' lat='55.90960452631' lon='12.31551825732' />
  <node id='-139145310' action='modify' lat='55.91022305172' lon='12.31521033807'>
    <tag k='name' v='fav' />
  </node>
  <node id='-139145312' action='modify' lat='55.92027103376' lon='12.31020748347' />
  <node id='-139145313' action='modify' lat='55.92453621397' lon='12.31022357672' />
  <node id='-139145314' action='modify' lat='55.92733931423' lon='12.3113314388'>
    <tag k='name' v='hil' />
  </node>
  <node id='-139145315' action='modify' lat='55.92823142151' lon='12.31168404087' />
  <node id='-139145316' action='modify' lat='55.93041772716' lon='12.31225668848' />
  <node id='-139145317' action='modify' lat='55.93119905503' lon='12.31251418322' />
  <node id='-139145318' action='modify' lat='55.93352003511' lon='12.31339864366' />
  <node id='-139145319' action='modify' lat='55.93401433844' lon='12.31359846823' />
  <node id='-139145320' action='modify' lat='55.93641101921' lon='12.31376409464' />
  <node id='-139145321' action='modify' lat='55.93665552414' lon='12.31368631057' />
  <node id='-139145322' action='modify' lat='55.9428404978' lon='12.31983527407' />
  <node id='-139145323' action='modify' lat='55.95029315279' lon='12.35840677679' />
  <node id='-139145324' action='modify' lat='55.95103052772' lon='12.3616482304' />
  <node id='-139145325' action='modify' lat='55.95313803918' lon='12.36948654008'>
    <tag k='name' v='gro' />
  </node>
  <node id='-139145326' action='modify' lat='55.95349260496' lon='12.37080529198' />
  <node id='-139145327' action='modify' lat='55.95458782425' lon='12.37428744467' />
  <node id='-139145328' action='modify' lat='55.95691510858' lon='12.38068025832' />
  <node id='-139145329' action='modify' lat='55.96037157651' lon='12.3863233203' />
  <node id='-139145330' action='modify' lat='55.96623722687' lon='12.39196807264'>
    <tag k='name' v='kra' />
  </node>
  <node id='-139145331' action='modify' lat='55.974100191' lon='12.39953626319' />
  <node id='-139145332' action='modify' lat='55.9766312244' lon='12.40466877252' />
  <node id='-139145333' action='modify' lat='55.97706100261' lon='12.40686172332'>
    <tag k='name' v='fre' />
  </node>
  <node id='-139145334' action='modify' lat='55.9807774034' lon='12.42582573944' />
  <node id='-139145335' action='modify' lat='55.98152113554' lon='12.43505414253' />
  <node id='-139145336' action='modify' lat='55.98118857954' lon='12.44713802677' />
  <node id='-139145337' action='modify' lat='55.981237644' lon='12.45108216254'>
    <tag k='name' v='lan' />
  </node>
  <node id='-139145338' action='modify' lat='55.98170595179' lon='12.45545557235' />
  <node id='-139145339' action='modify' lat='55.98276876135' lon='12.46240099578' />
  <node id='-139145340' action='modify' lat='55.98327074973' lon='12.46621685612' />
  <node id='-139145341' action='modify' lat='55.98572895791' lon='12.49079443123' />
  <node id='-139145342' action='modify' lat='55.98882066223' lon='12.50020955921' />
  <node id='-139145343' action='modify' lat='55.99077111589' lon='12.50311392241'>
    <tag k='name' v='kvi' />
  </node>
  <node id='-139145344' action='modify' lat='55.99476897377' lon='12.50906747305' />
  <node id='-139145345' action='modify' lat='55.99872393295' lon='12.5185013086' />
  <node id='-139145346' action='modify' lat='56.00217759439' lon='12.53264790975'>
    <tag k='name' v='mor' />
  </node>
  <node id='-139145347' action='modify' lat='56.0070041351' lon='12.5524201032' />
  <node id='-139145348' action='modify' lat='56.00750762318' lon='12.55466656129' />
  <node id='-139145349' action='modify' lat='56.00819564103' lon='12.55819158473'>
    <tag k='name' v='sne.zh' />
  </node>
  <node id='-139145350' action='modify' lat='56.0088915381' lon='12.56953511264' />
  <node id='-139145351' action='modify' lat='56.008558806' lon='12.57467697115' />
  <node id='-139145352' action='modify' lat='56.00861191159' lon='12.57840811322' />
  <node id='-139145353' action='modify' lat='56.00869159412' lon='12.5791949235' />
  <node id='-139145354' action='modify' lat='56.00901146121' lon='12.58139063821' />
  <node id='-139145355' action='modify' lat='56.00949704453' lon='12.58380557514'>
    <tag k='name' v='sne' />
  </node>
  <way id='-36084157' action='modify'>
    <nd ref='-139145241' />
    <nd ref='-139145242' />
    <tag k='type' v='straight' />
  </way>
  <way id='-36084158' action='modify'>
    <nd ref='-139145242' />
    <nd ref='-139145243' />
  </way>
  <way id='-36084160' action='modify'>
    <nd ref='-139145243' />
    <nd ref='-139145244' />
    <nd ref='-139145245' />
    <nd ref='-139145247' />
    <tag k='type' v='straight' />
  </way>
  <way id='-36084161' action='modify'>
    <nd ref='-139145247' />
    <nd ref='-139145248' />
  </way>
  <way id='-36084162' action='modify'>
    <nd ref='-139145248' />
    <nd ref='-139145249' />
    <tag k='type' v='straight' />
  </way>
  <way id='-36084163' action='modify'>
    <nd ref='-139145249' />
    <nd ref='-139145250' />
  </way>
  <way id='-36084164' action='modify'>
    <nd ref='-139145250' />
    <nd ref='-139145251' />
    <nd ref='-139145252' />
    <tag k='type' v='straight' />
  </way>
  <way id='-36084165' action='modify'>
    <nd ref='-139145252' />
    <nd ref='-139145253' />
  </way>
  <way id='-36084166' action='modify'>
    <nd ref='-139145253' />
    <nd ref='-139145254' />
    <tag k='type' v='straight' />
  </way>
  <way id='-36084167' action='modify'>
    <nd ref='-139145254' />
    <nd ref='-139145255' />
  </way>
  <way id='-36084168' action='modify'>
    <nd ref='-139145255' />
    <nd ref='-139145256' />
    <tag k='type' v='straight' />
  </way>
  <way id='-36084169' action='modify'>
    <nd ref='-139145256' />
    <nd ref='-139145257' />
  </way>
  <way id='-36084170' action='modify'>
    <nd ref='-139145257' />
    <nd ref='-139145258' />
    <tag k='type' v='straight' />
  </way>
  <way id='-36084171' action='modify'>
    <nd ref='-139145258' />
    <nd ref='-139145259' />
  </way>
  <way id='-36084172' action='modify'>
    <nd ref='-139145259' />
    <nd ref='-139145260' />
    <tag k='type' v='straight' />
  </way>
  <way id='-36084173' action='modify'>
    <nd ref='-139145260' />
    <nd ref='-139145261' />
  </way>
  <way id='-36084174' action='modify'>
    <nd ref='-139145261' />
    <nd ref='-139145262' />
    <nd ref='-139145263' />
    <tag k='type' v='straight' />
  </way>
  <way id='-36084175' action='modify'>
    <nd ref='-139145263' />
    <nd ref='-139145264' />
  </way>
  <way id='-36084176' action='modify'>
    <nd ref='-139145264' />
    <nd ref='-139145265' />
    <tag k='type' v='straight' />
  </way>
  <way id='-36084177' action='modify'>
    <nd ref='-139145265' />
    <nd ref='-139145266' />
  </way>
  <way id='-36084178' action='modify'>
    <nd ref='-139145266' />
    <nd ref='-139145267' />
    <nd ref='-139145268' />
    <tag k='type' v='straight' />
  </way>
  <way id='-36084179' action='modify'>
    <nd ref='-139145268' />
    <nd ref='-139145269' />
  </way>
  <way id='-36084180' action='modify'>
    <nd ref='-139145269' />
    <nd ref='-139145270' />
    <nd ref='-139145271' />
    <nd ref='-139145272' />
    <tag k='type' v='straight' />
  </way>
  <way id='-36084181' action='modify'>
    <nd ref='-139145272' />
    <nd ref='-139145273' />
  </way>
  <way id='-36084182' action='modify'>
    <nd ref='-139145273' />
    <nd ref='-139145274' />
    <tag k='type' v='straight' />
  </way>
  <way id='-36084183' action='modify'>
    <nd ref='-139145274' />
    <nd ref='-139145275' />
  </way>
  <way id='-36084184' action='modify'>
    <nd ref='-139145275' />
    <nd ref='-139145276' />
    <tag k='type' v='straight' />
  </way>
  <way id='-36084185' action='modify'>
    <nd ref='-139145276' />
    <nd ref='-139145277' />
  </way>
  <way id='-36084186' action='modify'>
    <nd ref='-139145277' />
    <nd ref='-139145278' />
    <nd ref='-139145279' />
    <tag k='type' v='straight' />
  </way>
  <way id='-36084187' action='modify'>
    <nd ref='-139145279' />
    <nd ref='-139145280' />
  </way>
  <way id='-36084188' action='modify'>
    <nd ref='-139145280' />
    <nd ref='-139145281' />
    <tag k='type' v='straight' />
  </way>
  <way id='-36084189' action='modify'>
    <nd ref='-139145281' />
    <nd ref='-139145282' />
  </way>
  <way id='-36084190' action='modify'>
    <nd ref='-139145282' />
    <nd ref='-139145283' />
    <tag k='type' v='straight' />
  </way>
  <way id='-36084191' action='modify'>
    <nd ref='-139145283' />
    <nd ref='-139145284' />
  </way>
  <way id='-36084192' action='modify'>
    <nd ref='-139145284' />
    <nd ref='-139145285' />
    <tag k='type' v='straight' />
  </way>
  <way id='-36084193' action='modify'>
    <nd ref='-139145285' />
    <nd ref='-139145286' />
  </way>
  <way id='-36084194' action='modify'>
    <nd ref='-139145286' />
    <nd ref='-139145287' />
    <tag k='type' v='straight' />
  </way>
  <way id='-36084195' action='modify'>
    <nd ref='-139145287' />
    <nd ref='-139145288' />
  </way>
  <way id='-36084196' action='modify'>
    <nd ref='-139145288' />
    <nd ref='-139145289' />
    <tag k='type' v='straight' />
  </way>
  <way id='-36084197' action='modify'>
    <nd ref='-139145289' />
    <nd ref='-139145290' />
  </way>
  <way id='-36084198' action='modify'>
    <nd ref='-139145290' />
    <nd ref='-139145291' />
    <tag k='type' v='straight' />
  </way>
  <way id='-36084199' action='modify'>
    <nd ref='-139145291' />
    <nd ref='-139145292' />
  </way>
  <way id='-36084200' action='modify'>
    <nd ref='-139145292' />
    <nd ref='-139145293' />
    <nd ref='-139145294' />
    <tag k='type' v='straight' />
  </way>
  <way id='-36084201' action='modify'>
    <nd ref='-139145294' />
    <nd ref='-139145295' />
  </way>
  <way id='-36084202' action='modify'>
    <nd ref='-139145295' />
    <nd ref='-139145296' />
    <tag k='type' v='straight' />
  </way>
  <way id='-36084203' action='modify'>
    <nd ref='-139145296' />
    <nd ref='-139145297' />
    <nd ref='-139145298' />
  </way>
  <way id='-36084204' action='modify'>
    <nd ref='-139145298' />
    <nd ref='-139145299' />
    <tag k='type' v='straight' />
  </way>
  <way id='-36084205' action='modify'>
    <nd ref='-139145299' />
    <nd ref='-139145300' />
  </way>
  <way id='-36084206' action='modify'>
    <nd ref='-139145300' />
    <nd ref='-139145301' />
    <tag k='type' v='straight' />
  </way>
  <way id='-36084207' action='modify'>
    <nd ref='-139145301' />
    <nd ref='-139145302' />
  </way>
  <way id='-36084208' action='modify'>
    <nd ref='-139145302' />
    <nd ref='-139145303' />
    <tag k='type' v='straight' />
  </way>
  <way id='-36084209' action='modify'>
    <nd ref='-139145303' />
    <nd ref='-139145304' />
    <nd ref='-139145305' />
  </way>
  <way id='-36084210' action='modify'>
    <nd ref='-139145305' />
    <nd ref='-139145306' />
    <tag k='type' v='straight' />
  </way>
  <way id='-36084211' action='modify'>
    <nd ref='-139145306' />
    <nd ref='-139145307' />
    <tag k='type' v='straight' />
  </way>
  <way id='-36084212' action='modify'>
    <nd ref='-139145307' />
    <nd ref='-139145308' />
    <tag k='type' v='straight' />
  </way>
  <way id='-36084213' action='modify'>
    <nd ref='-139145308' />
    <nd ref='-139145309' />
  </way>
  <way id='-36084215' action='modify'>
    <nd ref='-139145309' />
    <nd ref='-139145310' />
    <nd ref='-139145312' />
    <tag k='type' v='straight' />
  </way>
  <way id='-36084216' action='modify'>
    <nd ref='-139145312' />
    <nd ref='-139145313' />
  </way>
  <way id='-36084217' action='modify'>
    <nd ref='-139145313' />
    <nd ref='-139145314' />
    <nd ref='-139145315' />
    <tag k='type' v='straight' />
  </way>
  <way id='-36084218' action='modify'>
    <nd ref='-139145315' />
    <nd ref='-139145316' />
  </way>
  <way id='-36084219' action='modify'>
    <nd ref='-139145316' />
    <nd ref='-139145317' />
    <tag k='type' v='straight' />
  </way>
  <way id='-36084220' action='modify'>
    <nd ref='-139145317' />
    <nd ref='-139145318' />
  </way>
  <way id='-36084221' action='modify'>
    <nd ref='-139145318' />
    <nd ref='-139145319' />
    <tag k='type' v='straight' />
  </way>
  <way id='-36084222' action='modify'>
    <nd ref='-139145319' />
    <nd ref='-139145320' />
  </way>
  <way id='-36084223' action='modify'>
    <nd ref='-139145320' />
    <nd ref='-139145321' />
    <tag k='type' v='straight' />
  </way>
  <way id='-36084224' action='modify'>
    <nd ref='-139145321' />
    <nd ref='-139145322' />
  </way>
  <way id='-36084225' action='modify'>
    <nd ref='-139145322' />
    <nd ref='-139145323' />
    <tag k='type' v='straight' />
  </way>
  <way id='-36084226' action='modify'>
    <nd ref='-139145323' />
    <nd ref='-139145324' />
  </way>
  <way id='-36084227' action='modify'>
    <nd ref='-139145324' />
    <nd ref='-139145325' />
    <nd ref='-139145326' />
    <tag k='type' v='straight' />
  </way>
  <way id='-36084228' action='modify'>
    <nd ref='-139145326' />
    <nd ref='-139145327' />
  </way>
  <way id='-36084229' action='modify'>
    <nd ref='-139145327' />
    <nd ref='-139145328' />
    <tag k='type' v='straight' />
  </way>
  <way id='-36084230' action='modify'>
    <nd ref='-139145328' />
    <nd ref='-139145329' />
  </way>
  <way id='-36084231' action='modify'>
    <nd ref='-139145329' />
    <nd ref='-139145330' />
    <nd ref='-139145331' />
    <tag k='type' v='straight' />
  </way>
  <way id='-36084232' action='modify'>
    <nd ref='-139145331' />
    <nd ref='-139145332' />
  </way>
  <way id='-36084233' action='modify'>
    <nd ref='-139145332' />
    <nd ref='-139145333' />
    <nd ref='-139145334' />
    <tag k='type' v='straight' />
  </way>
  <way id='-36084234' action='modify'>
    <nd ref='-139145334' />
    <nd ref='-139145335' />
  </way>
  <way id='-36084235' action='modify'>
    <nd ref='-139145335' />
    <nd ref='-139145336' />
    <tag k='type' v='straight' />
  </way>
  <way id='-36084236' action='modify'>
    <nd ref='-139145336' />
    <nd ref='-139145337' />
    <nd ref='-139145338' />
  </way>
  <way id='-36084237' action='modify'>
    <nd ref='-139145338' />
    <nd ref='-139145339' />
    <tag k='type' v='straight' />
  </way>
  <way id='-36084238' action='modify'>
    <nd ref='-139145339' />
    <nd ref='-139145340' />
  </way>
  <way id='-36084239' action='modify'>
    <nd ref='-139145340' />
    <nd ref='-139145341' />
    <tag k='type' v='straight' />
  </way>
  <way id='-36084240' action='modify'>
    <nd ref='-139145341' />
    <nd ref='-139145342' />
  </way>
  <way id='-36084241' action='modify'>
    <nd ref='-139145342' />
    <nd ref='-139145343' />
    <nd ref='-139145344' />
    <tag k='type' v='straight' />
  </way>
  <way id='-36084242' action='modify'>
    <nd ref='-139145344' />
    <nd ref='-139145345' />
  </way>
  <way id='-36084243' action='modify'>
    <nd ref='-139145345' />
    <nd ref='-139145346' />
    <nd ref='-139145347' />
    <tag k='type' v='straight' />
  </way>
  <way id='-36084244' action='modify'>
    <nd ref='-139145347' />
    <nd ref='-139145348' />
  </way>
  <way id='-36084245' action='modify'>
    <nd ref='-139145348' />
    <nd ref='-139145349' />
    <tag k='type' v='straight' />
  </way>
  <way id='-36084246' action='modify'>
    <nd ref='-139145349' />
    <nd ref='-139145350' />
  </way>
  <way id='-36084247' action='modify'>
    <nd ref='-139145350' />
    <nd ref='-139145351' />
    <tag k='type' v='straight' />
  </way>
  <way id='-36084248' action='modify'>
    <nd ref='-139145351' />
    <nd ref='-139145352' />
  </way>
  <way id='-36084249' action='modify'>
    <nd ref='-139145352' />
    <nd ref='-139145353' />
    <tag k='type' v='straight' />
  </way>
  <way id='-36084250' action='modify'>
    <nd ref='-139145353' />
    <nd ref='-139145354' />
    <tag k='type' v='arc' />
  </way>
  <way id='-36084251' action='modify'>
    <nd ref='-139145354' />
    <nd ref='-139145355' />
    <tag k='type' v='straight' />
  </way>
  <relation id='-14465562' action='modify'>
    <member type='way' ref='-36084157' role='' />
    <member type='way' ref='-36084158' role='' />
    <member type='way' ref='-36084160' role='' />
    <member type='way' ref='-36084161' role='' />
    <member type='way' ref='-36084162' role='' />
    <member type='way' ref='-36084163' role='' />
    <member type='way' ref='-36084164' role='' />
    <member type='way' ref='-36084165' role='' />
    <member type='way' ref='-36084166' role='' />
    <member type='way' ref='-36084167' role='' />
    <member type='way' ref='-36084168' role='' />
    <member type='way' ref='-36084169' role='' />
    <member type='way' ref='-36084170' role='' />
    <member type='way' ref='-36084171' role='' />
    <member type='way' ref='-36084172' role='' />
    <member type='way' ref='-36084173' role='' />
    <member type='way' ref='-36084174' role='' />
    <member type='way' ref='-36084175' role='' />
    <member type='way' ref='-36084176' role='' />
    <member type='way' ref='-36084177' role='' />
    <member type='way' ref='-36084178' role='' />
    <member type='way' ref='-36084179' role='' />
    <member type='way' ref='-36084180' role='' />
    <member type='way' ref='-36084181' role='' />
    <member type='way' ref='-36084182' role='' />
    <member type='way' ref='-36084183' role='' />
    <member type='way' ref='-36084184' role='' />
    <member type='way' ref='-36084185' role='' />
    <member type='way' ref='-36084186' role='' />
    <member type='way' ref='-36084187' role='' />
    <member type='way' ref='-36084188' role='' />
    <member type='way' ref='-36084189' role='' />
    <member type='way' ref='-36084190' role='' />
    <member type='way' ref='-36084191' role='' />
    <member type='way' ref='-36084192' role='' />
    <member type='way' ref='-36084193' role='' />
    <member type='way' ref='-36084194' role='' />
    <member type='way' ref='-36084195' role='' />
    <member type='way' ref='-36084196' role='' />
    <member type='way' ref='-36084197' role='' />
    <member type='way' ref='-36084198' role='' />
    <member type='way' ref='-36084199' role='' />
    <member type='way' ref='-36084200' role='' />
    <member type='way' ref='-36084201' role='' />
    <member type='way' ref='-36084202' role='' />
    <member type='way' ref='-36084203' role='' />
    <member type='way' ref='-36084204' role='' />
    <member type='way' ref='-36084205' role='' />
    <member type='way' ref='-36084206' role='' />
    <member type='way' ref='-36084207' role='' />
    <member type='way' ref='-36084208' role='' />
    <member type='way' ref='-36084209' role='' />
    <member type='way' ref='-36084210' role='' />
    <member type='way' ref='-36084211' role='' />
    <member type='way' ref='-36084212' role='' />
    <member type='way' ref='-36084213' role='' />
    <member type='way' ref='-36084215' role='' />
    <member type='way' ref='-36084216' role='' />
    <member type='way' ref='-36084217' role='' />
    <member type='way' ref='-36084218' role='' />
    <member type='way' ref='-36084219' role='' />
    <member type='way' ref='-36084220' role='' />
    <member type='way' ref='-36084221' role='' />
    <member type='way' ref='-36084222' role='' />
    <member type='way' ref='-36084223' role='' />
    <member type='way' ref='-36084224' role='' />
    <member type='way' ref='-36084225' role='' />
    <member type='way' ref='-36084226' role='' />
    <member type='way' ref='-36084227' role='' />
    <member type='way' ref='-36084228' role='' />
    <member type='way' ref='-36084229' role='' />
    <member type='way' ref='-36084230' role='' />
    <member type='way' ref='-36084231' role='' />
    <member type='way' ref='-36084232' role='' />
    <member type='way' ref='-36084233' role='' />
    <member type='way' ref='-36084234' role='' />
    <member type='way' ref='-36084235' role='' />
    <member type='way' ref='-36084236' role='' />
    <member type='way' ref='-36084237' role='' />
    <member type='way' ref='-36084238' role='' />
    <member type='way' ref='-36084239' role='' />
    <member type='way' ref='-36084240' role='' />
    <member type='way' ref='-36084241' role='' />
    <member type='way' ref='-36084242' role='' />
    <member type='way' ref='-36084243' role='' />
    <member type='way' ref='-36084244' role='' />
    <member type='way' ref='-36084245' role='' />
    <member type='way' ref='-36084246' role='' />
    <member type='way' ref='-36084247' role='' />
    <member type='way' ref='-36084248' role='' />
    <member type='way' ref='-36084249' role='' />
    <member type='way' ref='-36084250' role='' />
    <member type='way' ref='-36084251' role='' />
    <tag k='key' v='path.dk.hhs' />
    <tag k='name' v='DK HHS' />
    <tag k='type' v='path' />
  </relation>
</osm>
