<?xml version='1.0' encoding='UTF-8'?>
<osm version='0.6' upload='false' generator='JOSM'>
  <node id='-165686859' action='modify' lat='55.86274976085' lon='9.83582943543' />
  <node id='-165686860' action='modify' lat='55.86353696967' lon='9.83571678266' />
  <node id='-165686861' action='modify' lat='55.85873444631' lon='9.83417183094' />
  <node id='-165686862' action='modify' lat='55.86233481418' lon='9.83588291859'>
    <tag k='name' v='hor' />
  </node>
  <node id='-165686863' action='modify' lat='55.85860611499' lon='9.83407258921' />
  <node id='-165686864' action='modify' lat='55.85659928411' lon='9.82909220952' />
  <node id='-165686865' action='modify' lat='55.85654391636' lon='9.82871013863' />
  <node id='-165686866' action='modify' lat='55.85064686452' lon='9.82388287514' />
  <node id='-165686867' action='modify' lat='55.84995274742' lon='9.82506841153' />
  <node id='-165686868' action='modify' lat='55.84738245036' lon='9.8265409416'>
    <tag k='name' v='tho' />
  </node>
  <node id='-165686869' action='modify' lat='55.84504238224' lon='9.82537686288' />
  <node id='-165686870' action='modify' lat='55.84394909751' lon='9.82399820745' />
  <node id='-165686871' action='modify' lat='55.84219013963' lon='9.82258736551' />
  <node id='-165686872' action='modify' lat='55.84113593152' lon='9.82218503416' />
  <node id='-165686873' action='modify' lat='55.83983771328' lon='9.82130526423' />
  <node id='-165686874' action='modify' lat='55.83703027455' lon='9.81849430919' />
  <node id='-165686875' action='modify' lat='55.83097491515' lon='9.82030211806' />
  <node id='-165686876' action='modify' lat='55.82970949708' lon='9.82229231715' />
  <node id='-165686877' action='modify' lat='55.82609981646' lon='9.82511400104'>
    <tag k='name' v='tor' />
  </node>
  <node id='-165686878' action='modify' lat='55.8221070834' lon='9.82419132113'>
    <tag k='name' v='omo' />
  </node>
  <node id='-165686879' action='modify' lat='55.81561821788' lon='9.81819796565'>
    <tag k='name' v='orn' />
  </node>
  <node id='-165686880' action='modify' lat='55.81182654704' lon='9.81469630122' />
  <node id='-165686881' action='modify' lat='55.80868548091' lon='9.81429397523' />
  <node id='-165686882' action='modify' lat='55.80815792626' lon='9.81440662801'>
    <tag k='name' v='dal' />
  </node>
  <node id='-165686883' action='modify' lat='55.80498038873' lon='9.81398820341' />
  <node id='-165686884' action='modify' lat='55.79370618118' lon='9.80993269801' />
  <node id='-165686885' action='modify' lat='55.79235812014' lon='9.80926215112' />
  <node id='-165686886' action='modify' lat='55.79169348667' lon='9.80868586018'>
    <tag k='name' v='ste' />
  </node>
  <node id='-165686887' action='modify' lat='55.78971012091' lon='9.80696618021' />
  <node id='-165686888' action='modify' lat='55.78658537092' lon='9.80558752477' />
  <node id='-165686889' action='modify' lat='55.78573175181' lon='9.80566262662' />
  <node id='-165686890' action='modify' lat='55.78225675889' lon='9.80758308291' />
  <node id='-165686891' action='modify' lat='55.7774841674' lon='9.81219648242' />
  <node id='-165686892' action='modify' lat='55.7744580054' lon='9.81413840175' />
  <node id='-165686893' action='modify' lat='55.7689632463' lon='9.81638072848' />
  <node id='-165686894' action='modify' lat='55.76663656176' lon='9.81846213073'>
    <tag k='name' v='bra' />
  </node>
  <node id='-165686895' action='modify' lat='55.76551693408' lon='9.82021092296' />
  <node id='-165686896' action='modify' lat='55.76361559817' lon='9.823676337' />
  <node id='-165686897' action='modify' lat='55.76241891168' lon='9.82664823264' />
  <node id='-165686898' action='modify' lat='55.76211154048' lon='9.82780641703'>
    <tag k='name' v='brv' />
  </node>
  <node id='-165686899' action='modify' lat='55.7612116291' lon='9.83119725913' />
  <node id='-165686900' action='modify' lat='55.76028954336' lon='9.83652948797' />
  <node id='-165686901' action='modify' lat='55.75937045271' lon='9.84464853466' />
  <node id='-165686902' action='modify' lat='55.75926631641' lon='9.84642952412'>
    <tag k='name' v='hob' />
  </node>
  <node id='-165686903' action='modify' lat='55.75930555715' lon='9.84780549467' />
  <node id='-165686904' action='modify' lat='55.75971605749' lon='9.85145329893' />
  <node id='-165686905' action='modify' lat='55.75975831765' lon='9.85444663882' />
  <node id='-165686906' action='modify' lat='55.75934178096' lon='9.86026166797' />
  <node id='-165686907' action='modify' lat='55.75919991148' lon='9.862815139'>
    <tag k='name' v='hos' />
  </node>
  <node id='-165686908' action='modify' lat='55.75918783935' lon='9.86824929178' />
  <node id='-165686909' action='modify' lat='55.75949873432' lon='9.87441837251' />
  <node id='-165686910' action='modify' lat='55.75975228091' lon='9.87727760196' />
  <node id='-165686911' action='modify' lat='55.76022917985' lon='9.88138674617' />
  <node id='-165686912' action='modify' lat='55.76028350973' lon='9.88554953456' />
  <node id='-165686913' action='modify' lat='55.75955045834' lon='9.89925487075'>
    <tag k='name' v='lin' />
  </node>
  <node id='-165686914' action='modify' lat='55.75951684765' lon='9.89988325953' />
  <node id='-165686915' action='modify' lat='55.75702659804' lon='9.90620254934' />
  <node id='-165686916' action='modify' lat='55.75377243619' lon='9.90848779142' />
  <node id='-165686917' action='modify' lat='55.75322904093' lon='9.90880563721'>
    <tag k='name' v='gra' />
  </node>
  <node id='-165686918' action='modify' lat='55.74905976861' lon='9.90857360601' />
  <node id='-165686919' action='modify' lat='55.73898210393' lon='9.90358827606'>
    <tag k='name' v='gro' />
  </node>
  <node id='-165686920' action='modify' lat='55.73622004483' lon='9.90222213507' />
  <node id='-165686921' action='modify' lat='55.73221506049' lon='9.90125387639' />
  <node id='-165686922' action='modify' lat='55.72566531833' lon='9.90196139463'>
    <tag k='name' v='bar' />
  </node>
  <node id='-165686923' action='modify' lat='55.72521292021' lon='9.90201025933' />
  <node id='-165686924' action='modify' lat='55.72295312829' lon='9.90353105307' />
  <node id='-165686925' action='modify' lat='55.71684979963' lon='9.91076228857' />
  <node id='-165686926' action='modify' lat='55.71568944594' lon='9.91316019952'>
    <tag k='name' v='grt' />
  </node>
  <node id='-165686927' action='modify' lat='55.71415435373' lon='9.91785942972' />
  <node id='-165686928' action='modify' lat='55.71363458442' lon='9.91995155275' />
  <node id='-165686929' action='modify' lat='55.71320546735' lon='9.92398023069' />
  <node id='-165686930' action='modify' lat='55.71305436866' lon='9.93937074602' />
  <node id='-165686931' action='modify' lat='55.71297126263' lon='9.94070112437'>
    <tag k='name' v='ves' />
  </node>
  <node id='-165686932' action='modify' lat='55.71255120432' lon='9.94347184628' />
  <node id='-165686933' action='modify' lat='55.70933716003' lon='9.95745419383' />
  <node id='-165686934' action='modify' lat='55.70829446397' lon='9.96155797362' />
  <node id='-165686935' action='modify' lat='55.70707770489' lon='9.96588416727'>
    <tag k='name' v='kla' />
  </node>
  <node id='-165686936' action='modify' lat='55.705953581' lon='9.96988087624' />
  <node id='-165686937' action='modify' lat='55.70510877658' lon='9.97319340169' />
  <node id='-165686938' action='modify' lat='55.7030926573' lon='9.98202322841' />
  <node id='-165686939' action='modify' lat='55.70243973782' lon='9.98691557765' />
  <node id='-165686940' action='modify' lat='55.70241555541' lon='9.99175428271' />
  <node id='-165686941' action='modify' lat='55.7031107938' lon='9.9959170711' />
  <node id='-165686942' action='modify' lat='55.70364875347' lon='9.99737919788'>
    <tag k='name' v='hoj' />
  </node>
  <node id='-165686943' action='modify' lat='55.70637522603' lon='10.00478981853' />
  <node id='-165686944' action='modify' lat='55.70809196161' lon='10.00761419266'>
    <tag k='name' v='jus' />
  </node>
  <node id='-165686945' action='modify' lat='55.70984035972' lon='10.0094997856' />
  <node id='-165686946' action='modify' lat='55.71158263691' lon='10.01224636495' />
  <node id='-165686947' action='modify' lat='55.71233464766' lon='10.01377665773'>
    <tag k='name' v='jue' />
  </node>
  <node id='-165686948' action='modify' lat='55.71317222569' lon='10.01548110902' />
  <node id='-165686949' action='modify' lat='55.7142782512' lon='10.01704215467' />
  <node id='-165686950' action='modify' lat='55.71499140952' lon='10.01777707994'>
    <tag k='name' v='jue.f' />
  </node>
  <way id='-37673768' action='modify'>
    <nd ref='-165686860' />
    <nd ref='-165686859' />
    <tag k='type' v='straight' />
  </way>
  <way id='-37673769' action='modify'>
    <nd ref='-165686859' />
    <nd ref='-165686862' />
    <nd ref='-165686861' />
  </way>
  <way id='-37673770' action='modify'>
    <nd ref='-165686861' />
    <nd ref='-165686863' />
    <tag k='type' v='straight' />
  </way>
  <way id='-37673771' action='modify'>
    <nd ref='-165686863' />
    <nd ref='-165686864' />
  </way>
  <way id='-37673772' action='modify'>
    <nd ref='-165686864' />
    <nd ref='-165686865' />
    <tag k='type' v='straight' />
  </way>
  <way id='-37673773' action='modify'>
    <nd ref='-165686865' />
    <nd ref='-165686866' />
  </way>
  <way id='-37673774' action='modify'>
    <nd ref='-165686866' />
    <nd ref='-165686867' />
    <tag k='type' v='straight' />
  </way>
  <way id='-37673775' action='modify'>
    <nd ref='-165686867' />
    <nd ref='-165686868' />
    <nd ref='-165686869' />
  </way>
  <way id='-37673776' action='modify'>
    <nd ref='-165686869' />
    <nd ref='-165686870' />
    <tag k='type' v='straight' />
  </way>
  <way id='-37673777' action='modify'>
    <nd ref='-165686870' />
    <nd ref='-165686871' />
  </way>
  <way id='-37673778' action='modify'>
    <nd ref='-165686871' />
    <nd ref='-165686872' />
    <tag k='type' v='straight' />
  </way>
  <way id='-37673779' action='modify'>
    <nd ref='-165686872' />
    <nd ref='-165686873' />
  </way>
  <way id='-37673780' action='modify'>
    <nd ref='-165686873' />
    <nd ref='-165686874' />
    <tag k='type' v='straight' />
  </way>
  <way id='-37673781' action='modify'>
    <nd ref='-165686874' />
    <nd ref='-165686875' />
  </way>
  <way id='-37673782' action='modify'>
    <nd ref='-165686875' />
    <nd ref='-165686876' />
    <tag k='type' v='straight' />
  </way>
  <way id='-37673783' action='modify'>
    <nd ref='-165686876' />
    <nd ref='-165686877' />
    <nd ref='-165686878' />
  </way>
  <way id='-37673784' action='modify'>
    <nd ref='-165686878' />
    <nd ref='-165686879' />
    <nd ref='-165686880' />
    <tag k='type' v='straight' />
  </way>
  <way id='-37673785' action='modify'>
    <nd ref='-165686880' />
    <nd ref='-165686881' />
  </way>
  <way id='-37673786' action='modify'>
    <nd ref='-165686881' />
    <nd ref='-165686882' />
    <tag k='type' v='straight' />
  </way>
  <way id='-37673787' action='modify'>
    <nd ref='-165686882' />
    <nd ref='-165686883' />
  </way>
  <way id='-37673788' action='modify'>
    <nd ref='-165686883' />
    <nd ref='-165686884' />
    <tag k='type' v='straight' />
  </way>
  <way id='-37673789' action='modify'>
    <nd ref='-165686884' />
    <nd ref='-165686885' />
  </way>
  <way id='-37673790' action='modify'>
    <nd ref='-165686885' />
    <nd ref='-165686886' />
    <nd ref='-165686887' />
    <tag k='type' v='straight' />
  </way>
  <way id='-37673791' action='modify'>
    <nd ref='-165686887' />
    <nd ref='-165686888' />
  </way>
  <way id='-37673792' action='modify'>
    <nd ref='-165686888' />
    <nd ref='-165686889' />
    <tag k='type' v='straight' />
  </way>
  <way id='-37673793' action='modify'>
    <nd ref='-165686889' />
    <nd ref='-165686890' />
  </way>
  <way id='-37673794' action='modify'>
    <nd ref='-165686890' />
    <nd ref='-165686891' />
    <tag k='type' v='straight' />
  </way>
  <way id='-37673795' action='modify'>
    <nd ref='-165686891' />
    <nd ref='-165686892' />
  </way>
  <way id='-37673796' action='modify'>
    <nd ref='-165686892' />
    <nd ref='-165686893' />
    <tag k='type' v='straight' />
  </way>
  <way id='-37673797' action='modify'>
    <nd ref='-165686893' />
    <nd ref='-165686894' />
    <nd ref='-165686895' />
  </way>
  <way id='-37673798' action='modify'>
    <nd ref='-165686895' />
    <nd ref='-165686896' />
    <tag k='type' v='straight' />
  </way>
  <way id='-37673799' action='modify'>
    <nd ref='-165686896' />
    <nd ref='-165686897' />
  </way>
  <way id='-37673800' action='modify'>
    <nd ref='-165686897' />
    <nd ref='-165686898' />
    <nd ref='-165686899' />
    <tag k='type' v='straight' />
  </way>
  <way id='-37673801' action='modify'>
    <nd ref='-165686899' />
    <nd ref='-165686900' />
  </way>
  <way id='-37673802' action='modify'>
    <nd ref='-165686900' />
    <nd ref='-165686901' />
    <tag k='type' v='straight' />
  </way>
  <way id='-37673803' action='modify'>
    <nd ref='-165686901' />
    <nd ref='-165686902' />
    <nd ref='-165686903' />
  </way>
  <way id='-37673804' action='modify'>
    <nd ref='-165686903' />
    <nd ref='-165686904' />
    <tag k='type' v='straight' />
  </way>
  <way id='-37673805' action='modify'>
    <nd ref='-165686904' />
    <nd ref='-165686905' />
  </way>
  <way id='-37673806' action='modify'>
    <nd ref='-165686905' />
    <nd ref='-165686906' />
    <tag k='type' v='straight' />
  </way>
  <way id='-37673807' action='modify'>
    <nd ref='-165686906' />
    <nd ref='-165686907' />
    <nd ref='-165686908' />
  </way>
  <way id='-37673808' action='modify'>
    <nd ref='-165686908' />
    <nd ref='-165686909' />
    <tag k='type' v='straight' />
  </way>
  <way id='-37673809' action='modify'>
    <nd ref='-165686909' />
    <nd ref='-165686910' />
  </way>
  <way id='-37673810' action='modify'>
    <nd ref='-165686910' />
    <nd ref='-165686911' />
    <tag k='type' v='straight' />
  </way>
  <way id='-37673811' action='modify'>
    <nd ref='-165686911' />
    <nd ref='-165686912' />
  </way>
  <way id='-37673812' action='modify'>
    <nd ref='-165686912' />
    <nd ref='-165686913' />
    <nd ref='-165686914' />
    <tag k='type' v='straight' />
  </way>
  <way id='-37673813' action='modify'>
    <nd ref='-165686914' />
    <nd ref='-165686915' />
  </way>
  <way id='-37673814' action='modify'>
    <nd ref='-165686915' />
    <nd ref='-165686916' />
    <tag k='type' v='straight' />
  </way>
  <way id='-37673815' action='modify'>
    <nd ref='-165686916' />
    <nd ref='-165686917' />
    <nd ref='-165686918' />
  </way>
  <way id='-37673816' action='modify'>
    <nd ref='-165686918' />
    <nd ref='-165686919' />
    <nd ref='-165686920' />
    <tag k='type' v='straight' />
  </way>
  <way id='-37673817' action='modify'>
    <nd ref='-165686920' />
    <nd ref='-165686921' />
  </way>
  <way id='-37673818' action='modify'>
    <nd ref='-165686921' />
    <nd ref='-165686922' />
    <nd ref='-165686923' />
    <tag k='type' v='straight' />
  </way>
  <way id='-37673819' action='modify'>
    <nd ref='-165686923' />
    <nd ref='-165686924' />
  </way>
  <way id='-37673820' action='modify'>
    <nd ref='-165686924' />
    <nd ref='-165686925' />
    <tag k='type' v='straight' />
  </way>
  <way id='-37673821' action='modify'>
    <nd ref='-165686925' />
    <nd ref='-165686926' />
    <nd ref='-165686927' />
  </way>
  <way id='-37673822' action='modify'>
    <nd ref='-165686927' />
    <nd ref='-165686928' />
    <tag k='type' v='straight' />
  </way>
  <way id='-37673823' action='modify'>
    <nd ref='-165686928' />
    <nd ref='-165686929' />
  </way>
  <way id='-37673824' action='modify'>
    <nd ref='-165686929' />
    <nd ref='-165686930' />
    <tag k='type' v='straight' />
  </way>
  <way id='-37673825' action='modify'>
    <nd ref='-165686930' />
    <nd ref='-165686931' />
    <nd ref='-165686932' />
  </way>
  <way id='-37673826' action='modify'>
    <nd ref='-165686932' />
    <nd ref='-165686933' />
    <tag k='type' v='straight' />
  </way>
  <way id='-37673827' action='modify'>
    <nd ref='-165686933' />
    <nd ref='-165686934' />
  </way>
  <way id='-37673828' action='modify'>
    <nd ref='-165686934' />
    <nd ref='-165686935' />
    <nd ref='-165686936' />
    <tag k='type' v='straight' />
  </way>
  <way id='-37673829' action='modify'>
    <nd ref='-165686936' />
    <nd ref='-165686937' />
  </way>
  <way id='-37673830' action='modify'>
    <nd ref='-165686937' />
    <nd ref='-165686938' />
    <tag k='type' v='straight' />
  </way>
  <way id='-37673831' action='modify'>
    <nd ref='-165686938' />
    <nd ref='-165686939' />
  </way>
  <way id='-37673832' action='modify'>
    <nd ref='-165686939' />
    <nd ref='-165686940' />
    <tag k='type' v='straight' />
  </way>
  <way id='-37673833' action='modify'>
    <nd ref='-165686940' />
    <nd ref='-165686941' />
  </way>
  <way id='-37673834' action='modify'>
    <nd ref='-165686941' />
    <nd ref='-165686942' />
    <nd ref='-165686943' />
    <tag k='type' v='straight' />
  </way>
  <way id='-37673835' action='modify'>
    <nd ref='-165686943' />
    <nd ref='-165686944' />
  </way>
  <way id='-37673836' action='modify'>
    <nd ref='-165686944' />
    <nd ref='-165686945' />
    <tag k='type' v='straight' />
  </way>
  <way id='-37673837' action='modify'>
    <nd ref='-165686945' />
    <nd ref='-165686946' />
  </way>
  <way id='-37673838' action='modify'>
    <nd ref='-165686946' />
    <nd ref='-165686947' />
    <nd ref='-165686948' />
    <tag k='type' v='straight' />
  </way>
  <way id='-37673839' action='modify'>
    <nd ref='-165686948' />
    <nd ref='-165686949' />
  </way>
  <way id='-37673840' action='modify'>
    <nd ref='-165686949' />
    <nd ref='-165686950' />
    <tag k='type' v='straight' />
  </way>
  <relation id='-14480223' action='modify'>
    <member type='way' ref='-37673768' role='' />
    <member type='way' ref='-37673769' role='' />
    <member type='way' ref='-37673770' role='' />
    <member type='way' ref='-37673771' role='' />
    <member type='way' ref='-37673772' role='' />
    <member type='way' ref='-37673773' role='' />
    <member type='way' ref='-37673774' role='' />
    <member type='way' ref='-37673775' role='' />
    <member type='way' ref='-37673776' role='' />
    <member type='way' ref='-37673777' role='' />
    <member type='way' ref='-37673778' role='' />
    <member type='way' ref='-37673779' role='' />
    <member type='way' ref='-37673780' role='' />
    <member type='way' ref='-37673781' role='' />
    <member type='way' ref='-37673782' role='' />
    <member type='way' ref='-37673783' role='' />
    <member type='way' ref='-37673784' role='' />
    <member type='way' ref='-37673785' role='' />
    <member type='way' ref='-37673786' role='' />
    <member type='way' ref='-37673787' role='' />
    <member type='way' ref='-37673788' role='' />
    <member type='way' ref='-37673789' role='' />
    <member type='way' ref='-37673790' role='' />
    <member type='way' ref='-37673791' role='' />
    <member type='way' ref='-37673792' role='' />
    <member type='way' ref='-37673793' role='' />
    <member type='way' ref='-37673794' role='' />
    <member type='way' ref='-37673795' role='' />
    <member type='way' ref='-37673796' role='' />
    <member type='way' ref='-37673797' role='' />
    <member type='way' ref='-37673798' role='' />
    <member type='way' ref='-37673799' role='' />
    <member type='way' ref='-37673800' role='' />
    <member type='way' ref='-37673801' role='' />
    <member type='way' ref='-37673802' role='' />
    <member type='way' ref='-37673803' role='' />
    <member type='way' ref='-37673804' role='' />
    <member type='way' ref='-37673805' role='' />
    <member type='way' ref='-37673806' role='' />
    <member type='way' ref='-37673807' role='' />
    <member type='way' ref='-37673808' role='' />
    <member type='way' ref='-37673809' role='' />
    <member type='way' ref='-37673810' role='' />
    <member type='way' ref='-37673811' role='' />
    <member type='way' ref='-37673812' role='' />
    <member type='way' ref='-37673813' role='' />
    <member type='way' ref='-37673814' role='' />
    <member type='way' ref='-37673815' role='' />
    <member type='way' ref='-37673816' role='' />
    <member type='way' ref='-37673817' role='' />
    <member type='way' ref='-37673818' role='' />
    <member type='way' ref='-37673819' role='' />
    <member type='way' ref='-37673820' role='' />
    <member type='way' ref='-37673821' role='' />
    <member type='way' ref='-37673822' role='' />
    <member type='way' ref='-37673823' role='' />
    <member type='way' ref='-37673824' role='' />
    <member type='way' ref='-37673825' role='' />
    <member type='way' ref='-37673826' role='' />
    <member type='way' ref='-37673827' role='' />
    <member type='way' ref='-37673828' role='' />
    <member type='way' ref='-37673829' role='' />
    <member type='way' ref='-37673830' role='' />
    <member type='way' ref='-37673831' role='' />
    <member type='way' ref='-37673832' role='' />
    <member type='way' ref='-37673833' role='' />
    <member type='way' ref='-37673834' role='' />
    <member type='way' ref='-37673835' role='' />
    <member type='way' ref='-37673836' role='' />
    <member type='way' ref='-37673837' role='' />
    <member type='way' ref='-37673838' role='' />
    <member type='way' ref='-37673839' role='' />
    <member type='way' ref='-37673840' role='' />
    <tag k='key' v='path.dk.hjm' />
    <tag k='name' v='DK HJM' />
    <tag k='type' v='path' />
  </relation>
</osm>
