<?xml version='1.0' encoding='UTF-8'?>
<osm version='0.6' generator='JOSM'>
  <node id='-139896227' action='modify' visible='true' lat='55.92735133576' lon='12.31122951486'>
    <tag k='name' v='hil' />
  </node>
  <node id='-139896228' action='modify' visible='true' lat='55.92824344276' lon='12.31158211693' />
  <node id='-139896229' action='modify' visible='true' lat='55.93042373745' lon='12.31217622221' />
  <node id='-139896230' action='modify' visible='true' lat='55.93120506519' lon='12.31243371695' />
  <node id='-139896231' action='modify' visible='true' lat='55.93352604491' lon='12.31332890623' />
  <node id='-139896232' action='modify' visible='true' lat='55.93402034817' lon='12.3135287308' />
  <node id='-139896233' action='modify' visible='true' lat='55.93640500985' lon='12.31369703941' />
  <node id='-139896234' action='modify' visible='true' lat='55.93664951482' lon='12.31361925534' />
  <node id='-139896235' action='modify' visible='true' lat='55.93766856238' lon='12.31319745759' />
  <node id='-139896236' action='modify' visible='true' lat='55.94021299264' lon='12.31187631092' />
  <node id='-139896237' action='modify' visible='true' lat='55.94166059161' lon='12.31135960128' />
  <node id='-139896238' action='modify' visible='true' lat='55.94297874171' lon='12.31112111576'>
    <tag k='name' v='slo' />
  </node>
  <node id='-139896239' action='modify' visible='true' lat='55.95344767443' lon='12.30922674208' />
  <node id='-139896240' action='modify' visible='true' lat='55.95435919605' lon='12.30918775793' />
  <node id='-139896241' action='modify' visible='true' lat='55.96204216269' lon='12.3099345125' />
  <node id='-139896242' action='modify' visible='true' lat='55.96254775122' lon='12.31000303518' />
  <node id='-139896243' action='modify' visible='true' lat='55.96334021413' lon='12.31012892973' />
  <node id='-139896244' action='modify' visible='true' lat='55.96399142856' lon='12.31030893382'>
    <tag k='name' v='kil' />
  </node>
  <node id='-139896245' action='modify' visible='true' lat='55.96547385485' lon='12.31129291463' />
  <node id='-139896246' action='modify' visible='true' lat='55.97049368473' lon='12.31581141435' />
  <node id='-139896247' action='modify' visible='true' lat='55.9742558143' lon='12.31647705912' />
  <node id='-139896248' action='modify' visible='true' lat='55.97565348557' lon='12.31584975351' />
  <node id='-139896249' action='modify' visible='true' lat='55.97788819551' lon='12.31402251801' />
  <node id='-139896250' action='modify' visible='true' lat='55.98589886886' lon='12.30424592752' />
  <node id='-139896251' action='modify' visible='true' lat='55.98705558947' lon='12.30259343163' />
  <node id='-139896252' action='modify' visible='true' lat='55.9873680671' lon='12.30207544202'>
    <tag k='name' v='gri' />
  </node>
  <node id='-139896253' action='modify' visible='true' lat='55.99609577333' lon='12.28760595869' />
  <node id='-139896254' action='modify' visible='true' lat='55.99691911204' lon='12.28654722484'>
    <tag k='name' v='kag' />
  </node>
  <node id='-139896255' action='modify' visible='true' lat='55.99792035879' lon='12.2859314505' />
  <node id='-139896256' action='modify' visible='true' lat='55.99802527178' lon='12.28589638178' />
  <node id='-139896257' action='modify' visible='true' lat='55.99885210421' lon='12.2858662156' />
  <node id='-139896258' action='modify' visible='true' lat='56.00196638577' lon='12.28681409368' />
  <node id='-139896259' action='modify' visible='true' lat='56.00414817741' lon='12.28957704611' />
  <node id='-139896260' action='modify' visible='true' lat='56.00986806566' lon='12.31065508693' />
  <node id='-139896261' action='modify' visible='true' lat='56.01056004959' lon='12.31274974159' />
  <node id='-139896262' action='modify' visible='true' lat='56.01361868178' lon='12.32003014219' />
  <node id='-139896263' action='modify' visible='true' lat='56.01442474858' lon='12.32170917567' />
  <node id='-139896264' action='modify' visible='true' lat='56.01461464726' lon='12.32206206097' />
  <node id='-139896265' action='modify' visible='true' lat='56.01605619436' lon='12.32358249991' />
  <node id='-139896266' action='modify' visible='true' lat='56.0188322617' lon='12.32503067966' />
  <node id='-139896267' action='modify' visible='true' lat='56.01940223211' lon='12.32527944659'>
    <tag k='name' v='sto' />
  </node>
  <node id='-139896268' action='modify' visible='true' lat='56.02336734325' lon='12.32406925021' />
  <node id='-139896269' action='modify' visible='true' lat='56.03032748292' lon='12.3174746324'>
    <tag k='name' v='mar' />
  </node>
  <node id='-139896270' action='modify' visible='true' lat='56.0317129753' lon='12.31616175927' />
  <node id='-139896271' action='modify' visible='true' lat='56.03434461907' lon='12.31618113191' />
  <node id='-139896272' action='modify' visible='true' lat='56.04158232374' lon='12.32313677419' />
  <node id='-139896273' action='modify' visible='true' lat='56.042447036' lon='12.32383709841' />
  <node id='-139896274' action='modify' visible='true' lat='56.04685120039' lon='12.32658521896' />
  <node id='-139896275' action='modify' visible='true' lat='56.05018854727' lon='12.32703998245' />
  <node id='-139896276' action='modify' visible='true' lat='56.05211787548' lon='12.32610220297' />
  <node id='-139896277' action='modify' visible='true' lat='56.0539910195' lon='12.32321657626' />
  <node id='-139896278' action='modify' visible='true' lat='56.05424889785' lon='12.32227790649'>
    <tag k='name' v='sal' />
  </node>
  <node id='-139896279' action='modify' visible='true' lat='56.0598751929' lon='12.30179679228'>
    <tag k='name' v='vok' />
  </node>
  <node id='-139896280' action='modify' visible='true' lat='56.06010364343' lon='12.30096511236' />
  <node id='-139896281' action='modify' visible='true' lat='56.0627017555' lon='12.29619792942' />
  <node id='-139896282' action='modify' visible='true' lat='56.06333139785' lon='12.29561279769'>
    <tag k='name' v='grs' />
  </node>
  <node id='-139896283' action='modify' visible='true' lat='56.07262183768' lon='12.28697800594'>
    <tag k='name' v='gra' />
  </node>
  <node id='-139896284' action='modify' visible='true' lat='56.07406689248' lon='12.28563474499' />
  <node id='-139896285' action='modify' visible='true' lat='56.07917767415' lon='12.28559712702' />
  <node id='-139896286' action='modify' visible='true' lat='56.0925873381' lon='12.29809167936' />
  <node id='-139896287' action='modify' visible='true' lat='56.09460217716' lon='12.29941997174' />
  <node id='-139896288' action='modify' visible='true' lat='56.10051999022' lon='12.30125204397'>
    <tag k='name' v='par' />
  </node>
  <node id='-139896289' action='modify' visible='true' lat='56.10282299715' lon='12.30196509885' />
  <node id='-139896290' action='modify' visible='true' lat='56.10606681697' lon='12.30182141557' />
  <node id='-139896291' action='modify' visible='true' lat='56.11659840398' lon='12.29822274264'>
    <tag k='name' v='fje' />
  </node>
  <node id='-139896292' action='modify' visible='true' lat='56.12017275044' lon='12.29700115452' />
  <node id='-139896293' action='modify' visible='true' lat='56.12254448424' lon='12.298670796' />
  <node id='-139896294' action='modify' visible='true' lat='56.12258904865' lon='12.29879629159' />
  <node id='-139896295' action='modify' visible='true' lat='56.12274317124' lon='12.29920744004' />
  <node id='-139896296' action='modify' visible='true' lat='56.12299326759' lon='12.29987357065' />
  <node id='-139896297' action='modify' visible='true' lat='56.12332169078' lon='12.30096418865' />
  <node id='-139896298' action='modify' visible='true' lat='56.12361059233' lon='12.30202475391'>
    <tag k='name' v='gil' />
  </node>
  <way id='-36126429' action='modify' visible='true'>
    <nd ref='-139896227' />
    <nd ref='-139896228' />
    <tag k='type' v='straight' />
  </way>
  <way id='-36126430' action='modify' visible='true'>
    <nd ref='-139896228' />
    <nd ref='-139896229' />
  </way>
  <way id='-36126431' action='modify' visible='true'>
    <nd ref='-139896229' />
    <nd ref='-139896230' />
    <tag k='type' v='straight' />
  </way>
  <way id='-36126432' action='modify' visible='true'>
    <nd ref='-139896230' />
    <nd ref='-139896231' />
  </way>
  <way id='-36126433' action='modify' visible='true'>
    <nd ref='-139896231' />
    <nd ref='-139896232' />
    <tag k='type' v='straight' />
  </way>
  <way id='-36126434' action='modify' visible='true'>
    <nd ref='-139896232' />
    <nd ref='-139896233' />
  </way>
  <way id='-36126435' action='modify' visible='true'>
    <nd ref='-139896233' />
    <nd ref='-139896234' />
    <tag k='type' v='straight' />
  </way>
  <way id='-36126436' action='modify' visible='true'>
    <nd ref='-139896234' />
    <nd ref='-139896235' />
  </way>
  <way id='-36126437' action='modify' visible='true'>
    <nd ref='-139896235' />
    <nd ref='-139896236' />
    <tag k='type' v='straight' />
  </way>
  <way id='-36126438' action='modify' visible='true'>
    <nd ref='-139896236' />
    <nd ref='-139896237' />
  </way>
  <way id='-36126439' action='modify' visible='true'>
    <nd ref='-139896237' />
    <nd ref='-139896238' />
    <nd ref='-139896239' />
    <tag k='type' v='straight' />
  </way>
  <way id='-36126440' action='modify' visible='true'>
    <nd ref='-139896239' />
    <nd ref='-139896240' />
  </way>
  <way id='-36126441' action='modify' visible='true'>
    <nd ref='-139896240' />
    <nd ref='-139896241' />
    <tag k='type' v='straight' />
  </way>
  <way id='-36126442' action='modify' visible='true'>
    <nd ref='-139896241' />
    <nd ref='-139896242' />
  </way>
  <way id='-36126443' action='modify' visible='true'>
    <nd ref='-139896242' />
    <nd ref='-139896243' />
    <tag k='type' v='straight' />
  </way>
  <way id='-36126444' action='modify' visible='true'>
    <nd ref='-139896243' />
    <nd ref='-139896244' />
    <nd ref='-139896245' />
  </way>
  <way id='-36126445' action='modify' visible='true'>
    <nd ref='-139896245' />
    <nd ref='-139896246' />
    <tag k='type' v='straight' />
  </way>
  <way id='-36126446' action='modify' visible='true'>
    <nd ref='-139896246' />
    <nd ref='-139896247' />
  </way>
  <way id='-36126447' action='modify' visible='true'>
    <nd ref='-139896247' />
    <nd ref='-139896248' />
    <tag k='type' v='straight' />
  </way>
  <way id='-36126448' action='modify' visible='true'>
    <nd ref='-139896248' />
    <nd ref='-139896249' />
  </way>
  <way id='-36126449' action='modify' visible='true'>
    <nd ref='-139896249' />
    <nd ref='-139896250' />
    <tag k='type' v='straight' />
  </way>
  <way id='-36126450' action='modify' visible='true'>
    <nd ref='-139896250' />
    <nd ref='-139896251' />
  </way>
  <way id='-36126451' action='modify' visible='true'>
    <nd ref='-139896251' />
    <nd ref='-139896252' />
    <nd ref='-139896253' />
    <tag k='type' v='straight' />
  </way>
  <way id='-36126452' action='modify' visible='true'>
    <nd ref='-139896253' />
    <nd ref='-139896254' />
    <nd ref='-139896255' />
  </way>
  <way id='-36126453' action='modify' visible='true'>
    <nd ref='-139896255' />
    <nd ref='-139896256' />
    <tag k='type' v='straight' />
  </way>
  <way id='-36126454' action='modify' visible='true'>
    <nd ref='-139896256' />
    <nd ref='-139896257' />
  </way>
  <way id='-36126455' action='modify' visible='true'>
    <nd ref='-139896257' />
    <nd ref='-139896258' />
    <tag k='type' v='straight' />
  </way>
  <way id='-36126456' action='modify' visible='true'>
    <nd ref='-139896258' />
    <nd ref='-139896259' />
  </way>
  <way id='-36126457' action='modify' visible='true'>
    <nd ref='-139896259' />
    <nd ref='-139896260' />
    <tag k='type' v='straight' />
  </way>
  <way id='-36126458' action='modify' visible='true'>
    <nd ref='-139896260' />
    <nd ref='-139896261' />
  </way>
  <way id='-36126459' action='modify' visible='true'>
    <nd ref='-139896261' />
    <nd ref='-139896262' />
    <tag k='type' v='straight' />
  </way>
  <way id='-36126460' action='modify' visible='true'>
    <nd ref='-139896262' />
    <nd ref='-139896263' />
  </way>
  <way id='-36126461' action='modify' visible='true'>
    <nd ref='-139896263' />
    <nd ref='-139896264' />
    <tag k='type' v='straight' />
  </way>
  <way id='-36126462' action='modify' visible='true'>
    <nd ref='-139896264' />
    <nd ref='-139896265' />
  </way>
  <way id='-36126463' action='modify' visible='true'>
    <nd ref='-139896265' />
    <nd ref='-139896266' />
    <tag k='type' v='straight' />
  </way>
  <way id='-36126464' action='modify' visible='true'>
    <nd ref='-139896266' />
    <nd ref='-139896267' />
    <nd ref='-139896268' />
  </way>
  <way id='-36126465' action='modify' visible='true'>
    <nd ref='-139896268' />
    <nd ref='-139896269' />
    <nd ref='-139896270' />
    <tag k='type' v='straight' />
  </way>
  <way id='-36126466' action='modify' visible='true'>
    <nd ref='-139896270' />
    <nd ref='-139896271' />
  </way>
  <way id='-36126467' action='modify' visible='true'>
    <nd ref='-139896271' />
    <nd ref='-139896272' />
    <tag k='type' v='straight' />
  </way>
  <way id='-36126468' action='modify' visible='true'>
    <nd ref='-139896272' />
    <nd ref='-139896273' />
  </way>
  <way id='-36126469' action='modify' visible='true'>
    <nd ref='-139896273' />
    <nd ref='-139896274' />
    <tag k='type' v='straight' />
  </way>
  <way id='-36126470' action='modify' visible='true'>
    <nd ref='-139896274' />
    <nd ref='-139896275' />
  </way>
  <way id='-36126471' action='modify' visible='true'>
    <nd ref='-139896275' />
    <nd ref='-139896276' />
    <tag k='type' v='straight' />
  </way>
  <way id='-36126472' action='modify' visible='true'>
    <nd ref='-139896276' />
    <nd ref='-139896277' />
  </way>
  <way id='-36126473' action='modify' visible='true'>
    <nd ref='-139896277' />
    <nd ref='-139896278' />
    <nd ref='-139896279' />
    <nd ref='-139896280' />
    <tag k='type' v='straight' />
  </way>
  <way id='-36126474' action='modify' visible='true'>
    <nd ref='-139896280' />
    <nd ref='-139896281' />
  </way>
  <way id='-36126475' action='modify' visible='true'>
    <nd ref='-139896281' />
    <nd ref='-139896282' />
    <nd ref='-139896283' />
    <nd ref='-139896284' />
    <tag k='type' v='straight' />
  </way>
  <way id='-36126476' action='modify' visible='true'>
    <nd ref='-139896284' />
    <nd ref='-139896285' />
  </way>
  <way id='-36126477' action='modify' visible='true'>
    <nd ref='-139896285' />
    <nd ref='-139896286' />
    <tag k='type' v='straight' />
  </way>
  <way id='-36126478' action='modify' visible='true'>
    <nd ref='-139896286' />
    <nd ref='-139896287' />
  </way>
  <way id='-36126479' action='modify' visible='true'>
    <nd ref='-139896287' />
    <nd ref='-139896288' />
    <nd ref='-139896289' />
    <tag k='type' v='straight' />
  </way>
  <way id='-36126480' action='modify' visible='true'>
    <nd ref='-139896289' />
    <nd ref='-139896290' />
  </way>
  <way id='-36126481' action='modify' visible='true'>
    <nd ref='-139896290' />
    <nd ref='-139896291' />
    <nd ref='-139896292' />
    <tag k='type' v='straight' />
  </way>
  <way id='-36126482' action='modify' visible='true'>
    <nd ref='-139896292' />
    <nd ref='-139896293' />
  </way>
  <way id='-36126483' action='modify' visible='true'>
    <nd ref='-139896293' />
    <nd ref='-139896294' />
    <tag k='type' v='straight' />
  </way>
  <way id='-36126484' action='modify' visible='true'>
    <nd ref='-139896294' />
    <nd ref='-139896295' />
  </way>
  <way id='-36126485' action='modify' visible='true'>
    <nd ref='-139896295' />
    <nd ref='-139896296' />
    <tag k='type' v='straight' />
  </way>
  <way id='-36126486' action='modify' visible='true'>
    <nd ref='-139896296' />
    <nd ref='-139896297' />
  </way>
  <way id='-36126487' action='modify' visible='true'>
    <nd ref='-139896297' />
    <nd ref='-139896298' />
    <tag k='type' v='straight' />
  </way>
  <relation id='-14465874' action='modify' visible='true'>
    <member type='way' ref='-36126429' role='' />
    <member type='way' ref='-36126430' role='' />
    <member type='way' ref='-36126431' role='' />
    <member type='way' ref='-36126432' role='' />
    <member type='way' ref='-36126433' role='' />
    <member type='way' ref='-36126434' role='' />
    <member type='way' ref='-36126435' role='' />
    <member type='way' ref='-36126436' role='' />
    <member type='way' ref='-36126437' role='' />
    <member type='way' ref='-36126438' role='' />
    <member type='way' ref='-36126439' role='' />
    <member type='way' ref='-36126440' role='' />
    <member type='way' ref='-36126441' role='' />
    <member type='way' ref='-36126442' role='' />
    <member type='way' ref='-36126443' role='' />
    <member type='way' ref='-36126444' role='' />
    <member type='way' ref='-36126445' role='' />
    <member type='way' ref='-36126446' role='' />
    <member type='way' ref='-36126447' role='' />
    <member type='way' ref='-36126448' role='' />
    <member type='way' ref='-36126449' role='' />
    <member type='way' ref='-36126450' role='' />
    <member type='way' ref='-36126451' role='' />
    <member type='way' ref='-36126452' role='' />
    <member type='way' ref='-36126453' role='' />
    <member type='way' ref='-36126454' role='' />
    <member type='way' ref='-36126455' role='' />
    <member type='way' ref='-36126456' role='' />
    <member type='way' ref='-36126457' role='' />
    <member type='way' ref='-36126458' role='' />
    <member type='way' ref='-36126459' role='' />
    <member type='way' ref='-36126460' role='' />
    <member type='way' ref='-36126461' role='' />
    <member type='way' ref='-36126462' role='' />
    <member type='way' ref='-36126463' role='' />
    <member type='way' ref='-36126464' role='' />
    <member type='way' ref='-36126465' role='' />
    <member type='way' ref='-36126466' role='' />
    <member type='way' ref='-36126467' role='' />
    <member type='way' ref='-36126468' role='' />
    <member type='way' ref='-36126469' role='' />
    <member type='way' ref='-36126470' role='' />
    <member type='way' ref='-36126471' role='' />
    <member type='way' ref='-36126472' role='' />
    <member type='way' ref='-36126473' role='' />
    <member type='way' ref='-36126474' role='' />
    <member type='way' ref='-36126475' role='' />
    <member type='way' ref='-36126476' role='' />
    <member type='way' ref='-36126477' role='' />
    <member type='way' ref='-36126478' role='' />
    <member type='way' ref='-36126479' role='' />
    <member type='way' ref='-36126480' role='' />
    <member type='way' ref='-36126481' role='' />
    <member type='way' ref='-36126482' role='' />
    <member type='way' ref='-36126483' role='' />
    <member type='way' ref='-36126484' role='' />
    <member type='way' ref='-36126485' role='' />
    <member type='way' ref='-36126486' role='' />
    <member type='way' ref='-36126487' role='' />
    <tag k='key' v='path.dk.hkg' />
    <tag k='name' v='DK HKG' />
    <tag k='type' v='path' />
  </relation>
</osm>
