<?xml version='1.0' encoding='UTF-8'?>
<osm version='0.6' upload='false' generator='JOSM'>
  <node id='-181242111' action='modify' lat='57.45640473758' lon='9.98604722254'>
    <tag k='name' v='hjo' />
  </node>
  <node id='-181242112' action='modify' lat='57.45641916665' lon='9.98828083143' />
  <node id='-181242113' action='modify' lat='57.45554982708' lon='9.98009875283' />
  <node id='-181242114' action='modify' lat='57.45550726138' lon='9.97995257244' />
  <node id='-181242115' action='modify' lat='57.45480888889' lon='9.9720400545' />
  <node id='-181242116' action='modify' lat='57.45556930701' lon='9.96943294734' />
  <node id='-181242117' action='modify' lat='57.45817798299' lon='9.96479071543' />
  <node id='-181242118' action='modify' lat='57.46187008976' lon='9.96150935202' />
  <node id='-181242119' action='modify' lat='57.46476373506' lon='9.95416835465'>
    <tag k='name' v='liv.yv' />
  </node>
  <node id='-181242120' action='modify' lat='57.4705415976' lon='9.90475020658'>
    <tag k='name' v='liv' />
  </node>
  <node id='-181242121' action='modify' lat='57.47201615533' lon='9.8921370399' />
  <node id='-181242122' action='modify' lat='57.47205653844' lon='9.88392948031' />
  <node id='-181242123' action='modify' lat='57.47051001667' lon='9.87389054801'>
    <tag k='name' v='son' />
  </node>
  <node id='-181242124' action='modify' lat='57.46992771108' lon='9.87011073947' />
  <node id='-181242125' action='modify' lat='57.46946327274' lon='9.86613034666' />
  <node id='-181242126' action='modify' lat='57.46799204072' lon='9.85142647684' />
  <node id='-181242127' action='modify' lat='57.46769201606' lon='9.84251618117' />
  <node id='-181242128' action='modify' lat='57.46777854155' lon='9.84039825205'>
    <tag k='name' v='ven' />
  </node>
  <node id='-181242129' action='modify' lat='57.46873343655' lon='9.81702445865' />
  <node id='-181242130' action='modify' lat='57.46743382104' lon='9.8094391796'>
    <tag k='name' v='lon' />
  </node>
  <node id='-181242131' action='modify' lat='57.46663181816' lon='9.80793177813' />
  <node id='-181242132' action='modify' lat='57.4646123085' lon='9.80674892396' />
  <node id='-181242133' action='modify' lat='57.45730482065' lon='9.80691626032'>
    <tag k='name' v='nrn' />
  </node>
  <node id='-181242134' action='modify' lat='57.44340444689' lon='9.80723447686'>
    <tag k='name' v='nru' />
  </node>
  <node id='-181242135' action='modify' lat='57.43408232248' lon='9.80744781735'>
    <tag k='name' v='jel' />
  </node>
  <node id='-181242136' action='modify' lat='57.43356273747' lon='9.80745970666' />
  <node id='-181242137' action='modify' lat='57.43221422961' lon='9.80778693616' />
  <node id='-181242138' action='modify' lat='57.41285251088' lon='9.81623521597'>
    <tag k='name' v='gjo' />
  </node>
  <node id='-181242139' action='modify' lat='57.41168883314' lon='9.81674283206' />
  <node id='-181242140' action='modify' lat='57.4061294564' lon='9.81325327814' />
  <node id='-181242141' action='modify' lat='57.40079466661' lon='9.80265318811' />
  <node id='-181242142' action='modify' lat='57.39918482937' lon='9.79906975687' />
  <node id='-181242143' action='modify' lat='57.39344684799' lon='9.78596906341'>
    <tag k='name' v='vit' />
  </node>
  <node id='-181242144' action='modify' lat='57.38228138731' lon='9.76048247779'>
    <tag k='name' v='sko' />
  </node>
  <node id='-181242145' action='modify' lat='57.38152643421' lon='9.75875948135' />
  <node id='-181242146' action='modify' lat='57.37912096504' lon='9.75121377826' />
  <node id='-181242147' action='modify' lat='57.37369836432' lon='9.72483694017' />
  <node id='-181242148' action='modify' lat='57.37226666327' lon='9.72069292992' />
  <node id='-181242149' action='modify' lat='57.37051218963' lon='9.71708890358'>
    <tag k='name' v='lok' />
  </node>
  <node id='-181242150' action='modify' lat='57.36956508337' lon='9.71514343679' />
  <node id='-181242151' action='modify' lat='57.3625194979' lon='9.71547603339' />
  <node id='-181242152' action='modify' lat='57.3441810718' lon='9.76081139891' />
  <node id='-181242153' action='modify' lat='57.33985192742' lon='9.76688860774' />
  <node id='-181242154' action='modify' lat='57.33747663158' lon='9.7682825593'>
    <tag k='name' v='vre' />
  </node>
  <node id='-181242155' action='modify' lat='57.33636915336' lon='9.76893245637' />
  <node id='-181242156' action='modify' lat='57.33244303887' lon='9.7682619068' />
  <node id='-181242157' action='modify' lat='57.32850782305' lon='9.76296185374' />
  <node id='-181242158' action='modify' lat='57.32618529521' lon='9.75885270953' />
  <node id='-181242159' action='modify' lat='57.3204536371' lon='9.74652528495' />
  <node id='-181242160' action='modify' lat='57.31491807833' lon='9.74467858538' />
  <node id='-181242161' action='modify' lat='57.3139460652' lon='9.74564288068'>
    <tag k='name' v='ing' />
  </node>
  <node id='-181242162' action='modify' lat='57.31100705822' lon='9.7485583967' />
  <node id='-181242163' action='modify' lat='57.30714487761' lon='9.75075780809' />
  <node id='-181242164' action='modify' lat='57.29830060774' lon='9.75240468442' />
  <node id='-181242165' action='modify' lat='57.2957964701' lon='9.75271045625' />
  <node id='-181242166' action='modify' lat='57.29353854247' lon='9.75283383787' />
  <node id='-181242167' action='modify' lat='57.29183123689' lon='9.75308596551' />
  <node id='-181242168' action='modify' lat='57.28735521662' lon='9.7542698819'>
    <tag k='name' v='hje' />
  </node>
  <node id='-181242169' action='modify' lat='57.28651750226' lon='9.75449144304' />
  <node id='-181242170' action='modify' lat='57.28128709021' lon='9.75378869891' />
  <node id='-181242171' action='modify' lat='57.27585873405' lon='9.751197685'>
    <tag k='name' v='als' />
  </node>
  <node id='-181242172' action='modify' lat='57.27319645919' lon='9.74954007983' />
  <node id='-181242173' action='modify' lat='57.26562039306' lon='9.74288820148' />
  <node id='-181242174' action='modify' lat='57.26119933432' lon='9.73698734164' />
  <node id='-181242175' action='modify' lat='57.25838535305' lon='9.73196409016'>
    <tag k='name' v='sal' />
  </node>
  <node id='-181242176' action='modify' lat='57.25733772621' lon='9.73009406447' />
  <node id='-181242177' action='modify' lat='57.25615101712' lon='9.72769617498' />
  <node id='-181242178' action='modify' lat='57.23959903744' lon='9.69328362248'>
    <tag k='name' v='ren' />
  </node>
  <node id='-181242179' action='modify' lat='57.23356585037' lon='9.68074410886' />
  <node id='-181242180' action='modify' lat='57.22929919513' lon='9.67620312631' />
  <node id='-181242181' action='modify' lat='57.2256317145' lon='9.6747600925' />
  <node id='-181242182' action='modify' lat='57.22495363584' lon='9.67456698149' />
  <node id='-181242183' action='modify' lat='57.22368995282' lon='9.67437741776'>
    <tag k='name' v='pan' />
  </node>
  <node id='-181242184' action='modify' lat='57.21715706823' lon='9.67339753032' />
  <node id='-181242185' action='modify' lat='57.21651514338' lon='9.67332779825' />
  <node id='-181242186' action='modify' lat='57.1948142062' lon='9.67308190542'>
    <tag k='name' v='kaa' />
  </node>
  <node id='-181242187' action='modify' lat='57.19189584053' lon='9.67304884851' />
  <node id='-181242188' action='modify' lat='57.18932051462' lon='9.67416464746' />
  <node id='-181242189' action='modify' lat='57.17651964269' lon='9.68551917124'>
    <tag k='name' v='rod' />
  </node>
  <node id='-181242190' action='modify' lat='57.16344975528' lon='9.69710825801' />
  <node id='-181242191' action='modify' lat='57.16046103019' lon='9.70419561819'>
    <tag k='name' v='rya' />
  </node>
  <node id='-181242192' action='modify' lat='57.16039827176' lon='9.7071611774' />
  <node id='-181242194' action='modify' lat='57.16120505643' lon='9.7283425044'>
    <tag k='name' v='aab' />
  </node>
  <node id='-181242195' action='modify' lat='57.45600939141' lon='9.97732400358' />
  <node id='-181242196' action='modify' lat='57.45640970018' lon='9.97768523937'>
    <tag k='name' v='hjv' />
  </node>
  <node id='-181242197' action='modify' lat='57.45690108425' lon='9.97812866628' />
  <node id='-181242198' action='modify' lat='57.46077637685' lon='9.97634231508' />
  <node id='-181242199' action='modify' lat='57.46227964605' lon='9.97140166998' />
  <node id='-181242200' action='modify' lat='57.46325484823' lon='9.96707260072' />
  <way id='-38793946' action='modify'>
    <nd ref='-181242112' />
    <nd ref='-181242111' />
    <tag k='type' v='straight' />
  </way>
  <way id='-38793947' action='modify'>
    <nd ref='-181242111' />
    <nd ref='-181242113' />
  </way>
  <way id='-38793948' action='modify'>
    <nd ref='-181242113' />
    <nd ref='-181242114' />
    <tag k='type' v='straight' />
  </way>
  <way id='-38793949' action='modify'>
    <nd ref='-181242114' />
    <nd ref='-181242115' />
  </way>
  <way id='-38793950' action='modify'>
    <nd ref='-181242115' />
    <nd ref='-181242116' />
    <tag k='type' v='straight' />
  </way>
  <way id='-38793951' action='modify'>
    <nd ref='-181242116' />
    <nd ref='-181242117' />
  </way>
  <way id='-38793952' action='modify'>
    <nd ref='-181242117' />
    <nd ref='-181242118' />
    <tag k='type' v='straight' />
  </way>
  <way id='-38793953' action='modify'>
    <nd ref='-181242118' />
    <nd ref='-181242119' />
  </way>
  <way id='-38793954' action='modify'>
    <nd ref='-181242119' />
    <nd ref='-181242120' />
    <nd ref='-181242121' />
    <tag k='type' v='straight' />
  </way>
  <way id='-38793955' action='modify'>
    <nd ref='-181242121' />
    <nd ref='-181242122' />
  </way>
  <way id='-38793956' action='modify'>
    <nd ref='-181242122' />
    <nd ref='-181242123' />
    <nd ref='-181242124' />
    <tag k='type' v='straight' />
  </way>
  <way id='-38793957' action='modify'>
    <nd ref='-181242124' />
    <nd ref='-181242125' />
  </way>
  <way id='-38793958' action='modify'>
    <nd ref='-181242125' />
    <nd ref='-181242126' />
    <tag k='type' v='straight' />
  </way>
  <way id='-38793959' action='modify'>
    <nd ref='-181242126' />
    <nd ref='-181242127' />
  </way>
  <way id='-38793960' action='modify'>
    <nd ref='-181242127' />
    <nd ref='-181242128' />
    <nd ref='-181242129' />
    <tag k='type' v='straight' />
  </way>
  <way id='-38793961' action='modify'>
    <nd ref='-181242129' />
    <nd ref='-181242130' />
    <nd ref='-181242131' />
    <nd ref='-181242132' />
  </way>
  <way id='-38793962' action='modify'>
    <nd ref='-181242132' />
    <nd ref='-181242133' />
    <nd ref='-181242134' />
    <nd ref='-181242135' />
    <nd ref='-181242136' />
    <tag k='type' v='straight' />
  </way>
  <way id='-38793963' action='modify'>
    <nd ref='-181242136' />
    <nd ref='-181242137' />
  </way>
  <way id='-38793964' action='modify'>
    <nd ref='-181242137' />
    <nd ref='-181242138' />
    <nd ref='-181242139' />
    <tag k='type' v='straight' />
  </way>
  <way id='-38793965' action='modify'>
    <nd ref='-181242139' />
    <nd ref='-181242140' />
  </way>
  <way id='-38793966' action='modify'>
    <nd ref='-181242140' />
    <nd ref='-181242141' />
    <tag k='type' v='straight' />
  </way>
  <way id='-38793967' action='modify'>
    <nd ref='-181242141' />
    <nd ref='-181242142' />
  </way>
  <way id='-38793968' action='modify'>
    <nd ref='-181242142' />
    <nd ref='-181242143' />
    <nd ref='-181242144' />
    <nd ref='-181242145' />
    <tag k='type' v='straight' />
  </way>
  <way id='-38793969' action='modify'>
    <nd ref='-181242145' />
    <nd ref='-181242146' />
  </way>
  <way id='-38793970' action='modify'>
    <nd ref='-181242146' />
    <nd ref='-181242147' />
    <tag k='type' v='straight' />
  </way>
  <way id='-38793971' action='modify'>
    <nd ref='-181242147' />
    <nd ref='-181242148' />
  </way>
  <way id='-38793972' action='modify'>
    <nd ref='-181242148' />
    <nd ref='-181242149' />
    <nd ref='-181242150' />
    <tag k='type' v='straight' />
  </way>
  <way id='-38793973' action='modify'>
    <nd ref='-181242150' />
    <nd ref='-181242151' />
  </way>
  <way id='-38793974' action='modify'>
    <nd ref='-181242151' />
    <nd ref='-181242152' />
    <tag k='type' v='straight' />
  </way>
  <way id='-38793975' action='modify'>
    <nd ref='-181242152' />
    <nd ref='-181242153' />
  </way>
  <way id='-38793976' action='modify'>
    <nd ref='-181242153' />
    <nd ref='-181242154' />
    <nd ref='-181242155' />
    <tag k='type' v='straight' />
  </way>
  <way id='-38793977' action='modify'>
    <nd ref='-181242155' />
    <nd ref='-181242156' />
  </way>
  <way id='-38793978' action='modify'>
    <nd ref='-181242156' />
    <nd ref='-181242157' />
    <tag k='type' v='straight' />
  </way>
  <way id='-38793979' action='modify'>
    <nd ref='-181242157' />
    <nd ref='-181242158' />
  </way>
  <way id='-38793980' action='modify'>
    <nd ref='-181242158' />
    <nd ref='-181242159' />
    <tag k='type' v='straight' />
  </way>
  <way id='-38793981' action='modify'>
    <nd ref='-181242159' />
    <nd ref='-181242160' />
  </way>
  <way id='-38793982' action='modify'>
    <nd ref='-181242160' />
    <nd ref='-181242161' />
    <nd ref='-181242162' />
    <tag k='type' v='straight' />
  </way>
  <way id='-38793983' action='modify'>
    <nd ref='-181242162' />
    <nd ref='-181242163' />
  </way>
  <way id='-38793984' action='modify'>
    <nd ref='-181242163' />
    <nd ref='-181242164' />
    <tag k='type' v='straight' />
  </way>
  <way id='-38793985' action='modify'>
    <nd ref='-181242164' />
    <nd ref='-181242165' />
  </way>
  <way id='-38793986' action='modify'>
    <nd ref='-181242165' />
    <nd ref='-181242166' />
    <tag k='type' v='straight' />
  </way>
  <way id='-38793987' action='modify'>
    <nd ref='-181242166' />
    <nd ref='-181242167' />
  </way>
  <way id='-38793988' action='modify'>
    <nd ref='-181242167' />
    <nd ref='-181242168' />
    <nd ref='-181242169' />
    <tag k='type' v='straight' />
  </way>
  <way id='-38793989' action='modify'>
    <nd ref='-181242169' />
    <nd ref='-181242170' />
  </way>
  <way id='-38793990' action='modify'>
    <nd ref='-181242170' />
    <nd ref='-181242171' />
    <tag k='type' v='straight' />
  </way>
  <way id='-38793991' action='modify'>
    <nd ref='-181242171' />
    <nd ref='-181242172' />
  </way>
  <way id='-38793992' action='modify'>
    <nd ref='-181242172' />
    <nd ref='-181242173' />
    <tag k='type' v='straight' />
  </way>
  <way id='-38793993' action='modify'>
    <nd ref='-181242173' />
    <nd ref='-181242174' />
  </way>
  <way id='-38793994' action='modify'>
    <nd ref='-181242174' />
    <nd ref='-181242175' />
    <nd ref='-181242176' />
    <tag k='type' v='straight' />
  </way>
  <way id='-38793995' action='modify'>
    <nd ref='-181242176' />
    <nd ref='-181242177' />
  </way>
  <way id='-38793996' action='modify'>
    <nd ref='-181242177' />
    <nd ref='-181242178' />
    <nd ref='-181242179' />
    <tag k='type' v='straight' />
  </way>
  <way id='-38793997' action='modify'>
    <nd ref='-181242179' />
    <nd ref='-181242180' />
  </way>
  <way id='-38793998' action='modify'>
    <nd ref='-181242180' />
    <nd ref='-181242181' />
    <tag k='type' v='straight' />
  </way>
  <way id='-38793999' action='modify'>
    <nd ref='-181242181' />
    <nd ref='-181242182' />
  </way>
  <way id='-38794000' action='modify'>
    <nd ref='-181242182' />
    <nd ref='-181242183' />
    <nd ref='-181242184' />
    <tag k='type' v='straight' />
  </way>
  <way id='-38794001' action='modify'>
    <nd ref='-181242184' />
    <nd ref='-181242185' />
  </way>
  <way id='-38794002' action='modify'>
    <nd ref='-181242185' />
    <nd ref='-181242186' />
    <nd ref='-181242187' />
    <tag k='type' v='straight' />
  </way>
  <way id='-38794003' action='modify'>
    <nd ref='-181242187' />
    <nd ref='-181242188' />
  </way>
  <way id='-38794004' action='modify'>
    <nd ref='-181242188' />
    <nd ref='-181242189' />
    <nd ref='-181242190' />
    <tag k='type' v='straight' />
  </way>
  <way id='-38794005' action='modify'>
    <nd ref='-181242190' />
    <nd ref='-181242191' />
    <nd ref='-181242192' />
  </way>
  <way id='-38794006' action='modify'>
    <nd ref='-181242192' />
    <nd ref='-181242194' />
    <tag k='type' v='straight' />
  </way>
  <way id='-38794007' action='modify'>
    <nd ref='-181242195' />
    <nd ref='-181242196' />
    <nd ref='-181242197' />
    <tag k='type' v='straight' />
  </way>
  <way id='-38794008' action='modify'>
    <nd ref='-181242197' />
    <nd ref='-181242198' />
  </way>
  <way id='-38794009' action='modify'>
    <nd ref='-181242198' />
    <nd ref='-181242199' />
    <tag k='type' v='straight' />
  </way>
  <way id='-38794010' action='modify'>
    <nd ref='-181242199' />
    <nd ref='-181242200' />
  </way>
  <way id='-38794011' action='modify'>
    <nd ref='-181242200' />
    <nd ref='-181242119' />
    <tag k='type' v='straight' />
  </way>
  <relation id='-14490772' action='modify'>
    <member type='way' ref='-38793946' role='' />
    <member type='way' ref='-38793947' role='' />
    <member type='way' ref='-38793948' role='' />
    <member type='way' ref='-38793949' role='' />
    <member type='way' ref='-38793950' role='' />
    <member type='way' ref='-38793951' role='' />
    <member type='way' ref='-38793952' role='' />
    <member type='way' ref='-38793953' role='' />
    <member type='way' ref='-38793954' role='' />
    <member type='way' ref='-38793955' role='' />
    <member type='way' ref='-38793956' role='' />
    <member type='way' ref='-38793957' role='' />
    <member type='way' ref='-38793958' role='' />
    <member type='way' ref='-38793959' role='' />
    <member type='way' ref='-38793960' role='' />
    <member type='way' ref='-38793961' role='' />
    <member type='way' ref='-38793962' role='' />
    <member type='way' ref='-38793963' role='' />
    <member type='way' ref='-38793964' role='' />
    <member type='way' ref='-38793965' role='' />
    <member type='way' ref='-38793966' role='' />
    <member type='way' ref='-38793967' role='' />
    <member type='way' ref='-38793968' role='' />
    <member type='way' ref='-38793969' role='' />
    <member type='way' ref='-38793970' role='' />
    <member type='way' ref='-38793971' role='' />
    <member type='way' ref='-38793972' role='' />
    <member type='way' ref='-38793973' role='' />
    <member type='way' ref='-38793974' role='' />
    <member type='way' ref='-38793975' role='' />
    <member type='way' ref='-38793976' role='' />
    <member type='way' ref='-38793977' role='' />
    <member type='way' ref='-38793978' role='' />
    <member type='way' ref='-38793979' role='' />
    <member type='way' ref='-38793980' role='' />
    <member type='way' ref='-38793981' role='' />
    <member type='way' ref='-38793982' role='' />
    <member type='way' ref='-38793983' role='' />
    <member type='way' ref='-38793984' role='' />
    <member type='way' ref='-38793985' role='' />
    <member type='way' ref='-38793986' role='' />
    <member type='way' ref='-38793987' role='' />
    <member type='way' ref='-38793988' role='' />
    <member type='way' ref='-38793989' role='' />
    <member type='way' ref='-38793990' role='' />
    <member type='way' ref='-38793991' role='' />
    <member type='way' ref='-38793992' role='' />
    <member type='way' ref='-38793993' role='' />
    <member type='way' ref='-38793994' role='' />
    <member type='way' ref='-38793995' role='' />
    <member type='way' ref='-38793996' role='' />
    <member type='way' ref='-38793997' role='' />
    <member type='way' ref='-38793998' role='' />
    <member type='way' ref='-38793999' role='' />
    <member type='way' ref='-38794000' role='' />
    <member type='way' ref='-38794001' role='' />
    <member type='way' ref='-38794002' role='' />
    <member type='way' ref='-38794003' role='' />
    <member type='way' ref='-38794004' role='' />
    <member type='way' ref='-38794005' role='' />
    <member type='way' ref='-38794006' role='' />
    <tag k='key' v='path.dk.hla' />
    <tag k='name' v='DK HLA' />
    <tag k='type' v='path' />
  </relation>
  <relation id='-14490773' action='modify'>
    <member type='way' ref='-38794007' role='' />
    <member type='way' ref='-38794008' role='' />
    <member type='way' ref='-38794009' role='' />
    <member type='way' ref='-38794010' role='' />
    <member type='way' ref='-38794011' role='' />
    <member type='way' ref='-38793954' role='' />
    <tag k='key' v='path.dk.hla.hjv' />
    <tag k='name' v='DK HLA (Hjv)' />
    <tag k='type' v='path' />
  </relation>
</osm>
