<?xml version='1.0' encoding='UTF-8'?>
<osm version='0.6' upload='false' generator='JOSM'>
  <node id='-143839562' action='modify' lat='55.3528513728' lon='12.2279950963' />
  <node id='-143839563' action='modify' lat='55.35186917759' lon='12.22747135251'>
    <tag k='name' v='har' />
  </node>
  <node id='-143839564' action='modify' lat='55.35603979302' lon='12.23514519565' />
  <node id='-143839565' action='modify' lat='55.3549035719' lon='12.24944083298'>
    <tag k='name' v='amm' />
  </node>
  <node id='-143839566' action='modify' lat='55.35250126864' lon='12.2796646345'>
    <tag k='name' v='var' />
  </node>
  <node id='-143839567' action='modify' lat='55.35216283662' lon='12.28392236017' />
  <node id='-143839568' action='modify' lat='55.35206261422' lon='12.28518985145' />
  <node id='-143839569' action='modify' lat='55.35068875101' lon='12.30261836697' />
  <node id='-143839570' action='modify' lat='55.35063144879' lon='12.30336718194' />
  <node id='-143839571' action='modify' lat='55.34986514023' lon='12.31311969392' />
  <node id='-143839572' action='modify' lat='55.34679899551' lon='12.32425555453' />
  <node id='-143839573' action='modify' lat='55.34635045815' lon='12.32509764343'>
    <tag k='name' v='kli' />
  </node>
  <node id='-143839574' action='modify' lat='55.33842326739' lon='12.33997866377' />
  <node id='-143839575' action='modify' lat='55.33657876715' lon='12.34314601835' />
  <node id='-143839576' action='modify' lat='55.33153832456' lon='12.35119834408' />
  <node id='-143839577' action='modify' lat='55.33045467198' lon='12.35302694075' />
  <node id='-143839578' action='modify' lat='55.32960106213' lon='12.35453180526'>
    <tag k='name' v='rab' />
  </node>
  <node id='-143839579' action='modify' lat='55.32170338807' lon='12.36845340819'>
    <tag k='name' v='bja' />
  </node>
  <node id='-143839580' action='modify' lat='55.31303321506' lon='12.38373353809' />
  <node id='-143839581' action='modify' lat='55.31031455777' lon='12.38577872448' />
  <node id='-143839582' action='modify' lat='55.3094110907' lon='12.38572439638'>
    <tag k='name' v='she' />
  </node>
  <node id='-143839583' action='modify' lat='55.29682586488' lon='12.38496773889'>
    <tag k='name' v='sto' />
  </node>
  <node id='-143839584' action='modify' lat='55.29648484177' lon='12.38494723901' />
  <node id='-143839585' action='modify' lat='55.29493407967' lon='12.38475076787' />
  <node id='-143839586' action='modify' lat='55.27172802896' lon='12.37999118797' />
  <node id='-143839587' action='modify' lat='55.2711787043' lon='12.37989663944'>
    <tag k='name' v='lhe' />
  </node>
  <node id='-143839588' action='modify' lat='55.26678230181' lon='12.38104797833' />
  <node id='-143839589' action='modify' lat='55.26520287105' lon='12.38214969501' />
  <node id='-143839590' action='modify' lat='55.2617152154' lon='12.38060943715' />
  <node id='-143839591' action='modify' lat='55.26020856672' lon='12.37746588819' />
  <node id='-143839592' action='modify' lat='55.25931479214' lon='12.37625151604'>
    <tag k='name' v='rod.2024' />
  </node>
  <node id='-143839593' action='modify' lat='55.25711523029' lon='12.37675845489' />
  <node id='-143839594' action='modify' lat='55.25630736926' lon='12.37766235933' />
  <node id='-143839595' action='modify' lat='55.25509703154' lon='12.37851765184'>
    <tag k='name' v='rod' />
  </node>
  <node id='-143839596' action='modify' lat='55.25483147098' lon='12.37854078278' />
  <node id='-143839597' action='modify' lat='55.25377209229' lon='12.37853273615'>
    <tag k='name' v='rod.f' />
  </node>
  <way id='-36349696' action='modify'>
    <nd ref='-143839563' />
    <nd ref='-143839562' />
    <tag k='type' v='straight' />
  </way>
  <way id='-36349697' action='modify'>
    <nd ref='-143839562' />
    <nd ref='-143839564' />
  </way>
  <way id='-36349698' action='modify'>
    <nd ref='-143839564' />
    <nd ref='-143839565' />
    <nd ref='-143839566' />
    <nd ref='-143839567' />
    <tag k='type' v='straight' />
  </way>
  <way id='-36349699' action='modify'>
    <nd ref='-143839567' />
    <nd ref='-143839568' />
  </way>
  <way id='-36349700' action='modify'>
    <nd ref='-143839568' />
    <nd ref='-143839569' />
    <tag k='type' v='straight' />
  </way>
  <way id='-36349701' action='modify'>
    <nd ref='-143839569' />
    <nd ref='-143839570' />
  </way>
  <way id='-36349702' action='modify'>
    <nd ref='-143839570' />
    <nd ref='-143839571' />
    <tag k='type' v='straight' />
  </way>
  <way id='-36349703' action='modify'>
    <nd ref='-143839571' />
    <nd ref='-143839572' />
  </way>
  <way id='-36349704' action='modify'>
    <nd ref='-143839572' />
    <nd ref='-143839573' />
    <nd ref='-143839574' />
    <tag k='type' v='straight' />
  </way>
  <way id='-36349705' action='modify'>
    <nd ref='-143839574' />
    <nd ref='-143839575' />
  </way>
  <way id='-36349706' action='modify'>
    <nd ref='-143839575' />
    <nd ref='-143839576' />
    <tag k='type' v='straight' />
  </way>
  <way id='-36349707' action='modify'>
    <nd ref='-143839576' />
    <nd ref='-143839577' />
  </way>
  <way id='-36349708' action='modify'>
    <nd ref='-143839577' />
    <nd ref='-143839578' />
    <nd ref='-143839579' />
    <nd ref='-143839580' />
    <tag k='type' v='straight' />
  </way>
  <way id='-36349709' action='modify'>
    <nd ref='-143839580' />
    <nd ref='-143839581' />
  </way>
  <way id='-36349710' action='modify'>
    <nd ref='-143839581' />
    <nd ref='-143839582' />
    <nd ref='-143839583' />
    <nd ref='-143839584' />
    <tag k='type' v='straight' />
  </way>
  <way id='-36349711' action='modify'>
    <nd ref='-143839584' />
    <nd ref='-143839585' />
  </way>
  <way id='-36349712' action='modify'>
    <nd ref='-143839585' />
    <nd ref='-143839586' />
    <tag k='type' v='straight' />
  </way>
  <way id='-36349713' action='modify'>
    <nd ref='-143839586' />
    <nd ref='-143839587' />
    <nd ref='-143839588' />
  </way>
  <way id='-36349714' action='modify'>
    <nd ref='-143839588' />
    <nd ref='-143839589' />
    <tag k='type' v='straight' />
  </way>
  <way id='-36349715' action='modify'>
    <nd ref='-143839589' />
    <nd ref='-143839590' />
  </way>
  <way id='-36349716' action='modify'>
    <nd ref='-143839590' />
    <nd ref='-143839591' />
    <tag k='type' v='straight' />
  </way>
  <way id='-36349717' action='modify'>
    <nd ref='-143839591' />
    <nd ref='-143839592' />
    <nd ref='-143839593' />
  </way>
  <way id='-36349718' action='modify'>
    <nd ref='-143839593' />
    <nd ref='-143839594' />
    <tag k='type' v='straight' />
  </way>
  <way id='-36349719' action='modify'>
    <nd ref='-143839594' />
    <nd ref='-143839595' />
    <nd ref='-143839596' />
  </way>
  <way id='-36349720' action='modify'>
    <nd ref='-143839596' />
    <nd ref='-143839597' />
    <tag k='type' v='straight' />
  </way>
  <relation id='-14467332' action='modify'>
    <member type='way' ref='-36349696' role='' />
    <member type='way' ref='-36349697' role='' />
    <member type='way' ref='-36349698' role='' />
    <member type='way' ref='-36349699' role='' />
    <member type='way' ref='-36349700' role='' />
    <member type='way' ref='-36349701' role='' />
    <member type='way' ref='-36349702' role='' />
    <member type='way' ref='-36349703' role='' />
    <member type='way' ref='-36349704' role='' />
    <member type='way' ref='-36349705' role='' />
    <member type='way' ref='-36349706' role='' />
    <member type='way' ref='-36349707' role='' />
    <member type='way' ref='-36349708' role='' />
    <member type='way' ref='-36349709' role='' />
    <member type='way' ref='-36349710' role='' />
    <member type='way' ref='-36349711' role='' />
    <member type='way' ref='-36349712' role='' />
    <member type='way' ref='-36349713' role='' />
    <member type='way' ref='-36349714' role='' />
    <member type='way' ref='-36349715' role='' />
    <member type='way' ref='-36349716' role='' />
    <member type='way' ref='-36349717' role='' />
    <member type='way' ref='-36349718' role='' />
    <member type='way' ref='-36349719' role='' />
    <member type='way' ref='-36349720' role='' />
    <tag k='key' v='path.dk.hlr' />
    <tag k='name' v='DK HLR' />
    <tag k='type' v='path' />
  </relation>
</osm>
