<?xml version='1.0' encoding='UTF-8'?>
<osm version='0.6' upload='false' generator='JOSM'>
  <node id='-175391708' action='modify' lat='56.64493825389' lon='9.78249907225'>
    <tag k='name' v='hob' />
  </node>
  <node id='-175391709' action='modify' lat='56.64598014873' lon='9.78256076306' />
  <node id='-175391710' action='modify' lat='56.64881590354' lon='9.78199213475' />
  <node id='-175391711' action='modify' lat='56.64926712723' lon='9.78177755803' />
  <node id='-175391712' action='modify' lat='56.65666509779' lon='9.78428341314' />
  <node id='-175391714' action='modify' lat='56.66162133396' lon='9.79085668023' />
  <node id='-175391715' action='modify' lat='56.66405130181' lon='9.79286312521' />
  <node id='-175391716' action='modify' lat='56.66815469503' lon='9.79390918672' />
  <node id='-175391717' action='modify' lat='56.67441946543' lon='9.78495061129' />
  <node id='-175391718' action='modify' lat='56.6746493455' lon='9.78181779116' />
  <node id='-175391719' action='modify' lat='56.68015868101' lon='9.77267145574' />
  <node id='-175391720' action='modify' lat='56.68289610335' lon='9.77260171831' />
  <node id='-175391721' action='modify' lat='56.68636105878' lon='9.77017700136' />
  <node id='-175391722' action='modify' lat='56.68645828507' lon='9.76998924673' />
  <node id='-175391723' action='modify' lat='56.68868853134' lon='9.7650325191' />
  <node id='-175391724' action='modify' lat='56.69039426456' lon='9.75975393981' />
  <node id='-175391725' action='modify' lat='56.69147835617' lon='9.75316106737' />
  <node id='-175391726' action='modify' lat='56.69168057593' lon='9.74376316589'>
    <tag k='name' v='dos' />
  </node>
  <node id='-175391727' action='modify' lat='56.69176115717' lon='9.74001824319' />
  <node id='-175391728' action='modify' lat='56.69200566048' lon='9.73734676301' />
  <node id='-175391729' action='modify' lat='56.69245342146' lon='9.73551749647' />
  <node id='-175391730' action='modify' lat='56.69380550948' lon='9.73182141244' />
  <node id='-175391731' action='modify' lat='56.69776428532' lon='9.72590982378' />
  <node id='-175391732' action='modify' lat='56.6997346815' lon='9.71834062994' />
  <node id='-175391733' action='modify' lat='56.69975235274' lon='9.71614658296' />
  <node id='-175391734' action='modify' lat='56.69927817433' lon='9.71191405177' />
  <node id='-175391735' action='modify' lat='56.6970382449' lon='9.70462381572' />
  <node id='-175391736' action='modify' lat='56.69664074225' lon='9.70323248996'>
    <tag k='name' v='ror' />
  </node>
  <node id='-175391737' action='modify' lat='56.69635932102' lon='9.69606756628' />
  <node id='-175391738' action='modify' lat='56.70039144054' lon='9.67175561532'>
    <tag k='name' v='gry' />
  </node>
  <node id='-175391739' action='modify' lat='56.70591027734' lon='9.63847517431' />
  <node id='-175391740' action='modify' lat='56.70607223983' lon='9.63350771785' />
  <node id='-175391741' action='modify' lat='56.70570192723' lon='9.62921881389'>
    <tag k='name' v='nor' />
  </node>
  <node id='-175391742' action='modify' lat='56.70498562221' lon='9.62092279851' />
  <node id='-175391743' action='modify' lat='56.70338656306' lon='9.6154135412' />
  <node id='-175391744' action='modify' lat='56.70037378635' lon='9.61006521642' />
  <node id='-175391745' action='modify' lat='56.69814718055' lon='9.60458814561' />
  <node id='-175391746' action='modify' lat='56.69713096471' lon='9.60032500177'>
    <tag k='name' v='bol' />
  </node>
  <node id='-175391747' action='modify' lat='56.6924475299' lon='9.58067893445' />
  <node id='-175391748' action='modify' lat='56.6918878307' lon='9.5753252399' />
  <node id='-175391749' action='modify' lat='56.69256536382' lon='9.56925271869' />
  <node id='-175391750' action='modify' lat='56.69358753202' lon='9.56510602355' />
  <node id='-175391751' action='modify' lat='56.69561263479' lon='9.56014394492' />
  <node id='-175391752' action='modify' lat='56.6959248598' lon='9.55928027362'>
    <tag k='name' v='sim' />
  </node>
  <node id='-175391753' action='modify' lat='56.6973195329' lon='9.55428063333' />
  <node id='-175391754' action='modify' lat='56.7011895894' lon='9.53221677661' />
  <node id='-175391755' action='modify' lat='56.7007596031' lon='9.52059744716' />
  <node id='-175391756' action='modify' lat='56.69570542922' lon='9.50596330404'>
    <tag k='name' v='aal.xh' />
  </node>
  <node id='-175391757' action='modify' lat='56.69498670862' lon='9.49893592715'>
    <tag k='name' v='aal.yh' />
  </node>
  <node id='-175391758' action='modify' lat='56.69514845432' lon='9.49541998097'>
    <tag k='name' v='aal' />
  </node>
  <node id='-175391759' action='modify' lat='56.69567596513' lon='9.48395311296' />
  <node id='-175391760' action='modify' lat='56.69823774795' lon='9.47601780027' />
  <node id='-175391761' action='modify' lat='56.70294334808' lon='9.47049915522' />
  <node id='-175391762' action='modify' lat='56.70528598891' lon='9.46416109532' />
  <node id='-175391763' action='modify' lat='56.7056261088' lon='9.46093976229' />
  <node id='-175391764' action='modify' lat='56.70960958503' lon='9.45303871409'>
    <tag k='name' v='obo' />
  </node>
  <node id='-175391765' action='modify' lat='56.71080114684' lon='9.45266112417' />
  <node id='-175391766' action='modify' lat='56.72348323594' lon='9.4516459094' />
  <node id='-175391767' action='modify' lat='56.72840419585' lon='9.45639341801' />
  <node id='-175391768' action='modify' lat='56.73075113702' lon='9.46298896998' />
  <node id='-175391769' action='modify' lat='56.73526656338' lon='9.46743607253' />
  <node id='-175391770' action='modify' lat='56.74149957935' lon='9.46776598424' />
  <node id='-175391771' action='modify' lat='56.745454809' lon='9.47118311852' />
  <node id='-175391772' action='modify' lat='56.74725566896' lon='9.47477915154'>
    <tag k='name' v='oru' />
  </node>
  <node id='-175391773' action='modify' lat='56.7477315616' lon='9.4757294628' />
  <node id='-175391774' action='modify' lat='56.75115819802' lon='9.47923242509' />
  <node id='-175391775' action='modify' lat='56.77113381229' lon='9.48498040169' />
  <node id='-175391776' action='modify' lat='56.77670838743' lon='9.4915518111' />
  <node id='-175391777' action='modify' lat='56.7813049859' lon='9.50419038266' />
  <node id='-175391778' action='modify' lat='56.78585694581' lon='9.50858115882' />
  <node id='-175391779' action='modify' lat='56.7871542561' lon='9.50855165452' />
  <node id='-175391780' action='modify' lat='56.78987214611' lon='9.50989543855' />
  <node id='-175391781' action='modify' lat='56.7908461292' lon='9.51093345612' />
  <node id='-175391782' action='modify' lat='56.79491367364' lon='9.51192050904' />
  <node id='-175391783' action='modify' lat='56.79722561674' lon='9.51096027821' />
  <node id='-175391784' action='modify' lat='56.79945957773' lon='9.5109200424' />
  <node id='-175391785' action='modify' lat='56.80226416387' lon='9.51154858654'>
    <tag k='name' v='aar' />
  </node>
  <node id='-175391786' action='modify' lat='56.80443814372' lon='9.51203583598' />
  <node id='-175391787' action='modify' lat='56.80706292565' lon='9.51148474098' />
  <node id='-175391788' action='modify' lat='56.81110961154' lon='9.5087139388' />
  <node id='-175391789' action='modify' lat='56.81505539625' lon='9.50192793936'>
    <tag k='name' v='aar.xs' />
  </node>
  <node id='-175391790' action='modify' lat='56.8231877279' lon='9.46884691447' />
  <node id='-175391791' action='modify' lat='56.82411828289' lon='9.46627467602' />
  <node id='-175391792' action='modify' lat='56.83327288951' lon='9.44838970631' />
  <node id='-175391793' action='modify' lat='56.83469474855' lon='9.44300651416' />
  <node id='-175391794' action='modify' lat='56.83519803656' lon='9.43698495358' />
  <node id='-175391795' action='modify' lat='56.83684211008' lon='9.43135902017' />
  <node id='-175391796' action='modify' lat='56.84145419752' lon='9.42291160572'>
    <tag k='name' v='hor' />
  </node>
  <node id='-175391797' action='modify' lat='56.84867716178' lon='9.40968006581' />
  <node id='-175391798' action='modify' lat='56.85561874843' lon='9.40572380751' />
  <node id='-175391799' action='modify' lat='56.85745769378' lon='9.40623879164' />
  <node id='-175391800' action='modify' lat='56.86085671843' lon='9.40504252642' />
  <node id='-175391801' action='modify' lat='56.86227606441' lon='9.40362363786' />
  <node id='-175391802' action='modify' lat='56.86837512149' lon='9.40472602308' />
  <node id='-175391803' action='modify' lat='56.86858702031' lon='9.40505164493'>
    <tag k='name' v='oje' />
  </node>
  <node id='-175391804' action='modify' lat='56.86949219649' lon='9.40644263685' />
  <node id='-175391805' action='modify' lat='56.87381358301' lon='9.40877616137' />
  <node id='-175391806' action='modify' lat='56.8763463761' lon='9.40817266434' />
  <node id='-175391807' action='modify' lat='56.8798843773' lon='9.40439074963' />
  <node id='-175391808' action='modify' lat='56.88097914798' lon='9.40169101014'>
    <tag k='name' v='gat' />
  </node>
  <node id='-175391809' action='modify' lat='56.88356272272' lon='9.39531951874' />
  <node id='-175391810' action='modify' lat='56.89158788099' lon='9.38738822401' />
  <node id='-175391811' action='modify' lat='56.90137632495' lon='9.38616513938' />
  <node id='-175391812' action='modify' lat='56.90656980998' lon='9.37826603383' />
  <node id='-175391813' action='modify' lat='56.90787392546' lon='9.36700612172' />
  <node id='-175391814' action='modify' lat='56.91825617088' lon='9.35258924693' />
  <node id='-175391815' action='modify' lat='56.9229203223' lon='9.35147076577' />
  <node id='-175391816' action='modify' lat='56.9259474633' lon='9.35000896186'>
    <tag k='name' v='vin' />
  </node>
  <node id='-175391817' action='modify' lat='56.92920414687' lon='9.34675276011' />
  <node id='-175391818' action='modify' lat='56.93611761938' lon='9.33698147267' />
  <node id='-175391819' action='modify' lat='56.93830525433' lon='9.32791292131' />
  <node id='-175391820' action='modify' lat='56.93754288814' lon='9.31078433722' />
  <node id='-175391821' action='modify' lat='56.93918758645' lon='9.30274843901' />
  <node id='-175391822' action='modify' lat='56.9454555047' lon='9.29146170348' />
  <node id='-175391823' action='modify' lat='56.94769818029' lon='9.28911208838' />
  <node id='-175391824' action='modify' lat='56.94970520934' lon='9.28809284896' />
  <node id='-175391825' action='modify' lat='56.95345273965' lon='9.28332119912' />
  <node id='-175391826' action='modify' lat='56.95458189818' lon='9.28026348084' />
  <node id='-175391827' action='modify' lat='56.95674943567' lon='9.27688121527' />
  <node id='-175391828' action='modify' lat='56.96430996623' lon='9.27051096886' />
  <node id='-175391829' action='modify' lat='56.96709103804' lon='9.26540135801' />
  <node id='-175391830' action='modify' lat='56.96896602138' lon='9.25833390079'>
    <tag k='name' v='log' />
  </node>
  <node id='-175391831' action='modify' lat='56.96992453343' lon='9.25472080171' />
  <way id='-38333151' action='modify'>
    <nd ref='-175391708' />
    <nd ref='-175391709' />
    <tag k='type' v='straight' />
  </way>
  <way id='-38333152' action='modify'>
    <nd ref='-175391709' />
    <nd ref='-175391710' />
  </way>
  <way id='-38333153' action='modify'>
    <nd ref='-175391710' />
    <nd ref='-175391711' />
    <tag k='type' v='straight' />
  </way>
  <way id='-38333154' action='modify'>
    <nd ref='-175391711' />
    <nd ref='-175391712' />
  </way>
  <way id='-38333156' action='modify'>
    <nd ref='-175391712' />
    <nd ref='-175391714' />
    <tag k='type' v='straight' />
  </way>
  <way id='-38333157' action='modify'>
    <nd ref='-175391714' />
    <nd ref='-175391715' />
  </way>
  <way id='-38333158' action='modify'>
    <nd ref='-175391715' />
    <nd ref='-175391716' />
    <tag k='type' v='straight' />
  </way>
  <way id='-38333159' action='modify'>
    <nd ref='-175391716' />
    <nd ref='-175391717' />
  </way>
  <way id='-38333160' action='modify'>
    <nd ref='-175391717' />
    <nd ref='-175391718' />
    <tag k='type' v='straight' />
  </way>
  <way id='-38333161' action='modify'>
    <nd ref='-175391718' />
    <nd ref='-175391719' />
  </way>
  <way id='-38333162' action='modify'>
    <nd ref='-175391719' />
    <nd ref='-175391720' />
    <tag k='type' v='straight' />
  </way>
  <way id='-38333163' action='modify'>
    <nd ref='-175391720' />
    <nd ref='-175391721' />
  </way>
  <way id='-38333164' action='modify'>
    <nd ref='-175391721' />
    <nd ref='-175391722' />
    <tag k='type' v='straight' />
  </way>
  <way id='-38333165' action='modify'>
    <nd ref='-175391722' />
    <nd ref='-175391723' />
  </way>
  <way id='-38333166' action='modify'>
    <nd ref='-175391723' />
    <nd ref='-175391724' />
    <tag k='type' v='straight' />
  </way>
  <way id='-38333167' action='modify'>
    <nd ref='-175391724' />
    <nd ref='-175391725' />
  </way>
  <way id='-38333168' action='modify'>
    <nd ref='-175391725' />
    <nd ref='-175391726' />
    <nd ref='-175391727' />
    <tag k='type' v='straight' />
  </way>
  <way id='-38333169' action='modify'>
    <nd ref='-175391727' />
    <nd ref='-175391728' />
  </way>
  <way id='-38333170' action='modify'>
    <nd ref='-175391728' />
    <nd ref='-175391729' />
    <tag k='type' v='straight' />
  </way>
  <way id='-38333171' action='modify'>
    <nd ref='-175391729' />
    <nd ref='-175391730' />
  </way>
  <way id='-38333172' action='modify'>
    <nd ref='-175391730' />
    <nd ref='-175391731' />
    <tag k='type' v='straight' />
  </way>
  <way id='-38333173' action='modify'>
    <nd ref='-175391731' />
    <nd ref='-175391732' />
  </way>
  <way id='-38333174' action='modify'>
    <nd ref='-175391732' />
    <nd ref='-175391733' />
    <tag k='type' v='straight' />
  </way>
  <way id='-38333175' action='modify'>
    <nd ref='-175391733' />
    <nd ref='-175391734' />
  </way>
  <way id='-38333176' action='modify'>
    <nd ref='-175391734' />
    <nd ref='-175391735' />
    <tag k='type' v='straight' />
  </way>
  <way id='-38333177' action='modify'>
    <nd ref='-175391735' />
    <nd ref='-175391736' />
    <nd ref='-175391737' />
  </way>
  <way id='-38333178' action='modify'>
    <nd ref='-175391737' />
    <nd ref='-175391738' />
    <nd ref='-175391739' />
    <tag k='type' v='straight' />
  </way>
  <way id='-38333179' action='modify'>
    <nd ref='-175391739' />
    <nd ref='-175391740' />
  </way>
  <way id='-38333180' action='modify'>
    <nd ref='-175391740' />
    <nd ref='-175391741' />
    <nd ref='-175391742' />
    <tag k='type' v='straight' />
  </way>
  <way id='-38333181' action='modify'>
    <nd ref='-175391742' />
    <nd ref='-175391743' />
  </way>
  <way id='-38333182' action='modify'>
    <nd ref='-175391743' />
    <nd ref='-175391744' />
    <tag k='type' v='straight' />
  </way>
  <way id='-38333183' action='modify'>
    <nd ref='-175391744' />
    <nd ref='-175391745' />
  </way>
  <way id='-38333184' action='modify'>
    <nd ref='-175391745' />
    <nd ref='-175391746' />
    <nd ref='-175391747' />
    <tag k='type' v='straight' />
  </way>
  <way id='-38333185' action='modify'>
    <nd ref='-175391747' />
    <nd ref='-175391748' />
  </way>
  <way id='-38333186' action='modify'>
    <nd ref='-175391748' />
    <nd ref='-175391749' />
    <tag k='type' v='straight' />
  </way>
  <way id='-38333187' action='modify'>
    <nd ref='-175391749' />
    <nd ref='-175391750' />
  </way>
  <way id='-38333188' action='modify'>
    <nd ref='-175391750' />
    <nd ref='-175391751' />
    <tag k='type' v='straight' />
  </way>
  <way id='-38333189' action='modify'>
    <nd ref='-175391751' />
    <nd ref='-175391752' />
    <nd ref='-175391753' />
  </way>
  <way id='-38333190' action='modify'>
    <nd ref='-175391753' />
    <nd ref='-175391754' />
    <tag k='type' v='straight' />
  </way>
  <way id='-38333191' action='modify'>
    <nd ref='-175391754' />
    <nd ref='-175391755' />
  </way>
  <way id='-38333192' action='modify'>
    <nd ref='-175391755' />
    <nd ref='-175391756' />
    <tag k='type' v='straight' />
  </way>
  <way id='-38333193' action='modify'>
    <nd ref='-175391756' />
    <nd ref='-175391757' />
  </way>
  <way id='-38333194' action='modify'>
    <nd ref='-175391757' />
    <nd ref='-175391758' />
    <nd ref='-175391759' />
    <tag k='type' v='straight' />
  </way>
  <way id='-38333195' action='modify'>
    <nd ref='-175391759' />
    <nd ref='-175391760' />
  </way>
  <way id='-38333196' action='modify'>
    <nd ref='-175391760' />
    <nd ref='-175391761' />
    <tag k='type' v='straight' />
  </way>
  <way id='-38333197' action='modify'>
    <nd ref='-175391761' />
    <nd ref='-175391762' />
  </way>
  <way id='-38333198' action='modify'>
    <nd ref='-175391762' />
    <nd ref='-175391763' />
    <tag k='type' v='straight' />
  </way>
  <way id='-38333199' action='modify'>
    <nd ref='-175391763' />
    <nd ref='-175391764' />
    <nd ref='-175391765' />
  </way>
  <way id='-38333200' action='modify'>
    <nd ref='-175391765' />
    <nd ref='-175391766' />
    <tag k='type' v='straight' />
  </way>
  <way id='-38333201' action='modify'>
    <nd ref='-175391766' />
    <nd ref='-175391767' />
  </way>
  <way id='-38333202' action='modify'>
    <nd ref='-175391767' />
    <nd ref='-175391768' />
    <tag k='type' v='straight' />
  </way>
  <way id='-38333203' action='modify'>
    <nd ref='-175391768' />
    <nd ref='-175391769' />
  </way>
  <way id='-38333204' action='modify'>
    <nd ref='-175391769' />
    <nd ref='-175391770' />
    <tag k='type' v='straight' />
  </way>
  <way id='-38333205' action='modify'>
    <nd ref='-175391770' />
    <nd ref='-175391771' />
  </way>
  <way id='-38333206' action='modify'>
    <nd ref='-175391771' />
    <nd ref='-175391772' />
    <nd ref='-175391773' />
    <tag k='type' v='straight' />
  </way>
  <way id='-38333207' action='modify'>
    <nd ref='-175391773' />
    <nd ref='-175391774' />
  </way>
  <way id='-38333208' action='modify'>
    <nd ref='-175391774' />
    <nd ref='-175391775' />
    <tag k='type' v='straight' />
  </way>
  <way id='-38333209' action='modify'>
    <nd ref='-175391775' />
    <nd ref='-175391776' />
  </way>
  <way id='-38333210' action='modify'>
    <nd ref='-175391776' />
    <nd ref='-175391777' />
    <tag k='type' v='straight' />
  </way>
  <way id='-38333211' action='modify'>
    <nd ref='-175391777' />
    <nd ref='-175391778' />
  </way>
  <way id='-38333212' action='modify'>
    <nd ref='-175391778' />
    <nd ref='-175391779' />
    <tag k='type' v='straight' />
  </way>
  <way id='-38333213' action='modify'>
    <nd ref='-175391779' />
    <nd ref='-175391780' />
  </way>
  <way id='-38333214' action='modify'>
    <nd ref='-175391780' />
    <nd ref='-175391781' />
    <tag k='type' v='straight' />
  </way>
  <way id='-38333215' action='modify'>
    <nd ref='-175391781' />
    <nd ref='-175391782' />
  </way>
  <way id='-38333216' action='modify'>
    <nd ref='-175391782' />
    <nd ref='-175391783' />
    <tag k='type' v='straight' />
  </way>
  <way id='-38333217' action='modify'>
    <nd ref='-175391783' />
    <nd ref='-175391784' />
  </way>
  <way id='-38333218' action='modify'>
    <nd ref='-175391784' />
    <nd ref='-175391785' />
    <nd ref='-175391786' />
    <tag k='type' v='straight' />
  </way>
  <way id='-38333219' action='modify'>
    <nd ref='-175391786' />
    <nd ref='-175391787' />
  </way>
  <way id='-38333220' action='modify'>
    <nd ref='-175391787' />
    <nd ref='-175391788' />
    <tag k='type' v='straight' />
  </way>
  <way id='-38333221' action='modify'>
    <nd ref='-175391788' />
    <nd ref='-175391789' />
  </way>
  <way id='-38333222' action='modify'>
    <nd ref='-175391789' />
    <nd ref='-175391790' />
    <tag k='type' v='straight' />
  </way>
  <way id='-38333223' action='modify'>
    <nd ref='-175391790' />
    <nd ref='-175391791' />
  </way>
  <way id='-38333224' action='modify'>
    <nd ref='-175391791' />
    <nd ref='-175391792' />
    <tag k='type' v='straight' />
  </way>
  <way id='-38333225' action='modify'>
    <nd ref='-175391792' />
    <nd ref='-175391793' />
  </way>
  <way id='-38333226' action='modify'>
    <nd ref='-175391793' />
    <nd ref='-175391794' />
    <tag k='type' v='straight' />
  </way>
  <way id='-38333227' action='modify'>
    <nd ref='-175391794' />
    <nd ref='-175391795' />
  </way>
  <way id='-38333228' action='modify'>
    <nd ref='-175391795' />
    <nd ref='-175391796' />
    <nd ref='-175391797' />
    <tag k='type' v='straight' />
  </way>
  <way id='-38333229' action='modify'>
    <nd ref='-175391797' />
    <nd ref='-175391798' />
  </way>
  <way id='-38333230' action='modify'>
    <nd ref='-175391798' />
    <nd ref='-175391799' />
    <tag k='type' v='straight' />
  </way>
  <way id='-38333231' action='modify'>
    <nd ref='-175391799' />
    <nd ref='-175391800' />
  </way>
  <way id='-38333232' action='modify'>
    <nd ref='-175391800' />
    <nd ref='-175391801' />
    <tag k='type' v='straight' />
  </way>
  <way id='-38333233' action='modify'>
    <nd ref='-175391801' />
    <nd ref='-175391802' />
  </way>
  <way id='-38333234' action='modify'>
    <nd ref='-175391802' />
    <nd ref='-175391803' />
    <nd ref='-175391804' />
    <tag k='type' v='straight' />
  </way>
  <way id='-38333235' action='modify'>
    <nd ref='-175391804' />
    <nd ref='-175391805' />
  </way>
  <way id='-38333236' action='modify'>
    <nd ref='-175391805' />
    <nd ref='-175391806' />
    <tag k='type' v='straight' />
  </way>
  <way id='-38333237' action='modify'>
    <nd ref='-175391806' />
    <nd ref='-175391807' />
  </way>
  <way id='-38333238' action='modify'>
    <nd ref='-175391807' />
    <nd ref='-175391808' />
    <nd ref='-175391809' />
    <tag k='type' v='straight' />
  </way>
  <way id='-38333239' action='modify'>
    <nd ref='-175391809' />
    <nd ref='-175391810' />
  </way>
  <way id='-38333240' action='modify'>
    <nd ref='-175391810' />
    <nd ref='-175391811' />
    <tag k='type' v='straight' />
  </way>
  <way id='-38333241' action='modify'>
    <nd ref='-175391811' />
    <nd ref='-175391812' />
  </way>
  <way id='-38333242' action='modify'>
    <nd ref='-175391812' />
    <nd ref='-175391813' />
    <tag k='type' v='straight' />
  </way>
  <way id='-38333243' action='modify'>
    <nd ref='-175391813' />
    <nd ref='-175391814' />
  </way>
  <way id='-38333244' action='modify'>
    <nd ref='-175391814' />
    <nd ref='-175391815' />
    <tag k='type' v='straight' />
  </way>
  <way id='-38333245' action='modify'>
    <nd ref='-175391815' />
    <nd ref='-175391816' />
    <nd ref='-175391817' />
  </way>
  <way id='-38333246' action='modify'>
    <nd ref='-175391817' />
    <nd ref='-175391818' />
    <tag k='type' v='straight' />
  </way>
  <way id='-38333247' action='modify'>
    <nd ref='-175391818' />
    <nd ref='-175391819' />
  </way>
  <way id='-38333248' action='modify'>
    <nd ref='-175391819' />
    <nd ref='-175391820' />
    <tag k='type' v='straight' />
  </way>
  <way id='-38333249' action='modify'>
    <nd ref='-175391820' />
    <nd ref='-175391821' />
  </way>
  <way id='-38333250' action='modify'>
    <nd ref='-175391821' />
    <nd ref='-175391822' />
    <tag k='type' v='straight' />
  </way>
  <way id='-38333251' action='modify'>
    <nd ref='-175391822' />
    <nd ref='-175391823' />
  </way>
  <way id='-38333252' action='modify'>
    <nd ref='-175391823' />
    <nd ref='-175391824' />
    <tag k='type' v='straight' />
  </way>
  <way id='-38333253' action='modify'>
    <nd ref='-175391824' />
    <nd ref='-175391825' />
  </way>
  <way id='-38333254' action='modify'>
    <nd ref='-175391825' />
    <nd ref='-175391826' />
    <tag k='type' v='straight' />
  </way>
  <way id='-38333255' action='modify'>
    <nd ref='-175391826' />
    <nd ref='-175391827' />
  </way>
  <way id='-38333256' action='modify'>
    <nd ref='-175391827' />
    <nd ref='-175391828' />
    <tag k='type' v='straight' />
  </way>
  <way id='-38333257' action='modify'>
    <nd ref='-175391828' />
    <nd ref='-175391829' />
  </way>
  <way id='-38333258' action='modify'>
    <nd ref='-175391829' />
    <nd ref='-175391830' />
    <nd ref='-175391831' />
    <tag k='type' v='straight' />
  </way>
  <relation id='-14485700' action='modify'>
    <member type='way' ref='-38333151' role='' />
    <member type='way' ref='-38333152' role='' />
    <member type='way' ref='-38333153' role='' />
    <member type='way' ref='-38333154' role='' />
    <member type='way' ref='-38333156' role='' />
    <member type='way' ref='-38333157' role='' />
    <member type='way' ref='-38333158' role='' />
    <member type='way' ref='-38333159' role='' />
    <member type='way' ref='-38333160' role='' />
    <member type='way' ref='-38333161' role='' />
    <member type='way' ref='-38333162' role='' />
    <member type='way' ref='-38333163' role='' />
    <member type='way' ref='-38333164' role='' />
    <member type='way' ref='-38333165' role='' />
    <member type='way' ref='-38333166' role='' />
    <member type='way' ref='-38333167' role='' />
    <member type='way' ref='-38333168' role='' />
    <member type='way' ref='-38333169' role='' />
    <member type='way' ref='-38333170' role='' />
    <member type='way' ref='-38333171' role='' />
    <member type='way' ref='-38333172' role='' />
    <member type='way' ref='-38333173' role='' />
    <member type='way' ref='-38333174' role='' />
    <member type='way' ref='-38333175' role='' />
    <member type='way' ref='-38333176' role='' />
    <member type='way' ref='-38333177' role='' />
    <member type='way' ref='-38333178' role='' />
    <member type='way' ref='-38333179' role='' />
    <member type='way' ref='-38333180' role='' />
    <member type='way' ref='-38333181' role='' />
    <member type='way' ref='-38333182' role='' />
    <member type='way' ref='-38333183' role='' />
    <member type='way' ref='-38333184' role='' />
    <member type='way' ref='-38333185' role='' />
    <member type='way' ref='-38333186' role='' />
    <member type='way' ref='-38333187' role='' />
    <member type='way' ref='-38333188' role='' />
    <member type='way' ref='-38333189' role='' />
    <member type='way' ref='-38333190' role='' />
    <member type='way' ref='-38333191' role='' />
    <member type='way' ref='-38333192' role='' />
    <member type='way' ref='-38333193' role='' />
    <member type='way' ref='-38333194' role='' />
    <member type='way' ref='-38333195' role='' />
    <member type='way' ref='-38333196' role='' />
    <member type='way' ref='-38333197' role='' />
    <member type='way' ref='-38333198' role='' />
    <member type='way' ref='-38333199' role='' />
    <member type='way' ref='-38333200' role='' />
    <member type='way' ref='-38333201' role='' />
    <member type='way' ref='-38333202' role='' />
    <member type='way' ref='-38333203' role='' />
    <member type='way' ref='-38333204' role='' />
    <member type='way' ref='-38333205' role='' />
    <member type='way' ref='-38333206' role='' />
    <member type='way' ref='-38333207' role='' />
    <member type='way' ref='-38333208' role='' />
    <member type='way' ref='-38333209' role='' />
    <member type='way' ref='-38333210' role='' />
    <member type='way' ref='-38333211' role='' />
    <member type='way' ref='-38333212' role='' />
    <member type='way' ref='-38333213' role='' />
    <member type='way' ref='-38333214' role='' />
    <member type='way' ref='-38333215' role='' />
    <member type='way' ref='-38333216' role='' />
    <member type='way' ref='-38333217' role='' />
    <member type='way' ref='-38333218' role='' />
    <member type='way' ref='-38333219' role='' />
    <member type='way' ref='-38333220' role='' />
    <member type='way' ref='-38333221' role='' />
    <member type='way' ref='-38333222' role='' />
    <member type='way' ref='-38333223' role='' />
    <member type='way' ref='-38333224' role='' />
    <member type='way' ref='-38333225' role='' />
    <member type='way' ref='-38333226' role='' />
    <member type='way' ref='-38333227' role='' />
    <member type='way' ref='-38333228' role='' />
    <member type='way' ref='-38333229' role='' />
    <member type='way' ref='-38333230' role='' />
    <member type='way' ref='-38333231' role='' />
    <member type='way' ref='-38333232' role='' />
    <member type='way' ref='-38333233' role='' />
    <member type='way' ref='-38333234' role='' />
    <member type='way' ref='-38333235' role='' />
    <member type='way' ref='-38333236' role='' />
    <member type='way' ref='-38333237' role='' />
    <member type='way' ref='-38333238' role='' />
    <member type='way' ref='-38333239' role='' />
    <member type='way' ref='-38333240' role='' />
    <member type='way' ref='-38333241' role='' />
    <member type='way' ref='-38333242' role='' />
    <member type='way' ref='-38333243' role='' />
    <member type='way' ref='-38333244' role='' />
    <member type='way' ref='-38333245' role='' />
    <member type='way' ref='-38333246' role='' />
    <member type='way' ref='-38333247' role='' />
    <member type='way' ref='-38333248' role='' />
    <member type='way' ref='-38333249' role='' />
    <member type='way' ref='-38333250' role='' />
    <member type='way' ref='-38333251' role='' />
    <member type='way' ref='-38333252' role='' />
    <member type='way' ref='-38333253' role='' />
    <member type='way' ref='-38333254' role='' />
    <member type='way' ref='-38333255' role='' />
    <member type='way' ref='-38333256' role='' />
    <member type='way' ref='-38333257' role='' />
    <member type='way' ref='-38333258' role='' />
    <tag k='key' v='path.dk.hls' />
    <tag k='name' v='DK HLS' />
    <tag k='type' v='path' />
  </relation>
</osm>
