<?xml version='1.0' encoding='UTF-8'?>
<osm version='0.6' upload='false' generator='JOSM'>
  <node id='-142708970' action='modify' lat='55.71495794186' lon='11.7093741697' />
  <node id='-142708971' action='modify' lat='55.71515609889' lon='11.7089903301' />
  <node id='-142708972' action='modify' lat='55.71553502907' lon='11.70818245243'>
    <tag k='name' v='hol' />
  </node>
  <node id='-142708973' action='modify' lat='55.71713355657' lon='11.70271604878' />
  <node id='-142708974' action='modify' lat='55.71676678898' lon='11.69428630261' />
  <node id='-142708975' action='modify' lat='55.71527393254' lon='11.68722519229'>
    <tag k='name' v='ste' />
  </node>
  <node id='-142708976' action='modify' lat='55.7127242747' lon='11.67516610653' />
  <node id='-142708977' action='modify' lat='55.71220178423' lon='11.66848325847' />
  <node id='-142708978' action='modify' lat='55.71236611047' lon='11.66524459168'>
    <tag k='name' v='all' />
  </node>
  <node id='-142708979' action='modify' lat='55.71241052755' lon='11.66436918356' />
  <node id='-142708980' action='modify' lat='55.71365221404' lon='11.65779917725' />
  <node id='-142708981' action='modify' lat='55.71744175199' lon='11.64650334074' />
  <node id='-142708982' action='modify' lat='55.71829211607' lon='11.64439609765' />
  <node id='-142708983' action='modify' lat='55.7220515631' lon='11.63684288371' />
  <node id='-142708984' action='modify' lat='55.72218533924' lon='11.63657399216' />
  <node id='-142708985' action='modify' lat='55.72339991327' lon='11.63414331711'>
    <tag k='name' v='mar' />
  </node>
  <node id='-142708986' action='modify' lat='55.72546830863' lon='11.63000375195' />
  <node id='-142708987' action='modify' lat='55.72802416742' lon='11.6196068648' />
  <node id='-142708988' action='modify' lat='55.72889705596' lon='11.58965576002'>
    <tag k='name' v='nha' />
  </node>
  <node id='-142708989' action='modify' lat='55.72976655938' lon='11.55982014153' />
  <node id='-142708990' action='modify' lat='55.72976749922' lon='11.55521805623' />
  <node id='-142708991' action='modify' lat='55.72959239037' lon='11.54766762697'>
    <tag k='name' v='gis' />
  </node>
  <node id='-142708992' action='modify' lat='55.7288548238' lon='11.51586524104'>
    <tag k='name' v='san' />
  </node>
  <node id='-142708993' action='modify' lat='55.72881171837' lon='11.51400664026' />
  <node id='-142708994' action='modify' lat='55.7287508093' lon='11.51242340584' />
  <node id='-142708995' action='modify' lat='55.72775130757' lon='11.49105331791' />
  <node id='-142708996' action='modify' lat='55.72455245785' lon='11.47580856904' />
  <node id='-142708997' action='modify' lat='55.72434908178' lon='11.47525420265' />
  <node id='-142708998' action='modify' lat='55.7234395301' lon='11.46829157799'>
    <tag k='name' v='svi' />
  </node>
  <node id='-142708999' action='modify' lat='55.72495915665' lon='11.4612252903' />
  <node id='-142709000' action='modify' lat='55.72978927991' lon='11.45821500199' />
  <node id='-142709001' action='modify' lat='55.73457971457' lon='11.45945289835' />
  <node id='-142709002' action='modify' lat='55.73758153461' lon='11.46219670886' />
  <node id='-142709003' action='modify' lat='55.73834020424' lon='11.46350735834' />
  <node id='-142709004' action='modify' lat='55.74367201122' lon='11.46634027295' />
  <node id='-142709005' action='modify' lat='55.74424611046' lon='11.4661625766' />
  <node id='-142709006' action='modify' lat='55.74787319613' lon='11.46213322744' />
  <node id='-142709007' action='modify' lat='55.74852837558' lon='11.46056949958' />
  <node id='-142709008' action='modify' lat='55.75184335453' lon='11.45655020937'>
    <tag k='name' v='hor' />
  </node>
  <node id='-142709009' action='modify' lat='55.7532275315' lon='11.45627327129' />
  <node id='-142709010' action='modify' lat='55.75328639944' lon='11.45627528295' />
  <node id='-142709011' action='modify' lat='55.75616176385' lon='11.45777061448' />
  <node id='-142709012' action='modify' lat='55.76018540952' lon='11.4616879794' />
  <node id='-142709013' action='modify' lat='55.7641360148' lon='11.46404263861' />
  <node id='-142709014' action='modify' lat='55.7864020255' lon='11.46913466284' />
  <node id='-142709015' action='modify' lat='55.78753134041' lon='11.46952606671'>
    <tag k='name' v='far' />
  </node>
  <node id='-142709016' action='modify' lat='55.78900737336' lon='11.47023215756' />
  <node id='-142709017' action='modify' lat='55.8007246726' lon='11.47793412074' />
  <node id='-142709018' action='modify' lat='55.80370206292' lon='11.48215994105' />
  <node id='-142709019' action='modify' lat='55.8050312619' lon='11.4856810116' />
  <node id='-142709020' action='modify' lat='55.80622701261' lon='11.48949041896' />
  <node id='-142709021' action='modify' lat='55.80803394724' lon='11.49620734088' />
  <node id='-142709022' action='modify' lat='55.8085829825' lon='11.49923689596'>
    <tag k='name' v='asn' />
  </node>
  <node id='-142709023' action='modify' lat='55.80863649173' lon='11.50150403246' />
  <node id='-142709024' action='modify' lat='55.80814925659' lon='11.50489367478' />
  <node id='-142709025' action='modify' lat='55.80527433427' lon='11.5159852796' />
  <node id='-142709026' action='modify' lat='55.80475427059' lon='11.51829466157' />
  <node id='-142709027' action='modify' lat='55.80278248781' lon='11.52847364478' />
  <node id='-142709028' action='modify' lat='55.80237244092' lon='11.53151594035' />
  <node id='-142709029' action='modify' lat='55.80162771238' lon='11.54092244737' />
  <node id='-142709030' action='modify' lat='55.80176640784' lon='11.54580004446' />
  <node id='-142709031' action='modify' lat='55.80194542979' lon='11.5472095453' />
  <node id='-142709032' action='modify' lat='55.80279153291' lon='11.55087545447'>
    <tag k='name' v='gre' />
  </node>
  <node id='-142709033' action='modify' lat='55.80320798264' lon='11.55189469323' />
  <node id='-142709034' action='modify' lat='55.80404350566' lon='11.55374072425' />
  <node id='-142709035' action='modify' lat='55.81042974915' lon='11.55679643087' />
  <node id='-142709036' action='modify' lat='55.81959898022' lon='11.55075207219' />
  <node id='-142709037' action='modify' lat='55.82577739399' lon='11.55384331875' />
  <node id='-142709038' action='modify' lat='55.82864854223' lon='11.56036913328' />
  <node id='-142709039' action='modify' lat='55.82970760834' lon='11.56219504707'>
    <tag k='name' v='kel' />
  </node>
  <node id='-142709040' action='modify' lat='55.83338436296' lon='11.5638184534' />
  <node id='-142709041' action='modify' lat='55.83367960297' lon='11.56377419695' />
  <node id='-142709042' action='modify' lat='55.8377841102' lon='11.56589984827' />
  <node id='-142709043' action='modify' lat='55.84168110902' lon='11.57146006688' />
  <node id='-142709044' action='modify' lat='55.84376236034' lon='11.57392501697' />
  <node id='-142709045' action='modify' lat='55.8499399483' lon='11.57993852958' />
  <node id='-142709046' action='modify' lat='55.85064836943' lon='11.58058091864' />
  <node id='-142709047' action='modify' lat='55.8514659361' lon='11.58128902182' />
  <node id='-142709048' action='modify' lat='55.85224622158' lon='11.58192068271'>
    <tag k='name' v='vig' />
  </node>
  <node id='-142709049' action='modify' lat='55.85397122669' lon='11.58312499389' />
  <node id='-142709050' action='modify' lat='55.85545377338' lon='11.58403694563' />
  <node id='-142709051' action='modify' lat='55.85732014405' lon='11.58603988521' />
  <node id='-142709052' action='modify' lat='55.86375973294' lon='11.59652061693' />
  <node id='-142709053' action='modify' lat='55.86462368259' lon='11.59817419879' />
  <node id='-142709054' action='modify' lat='55.86491250693' lon='11.59883081621'>
    <tag k='name' v='kol' />
  </node>
  <node id='-142709055' action='modify' lat='55.86619988964' lon='11.60175763004' />
  <node id='-142709056' action='modify' lat='55.86729292515' lon='11.60605452821' />
  <node id='-142709057' action='modify' lat='55.86740053383' lon='11.6069014357' />
  <node id='-142709058' action='modify' lat='55.86986002538' lon='11.6130088263' />
  <node id='-142709059' action='modify' lat='55.87088599081' lon='11.61409512028' />
  <node id='-142709060' action='modify' lat='55.87733499159' lon='11.61322943799' />
  <node id='-142709061' action='modify' lat='55.87893851768' lon='11.61079466209' />
  <node id='-142709062' action='modify' lat='55.88108246688' lon='11.60823583469' />
  <node id='-142709063' action='modify' lat='55.88280805604' lon='11.60677769971'>
    <tag k='name' v='nas' />
  </node>
  <node id='-142709064' action='modify' lat='55.88433276893' lon='11.60548925266' />
  <node id='-142709065' action='modify' lat='55.88575887434' lon='11.60447135434' />
  <node id='-142709066' action='modify' lat='55.88802203217' lon='11.60314366087' />
  <node id='-142709067' action='modify' lat='55.89146878834' lon='11.6024664031' />
  <node id='-142709068' action='modify' lat='55.89757371309' lon='11.60347377131'>
    <tag k='name' v='som' />
  </node>
  <node id='-142709069' action='modify' lat='55.90014862468' lon='11.60389870271' />
  <node id='-142709070' action='modify' lat='55.90393411852' lon='11.602259873' />
  <node id='-142709071' action='modify' lat='55.90453104251' lon='11.60155847535' />
  <node id='-142709072' action='modify' lat='55.90958272656' lon='11.60212911531' />
  <node id='-142709073' action='modify' lat='55.91015891576' lon='11.60296963286'>
    <tag k='name' v='hoj' />
  </node>
  <node id='-142709074' action='modify' lat='55.91222257069' lon='11.60598009758' />
  <node id='-142709075' action='modify' lat='55.91329213762' lon='11.60789318316' />
  <node id='-142709076' action='modify' lat='55.91699292757' lon='11.61583855614' />
  <node id='-142709077' action='modify' lat='55.91879283867' lon='11.62055253848' />
  <node id='-142709078' action='modify' lat='55.91904985464' lon='11.62137329444' />
  <node id='-142709079' action='modify' lat='55.92054607464' lon='11.6291262196' />
  <node id='-142709080' action='modify' lat='55.92126673458' lon='11.63928508624' />
  <node id='-142709081' action='modify' lat='55.92171009536' lon='11.64274245366' />
  <node id='-142709082' action='modify' lat='55.9222270927' lon='11.64535358414' />
  <node id='-142709083' action='modify' lat='55.92187917228' lon='11.655784695' />
  <node id='-142709084' action='modify' lat='55.92181380685' lon='11.65604607649'>
    <tag k='name' v='nyl' />
  </node>
  <node id='-142709085' action='modify' lat='55.92038939095' lon='11.66174188189' />
  <node id='-142709086' action='modify' lat='55.92055847401' lon='11.67053080961' />
  <node id='-142709087' action='modify' lat='55.92062047081' lon='11.67074203357' />
  <node id='-142709088' action='modify' lat='55.92099470394' lon='11.67182564601' />
  <node id='-142709089' action='modify' lat='55.92150795353' lon='11.67286969587'>
    <tag k='name' v='nyk' />
  </node>
  <node id='-142709090' action='modify' lat='55.92167327406' lon='11.67319759592' />
  <node id='-142709091' action='modify' lat='55.92373446129' lon='11.67736172542'>
    <tag k='name' v='nyk.f' />
  </node>
  <way id='-36282529' action='modify'>
    <nd ref='-142708970' />
    <nd ref='-142708971' />
    <tag k='type' v='straight' />
  </way>
  <way id='-36282530' action='modify'>
    <nd ref='-142708971' />
    <nd ref='-142708972' />
    <nd ref='-142708973' />
    <nd ref='-142708974' />
  </way>
  <way id='-36282531' action='modify'>
    <nd ref='-142708974' />
    <nd ref='-142708975' />
    <nd ref='-142708976' />
    <tag k='type' v='straight' />
  </way>
  <way id='-36282532' action='modify'>
    <nd ref='-142708976' />
    <nd ref='-142708977' />
  </way>
  <way id='-36282533' action='modify'>
    <nd ref='-142708977' />
    <nd ref='-142708978' />
    <nd ref='-142708979' />
    <tag k='type' v='straight' />
  </way>
  <way id='-36282534' action='modify'>
    <nd ref='-142708979' />
    <nd ref='-142708980' />
  </way>
  <way id='-36282535' action='modify'>
    <nd ref='-142708980' />
    <nd ref='-142708981' />
    <tag k='type' v='straight' />
  </way>
  <way id='-36282536' action='modify'>
    <nd ref='-142708981' />
    <nd ref='-142708982' />
  </way>
  <way id='-36282537' action='modify'>
    <nd ref='-142708982' />
    <nd ref='-142708983' />
    <tag k='type' v='straight' />
  </way>
  <way id='-36282538' action='modify'>
    <nd ref='-142708983' />
    <nd ref='-142708984' />
  </way>
  <way id='-36282539' action='modify'>
    <nd ref='-142708984' />
    <nd ref='-142708985' />
    <nd ref='-142708986' />
    <tag k='type' v='straight' />
  </way>
  <way id='-36282540' action='modify'>
    <nd ref='-142708986' />
    <nd ref='-142708987' />
  </way>
  <way id='-36282541' action='modify'>
    <nd ref='-142708987' />
    <nd ref='-142708988' />
    <nd ref='-142708989' />
    <tag k='type' v='straight' />
  </way>
  <way id='-36282542' action='modify'>
    <nd ref='-142708989' />
    <nd ref='-142708990' />
  </way>
  <way id='-36282543' action='modify'>
    <nd ref='-142708990' />
    <nd ref='-142708991' />
    <nd ref='-142708992' />
    <nd ref='-142708993' />
    <tag k='type' v='straight' />
  </way>
  <way id='-36282544' action='modify'>
    <nd ref='-142708993' />
    <nd ref='-142708994' />
  </way>
  <way id='-36282545' action='modify'>
    <nd ref='-142708994' />
    <nd ref='-142708995' />
    <tag k='type' v='straight' />
  </way>
  <way id='-36282546' action='modify'>
    <nd ref='-142708995' />
    <nd ref='-142708996' />
  </way>
  <way id='-36282547' action='modify'>
    <nd ref='-142708996' />
    <nd ref='-142708997' />
    <tag k='type' v='straight' />
  </way>
  <way id='-36282548' action='modify'>
    <nd ref='-142708997' />
    <nd ref='-142708998' />
    <nd ref='-142708999' />
    <nd ref='-142709000' />
  </way>
  <way id='-36282549' action='modify'>
    <nd ref='-142709000' />
    <nd ref='-142709001' />
    <tag k='type' v='straight' />
  </way>
  <way id='-36282550' action='modify'>
    <nd ref='-142709001' />
    <nd ref='-142709002' />
  </way>
  <way id='-36282551' action='modify'>
    <nd ref='-142709002' />
    <nd ref='-142709003' />
    <tag k='type' v='straight' />
  </way>
  <way id='-36282552' action='modify'>
    <nd ref='-142709003' />
    <nd ref='-142709004' />
  </way>
  <way id='-36282553' action='modify'>
    <nd ref='-142709004' />
    <nd ref='-142709005' />
    <tag k='type' v='straight' />
  </way>
  <way id='-36282554' action='modify'>
    <nd ref='-142709005' />
    <nd ref='-142709006' />
  </way>
  <way id='-36282555' action='modify'>
    <nd ref='-142709006' />
    <nd ref='-142709007' />
    <tag k='type' v='straight' />
  </way>
  <way id='-36282556' action='modify'>
    <nd ref='-142709007' />
    <nd ref='-142709008' />
    <nd ref='-142709009' />
  </way>
  <way id='-36282557' action='modify'>
    <nd ref='-142709009' />
    <nd ref='-142709010' />
    <tag k='type' v='straight' />
  </way>
  <way id='-36282558' action='modify'>
    <nd ref='-142709010' />
    <nd ref='-142709011' />
  </way>
  <way id='-36282559' action='modify'>
    <nd ref='-142709011' />
    <nd ref='-142709012' />
    <tag k='type' v='straight' />
  </way>
  <way id='-36282560' action='modify'>
    <nd ref='-142709012' />
    <nd ref='-142709013' />
  </way>
  <way id='-36282561' action='modify'>
    <nd ref='-142709013' />
    <nd ref='-142709014' />
    <tag k='type' v='straight' />
  </way>
  <way id='-36282562' action='modify'>
    <nd ref='-142709014' />
    <nd ref='-142709015' />
    <nd ref='-142709016' />
  </way>
  <way id='-36282563' action='modify'>
    <nd ref='-142709016' />
    <nd ref='-142709017' />
    <tag k='type' v='straight' />
  </way>
  <way id='-36282564' action='modify'>
    <nd ref='-142709017' />
    <nd ref='-142709018' />
  </way>
  <way id='-36282565' action='modify'>
    <nd ref='-142709018' />
    <nd ref='-142709019' />
    <tag k='type' v='straight' />
  </way>
  <way id='-36282566' action='modify'>
    <nd ref='-142709019' />
    <nd ref='-142709020' />
  </way>
  <way id='-36282567' action='modify'>
    <nd ref='-142709020' />
    <nd ref='-142709021' />
    <tag k='type' v='straight' />
  </way>
  <way id='-36282568' action='modify'>
    <nd ref='-142709021' />
    <nd ref='-142709022' />
    <nd ref='-142709023' />
    <nd ref='-142709024' />
  </way>
  <way id='-36282569' action='modify'>
    <nd ref='-142709024' />
    <nd ref='-142709025' />
    <tag k='type' v='straight' />
  </way>
  <way id='-36282570' action='modify'>
    <nd ref='-142709025' />
    <nd ref='-142709026' />
  </way>
  <way id='-36282571' action='modify'>
    <nd ref='-142709026' />
    <nd ref='-142709027' />
    <tag k='type' v='straight' />
  </way>
  <way id='-36282572' action='modify'>
    <nd ref='-142709027' />
    <nd ref='-142709028' />
  </way>
  <way id='-36282573' action='modify'>
    <nd ref='-142709028' />
    <nd ref='-142709029' />
    <tag k='type' v='straight' />
  </way>
  <way id='-36282574' action='modify'>
    <nd ref='-142709029' />
    <nd ref='-142709030' />
  </way>
  <way id='-36282575' action='modify'>
    <nd ref='-142709030' />
    <nd ref='-142709031' />
    <tag k='type' v='straight' />
  </way>
  <way id='-36282576' action='modify'>
    <nd ref='-142709031' />
    <nd ref='-142709032' />
    <nd ref='-142709033' />
  </way>
  <way id='-36282577' action='modify'>
    <nd ref='-142709033' />
    <nd ref='-142709034' />
    <tag k='type' v='straight' />
  </way>
  <way id='-36282578' action='modify'>
    <nd ref='-142709034' />
    <nd ref='-142709035' />
  </way>
  <way id='-36282579' action='modify'>
    <nd ref='-142709035' />
    <nd ref='-142709036' />
    <tag k='type' v='straight' />
  </way>
  <way id='-36282580' action='modify'>
    <nd ref='-142709036' />
    <nd ref='-142709037' />
  </way>
  <way id='-36282581' action='modify'>
    <nd ref='-142709037' />
    <nd ref='-142709038' />
    <tag k='type' v='straight' />
  </way>
  <way id='-36282582' action='modify'>
    <nd ref='-142709038' />
    <nd ref='-142709039' />
    <nd ref='-142709040' />
  </way>
  <way id='-36282583' action='modify'>
    <nd ref='-142709040' />
    <nd ref='-142709041' />
    <tag k='type' v='straight' />
  </way>
  <way id='-36282584' action='modify'>
    <nd ref='-142709041' />
    <nd ref='-142709042' />
  </way>
  <way id='-36282585' action='modify'>
    <nd ref='-142709042' />
    <nd ref='-142709043' />
    <tag k='type' v='straight' />
  </way>
  <way id='-36282586' action='modify'>
    <nd ref='-142709043' />
    <nd ref='-142709044' />
  </way>
  <way id='-36282587' action='modify'>
    <nd ref='-142709044' />
    <nd ref='-142709045' />
    <tag k='type' v='straight' />
  </way>
  <way id='-36282588' action='modify'>
    <nd ref='-142709045' />
    <nd ref='-142709046' />
  </way>
  <way id='-36282589' action='modify'>
    <nd ref='-142709046' />
    <nd ref='-142709047' />
    <tag k='type' v='straight' />
  </way>
  <way id='-36282590' action='modify'>
    <nd ref='-142709047' />
    <nd ref='-142709048' />
    <nd ref='-142709049' />
  </way>
  <way id='-36282591' action='modify'>
    <nd ref='-142709049' />
    <nd ref='-142709050' />
    <tag k='type' v='straight' />
  </way>
  <way id='-36282592' action='modify'>
    <nd ref='-142709050' />
    <nd ref='-142709051' />
  </way>
  <way id='-36282593' action='modify'>
    <nd ref='-142709051' />
    <nd ref='-142709052' />
    <tag k='type' v='straight' />
  </way>
  <way id='-36282594' action='modify'>
    <nd ref='-142709052' />
    <nd ref='-142709053' />
  </way>
  <way id='-36282595' action='modify'>
    <nd ref='-142709053' />
    <nd ref='-142709054' />
    <nd ref='-142709055' />
    <tag k='type' v='straight' />
  </way>
  <way id='-36282596' action='modify'>
    <nd ref='-142709055' />
    <nd ref='-142709056' />
  </way>
  <way id='-36282597' action='modify'>
    <nd ref='-142709056' />
    <nd ref='-142709057' />
    <tag k='type' v='straight' />
  </way>
  <way id='-36282598' action='modify'>
    <nd ref='-142709057' />
    <nd ref='-142709058' />
  </way>
  <way id='-36282599' action='modify'>
    <nd ref='-142709058' />
    <nd ref='-142709059' />
    <tag k='type' v='straight' />
  </way>
  <way id='-36282600' action='modify'>
    <nd ref='-142709059' />
    <nd ref='-142709060' />
  </way>
  <way id='-36282601' action='modify'>
    <nd ref='-142709060' />
    <nd ref='-142709061' />
    <tag k='type' v='straight' />
  </way>
  <way id='-36282602' action='modify'>
    <nd ref='-142709061' />
    <nd ref='-142709062' />
  </way>
  <way id='-36282603' action='modify'>
    <nd ref='-142709062' />
    <nd ref='-142709063' />
    <nd ref='-142709064' />
    <tag k='type' v='straight' />
  </way>
  <way id='-36282604' action='modify'>
    <nd ref='-142709064' />
    <nd ref='-142709065' />
  </way>
  <way id='-36282605' action='modify'>
    <nd ref='-142709065' />
    <nd ref='-142709066' />
    <tag k='type' v='straight' />
  </way>
  <way id='-36282606' action='modify'>
    <nd ref='-142709066' />
    <nd ref='-142709067' />
  </way>
  <way id='-36282607' action='modify'>
    <nd ref='-142709067' />
    <nd ref='-142709068' />
    <nd ref='-142709069' />
    <tag k='type' v='straight' />
  </way>
  <way id='-36282608' action='modify'>
    <nd ref='-142709069' />
    <nd ref='-142709070' />
  </way>
  <way id='-36282609' action='modify'>
    <nd ref='-142709070' />
    <nd ref='-142709071' />
    <tag k='type' v='straight' />
  </way>
  <way id='-36282610' action='modify'>
    <nd ref='-142709071' />
    <nd ref='-142709072' />
  </way>
  <way id='-36282611' action='modify'>
    <nd ref='-142709072' />
    <nd ref='-142709073' />
    <nd ref='-142709074' />
    <tag k='type' v='straight' />
  </way>
  <way id='-36282612' action='modify'>
    <nd ref='-142709074' />
    <nd ref='-142709075' />
  </way>
  <way id='-36282613' action='modify'>
    <nd ref='-142709075' />
    <nd ref='-142709076' />
    <tag k='type' v='straight' />
  </way>
  <way id='-36282614' action='modify'>
    <nd ref='-142709076' />
    <nd ref='-142709077' />
  </way>
  <way id='-36282615' action='modify'>
    <nd ref='-142709077' />
    <nd ref='-142709078' />
    <tag k='type' v='straight' />
  </way>
  <way id='-36282616' action='modify'>
    <nd ref='-142709078' />
    <nd ref='-142709079' />
  </way>
  <way id='-36282617' action='modify'>
    <nd ref='-142709079' />
    <nd ref='-142709080' />
    <tag k='type' v='straight' />
  </way>
  <way id='-36282618' action='modify'>
    <nd ref='-142709080' />
    <nd ref='-142709081' />
  </way>
  <way id='-36282619' action='modify'>
    <nd ref='-142709081' />
    <nd ref='-142709082' />
    <tag k='type' v='straight' />
  </way>
  <way id='-36282620' action='modify'>
    <nd ref='-142709082' />
    <nd ref='-142709083' />
  </way>
  <way id='-36282621' action='modify'>
    <nd ref='-142709083' />
    <nd ref='-142709084' />
    <nd ref='-142709085' />
    <tag k='type' v='straight' />
  </way>
  <way id='-36282622' action='modify'>
    <nd ref='-142709085' />
    <nd ref='-142709086' />
  </way>
  <way id='-36282623' action='modify'>
    <nd ref='-142709086' />
    <nd ref='-142709087' />
    <tag k='type' v='straight' />
  </way>
  <way id='-36282624' action='modify'>
    <nd ref='-142709087' />
    <nd ref='-142709088' />
    <nd ref='-142709089' />
    <nd ref='-142709090' />
  </way>
  <way id='-36282625' action='modify'>
    <nd ref='-142709090' />
    <nd ref='-142709091' />
    <tag k='type' v='straight' />
  </way>
  <relation id='-14466790' action='modify'>
    <member type='way' ref='-36282529' role='' />
    <member type='way' ref='-36282530' role='' />
    <member type='way' ref='-36282531' role='' />
    <member type='way' ref='-36282532' role='' />
    <member type='way' ref='-36282533' role='' />
    <member type='way' ref='-36282534' role='' />
    <member type='way' ref='-36282535' role='' />
    <member type='way' ref='-36282536' role='' />
    <member type='way' ref='-36282537' role='' />
    <member type='way' ref='-36282538' role='' />
    <member type='way' ref='-36282539' role='' />
    <member type='way' ref='-36282540' role='' />
    <member type='way' ref='-36282541' role='' />
    <member type='way' ref='-36282542' role='' />
    <member type='way' ref='-36282543' role='' />
    <member type='way' ref='-36282544' role='' />
    <member type='way' ref='-36282545' role='' />
    <member type='way' ref='-36282546' role='' />
    <member type='way' ref='-36282547' role='' />
    <member type='way' ref='-36282548' role='' />
    <member type='way' ref='-36282549' role='' />
    <member type='way' ref='-36282550' role='' />
    <member type='way' ref='-36282551' role='' />
    <member type='way' ref='-36282552' role='' />
    <member type='way' ref='-36282553' role='' />
    <member type='way' ref='-36282554' role='' />
    <member type='way' ref='-36282555' role='' />
    <member type='way' ref='-36282556' role='' />
    <member type='way' ref='-36282557' role='' />
    <member type='way' ref='-36282558' role='' />
    <member type='way' ref='-36282559' role='' />
    <member type='way' ref='-36282560' role='' />
    <member type='way' ref='-36282561' role='' />
    <member type='way' ref='-36282562' role='' />
    <member type='way' ref='-36282563' role='' />
    <member type='way' ref='-36282564' role='' />
    <member type='way' ref='-36282565' role='' />
    <member type='way' ref='-36282566' role='' />
    <member type='way' ref='-36282567' role='' />
    <member type='way' ref='-36282568' role='' />
    <member type='way' ref='-36282569' role='' />
    <member type='way' ref='-36282570' role='' />
    <member type='way' ref='-36282571' role='' />
    <member type='way' ref='-36282572' role='' />
    <member type='way' ref='-36282573' role='' />
    <member type='way' ref='-36282574' role='' />
    <member type='way' ref='-36282575' role='' />
    <member type='way' ref='-36282576' role='' />
    <member type='way' ref='-36282577' role='' />
    <member type='way' ref='-36282578' role='' />
    <member type='way' ref='-36282579' role='' />
    <member type='way' ref='-36282580' role='' />
    <member type='way' ref='-36282581' role='' />
    <member type='way' ref='-36282582' role='' />
    <member type='way' ref='-36282583' role='' />
    <member type='way' ref='-36282584' role='' />
    <member type='way' ref='-36282585' role='' />
    <member type='way' ref='-36282586' role='' />
    <member type='way' ref='-36282587' role='' />
    <member type='way' ref='-36282588' role='' />
    <member type='way' ref='-36282589' role='' />
    <member type='way' ref='-36282590' role='' />
    <member type='way' ref='-36282591' role='' />
    <member type='way' ref='-36282592' role='' />
    <member type='way' ref='-36282593' role='' />
    <member type='way' ref='-36282594' role='' />
    <member type='way' ref='-36282595' role='' />
    <member type='way' ref='-36282596' role='' />
    <member type='way' ref='-36282597' role='' />
    <member type='way' ref='-36282598' role='' />
    <member type='way' ref='-36282599' role='' />
    <member type='way' ref='-36282600' role='' />
    <member type='way' ref='-36282601' role='' />
    <member type='way' ref='-36282602' role='' />
    <member type='way' ref='-36282603' role='' />
    <member type='way' ref='-36282604' role='' />
    <member type='way' ref='-36282605' role='' />
    <member type='way' ref='-36282606' role='' />
    <member type='way' ref='-36282607' role='' />
    <member type='way' ref='-36282608' role='' />
    <member type='way' ref='-36282609' role='' />
    <member type='way' ref='-36282610' role='' />
    <member type='way' ref='-36282611' role='' />
    <member type='way' ref='-36282612' role='' />
    <member type='way' ref='-36282613' role='' />
    <member type='way' ref='-36282614' role='' />
    <member type='way' ref='-36282615' role='' />
    <member type='way' ref='-36282616' role='' />
    <member type='way' ref='-36282617' role='' />
    <member type='way' ref='-36282618' role='' />
    <member type='way' ref='-36282619' role='' />
    <member type='way' ref='-36282620' role='' />
    <member type='way' ref='-36282621' role='' />
    <member type='way' ref='-36282622' role='' />
    <member type='way' ref='-36282623' role='' />
    <member type='way' ref='-36282624' role='' />
    <member type='way' ref='-36282625' role='' />
    <tag k='key' v='path.dk.hns' />
    <tag k='name' v='DK HNS' />
    <tag k='type' v='path' />
  </relation>
</osm>
