<?xml version='1.0' encoding='UTF-8'?>
<osm version='0.6' upload='false' generator='JOSM'>
  <node id='-169107228' action='modify' lat='55.91287423698' lon='10.25465905398'>
    <tag k='name' v='hou.a' />
  </node>
  <node id='-169107229' action='modify' lat='55.91379016207' lon='10.25385044327'>
    <tag k='name' v='hou' />
  </node>
  <node id='-169107230' action='modify' lat='55.91991037068' lon='10.24844681869'>
    <tag k='name' v='hol' />
  </node>
  <node id='-169107231' action='modify' lat='55.92353083244' lon='10.24524985671' />
  <node id='-169107232' action='modify' lat='55.9263771104' lon='10.23964402914' />
  <node id='-169107233' action='modify' lat='55.92734183945' lon='10.23264348239' />
  <node id='-169107234' action='modify' lat='55.92958378943' lon='10.22785305709' />
  <node id='-169107235' action='modify' lat='55.9298384168' lon='10.22765750163'>
    <tag k='name' v='hal' />
  </node>
  <node id='-169107236' action='modify' lat='55.93856531937' lon='10.22095440745' />
  <node id='-169107237' action='modify' lat='55.94079760246' lon='10.21828293532' />
  <node id='-169107238' action='modify' lat='55.94110037283' lon='10.21775650599'>
    <tag k='name' v='bov' />
  </node>
  <node id='-169107239' action='modify' lat='55.94925531881' lon='10.20357588575'>
    <tag k='name' v='eri' />
  </node>
  <node id='-169107240' action='modify' lat='55.9546481332' lon='10.19419669032' />
  <node id='-169107241' action='modify' lat='55.95648908711' lon='10.18989979684' />
  <node id='-169107242' action='modify' lat='55.95725675683' lon='10.18750191712'>
    <tag k='name' v='nra' />
  </node>
  <node id='-169107243' action='modify' lat='55.95923684525' lon='10.181316728' />
  <node id='-169107244' action='modify' lat='55.96050405159' lon='10.17844676435' />
  <node id='-169107245' action='modify' lat='55.96255491611' lon='10.17463802755' />
  <node id='-169107246' action='modify' lat='55.96414028302' lon='10.16931652486' />
  <node id='-169107247' action='modify' lat='55.9663861083' lon='10.15515982568' />
  <node id='-169107248' action='modify' lat='55.96905360557' lon='10.15104531974' />
  <node id='-169107249' action='modify' lat='55.97132736127' lon='10.15061772996'>
    <tag k='name' v='odd' />
  </node>
  <node id='-169107250' action='modify' lat='55.97260529431' lon='10.150377398' />
  <node id='-169107251' action='modify' lat='55.97398806782' lon='10.15038549766' />
  <node id='-169107252' action='modify' lat='55.97445483918' lon='10.15045389399' />
  <node id='-169107253' action='modify' lat='55.97508782319' lon='10.1506054388' />
  <node id='-169107254' action='modify' lat='55.97656762171' lon='10.15107817881' />
  <node id='-169107255' action='modify' lat='55.97687940763' lon='10.15118580278' />
  <node id='-169107256' action='modify' lat='55.97852074438' lon='10.15178055436'>
    <tag k='name' v='par' />
  </node>
  <node id='-169107257' action='modify' lat='55.98047395878' lon='10.1524883502' />
  <node id='-169107258' action='modify' lat='55.98251176058' lon='10.15352301233' />
  <node id='-169107259' action='modify' lat='55.98364107363' lon='10.15429847454'>
    <tag k='name' v='rud' />
  </node>
  <node id='-169107260' action='modify' lat='55.99219397816' lon='10.16017220881' />
  <node id='-169107261' action='modify' lat='55.99561253872' lon='10.16456298497' />
  <node id='-169107262' action='modify' lat='56.00357525682' lon='10.18139988117' />
  <node id='-169107263' action='modify' lat='56.00374787207' lon='10.18179107761'>
    <tag k='name' v='ass' />
  </node>
  <node id='-169107264' action='modify' lat='56.00427150182' lon='10.18345780604' />
  <node id='-169107265' action='modify' lat='56.00466179845' lon='10.18507786028' />
  <node id='-169107266' action='modify' lat='56.00789574744' lon='10.19041947953' />
  <node id='-169107267' action='modify' lat='56.01122126635' lon='10.19110679559' />
  <node id='-169107268' action='modify' lat='56.01290134904' lon='10.19224539265' />
  <node id='-169107269' action='modify' lat='56.01385793621' lon='10.19345775113' />
  <node id='-169107270' action='modify' lat='56.01690521275' lon='10.19426710837' />
  <node id='-169107271' action='modify' lat='56.01830995268' lon='10.19352883033' />
  <node id='-169107272' action='modify' lat='56.0194575438' lon='10.19324585728' />
  <node id='-169107273' action='modify' lat='56.02053801727' lon='10.19322238795' />
  <node id='-169107274' action='modify' lat='56.02205580095' lon='10.19262157314' />
  <node id='-169107275' action='modify' lat='56.02249388631' lon='10.19227355585' />
  <node id='-169107276' action='modify' lat='56.02499413593' lon='10.19206568465' />
  <node id='-169107277' action='modify' lat='56.02705094915' lon='10.19318550758' />
  <node id='-169107278' action='modify' lat='56.02936843384' lon='10.19306078419' />
  <node id='-169107279' action='modify' lat='56.03055316313' lon='10.19228294425' />
  <node id='-169107280' action='modify' lat='56.03157239773' lon='10.19179706195'>
    <tag k='name' v='ban' />
  </node>
  <node id='-169107281' action='modify' lat='56.03351520326' lon='10.19210792944' />
  <node id='-169107282' action='modify' lat='56.03403295616' lon='10.19241168961' />
  <node id='-169107283' action='modify' lat='56.03672688211' lon='10.19221655957' />
  <node id='-169107284' action='modify' lat='56.03684617467' lon='10.19210400759'>
    <tag k='name' v='mal' />
  </node>
  <node id='-169107285' action='modify' lat='56.04075711869' lon='10.18841385707' />
  <node id='-169107286' action='modify' lat='56.0438607014' lon='10.18805645339' />
  <node id='-169107287' action='modify' lat='56.0499147209' lon='10.1922097438'>
    <tag k='name' v='ege' />
  </node>
  <node id='-169107288' action='modify' lat='56.05145417597' lon='10.19326597318' />
  <node id='-169107289' action='modify' lat='56.05296100811' lon='10.19468285076' />
  <node id='-169107290' action='modify' lat='56.05468121164' lon='10.19687890939' />
  <node id='-169107291' action='modify' lat='56.05647007471' lon='10.19810654169'>
    <tag k='name' v='bed' />
  </node>
  <node id='-169107292' action='modify' lat='56.06068072897' lon='10.19216492705' />
  <node id='-169107293' action='modify' lat='56.06101317617' lon='10.19028268687' />
  <node id='-169107294' action='modify' lat='56.06144632662' lon='10.18830053441' />
  <node id='-169107295' action='modify' lat='56.0628528153' lon='10.18285967343' />
  <node id='-169107296' action='modify' lat='56.06342745056' lon='10.18087886207' />
  <node id='-169107297' action='modify' lat='56.06430077573' lon='10.1781556337'>
    <tag k='name' v='vil' />
  </node>
  <node id='-169107298' action='modify' lat='56.06871165577' lon='10.16440055451'>
    <tag k='name' v='mar' />
  </node>
  <node id='-169107299' action='modify' lat='56.07111475983' lon='10.15690594845' />
  <node id='-169107300' action='modify' lat='56.07264291457' lon='10.15437346779'>
    <tag k='name' v='mol' />
  </node>
  <node id='-169107301' action='modify' lat='56.07370729482' lon='10.15383146636' />
  <node id='-169107302' action='modify' lat='56.07935659806' lon='10.15246353976' />
  <node id='-169107303' action='modify' lat='56.08074596923' lon='10.15243805878' />
  <node id='-169107304' action='modify' lat='56.08879570234' lon='10.15410505168' />
  <node id='-169107305' action='modify' lat='56.08957031389' lon='10.15414744265'>
    <tag k='name' v='gun' />
  </node>
  <node id='-169107306' action='modify' lat='56.09200320552' lon='10.15174788079'>
    <tag k='name' v='nor' />
  </node>
  <node id='-169107307' action='modify' lat='56.0924838375' lon='10.15017695658' />
  <node id='-169107308' action='modify' lat='56.09403713453' lon='10.14268542648'>
    <tag k='name' v='hav' />
  </node>
  <node id='-169107309' action='modify' lat='56.0946107422' lon='10.1399188482' />
  <node id='-169107310' action='modify' lat='56.09636100237' lon='10.13599898958'>
    <tag k='name' v='tra' />
  </node>
  <node id='-169107311' action='modify' lat='56.09725630406' lon='10.13520486586' />
  <node id='-169107312' action='modify' lat='56.10329930785' lon='10.13087779216' />
  <node id='-169107313' action='modify' lat='56.10418596891' lon='10.12994237211' />
  <node id='-169107314' action='modify' lat='56.1050778452' lon='10.12874275379' />
  <node id='-169107315' action='modify' lat='56.10559632031' lon='10.12813523378' />
  <node id='-169107316' action='modify' lat='56.10802257237' lon='10.12566894226' />
  <node id='-169107317' action='modify' lat='56.11163605211' lon='10.12594470738'>
    <tag k='name' v='gcl' />
  </node>
  <node id='-169107318' action='modify' lat='56.11248653589' lon='10.12748077478' />
  <node id='-169107319' action='modify' lat='56.11324512288' lon='10.12941397659' />
  <node id='-169107320' action='modify' lat='56.11469869623' lon='10.13420976665'>
    <tag k='name' v='oll' />
  </node>
  <node id='-169107321' action='modify' lat='56.1148291714' lon='10.13480253451' />
  <node id='-169107322' action='modify' lat='56.11581687881' lon='10.13942934506' />
  <node id='-169107323' action='modify' lat='56.1167705431' lon='10.14542877406' />
  <node id='-169107324' action='modify' lat='56.11688717923' lon='10.14634072512' />
  <node id='-169107325' action='modify' lat='56.11705534765' lon='10.14744179632'>
    <tag k='name' v='ros' />
  </node>
  <node id='-169107326' action='modify' lat='56.11951615275' lon='10.15484808078' />
  <node id='-169107327' action='modify' lat='56.12241612162' lon='10.16071931968'>
    <tag k='name' v='vib' />
  </node>
  <node id='-169107328' action='modify' lat='56.12548438103' lon='10.16710169479' />
  <node id='-169107329' action='modify' lat='56.13469172343' lon='10.17417534918' />
  <node id='-169107330' action='modify' lat='56.13594847027' lon='10.17417909469'>
    <tag k='name' v='kon' />
  </node>
  <node id='-169107331' action='modify' lat='56.13784154971' lon='10.17418473691' />
  <node id='-169107332' action='modify' lat='56.13981965248' lon='10.17438064735' />
  <node id='-169107333' action='modify' lat='56.14023227272' lon='10.17447042099' />
  <node id='-169107334' action='modify' lat='56.14559881136' lon='10.17811953754' />
  <node id='-169107335' action='modify' lat='56.14766899286' lon='10.18292739719' />
  <node id='-169107336' action='modify' lat='56.14965165975' lon='10.19362270698' />
  <node id='-169107337' action='modify' lat='56.14950300057' lon='10.19909843668' />
  <node id='-169107338' action='modify' lat='56.14968452978' lon='10.20123749703' />
  <node id='-169107339' action='modify' lat='56.15022388955' lon='10.20478573079'>
    <tag k='name' v='aar' />
  </node>
  <node id='-169107347' action='modify' lat='56.12175515414' lon='10.15948677821' />
  <node id='-169107348' action='modify' lat='56.12227935367' lon='10.16047159318' />
  <node id='-169107349' action='modify' lat='56.12219732643' lon='10.16032474225' />
  <node id='-169107350' action='modify' lat='56.12286044512' lon='10.16159664301' />
  <node id='-169107353' action='modify' lat='56.1416631255' lon='10.1752126302' />
  <node id='-169107354' action='modify' lat='56.14191801499' lon='10.17541971614' />
  <node id='-169107355' action='modify' lat='56.14297587709' lon='10.17600107908' />
  <node id='-169107356' action='modify' lat='56.14384222807' lon='10.17632306715' />
  <node id='-169107365' action='modify' lat='56.14704369176' lon='10.18081515759' />
  <node id='-169107368' action='modify' lat='56.14761146782' lon='10.18258407578' />
  <node id='-169107369' action='modify' lat='56.14798174885' lon='10.18404246416' />
  <node id='-169107370' action='modify' lat='56.14805697508' lon='10.18424237067' />
  <node id='-169107371' action='modify' lat='56.1487081071' lon='10.18624423588' />
  <node id='-169107372' action='modify' lat='56.14875402915' lon='10.18641899804' />
  <node id='-169107373' action='modify' lat='56.14910592332' lon='10.18806161567' />
  <node id='-169107382' action='modify' lat='56.1495455814' lon='10.191159098' />
  <node id='-169107383' action='modify' lat='56.14951432793' lon='10.1961630079' />
  <node id='-169107394' action='modify' lat='56.14948955399' lon='10.19715651736' />
  <way id='-37902330' action='modify'>
    <nd ref='-169107228' />
    <nd ref='-169107229' />
    <nd ref='-169107230' />
    <nd ref='-169107231' />
    <tag k='type' v='straight' />
  </way>
  <way id='-37902331' action='modify'>
    <nd ref='-169107231' />
    <nd ref='-169107232' />
  </way>
  <way id='-37902332' action='modify'>
    <nd ref='-169107232' />
    <nd ref='-169107233' />
    <tag k='type' v='straight' />
  </way>
  <way id='-37902333' action='modify'>
    <nd ref='-169107233' />
    <nd ref='-169107234' />
  </way>
  <way id='-37902334' action='modify'>
    <nd ref='-169107234' />
    <nd ref='-169107235' />
    <nd ref='-169107236' />
    <tag k='type' v='straight' />
  </way>
  <way id='-37902335' action='modify'>
    <nd ref='-169107236' />
    <nd ref='-169107237' />
  </way>
  <way id='-37902336' action='modify'>
    <nd ref='-169107237' />
    <nd ref='-169107238' />
    <nd ref='-169107239' />
    <nd ref='-169107240' />
    <tag k='type' v='straight' />
  </way>
  <way id='-37902337' action='modify'>
    <nd ref='-169107240' />
    <nd ref='-169107241' />
  </way>
  <way id='-37902338' action='modify'>
    <nd ref='-169107241' />
    <nd ref='-169107242' />
    <nd ref='-169107243' />
    <tag k='type' v='straight' />
  </way>
  <way id='-37902339' action='modify'>
    <nd ref='-169107243' />
    <nd ref='-169107244' />
  </way>
  <way id='-37902340' action='modify'>
    <nd ref='-169107244' />
    <nd ref='-169107245' />
    <tag k='type' v='straight' />
  </way>
  <way id='-37902341' action='modify'>
    <nd ref='-169107245' />
    <nd ref='-169107246' />
  </way>
  <way id='-37902342' action='modify'>
    <nd ref='-169107246' />
    <nd ref='-169107247' />
    <tag k='type' v='straight' />
  </way>
  <way id='-37902343' action='modify'>
    <nd ref='-169107247' />
    <nd ref='-169107248' />
  </way>
  <way id='-37902344' action='modify'>
    <nd ref='-169107248' />
    <nd ref='-169107249' />
    <nd ref='-169107250' />
    <tag k='type' v='straight' />
  </way>
  <way id='-37902345' action='modify'>
    <nd ref='-169107250' />
    <nd ref='-169107251' />
  </way>
  <way id='-37902346' action='modify'>
    <nd ref='-169107251' />
    <nd ref='-169107252' />
    <tag k='type' v='straight' />
  </way>
  <way id='-37902347' action='modify'>
    <nd ref='-169107252' />
    <nd ref='-169107253' />
  </way>
  <way id='-37902348' action='modify'>
    <nd ref='-169107253' />
    <nd ref='-169107254' />
    <tag k='type' v='straight' />
  </way>
  <way id='-37902349' action='modify'>
    <nd ref='-169107254' />
    <nd ref='-169107255' />
  </way>
  <way id='-37902350' action='modify'>
    <nd ref='-169107255' />
    <nd ref='-169107256' />
    <nd ref='-169107257' />
    <tag k='type' v='straight' />
  </way>
  <way id='-37902351' action='modify'>
    <nd ref='-169107257' />
    <nd ref='-169107258' />
  </way>
  <way id='-37902352' action='modify'>
    <nd ref='-169107258' />
    <nd ref='-169107259' />
    <nd ref='-169107260' />
    <tag k='type' v='straight' />
  </way>
  <way id='-37902353' action='modify'>
    <nd ref='-169107260' />
    <nd ref='-169107261' />
  </way>
  <way id='-37902354' action='modify'>
    <nd ref='-169107261' />
    <nd ref='-169107262' />
    <tag k='type' v='straight' />
  </way>
  <way id='-37902355' action='modify'>
    <nd ref='-169107262' />
    <nd ref='-169107263' />
    <nd ref='-169107264' />
  </way>
  <way id='-37902356' action='modify'>
    <nd ref='-169107264' />
    <nd ref='-169107265' />
    <tag k='type' v='straight' />
  </way>
  <way id='-37902357' action='modify'>
    <nd ref='-169107265' />
    <nd ref='-169107266' />
  </way>
  <way id='-37902358' action='modify'>
    <nd ref='-169107266' />
    <nd ref='-169107267' />
    <tag k='type' v='straight' />
  </way>
  <way id='-37902359' action='modify'>
    <nd ref='-169107267' />
    <nd ref='-169107268' />
  </way>
  <way id='-37902360' action='modify'>
    <nd ref='-169107268' />
    <nd ref='-169107269' />
    <tag k='type' v='straight' />
  </way>
  <way id='-37902361' action='modify'>
    <nd ref='-169107269' />
    <nd ref='-169107270' />
  </way>
  <way id='-37902362' action='modify'>
    <nd ref='-169107270' />
    <nd ref='-169107271' />
    <tag k='type' v='straight' />
  </way>
  <way id='-37902363' action='modify'>
    <nd ref='-169107271' />
    <nd ref='-169107272' />
  </way>
  <way id='-37902364' action='modify'>
    <nd ref='-169107272' />
    <nd ref='-169107273' />
    <tag k='type' v='straight' />
  </way>
  <way id='-37902365' action='modify'>
    <nd ref='-169107273' />
    <nd ref='-169107274' />
  </way>
  <way id='-37902366' action='modify'>
    <nd ref='-169107274' />
    <nd ref='-169107275' />
    <tag k='type' v='straight' />
  </way>
  <way id='-37902367' action='modify'>
    <nd ref='-169107275' />
    <nd ref='-169107276' />
  </way>
  <way id='-37902368' action='modify'>
    <nd ref='-169107276' />
    <nd ref='-169107277' />
    <tag k='type' v='straight' />
  </way>
  <way id='-37902369' action='modify'>
    <nd ref='-169107277' />
    <nd ref='-169107278' />
  </way>
  <way id='-37902370' action='modify'>
    <nd ref='-169107278' />
    <nd ref='-169107279' />
    <tag k='type' v='straight' />
  </way>
  <way id='-37902371' action='modify'>
    <nd ref='-169107279' />
    <nd ref='-169107280' />
    <nd ref='-169107281' />
  </way>
  <way id='-37902372' action='modify'>
    <nd ref='-169107281' />
    <nd ref='-169107282' />
    <tag k='type' v='straight' />
  </way>
  <way id='-37902373' action='modify'>
    <nd ref='-169107282' />
    <nd ref='-169107283' />
  </way>
  <way id='-37902374' action='modify'>
    <nd ref='-169107283' />
    <nd ref='-169107284' />
    <nd ref='-169107285' />
    <tag k='type' v='straight' />
  </way>
  <way id='-37902375' action='modify'>
    <nd ref='-169107285' />
    <nd ref='-169107286' />
  </way>
  <way id='-37902376' action='modify'>
    <nd ref='-169107286' />
    <nd ref='-169107287' />
    <nd ref='-169107288' />
    <tag k='type' v='straight' />
  </way>
  <way id='-37902377' action='modify'>
    <nd ref='-169107288' />
    <nd ref='-169107289' />
  </way>
  <way id='-37902378' action='modify'>
    <nd ref='-169107289' />
    <nd ref='-169107290' />
    <tag k='type' v='straight' />
  </way>
  <way id='-37902379' action='modify'>
    <nd ref='-169107290' />
    <nd ref='-169107291' />
    <nd ref='-169107292' />
  </way>
  <way id='-37902380' action='modify'>
    <nd ref='-169107292' />
    <nd ref='-169107293' />
    <tag k='type' v='straight' />
  </way>
  <way id='-37902381' action='modify'>
    <nd ref='-169107293' />
    <nd ref='-169107294' />
  </way>
  <way id='-37902382' action='modify'>
    <nd ref='-169107294' />
    <nd ref='-169107295' />
    <tag k='type' v='straight' />
  </way>
  <way id='-37902383' action='modify'>
    <nd ref='-169107295' />
    <nd ref='-169107296' />
  </way>
  <way id='-37902384' action='modify'>
    <nd ref='-169107296' />
    <nd ref='-169107297' />
    <nd ref='-169107298' />
    <nd ref='-169107299' />
    <tag k='type' v='straight' />
  </way>
  <way id='-37902385' action='modify'>
    <nd ref='-169107299' />
    <nd ref='-169107300' />
    <nd ref='-169107301' />
  </way>
  <way id='-37902386' action='modify'>
    <nd ref='-169107301' />
    <nd ref='-169107302' />
    <tag k='type' v='straight' />
  </way>
  <way id='-37902387' action='modify'>
    <nd ref='-169107302' />
    <nd ref='-169107303' />
  </way>
  <way id='-37902388' action='modify'>
    <nd ref='-169107303' />
    <nd ref='-169107304' />
    <tag k='type' v='straight' />
  </way>
  <way id='-37902389' action='modify'>
    <nd ref='-169107304' />
    <nd ref='-169107305' />
    <nd ref='-169107306' />
    <nd ref='-169107307' />
  </way>
  <way id='-37902390' action='modify'>
    <nd ref='-169107307' />
    <nd ref='-169107308' />
    <nd ref='-169107309' />
    <tag k='type' v='straight' />
  </way>
  <way id='-37902391' action='modify'>
    <nd ref='-169107309' />
    <nd ref='-169107310' />
    <nd ref='-169107311' />
  </way>
  <way id='-37902392' action='modify'>
    <nd ref='-169107311' />
    <nd ref='-169107312' />
    <tag k='type' v='straight' />
  </way>
  <way id='-37902393' action='modify'>
    <nd ref='-169107312' />
    <nd ref='-169107313' />
  </way>
  <way id='-37902394' action='modify'>
    <nd ref='-169107313' />
    <nd ref='-169107314' />
    <tag k='type' v='straight' />
  </way>
  <way id='-37902395' action='modify'>
    <nd ref='-169107314' />
    <nd ref='-169107315' />
  </way>
  <way id='-37902396' action='modify'>
    <nd ref='-169107315' />
    <nd ref='-169107316' />
    <tag k='type' v='straight' />
  </way>
  <way id='-37902397' action='modify'>
    <nd ref='-169107316' />
    <nd ref='-169107317' />
    <nd ref='-169107318' />
  </way>
  <way id='-37902398' action='modify'>
    <nd ref='-169107318' />
    <nd ref='-169107319' />
    <tag k='type' v='straight' />
  </way>
  <way id='-37902399' action='modify'>
    <nd ref='-169107319' />
    <nd ref='-169107320' />
    <nd ref='-169107321' />
  </way>
  <way id='-37902400' action='modify'>
    <nd ref='-169107321' />
    <nd ref='-169107322' />
    <tag k='type' v='straight' />
  </way>
  <way id='-37902401' action='modify'>
    <nd ref='-169107322' />
    <nd ref='-169107323' />
  </way>
  <way id='-37902402' action='modify'>
    <nd ref='-169107323' />
    <nd ref='-169107324' />
    <tag k='type' v='straight' />
  </way>
  <way id='-37902403' action='modify'>
    <nd ref='-169107324' />
    <nd ref='-169107325' />
    <nd ref='-169107326' />
  </way>
  <way id='-37902404' action='modify'>
    <nd ref='-169107348' />
    <nd ref='-169107327' />
    <nd ref='-169107350' />
  </way>
  <way id='-37902405' action='modify'>
    <nd ref='-169107328' />
    <nd ref='-169107329' />
  </way>
  <way id='-37902406' action='modify'>
    <nd ref='-169107329' />
    <nd ref='-169107330' />
    <nd ref='-169107331' />
    <tag k='type' v='straight' />
  </way>
  <way id='-37902407' action='modify'>
    <nd ref='-169107331' />
    <nd ref='-169107332' />
  </way>
  <way id='-37902408' action='modify'>
    <nd ref='-169107332' />
    <nd ref='-169107333' />
    <tag k='type' v='straight' />
  </way>
  <way id='-37902409' action='modify'>
    <nd ref='-169107333' />
    <nd ref='-169107353' />
  </way>
  <way id='-37902410' action='modify'>
    <nd ref='-169107334' />
    <nd ref='-169107365' />
    <tag k='type' v='straight' />
  </way>
  <way id='-37902411' action='modify'>
    <nd ref='-169107335' />
    <nd ref='-169107369' />
  </way>
  <way id='-37902412' action='modify'>
    <nd ref='-169107336' />
    <nd ref='-169107383' />
    <tag k='type' v='straight' />
  </way>
  <way id='-37902413' action='modify'>
    <nd ref='-169107337' />
    <nd ref='-169107338' />
  </way>
  <way id='-37902414' action='modify'>
    <nd ref='-169107338' />
    <nd ref='-169107339' />
    <tag k='type' v='straight' />
  </way>
  <way id='-37902419' action='modify'>
    <nd ref='-169107326' />
    <nd ref='-169107347' />
    <tag k='type' v='straight' />
  </way>
  <way id='-37902424' action='modify'>
    <nd ref='-169107347' />
    <nd ref='-169107349' />
  </way>
  <way id='-37902428' action='modify'>
    <nd ref='-169107349' />
    <nd ref='-169107348' />
    <tag k='type' v='straight' />
  </way>
  <way id='-37902433' action='modify'>
    <nd ref='-169107350' />
    <nd ref='-169107328' />
    <tag k='type' v='straight' />
  </way>
  <way id='-37902439' action='modify'>
    <nd ref='-169107353' />
    <nd ref='-169107354' />
    <tag k='type' v='straight' />
  </way>
  <way id='-37902440' action='modify'>
    <nd ref='-169107354' />
    <nd ref='-169107355' />
  </way>
  <way id='-37902455' action='modify'>
    <nd ref='-169107355' />
    <nd ref='-169107356' />
    <tag k='type' v='straight' />
  </way>
  <way id='-37902456' action='modify'>
    <nd ref='-169107356' />
    <nd ref='-169107334' />
  </way>
  <way id='-37902477' action='modify'>
    <nd ref='-169107365' />
    <nd ref='-169107368' />
  </way>
  <way id='-37902483' action='modify'>
    <nd ref='-169107368' />
    <nd ref='-169107335' />
    <tag k='type' v='straight' />
  </way>
  <way id='-37902489' action='modify'>
    <nd ref='-169107369' />
    <nd ref='-169107370' />
    <tag k='type' v='straight' />
  </way>
  <way id='-37902490' action='modify'>
    <nd ref='-169107370' />
    <nd ref='-169107371' />
  </way>
  <way id='-37902505' action='modify'>
    <nd ref='-169107371' />
    <nd ref='-169107372' />
    <tag k='type' v='straight' />
  </way>
  <way id='-37902506' action='modify'>
    <nd ref='-169107372' />
    <nd ref='-169107373' />
  </way>
  <way id='-37902529' action='modify'>
    <nd ref='-169107373' />
    <nd ref='-169107382' />
    <tag k='type' v='straight' />
  </way>
  <way id='-37902530' action='modify'>
    <nd ref='-169107382' />
    <nd ref='-169107336' />
  </way>
  <way id='-37902544' action='modify'>
    <nd ref='-169107383' />
    <nd ref='-169107394' />
  </way>
  <way id='-37902558' action='modify'>
    <nd ref='-169107394' />
    <nd ref='-169107337' />
    <tag k='type' v='straight' />
  </way>
  <relation id='-14482101' action='modify'>
    <member type='way' ref='-37902330' role='' />
    <member type='way' ref='-37902331' role='' />
    <member type='way' ref='-37902332' role='' />
    <member type='way' ref='-37902333' role='' />
    <member type='way' ref='-37902334' role='' />
    <member type='way' ref='-37902335' role='' />
    <member type='way' ref='-37902336' role='' />
    <member type='way' ref='-37902337' role='' />
    <member type='way' ref='-37902338' role='' />
    <member type='way' ref='-37902339' role='' />
    <member type='way' ref='-37902340' role='' />
    <member type='way' ref='-37902341' role='' />
    <member type='way' ref='-37902342' role='' />
    <member type='way' ref='-37902343' role='' />
    <member type='way' ref='-37902344' role='' />
    <member type='way' ref='-37902345' role='' />
    <member type='way' ref='-37902346' role='' />
    <member type='way' ref='-37902347' role='' />
    <member type='way' ref='-37902348' role='' />
    <member type='way' ref='-37902349' role='' />
    <member type='way' ref='-37902350' role='' />
    <member type='way' ref='-37902351' role='' />
    <member type='way' ref='-37902352' role='' />
    <member type='way' ref='-37902353' role='' />
    <member type='way' ref='-37902354' role='' />
    <member type='way' ref='-37902355' role='' />
    <member type='way' ref='-37902356' role='' />
    <member type='way' ref='-37902357' role='' />
    <member type='way' ref='-37902358' role='' />
    <member type='way' ref='-37902359' role='' />
    <member type='way' ref='-37902360' role='' />
    <member type='way' ref='-37902361' role='' />
    <member type='way' ref='-37902362' role='' />
    <member type='way' ref='-37902363' role='' />
    <member type='way' ref='-37902364' role='' />
    <member type='way' ref='-37902365' role='' />
    <member type='way' ref='-37902366' role='' />
    <member type='way' ref='-37902367' role='' />
    <member type='way' ref='-37902368' role='' />
    <member type='way' ref='-37902369' role='' />
    <member type='way' ref='-37902370' role='' />
    <member type='way' ref='-37902371' role='' />
    <member type='way' ref='-37902372' role='' />
    <member type='way' ref='-37902373' role='' />
    <member type='way' ref='-37902374' role='' />
    <member type='way' ref='-37902375' role='' />
    <member type='way' ref='-37902376' role='' />
    <member type='way' ref='-37902377' role='' />
    <member type='way' ref='-37902378' role='' />
    <member type='way' ref='-37902379' role='' />
    <member type='way' ref='-37902380' role='' />
    <member type='way' ref='-37902381' role='' />
    <member type='way' ref='-37902382' role='' />
    <member type='way' ref='-37902383' role='' />
    <member type='way' ref='-37902384' role='' />
    <member type='way' ref='-37902385' role='' />
    <member type='way' ref='-37902386' role='' />
    <member type='way' ref='-37902387' role='' />
    <member type='way' ref='-37902388' role='' />
    <member type='way' ref='-37902389' role='' />
    <member type='way' ref='-37902390' role='' />
    <member type='way' ref='-37902391' role='' />
    <member type='way' ref='-37902392' role='' />
    <member type='way' ref='-37902393' role='' />
    <member type='way' ref='-37902394' role='' />
    <member type='way' ref='-37902395' role='' />
    <member type='way' ref='-37902396' role='' />
    <member type='way' ref='-37902397' role='' />
    <member type='way' ref='-37902398' role='' />
    <member type='way' ref='-37902399' role='' />
    <member type='way' ref='-37902400' role='' />
    <member type='way' ref='-37902401' role='' />
    <member type='way' ref='-37902402' role='' />
    <member type='way' ref='-37902403' role='' />
    <member type='way' ref='-37902419' role='' />
    <member type='way' ref='-37902424' role='' />
    <member type='way' ref='-37902428' role='' />
    <member type='way' ref='-37902404' role='' />
    <member type='way' ref='-37902433' role='' />
    <member type='way' ref='-37902405' role='' />
    <member type='way' ref='-37902406' role='' />
    <member type='way' ref='-37902407' role='' />
    <member type='way' ref='-37902408' role='' />
    <member type='way' ref='-37902409' role='' />
    <member type='way' ref='-37902439' role='' />
    <member type='way' ref='-37902440' role='' />
    <member type='way' ref='-37902455' role='' />
    <member type='way' ref='-37902456' role='' />
    <member type='way' ref='-37902410' role='' />
    <member type='way' ref='-37902477' role='' />
    <member type='way' ref='-37902483' role='' />
    <member type='way' ref='-37902411' role='' />
    <member type='way' ref='-37902489' role='' />
    <member type='way' ref='-37902490' role='' />
    <member type='way' ref='-37902505' role='' />
    <member type='way' ref='-37902506' role='' />
    <member type='way' ref='-37902529' role='' />
    <member type='way' ref='-37902530' role='' />
    <member type='way' ref='-37902412' role='' />
    <member type='way' ref='-37902544' role='' />
    <member type='way' ref='-37902558' role='' />
    <member type='way' ref='-37902413' role='' />
    <member type='way' ref='-37902414' role='' />
    <tag k='key' v='path.dk.hoa' />
    <tag k='name' v='DK HOA' />
    <tag k='type' v='path' />
  </relation>
</osm>
