<?xml version='1.0' encoding='UTF-8'?>
<osm version='0.6' upload='false' generator='JOSM'>
  <node id='-140273413' action='modify' lat='56.03326538759' lon='12.61411966005'>
    <tag k='name' v='hor' />
  </node>
  <node id='-140273414' action='modify' lat='56.03387539207' lon='12.61536542514' />
  <node id='-140273415' action='modify' lat='56.03497647848' lon='12.61603573627' />
  <node id='-140273416' action='modify' lat='56.03561798382' lon='12.61623659424' />
  <node id='-140273417' action='modify' lat='56.03641977285' lon='12.61590853056' />
  <node id='-140273418' action='modify' lat='56.03694788273' lon='12.61527922605' />
  <node id='-140273419' action='modify' lat='56.03749817802' lon='12.6144328994' />
  <node id='-140273420' action='modify' lat='56.03790508247' lon='12.61362987448' />
  <node id='-140273421' action='modify' lat='56.03875285048' lon='12.61285739082' />
  <node id='-140273422' action='modify' lat='56.03879293776' lon='12.61285487677' />
  <node id='-140273423' action='modify' lat='56.03996268467' lon='12.61162691468' />
  <node id='-140273424' action='modify' lat='56.04025578441' lon='12.61082065008'>
    <tag k='name' v='gro' />
  </node>
  <node id='-140273425' action='modify' lat='56.04090797341' lon='12.60902657363' />
  <node id='-140273426' action='modify' lat='56.041638101' lon='12.60777379389' />
  <node id='-140273427' action='modify' lat='56.04186858922' lon='12.60752691102' />
  <node id='-140273428' action='modify' lat='56.04251001691' lon='12.60667089233' />
  <node id='-140273429' action='modify' lat='56.04257848707' lon='12.60654958404' />
  <node id='-140273430' action='modify' lat='56.04324818525' lon='12.60395823252' />
  <node id='-140273431' action='modify' lat='56.04329516711' lon='12.60328055725'>
    <tag k='name' v='mar' />
  </node>
  <node id='-140273432' action='modify' lat='56.04333759148' lon='12.60266861947' />
  <node id='-140273433' action='modify' lat='56.0433653344' lon='12.60173484685' />
  <node id='-140273434' action='modify' lat='56.04336442024' lon='12.60150456685' />
  <node id='-140273435' action='modify' lat='56.04427629952' lon='12.59813719166' />
  <node id='-140273436' action='modify' lat='56.04546831835' lon='12.59624957837' />
  <node id='-140273437' action='modify' lat='56.04769291126' lon='12.59360161959' />
  <node id='-140273438' action='modify' lat='56.04827807283' lon='12.59314405295'>
    <tag k='name' v='hoj' />
  </node>
  <node id='-140273439' action='modify' lat='56.04893628019' lon='12.59262935992' />
  <node id='-140273440' action='modify' lat='56.05017330121' lon='12.59103837011' />
  <node id='-140273441' action='modify' lat='56.05184644731' lon='12.58763865011' />
  <node id='-140273442' action='modify' lat='56.05260277441' lon='12.58646274317' />
  <node id='-140273443' action='modify' lat='56.05272365604' lon='12.58631008479' />
  <node id='-140273444' action='modify' lat='56.05477349733' lon='12.58153040741' />
  <node id='-140273445' action='modify' lat='56.05497245397' lon='12.58067088445' />
  <node id='-140273446' action='modify' lat='56.05591151843' lon='12.57763934993' />
  <node id='-140273447' action='modify' lat='56.0626178214' lon='12.56149084038' />
  <node id='-140273448' action='modify' lat='56.06373115233' lon='12.5591614217' />
  <node id='-140273449' action='modify' lat='56.06649116273' lon='12.55412697998'>
    <tag k='name' v='hel' />
  </node>
  <node id='-140273450' action='modify' lat='56.06728313944' lon='12.55268229546' />
  <node id='-140273451' action='modify' lat='56.06806844532' lon='12.55126991778' />
  <node id='-140273452' action='modify' lat='56.06998246389' lon='12.5478132202' />
  <node id='-140273453' action='modify' lat='56.07091057257' lon='12.54628722645' />
  <node id='-140273454' action='modify' lat='56.0738017397' lon='12.54204850807' />
  <node id='-140273455' action='modify' lat='56.07469715338' lon='12.54024625156' />
  <node id='-140273456' action='modify' lat='56.07476147477' lon='12.54001020398' />
  <node id='-140273457' action='modify' lat='56.07503053539' lon='12.53845335519' />
  <node id='-140273458' action='modify' lat='56.07504849436' lon='12.53813617595'>
    <tag k='name' v='als' />
  </node>
  <node id='-140273459' action='modify' lat='56.07525333597' lon='12.53451839136' />
  <node id='-140273460' action='modify' lat='56.07712732095' lon='12.52740800027' />
  <node id='-140273461' action='modify' lat='56.07852146998' lon='12.52500387853' />
  <node id='-140273462' action='modify' lat='56.07906708276' lon='12.51523882552' />
  <node id='-140273463' action='modify' lat='56.07840015006' lon='12.51333687218'>
    <tag k='name' v='ski' />
  </node>
  <node id='-140273464' action='modify' lat='56.0767639339' lon='12.50867086349' />
  <node id='-140273465' action='modify' lat='56.07582484698' lon='12.50156504599' />
  <node id='-140273466' action='modify' lat='56.07702618091' lon='12.48489745927'>
    <tag k='name' v='sau' />
  </node>
  <node id='-140273467' action='modify' lat='56.07715559516' lon='12.48310190483' />
  <node id='-140273468' action='modify' lat='56.07877328735' lon='12.47714680551' />
  <node id='-140273469' action='modify' lat='56.08296831047' lon='12.46875405263'>
    <tag k='name' v='kar' />
  </node>
  <node id='-140273470' action='modify' lat='56.08320709162' lon='12.46827630877' />
  <node id='-140273471' action='modify' lat='56.08566492156' lon='12.46552227929' />
  <node id='-140273472' action='modify' lat='56.08734731962' lon='12.46459862781' />
  <node id='-140273473' action='modify' lat='56.08917573959' lon='12.46020890129'>
    <tag k='name' v='hob' />
  </node>
  <node id='-140273474' action='modify' lat='56.08918014167' lon='12.45959538495' />
  <node id='-140273475' action='modify' lat='56.08899832936' lon='12.45416814668' />
  <node id='-140273476' action='modify' lat='56.08882480227' lon='12.45221892047' />
  <node id='-140273477' action='modify' lat='56.08876447538' lon='12.45172093149' />
  <node id='-140273478' action='modify' lat='56.08871332931' lon='12.44705248502' />
  <node id='-140273479' action='modify' lat='56.08989190766' lon='12.43592513952'>
    <tag k='name' v='hos' />
  </node>
  <node id='-140273480' action='modify' lat='56.09014615219' lon='12.43352468869' />
  <node id='-140273481' action='modify' lat='56.091003071' lon='12.42971139402' />
  <node id='-140273482' action='modify' lat='56.09143650143' lon='12.42846864789' />
  <node id='-140273483' action='modify' lat='56.09214706166' lon='12.42579869396' />
  <node id='-140273484' action='modify' lat='56.09254750992' lon='12.42387107568'>
    <tag k='name' v='kil' />
  </node>
  <node id='-140273485' action='modify' lat='56.09326644268' lon='12.42041033383' />
  <node id='-140273486' action='modify' lat='56.09393832897' lon='12.41655630019' />
  <node id='-140273487' action='modify' lat='56.09638002944' lon='12.39881997924' />
  <node id='-140273488' action='modify' lat='56.09660274358' lon='12.39704070446' />
  <node id='-140273489' action='modify' lat='56.09761719827' lon='12.38802481286'>
    <tag k='name' v='dro' />
  </node>
  <node id='-140273490' action='modify' lat='56.09799031771' lon='12.38470868147' />
  <node id='-140273491' action='modify' lat='56.09834033821' lon='12.37829933187' />
  <node id='-140273492' action='modify' lat='56.09826379686' lon='12.35598176838'>
    <tag k='name' v='fir' />
  </node>
  <node id='-140273493' action='modify' lat='56.09821939352' lon='12.3430348748' />
  <node id='-140273494' action='modify' lat='56.09933968421' lon='12.33695136022' />
  <node id='-140273495' action='modify' lat='56.10033073146' lon='12.3345268535'>
    <tag k='name' v='sob' />
  </node>
  <node id='-140273496' action='modify' lat='56.10248558117' lon='12.32925499484' />
  <node id='-140273497' action='modify' lat='56.10555876124' lon='12.32464092392' />
  <node id='-140273498' action='modify' lat='56.11203850746' lon='12.31889612914'>
    <tag k='name' v='sta' />
  </node>
  <node id='-140273499' action='modify' lat='56.12177072134' lon='12.31027092851' />
  <node id='-140273500' action='modify' lat='56.12245136699' lon='12.30948891386'>
    <tag k='name' v='gio' />
  </node>
  <node id='-140273501' action='modify' lat='56.12329395745' lon='12.30777556439' />
  <node id='-140273502' action='modify' lat='56.12370351958' lon='12.30646870527' />
  <node id='-140273503' action='modify' lat='56.12375473083' lon='12.30255389313' />
  <node id='-140273504' action='modify' lat='56.12361059233' lon='12.30202475391'>
    <tag k='name' v='gil' />
  </node>
  <way id='-36149040' action='modify'>
    <nd ref='-140273413' />
    <nd ref='-140273414' />
    <tag k='type' v='straight' />
  </way>
  <way id='-36149041' action='modify'>
    <nd ref='-140273414' />
    <nd ref='-140273415' />
  </way>
  <way id='-36149042' action='modify'>
    <nd ref='-140273415' />
    <nd ref='-140273416' />
    <tag k='type' v='straight' />
  </way>
  <way id='-36149043' action='modify'>
    <nd ref='-140273416' />
    <nd ref='-140273417' />
  </way>
  <way id='-36149044' action='modify'>
    <nd ref='-140273417' />
    <nd ref='-140273418' />
    <tag k='type' v='straight' />
  </way>
  <way id='-36149045' action='modify'>
    <nd ref='-140273418' />
    <nd ref='-140273419' />
  </way>
  <way id='-36149046' action='modify'>
    <nd ref='-140273419' />
    <nd ref='-140273420' />
    <tag k='type' v='straight' />
  </way>
  <way id='-36149047' action='modify'>
    <nd ref='-140273420' />
    <nd ref='-140273421' />
  </way>
  <way id='-36149048' action='modify'>
    <nd ref='-140273421' />
    <nd ref='-140273422' />
    <tag k='type' v='straight' />
  </way>
  <way id='-36149049' action='modify'>
    <nd ref='-140273422' />
    <nd ref='-140273423' />
  </way>
  <way id='-36149050' action='modify'>
    <nd ref='-140273423' />
    <nd ref='-140273424' />
    <nd ref='-140273425' />
    <tag k='type' v='straight' />
  </way>
  <way id='-36149051' action='modify'>
    <nd ref='-140273425' />
    <nd ref='-140273426' />
  </way>
  <way id='-36149052' action='modify'>
    <nd ref='-140273426' />
    <nd ref='-140273427' />
    <tag k='type' v='straight' />
  </way>
  <way id='-36149053' action='modify'>
    <nd ref='-140273427' />
    <nd ref='-140273428' />
  </way>
  <way id='-36149054' action='modify'>
    <nd ref='-140273428' />
    <nd ref='-140273429' />
    <tag k='type' v='straight' />
  </way>
  <way id='-36149055' action='modify'>
    <nd ref='-140273429' />
    <nd ref='-140273430' />
  </way>
  <way id='-36149056' action='modify'>
    <nd ref='-140273430' />
    <nd ref='-140273431' />
    <nd ref='-140273432' />
    <tag k='type' v='straight' />
  </way>
  <way id='-36149057' action='modify'>
    <nd ref='-140273432' />
    <nd ref='-140273433' />
  </way>
  <way id='-36149058' action='modify'>
    <nd ref='-140273433' />
    <nd ref='-140273434' />
    <tag k='type' v='straight' />
  </way>
  <way id='-36149059' action='modify'>
    <nd ref='-140273434' />
    <nd ref='-140273435' />
  </way>
  <way id='-36149060' action='modify'>
    <nd ref='-140273435' />
    <nd ref='-140273436' />
    <tag k='type' v='straight' />
  </way>
  <way id='-36149061' action='modify'>
    <nd ref='-140273436' />
    <nd ref='-140273437' />
  </way>
  <way id='-36149062' action='modify'>
    <nd ref='-140273437' />
    <nd ref='-140273438' />
    <nd ref='-140273439' />
    <tag k='type' v='straight' />
  </way>
  <way id='-36149063' action='modify'>
    <nd ref='-140273439' />
    <nd ref='-140273440' />
  </way>
  <way id='-36149064' action='modify'>
    <nd ref='-140273440' />
    <nd ref='-140273441' />
    <tag k='type' v='straight' />
  </way>
  <way id='-36149065' action='modify'>
    <nd ref='-140273441' />
    <nd ref='-140273442' />
  </way>
  <way id='-36149066' action='modify'>
    <nd ref='-140273442' />
    <nd ref='-140273443' />
    <tag k='type' v='straight' />
  </way>
  <way id='-36149067' action='modify'>
    <nd ref='-140273443' />
    <nd ref='-140273444' />
  </way>
  <way id='-36149068' action='modify'>
    <nd ref='-140273444' />
    <nd ref='-140273445' />
    <tag k='type' v='straight' />
  </way>
  <way id='-36149069' action='modify'>
    <nd ref='-140273445' />
    <nd ref='-140273446' />
  </way>
  <way id='-36149070' action='modify'>
    <nd ref='-140273446' />
    <nd ref='-140273447' />
    <tag k='type' v='straight' />
  </way>
  <way id='-36149071' action='modify'>
    <nd ref='-140273447' />
    <nd ref='-140273448' />
  </way>
  <way id='-36149072' action='modify'>
    <nd ref='-140273448' />
    <nd ref='-140273449' />
    <nd ref='-140273450' />
    <tag k='type' v='straight' />
  </way>
  <way id='-36149073' action='modify'>
    <nd ref='-140273450' />
    <nd ref='-140273451' />
  </way>
  <way id='-36149074' action='modify'>
    <nd ref='-140273451' />
    <nd ref='-140273452' />
    <tag k='type' v='straight' />
  </way>
  <way id='-36149075' action='modify'>
    <nd ref='-140273452' />
    <nd ref='-140273453' />
  </way>
  <way id='-36149076' action='modify'>
    <nd ref='-140273453' />
    <nd ref='-140273454' />
    <tag k='type' v='straight' />
  </way>
  <way id='-36149077' action='modify'>
    <nd ref='-140273454' />
    <nd ref='-140273455' />
  </way>
  <way id='-36149078' action='modify'>
    <nd ref='-140273455' />
    <nd ref='-140273456' />
    <tag k='type' v='straight' />
  </way>
  <way id='-36149079' action='modify'>
    <nd ref='-140273456' />
    <nd ref='-140273457' />
  </way>
  <way id='-36149080' action='modify'>
    <nd ref='-140273457' />
    <nd ref='-140273458' />
    <nd ref='-140273459' />
    <tag k='type' v='straight' />
  </way>
  <way id='-36149081' action='modify'>
    <nd ref='-140273459' />
    <nd ref='-140273460' />
  </way>
  <way id='-36149082' action='modify'>
    <nd ref='-140273460' />
    <nd ref='-140273461' />
    <tag k='type' v='straight' />
  </way>
  <way id='-36149083' action='modify'>
    <nd ref='-140273461' />
    <nd ref='-140273462' />
  </way>
  <way id='-36149084' action='modify'>
    <nd ref='-140273462' />
    <nd ref='-140273463' />
    <nd ref='-140273464' />
    <tag k='type' v='straight' />
  </way>
  <way id='-36149085' action='modify'>
    <nd ref='-140273464' />
    <nd ref='-140273465' />
  </way>
  <way id='-36149086' action='modify'>
    <nd ref='-140273465' />
    <nd ref='-140273466' />
    <nd ref='-140273467' />
    <tag k='type' v='straight' />
  </way>
  <way id='-36149087' action='modify'>
    <nd ref='-140273467' />
    <nd ref='-140273468' />
  </way>
  <way id='-36149088' action='modify'>
    <nd ref='-140273468' />
    <nd ref='-140273469' />
    <nd ref='-140273470' />
    <tag k='type' v='straight' />
  </way>
  <way id='-36149089' action='modify'>
    <nd ref='-140273470' />
    <nd ref='-140273471' />
  </way>
  <way id='-36149090' action='modify'>
    <nd ref='-140273471' />
    <nd ref='-140273472' />
    <tag k='type' v='straight' />
  </way>
  <way id='-36149091' action='modify'>
    <nd ref='-140273472' />
    <nd ref='-140273473' />
    <nd ref='-140273474' />
  </way>
  <way id='-36149092' action='modify'>
    <nd ref='-140273474' />
    <nd ref='-140273475' />
    <tag k='type' v='straight' />
  </way>
  <way id='-36149093' action='modify'>
    <nd ref='-140273475' />
    <nd ref='-140273476' />
  </way>
  <way id='-36149094' action='modify'>
    <nd ref='-140273476' />
    <nd ref='-140273477' />
    <tag k='type' v='straight' />
  </way>
  <way id='-36149095' action='modify'>
    <nd ref='-140273477' />
    <nd ref='-140273478' />
  </way>
  <way id='-36149096' action='modify'>
    <nd ref='-140273478' />
    <nd ref='-140273479' />
    <nd ref='-140273480' />
    <tag k='type' v='straight' />
  </way>
  <way id='-36149097' action='modify'>
    <nd ref='-140273480' />
    <nd ref='-140273481' />
  </way>
  <way id='-36149098' action='modify'>
    <nd ref='-140273481' />
    <nd ref='-140273482' />
    <tag k='type' v='straight' />
  </way>
  <way id='-36149099' action='modify'>
    <nd ref='-140273482' />
    <nd ref='-140273483' />
  </way>
  <way id='-36149100' action='modify'>
    <nd ref='-140273483' />
    <nd ref='-140273484' />
    <nd ref='-140273485' />
    <tag k='type' v='straight' />
  </way>
  <way id='-36149101' action='modify'>
    <nd ref='-140273485' />
    <nd ref='-140273486' />
  </way>
  <way id='-36149102' action='modify'>
    <nd ref='-140273486' />
    <nd ref='-140273487' />
    <tag k='type' v='straight' />
  </way>
  <way id='-36149103' action='modify'>
    <nd ref='-140273487' />
    <nd ref='-140273488' />
  </way>
  <way id='-36149104' action='modify'>
    <nd ref='-140273488' />
    <nd ref='-140273489' />
    <nd ref='-140273490' />
    <tag k='type' v='straight' />
  </way>
  <way id='-36149105' action='modify'>
    <nd ref='-140273490' />
    <nd ref='-140273491' />
  </way>
  <way id='-36149106' action='modify'>
    <nd ref='-140273491' />
    <nd ref='-140273492' />
    <nd ref='-140273493' />
    <tag k='type' v='straight' />
  </way>
  <way id='-36149107' action='modify'>
    <nd ref='-140273493' />
    <nd ref='-140273494' />
  </way>
  <way id='-36149108' action='modify'>
    <nd ref='-140273494' />
    <nd ref='-140273495' />
    <nd ref='-140273496' />
    <tag k='type' v='straight' />
  </way>
  <way id='-36149109' action='modify'>
    <nd ref='-140273496' />
    <nd ref='-140273497' />
  </way>
  <way id='-36149110' action='modify'>
    <nd ref='-140273497' />
    <nd ref='-140273498' />
    <nd ref='-140273499' />
    <tag k='type' v='straight' />
  </way>
  <way id='-36149111' action='modify'>
    <nd ref='-140273499' />
    <nd ref='-140273500' />
    <nd ref='-140273501' />
  </way>
  <way id='-36149112' action='modify'>
    <nd ref='-140273501' />
    <nd ref='-140273502' />
    <tag k='type' v='straight' />
  </way>
  <way id='-36149113' action='modify'>
    <nd ref='-140273502' />
    <nd ref='-140273503' />
  </way>
  <way id='-36149114' action='modify'>
    <nd ref='-140273503' />
    <nd ref='-140273504' />
    <tag k='type' v='straight' />
  </way>
  <relation id='-14466038' action='modify'>
    <member type='way' ref='-36149040' role='' />
    <member type='way' ref='-36149041' role='' />
    <member type='way' ref='-36149042' role='' />
    <member type='way' ref='-36149043' role='' />
    <member type='way' ref='-36149044' role='' />
    <member type='way' ref='-36149045' role='' />
    <member type='way' ref='-36149046' role='' />
    <member type='way' ref='-36149047' role='' />
    <member type='way' ref='-36149048' role='' />
    <member type='way' ref='-36149049' role='' />
    <member type='way' ref='-36149050' role='' />
    <member type='way' ref='-36149051' role='' />
    <member type='way' ref='-36149052' role='' />
    <member type='way' ref='-36149053' role='' />
    <member type='way' ref='-36149054' role='' />
    <member type='way' ref='-36149055' role='' />
    <member type='way' ref='-36149056' role='' />
    <member type='way' ref='-36149057' role='' />
    <member type='way' ref='-36149058' role='' />
    <member type='way' ref='-36149059' role='' />
    <member type='way' ref='-36149060' role='' />
    <member type='way' ref='-36149061' role='' />
    <member type='way' ref='-36149062' role='' />
    <member type='way' ref='-36149063' role='' />
    <member type='way' ref='-36149064' role='' />
    <member type='way' ref='-36149065' role='' />
    <member type='way' ref='-36149066' role='' />
    <member type='way' ref='-36149067' role='' />
    <member type='way' ref='-36149068' role='' />
    <member type='way' ref='-36149069' role='' />
    <member type='way' ref='-36149070' role='' />
    <member type='way' ref='-36149071' role='' />
    <member type='way' ref='-36149072' role='' />
    <member type='way' ref='-36149073' role='' />
    <member type='way' ref='-36149074' role='' />
    <member type='way' ref='-36149075' role='' />
    <member type='way' ref='-36149076' role='' />
    <member type='way' ref='-36149077' role='' />
    <member type='way' ref='-36149078' role='' />
    <member type='way' ref='-36149079' role='' />
    <member type='way' ref='-36149080' role='' />
    <member type='way' ref='-36149081' role='' />
    <member type='way' ref='-36149082' role='' />
    <member type='way' ref='-36149083' role='' />
    <member type='way' ref='-36149084' role='' />
    <member type='way' ref='-36149085' role='' />
    <member type='way' ref='-36149086' role='' />
    <member type='way' ref='-36149087' role='' />
    <member type='way' ref='-36149088' role='' />
    <member type='way' ref='-36149089' role='' />
    <member type='way' ref='-36149090' role='' />
    <member type='way' ref='-36149091' role='' />
    <member type='way' ref='-36149092' role='' />
    <member type='way' ref='-36149093' role='' />
    <member type='way' ref='-36149094' role='' />
    <member type='way' ref='-36149095' role='' />
    <member type='way' ref='-36149096' role='' />
    <member type='way' ref='-36149097' role='' />
    <member type='way' ref='-36149098' role='' />
    <member type='way' ref='-36149099' role='' />
    <member type='way' ref='-36149100' role='' />
    <member type='way' ref='-36149101' role='' />
    <member type='way' ref='-36149102' role='' />
    <member type='way' ref='-36149103' role='' />
    <member type='way' ref='-36149104' role='' />
    <member type='way' ref='-36149105' role='' />
    <member type='way' ref='-36149106' role='' />
    <member type='way' ref='-36149107' role='' />
    <member type='way' ref='-36149108' role='' />
    <member type='way' ref='-36149109' role='' />
    <member type='way' ref='-36149110' role='' />
    <member type='way' ref='-36149111' role='' />
    <member type='way' ref='-36149112' role='' />
    <member type='way' ref='-36149113' role='' />
    <member type='way' ref='-36149114' role='' />
    <tag k='key' v='path.dk.hrg' />
    <tag k='name' v='DK HRG' />
    <tag k='type' v='path' />
  </relation>
</osm>
