<?xml version='1.0' encoding='UTF-8'?>
<osm version='0.6' upload='false' generator='JOSM'>
  <node id='-180282217' action='modify' lat='57.45644658081' lon='9.98604990475'>
    <tag k='name' v='hjo' />
  </node>
  <node id='-180282218' action='modify' lat='57.45646100986' lon='9.98828351364' />
  <node id='-180282219' action='modify' lat='57.45558734258' lon='9.98006656632' />
  <node id='-180282220' action='modify' lat='57.45554477692' lon='9.97992038593' />
  <node id='-180282221' action='modify' lat='57.44829202135' lon='9.97051119268' />
  <node id='-180282222' action='modify' lat='57.44433457809' lon='9.97200786531' />
  <node id='-180282223' action='modify' lat='57.44251014204' lon='9.97552692354' />
  <node id='-180282224' action='modify' lat='57.44229651542' lon='9.97702896059' />
  <node id='-180282225' action='modify' lat='57.4396664991' lon='9.98588560939' />
  <node id='-180282226' action='modify' lat='57.43573338206' lon='9.99402746424' />
  <node id='-180282227' action='modify' lat='57.4336825689' lon='9.99960779876' />
  <node id='-180282228' action='modify' lat='57.42801846109' lon='10.02128025046'>
    <tag k='name' v='fug' />
  </node>
  <node id='-180282229' action='modify' lat='57.4238708656' lon='10.03714797735' />
  <node id='-180282230' action='modify' lat='57.42280505554' lon='10.04278063238' />
  <node id='-180282231' action='modify' lat='57.4223770834' lon='10.04725630472'>
    <tag k='name' v='ilb' />
  </node>
  <node id='-180282232' action='modify' lat='57.4218894236' lon='10.05235611856' />
  <node id='-180282233' action='modify' lat='57.42282238589' lon='10.05991994798' />
  <node id='-180282234' action='modify' lat='57.42546805676' lon='10.06723701417' />
  <node id='-180282235' action='modify' lat='57.42645291667' lon='10.07229565501' />
  <node id='-180282236' action='modify' lat='57.42677060683' lon='10.07641552806' />
  <node id='-180282237' action='modify' lat='57.4265944292' lon='10.0813534829'>
    <tag k='name' v='lor' />
  </node>
  <node id='-180282238' action='modify' lat='57.42378420757' lon='10.08802949846' />
  <node id='-180282239' action='modify' lat='57.41791468297' lon='10.09094237208' />
  <node id='-180282240' action='modify' lat='57.41239669737' lon='10.09516417444' />
  <node id='-180282241' action='modify' lat='57.40962005762' lon='10.09812533319' />
  <node id='-180282242' action='modify' lat='57.40597196551' lon='10.10124206275'>
    <tag k='name' v='boj' />
  </node>
  <node id='-180282243' action='modify' lat='57.39201629339' lon='10.11094092786' />
  <node id='-180282244' action='modify' lat='57.38760174328' lon='10.10976612031' />
  <node id='-180282245' action='modify' lat='57.38662197861' lon='10.10844723221'>
    <tag k='name' v='tar' />
  </node>
  <node id='-180282246' action='modify' lat='57.38462082626' lon='10.10575353563' />
  <node id='-180282247' action='modify' lat='57.37980921177' lon='10.10592519969' />
  <node id='-180282248' action='modify' lat='57.37664468435' lon='10.11121735257'>
    <tag k='name' v='bjo' />
  </node>
  <node id='-180282249' action='modify' lat='57.37643145383' lon='10.11157392919' />
  <node id='-180282250' action='modify' lat='57.37338310452' lon='10.11447608203' />
  <node id='-180282251' action='modify' lat='57.37079585913' lon='10.11530756682' />
  <node id='-180282252' action='modify' lat='57.36721043801' lon='10.12039839685' />
  <node id='-180282253' action='modify' lat='57.3660185943' lon='10.12492060125' />
  <node id='-180282254' action='modify' lat='57.36469652819' lon='10.1289224571' />
  <node id='-180282255' action='modify' lat='57.36269453435' lon='10.13360022962' />
  <node id='-180282256' action='modify' lat='57.36184828156' lon='10.1379427287' />
  <node id='-180282257' action='modify' lat='57.36180050314' lon='10.13867358089'>
    <tag k='name' v='tra' />
  </node>
  <node id='-180282258' action='modify' lat='57.3615242417' lon='10.14289945096' />
  <node id='-180282259' action='modify' lat='57.36212168942' lon='10.14869033754' />
  <node id='-180282260' action='modify' lat='57.36395013285' lon='10.15458583295' />
  <node id='-180282261' action='modify' lat='57.3651275776' lon='10.16328155726' />
  <node id='-180282262' action='modify' lat='57.36479199627' lon='10.18034040391' />
  <node id='-180282263' action='modify' lat='57.36408610378' lon='10.18601327866' />
  <node id='-180282264' action='modify' lat='57.3638747016' lon='10.18684352873'>
    <tag k='name' v='sas' />
  </node>
  <node id='-180282265' action='modify' lat='57.36294623466' lon='10.19048988551' />
  <node id='-180282266' action='modify' lat='57.36156330167' lon='10.1937836355' />
  <node id='-180282267' action='modify' lat='57.35911555355' lon='10.19787668645' />
  <node id='-180282268' action='modify' lat='57.35648824088' lon='10.20025848269' />
  <node id='-180282269' action='modify' lat='57.35397649025' lon='10.20120262027' />
  <node id='-180282270' action='modify' lat='57.35153257422' lon='10.20296483696'>
    <tag k='name' v='dal' />
  </node>
  <node id='-180282271' action='modify' lat='57.34923031421' lon='10.20759164751' />
  <node id='-180282272' action='modify' lat='57.34596551989' lon='10.21776794314' />
  <node id='-180282273' action='modify' lat='57.34515506426' lon='10.22209166408' />
  <node id='-180282274' action='modify' lat='57.34464851751' lon='10.22730051935' />
  <node id='-180282275' action='modify' lat='57.34471509514' lon='10.23214458346'>
    <tag k='name' v='ost.yv' />
  </node>
  <node id='-180282276' action='modify' lat='57.34519264887' lon='10.23538031632'>
    <tag k='name' v='ost' />
  </node>
  <node id='-180282277' action='modify' lat='57.34833310567' lon='10.25665997386' />
  <node id='-180282278' action='modify' lat='57.3481999692' lon='10.26568292499' />
  <node id='-180282279' action='modify' lat='57.34797278919' lon='10.26732039557'>
    <tag k='name' v='lin' />
  </node>
  <node id='-180282280' action='modify' lat='57.34552120134' lon='10.28499033301' />
  <node id='-180282281' action='modify' lat='57.34512937344' lon='10.28769783552' />
  <node id='-180282282' action='modify' lat='57.34380040563' lon='10.29663561702' />
  <node id='-180282283' action='modify' lat='57.34194490243' lon='10.30168353975' />
  <node id='-180282284' action='modify' lat='57.33768851724' lon='10.30934803219'>
    <tag k='name' v='tho' />
  </node>
  <node id='-180282285' action='modify' lat='57.33620412609' lon='10.31202077329' />
  <node id='-180282286' action='modify' lat='57.33514445959' lon='10.31426846445' />
  <node id='-180282287' action='modify' lat='57.33195659002' lon='10.3231197542' />
  <node id='-180282288' action='modify' lat='57.33056380375' lon='10.32606481433' />
  <node id='-180282289' action='modify' lat='57.32858311452' lon='10.32938002467' />
  <node id='-180282290' action='modify' lat='57.32680503645' lon='10.33468006968' />
  <node id='-180282291' action='modify' lat='57.32493157193' lon='10.34320652519'>
    <tag k='name' v='tam' />
  </node>
  <node id='-180282292' action='modify' lat='57.32454901226' lon='10.34494756579' />
  <node id='-180282293' action='modify' lat='57.32425649802' lon='10.35389542043' />
  <node id='-180282294' action='modify' lat='57.32597967347' lon='10.3737652275' />
  <node id='-180282295' action='modify' lat='57.32524841919' lon='10.38070946664' />
  <node id='-180282296' action='modify' lat='57.32291265646' lon='10.3835981977' />
  <node id='-180282297' action='modify' lat='57.32147135515' lon='10.38326061786'>
    <tag k='name' v='hor' />
  </node>
  <way id='-38721630' action='modify'>
    <nd ref='-180282218' />
    <nd ref='-180282217' />
    <tag k='type' v='straight' />
  </way>
  <way id='-38721631' action='modify'>
    <nd ref='-180282217' />
    <nd ref='-180282219' />
  </way>
  <way id='-38721632' action='modify'>
    <nd ref='-180282219' />
    <nd ref='-180282220' />
    <tag k='type' v='straight' />
  </way>
  <way id='-38721633' action='modify'>
    <nd ref='-180282220' />
    <nd ref='-180282221' />
  </way>
  <way id='-38721634' action='modify'>
    <nd ref='-180282221' />
    <nd ref='-180282222' />
    <tag k='type' v='straight' />
  </way>
  <way id='-38721635' action='modify'>
    <nd ref='-180282222' />
    <nd ref='-180282223' />
  </way>
  <way id='-38721636' action='modify'>
    <nd ref='-180282223' />
    <nd ref='-180282224' />
    <tag k='type' v='straight' />
  </way>
  <way id='-38721637' action='modify'>
    <nd ref='-180282224' />
    <nd ref='-180282225' />
  </way>
  <way id='-38721638' action='modify'>
    <nd ref='-180282225' />
    <nd ref='-180282226' />
    <tag k='type' v='straight' />
  </way>
  <way id='-38721639' action='modify'>
    <nd ref='-180282226' />
    <nd ref='-180282227' />
  </way>
  <way id='-38721640' action='modify'>
    <nd ref='-180282227' />
    <nd ref='-180282228' />
    <nd ref='-180282229' />
    <tag k='type' v='straight' />
  </way>
  <way id='-38721641' action='modify'>
    <nd ref='-180282229' />
    <nd ref='-180282230' />
  </way>
  <way id='-38721642' action='modify'>
    <nd ref='-180282230' />
    <nd ref='-180282231' />
    <nd ref='-180282232' />
    <tag k='type' v='straight' />
  </way>
  <way id='-38721643' action='modify'>
    <nd ref='-180282232' />
    <nd ref='-180282233' />
  </way>
  <way id='-38721644' action='modify'>
    <nd ref='-180282233' />
    <nd ref='-180282234' />
    <tag k='type' v='straight' />
  </way>
  <way id='-38721645' action='modify'>
    <nd ref='-180282234' />
    <nd ref='-180282235' />
  </way>
  <way id='-38721646' action='modify'>
    <nd ref='-180282235' />
    <nd ref='-180282236' />
    <tag k='type' v='straight' />
  </way>
  <way id='-38721647' action='modify'>
    <nd ref='-180282236' />
    <nd ref='-180282237' />
    <nd ref='-180282238' />
  </way>
  <way id='-38721648' action='modify'>
    <nd ref='-180282238' />
    <nd ref='-180282239' />
    <tag k='type' v='straight' />
  </way>
  <way id='-38721649' action='modify'>
    <nd ref='-180282239' />
    <nd ref='-180282240' />
  </way>
  <way id='-38721650' action='modify'>
    <nd ref='-180282240' />
    <nd ref='-180282241' />
    <tag k='type' v='straight' />
  </way>
  <way id='-38721651' action='modify'>
    <nd ref='-180282241' />
    <nd ref='-180282242' />
  </way>
  <way id='-38721652' action='modify'>
    <nd ref='-180282242' />
    <nd ref='-180282243' />
    <tag k='type' v='straight' />
  </way>
  <way id='-38721653' action='modify'>
    <nd ref='-180282243' />
    <nd ref='-180282244' />
  </way>
  <way id='-38721654' action='modify'>
    <nd ref='-180282244' />
    <nd ref='-180282245' />
    <nd ref='-180282246' />
    <tag k='type' v='straight' />
  </way>
  <way id='-38721655' action='modify'>
    <nd ref='-180282246' />
    <nd ref='-180282247' />
  </way>
  <way id='-38721656' action='modify'>
    <nd ref='-180282247' />
    <nd ref='-180282248' />
    <nd ref='-180282249' />
    <tag k='type' v='straight' />
  </way>
  <way id='-38721657' action='modify'>
    <nd ref='-180282249' />
    <nd ref='-180282250' />
  </way>
  <way id='-38721658' action='modify'>
    <nd ref='-180282250' />
    <nd ref='-180282251' />
    <tag k='type' v='straight' />
  </way>
  <way id='-38721659' action='modify'>
    <nd ref='-180282251' />
    <nd ref='-180282252' />
  </way>
  <way id='-38721660' action='modify'>
    <nd ref='-180282252' />
    <nd ref='-180282253' />
    <tag k='type' v='straight' />
  </way>
  <way id='-38721661' action='modify'>
    <nd ref='-180282253' />
    <nd ref='-180282254' />
  </way>
  <way id='-38721662' action='modify'>
    <nd ref='-180282254' />
    <nd ref='-180282255' />
    <tag k='type' v='straight' />
  </way>
  <way id='-38721663' action='modify'>
    <nd ref='-180282255' />
    <nd ref='-180282256' />
  </way>
  <way id='-38721664' action='modify'>
    <nd ref='-180282256' />
    <nd ref='-180282257' />
    <nd ref='-180282258' />
    <tag k='type' v='straight' />
  </way>
  <way id='-38721665' action='modify'>
    <nd ref='-180282258' />
    <nd ref='-180282259' />
  </way>
  <way id='-38721666' action='modify'>
    <nd ref='-180282259' />
    <nd ref='-180282260' />
    <tag k='type' v='straight' />
  </way>
  <way id='-38721667' action='modify'>
    <nd ref='-180282260' />
    <nd ref='-180282261' />
  </way>
  <way id='-38721668' action='modify'>
    <nd ref='-180282261' />
    <nd ref='-180282262' />
    <tag k='type' v='straight' />
  </way>
  <way id='-38721669' action='modify'>
    <nd ref='-180282262' />
    <nd ref='-180282263' />
  </way>
  <way id='-38721670' action='modify'>
    <nd ref='-180282263' />
    <nd ref='-180282264' />
    <nd ref='-180282265' />
    <tag k='type' v='straight' />
  </way>
  <way id='-38721671' action='modify'>
    <nd ref='-180282265' />
    <nd ref='-180282266' />
  </way>
  <way id='-38721672' action='modify'>
    <nd ref='-180282266' />
    <nd ref='-180282267' />
    <tag k='type' v='straight' />
  </way>
  <way id='-38721673' action='modify'>
    <nd ref='-180282267' />
    <nd ref='-180282268' />
  </way>
  <way id='-38721674' action='modify'>
    <nd ref='-180282268' />
    <nd ref='-180282269' />
    <tag k='type' v='straight' />
  </way>
  <way id='-38721675' action='modify'>
    <nd ref='-180282269' />
    <nd ref='-180282270' />
    <nd ref='-180282271' />
  </way>
  <way id='-38721676' action='modify'>
    <nd ref='-180282271' />
    <nd ref='-180282272' />
    <tag k='type' v='straight' />
  </way>
  <way id='-38721677' action='modify'>
    <nd ref='-180282272' />
    <nd ref='-180282273' />
  </way>
  <way id='-38721678' action='modify'>
    <nd ref='-180282273' />
    <nd ref='-180282274' />
    <tag k='type' v='straight' />
  </way>
  <way id='-38721679' action='modify'>
    <nd ref='-180282274' />
    <nd ref='-180282275' />
  </way>
  <way id='-38721680' action='modify'>
    <nd ref='-180282275' />
    <nd ref='-180282276' />
    <nd ref='-180282277' />
    <tag k='type' v='straight' />
  </way>
  <way id='-38721681' action='modify'>
    <nd ref='-180282277' />
    <nd ref='-180282278' />
  </way>
  <way id='-38721682' action='modify'>
    <nd ref='-180282278' />
    <nd ref='-180282279' />
    <nd ref='-180282280' />
    <tag k='type' v='straight' />
  </way>
  <way id='-38721683' action='modify'>
    <nd ref='-180282280' />
    <nd ref='-180282281' />
  </way>
  <way id='-38721684' action='modify'>
    <nd ref='-180282281' />
    <nd ref='-180282282' />
    <tag k='type' v='straight' />
  </way>
  <way id='-38721685' action='modify'>
    <nd ref='-180282282' />
    <nd ref='-180282283' />
  </way>
  <way id='-38721686' action='modify'>
    <nd ref='-180282283' />
    <nd ref='-180282284' />
    <nd ref='-180282285' />
    <tag k='type' v='straight' />
  </way>
  <way id='-38721687' action='modify'>
    <nd ref='-180282285' />
    <nd ref='-180282286' />
  </way>
  <way id='-38721688' action='modify'>
    <nd ref='-180282286' />
    <nd ref='-180282287' />
    <tag k='type' v='straight' />
  </way>
  <way id='-38721689' action='modify'>
    <nd ref='-180282287' />
    <nd ref='-180282288' />
  </way>
  <way id='-38721690' action='modify'>
    <nd ref='-180282288' />
    <nd ref='-180282289' />
    <tag k='type' v='straight' />
  </way>
  <way id='-38721691' action='modify'>
    <nd ref='-180282289' />
    <nd ref='-180282290' />
  </way>
  <way id='-38721692' action='modify'>
    <nd ref='-180282290' />
    <nd ref='-180282291' />
    <nd ref='-180282292' />
    <tag k='type' v='straight' />
  </way>
  <way id='-38721693' action='modify'>
    <nd ref='-180282292' />
    <nd ref='-180282293' />
  </way>
  <way id='-38721694' action='modify'>
    <nd ref='-180282293' />
    <nd ref='-180282294' />
    <tag k='type' v='straight' />
  </way>
  <way id='-38721695' action='modify'>
    <nd ref='-180282294' />
    <nd ref='-180282295' />
    <nd ref='-180282296' />
  </way>
  <way id='-38721696' action='modify'>
    <nd ref='-180282296' />
    <nd ref='-180282297' />
    <tag k='type' v='straight' />
  </way>
  <relation id='-14490064' action='modify'>
    <member type='way' ref='-38721630' role='' />
    <member type='way' ref='-38721631' role='' />
    <member type='way' ref='-38721632' role='' />
    <member type='way' ref='-38721633' role='' />
    <member type='way' ref='-38721634' role='' />
    <member type='way' ref='-38721635' role='' />
    <member type='way' ref='-38721636' role='' />
    <member type='way' ref='-38721637' role='' />
    <member type='way' ref='-38721638' role='' />
    <member type='way' ref='-38721639' role='' />
    <member type='way' ref='-38721640' role='' />
    <member type='way' ref='-38721641' role='' />
    <member type='way' ref='-38721642' role='' />
    <member type='way' ref='-38721643' role='' />
    <member type='way' ref='-38721644' role='' />
    <member type='way' ref='-38721645' role='' />
    <member type='way' ref='-38721646' role='' />
    <member type='way' ref='-38721647' role='' />
    <member type='way' ref='-38721648' role='' />
    <member type='way' ref='-38721649' role='' />
    <member type='way' ref='-38721650' role='' />
    <member type='way' ref='-38721651' role='' />
    <member type='way' ref='-38721652' role='' />
    <member type='way' ref='-38721653' role='' />
    <member type='way' ref='-38721654' role='' />
    <member type='way' ref='-38721655' role='' />
    <member type='way' ref='-38721656' role='' />
    <member type='way' ref='-38721657' role='' />
    <member type='way' ref='-38721658' role='' />
    <member type='way' ref='-38721659' role='' />
    <member type='way' ref='-38721660' role='' />
    <member type='way' ref='-38721661' role='' />
    <member type='way' ref='-38721662' role='' />
    <member type='way' ref='-38721663' role='' />
    <member type='way' ref='-38721664' role='' />
    <member type='way' ref='-38721665' role='' />
    <member type='way' ref='-38721666' role='' />
    <member type='way' ref='-38721667' role='' />
    <member type='way' ref='-38721668' role='' />
    <member type='way' ref='-38721669' role='' />
    <member type='way' ref='-38721670' role='' />
    <member type='way' ref='-38721671' role='' />
    <member type='way' ref='-38721672' role='' />
    <member type='way' ref='-38721673' role='' />
    <member type='way' ref='-38721674' role='' />
    <member type='way' ref='-38721675' role='' />
    <member type='way' ref='-38721676' role='' />
    <member type='way' ref='-38721677' role='' />
    <member type='way' ref='-38721678' role='' />
    <member type='way' ref='-38721679' role='' />
    <member type='way' ref='-38721680' role='' />
    <member type='way' ref='-38721681' role='' />
    <member type='way' ref='-38721682' role='' />
    <member type='way' ref='-38721683' role='' />
    <member type='way' ref='-38721684' role='' />
    <member type='way' ref='-38721685' role='' />
    <member type='way' ref='-38721686' role='' />
    <member type='way' ref='-38721687' role='' />
    <member type='way' ref='-38721688' role='' />
    <member type='way' ref='-38721689' role='' />
    <member type='way' ref='-38721690' role='' />
    <member type='way' ref='-38721691' role='' />
    <member type='way' ref='-38721692' role='' />
    <member type='way' ref='-38721693' role='' />
    <member type='way' ref='-38721694' role='' />
    <member type='way' ref='-38721695' role='' />
    <member type='way' ref='-38721696' role='' />
    <tag k='key' v='path.dk.hrh' />
    <tag k='name' v='DK HRH' />
    <tag k='type' v='path' />
  </relation>
</osm>
