<?xml version='1.0' encoding='UTF-8'?>
<osm version='0.6' upload='false' generator='JOSM'>
  <node id='-140463941' action='modify' lat='55.92490210943' lon='12.31036818409' />
  <node id='-140463942' action='modify' lat='55.92733931423' lon='12.3113314388'>
    <tag k='name' v='hil' />
  </node>
  <node id='-140463943' action='modify' lat='55.92426120516' lon='12.30538486362' />
  <node id='-140463944' action='modify' lat='55.92640114804' lon='12.30226277232' />
  <node id='-140463945' action='modify' lat='55.92731479552' lon='12.30012773395' />
  <node id='-140463946' action='modify' lat='55.92844501832' lon='12.29577121188'>
    <tag k='name' v='hll' />
  </node>
  <node id='-140463947' action='modify' lat='55.9291239944' lon='12.29315399051' />
  <node id='-140463948' action='modify' lat='55.92926824582' lon='12.288540591' />
  <node id='-140463949' action='modify' lat='55.92466395625' lon='12.26088165164' />
  <node id='-140463950' action='modify' lat='55.92439946347' lon='12.25840329051' />
  <node id='-140463951' action='modify' lat='55.92419627169' lon='12.24590257861'>
    <tag k='name' v='fre' />
  </node>
  <node id='-140463952' action='modify' lat='55.923900529' lon='12.22770809054' />
  <node id='-140463953' action='modify' lat='55.92152124731' lon='12.21735519489'>
    <tag k='name' v='har' />
  </node>
  <node id='-140463954' action='modify' lat='55.92034167756' lon='12.21591709971' />
  <node id='-140463955' action='modify' lat='55.91451575777' lon='12.2107350719' />
  <node id='-140463956' action='modify' lat='55.91233801582' lon='12.20543802942'>
    <tag k='name' v='glh' />
  </node>
  <node id='-140463957' action='modify' lat='55.91216169055' lon='12.20439433515' />
  <node id='-140463958' action='modify' lat='55.91200534916' lon='12.2011649555' />
  <node id='-140463959' action='modify' lat='55.91231502475' lon='12.19681441247' />
  <node id='-140463960' action='modify' lat='55.91287123198' lon='12.19407855928' />
  <node id='-140463961' action='modify' lat='55.91266979569' lon='12.18756615579' />
  <node id='-140463962' action='modify' lat='55.91137997733' lon='12.18368231714' />
  <node id='-140463963' action='modify' lat='55.91092297147' lon='12.18194424033'>
    <tag k='name' v='bor' />
  </node>
  <node id='-140463964' action='modify' lat='55.90690887925' lon='12.15960143924' />
  <node id='-140463965' action='modify' lat='55.90669941003' lon='12.15491332735'>
    <tag k='name' v='ska.yh' />
  </node>
  <node id='-140463966' action='modify' lat='55.90673102133' lon='12.15464564331' />
  <node id='-140463967' action='modify' lat='55.90744039457' lon='12.14901127935'>
    <tag k='name' v='ska' />
  </node>
  <node id='-140463968' action='modify' lat='55.90685125168' lon='12.1536676739' />
  <way id='-36162019' action='modify'>
    <nd ref='-140463942' />
    <nd ref='-140463941' />
    <tag k='type' v='straight' />
  </way>
  <way id='-36162020' action='modify'>
    <nd ref='-140463941' />
    <nd ref='-140463943' />
  </way>
  <way id='-36162021' action='modify'>
    <nd ref='-140463943' />
    <nd ref='-140463944' />
    <tag k='type' v='straight' />
  </way>
  <way id='-36162022' action='modify'>
    <nd ref='-140463944' />
    <nd ref='-140463945' />
  </way>
  <way id='-36162023' action='modify'>
    <nd ref='-140463945' />
    <nd ref='-140463946' />
    <nd ref='-140463947' />
    <tag k='type' v='straight' />
  </way>
  <way id='-36162024' action='modify'>
    <nd ref='-140463947' />
    <nd ref='-140463948' />
  </way>
  <way id='-36162025' action='modify'>
    <nd ref='-140463948' />
    <nd ref='-140463949' />
    <tag k='type' v='straight' />
  </way>
  <way id='-36162026' action='modify'>
    <nd ref='-140463949' />
    <nd ref='-140463950' />
  </way>
  <way id='-36162027' action='modify'>
    <nd ref='-140463950' />
    <nd ref='-140463951' />
    <nd ref='-140463952' />
    <tag k='type' v='straight' />
  </way>
  <way id='-36162028' action='modify'>
    <nd ref='-140463952' />
    <nd ref='-140463953' />
    <nd ref='-140463954' />
  </way>
  <way id='-36162029' action='modify'>
    <nd ref='-140463954' />
    <nd ref='-140463955' />
    <tag k='type' v='straight' />
  </way>
  <way id='-36162030' action='modify'>
    <nd ref='-140463955' />
    <nd ref='-140463956' />
    <nd ref='-140463957' />
  </way>
  <way id='-36162031' action='modify'>
    <nd ref='-140463957' />
    <nd ref='-140463958' />
    <tag k='type' v='straight' />
  </way>
  <way id='-36162032' action='modify'>
    <nd ref='-140463958' />
    <nd ref='-140463959' />
  </way>
  <way id='-36162033' action='modify'>
    <nd ref='-140463959' />
    <nd ref='-140463960' />
    <tag k='type' v='straight' />
  </way>
  <way id='-36162034' action='modify'>
    <nd ref='-140463960' />
    <nd ref='-140463961' />
  </way>
  <way id='-36162035' action='modify'>
    <nd ref='-140463961' />
    <nd ref='-140463962' />
    <tag k='type' v='straight' />
  </way>
  <way id='-36162036' action='modify'>
    <nd ref='-140463962' />
    <nd ref='-140463963' />
  </way>
  <way id='-36162037' action='modify'>
    <nd ref='-140463963' />
    <nd ref='-140463964' />
    <tag k='type' v='straight' />
  </way>
  <way id='-36162038' action='modify'>
    <nd ref='-140463964' />
    <nd ref='-140463965' />
  </way>
  <way id='-36162039' action='modify'>
    <nd ref='-140463965' />
    <nd ref='-140463966' />
    <tag k='type' v='straight' />
  </way>
  <way id='-36162040' action='modify'>
    <nd ref='-140463966' />
    <nd ref='-140463968' />
  </way>
  <way id='-36162041' action='modify'>
    <nd ref='-140463968' />
    <nd ref='-140463967' />
    <tag k='type' v='straight' />
  </way>
  <relation id='-14466194' action='modify'>
    <member type='way' ref='-36162019' role='' />
    <member type='way' ref='-36162020' role='' />
    <member type='way' ref='-36162021' role='' />
    <member type='way' ref='-36162022' role='' />
    <member type='way' ref='-36162023' role='' />
    <member type='way' ref='-36162024' role='' />
    <member type='way' ref='-36162025' role='' />
    <member type='way' ref='-36162026' role='' />
    <member type='way' ref='-36162027' role='' />
    <member type='way' ref='-36162028' role='' />
    <member type='way' ref='-36162029' role='' />
    <member type='way' ref='-36162030' role='' />
    <member type='way' ref='-36162031' role='' />
    <member type='way' ref='-36162032' role='' />
    <member type='way' ref='-36162033' role='' />
    <member type='way' ref='-36162034' role='' />
    <member type='way' ref='-36162035' role='' />
    <member type='way' ref='-36162036' role='' />
    <member type='way' ref='-36162037' role='' />
    <member type='way' ref='-36162038' role='' />
    <member type='way' ref='-36162039' role='' />
    <member type='way' ref='-36162040' role='' />
    <member type='way' ref='-36162041' role='' />
    <tag k='key' v='path.dk.hrs' />
    <tag k='name' v='DK HRS' />
    <tag k='type' v='path' />
  </relation>
</osm>
