<?xml version='1.0' encoding='UTF-8'?>
<osm version='0.6' upload='false' generator='JOSM'>
  <node id='-190686696' action='modify' lat='55.25142469665' lon='9.49307799071' />
  <node id='-190686697' action='modify' lat='55.25136965996' lon='9.49662655324' />
  <node id='-190686698' action='modify' lat='55.25250401172' lon='9.4895938012' />
  <node id='-190686699' action='modify' lat='55.25144761661' lon='9.49236940947'>
    <tag k='name' v='had' />
  </node>
  <node id='-190686700' action='modify' lat='55.25270580676' lon='9.48940872878' />
  <node id='-190686701' action='modify' lat='55.25367196272' lon='9.48580920428' />
  <node id='-190686702' action='modify' lat='55.25317207167' lon='9.48876768082' />
  <node id='-190686703' action='modify' lat='55.25352979251' lon='9.4843876335' />
  <node id='-190686704' action='modify' lat='55.25360218793' lon='9.48511152017'>
    <tag k='name' v='hab' />
  </node>
  <node id='-190686705' action='modify' lat='55.25333335143' lon='9.48311894998' />
  <node id='-190686706' action='modify' lat='55.25304824371' lon='9.48179930314' />
  <node id='-190686707' action='modify' lat='55.25296187019' lon='9.47923511133' />
  <node id='-190686708' action='modify' lat='55.25310709989' lon='9.47775855526' />
  <node id='-190686709' action='modify' lat='55.25274937524' lon='9.47513133153' />
  <node id='-190686710' action='modify' lat='55.25265382858' lon='9.47491809592' />
  <node id='-190686711' action='modify' lat='55.25245814907' lon='9.47445809573' />
  <node id='-190686712' action='modify' lat='55.25208584379' lon='9.47346630414' />
  <node id='-190686713' action='modify' lat='55.25222939625' lon='9.47384871535'>
    <tag k='name' v='hav' />
  </node>
  <node id='-190686714' action='modify' lat='55.25173149778' lon='9.47233906775' />
  <node id='-190686715' action='modify' lat='55.25157985127' lon='9.47184074025' />
  <node id='-190686716' action='modify' lat='55.251912381' lon='9.46791350305' />
  <node id='-190686717' action='modify' lat='55.25203160745' lon='9.46772297533'>
    <tag k='name' v='siv' />
  </node>
  <node id='-190686718' action='modify' lat='55.25239241404' lon='9.46714639127' />
  <node id='-190686719' action='modify' lat='55.2534961623' lon='9.46616470277' />
  <node id='-190686720' action='modify' lat='55.25406789797' lon='9.46586429536' />
  <node id='-190686721' action='modify' lat='55.25466714149' lon='9.46529030263' />
  <node id='-190686722' action='modify' lat='55.25542841232' lon='9.46437298715' />
  <node id='-190686723' action='modify' lat='55.25690199555' lon='9.46414231718' />
  <node id='-190686724' action='modify' lat='55.25763265245' lon='9.46443736017' />
  <node id='-190686725' action='modify' lat='55.25846112469' lon='9.46443199039'>
    <tag k='name' v='ejs' />
  </node>
  <node id='-190686726' action='modify' lat='55.26682127674' lon='9.46556924701' />
  <node id='-190686727' action='modify' lat='55.26732863397' lon='9.46567654073' />
  <node id='-190686728' action='modify' lat='55.27128032084' lon='9.46715712011' />
  <node id='-190686729' action='modify' lat='55.27199237728' lon='9.46716784894' />
  <node id='-190686730' action='modify' lat='55.27510632822' lon='9.46627735555' />
  <node id='-190686731' action='modify' lat='55.27612999772' lon='9.46618616045' />
  <node id='-190686732' action='modify' lat='55.28028246697' lon='9.46643828273' />
  <node id='-190686733' action='modify' lat='55.28126628421' lon='9.46595548511' />
  <node id='-190686734' action='modify' lat='55.28573287451' lon='9.45977567554' />
  <node id='-190686735' action='modify' lat='55.28646605609' lon='9.4580697906' />
  <node id='-190686736' action='modify' lat='55.28715521157' lon='9.45568561153'>
    <tag k='name' v='mol' />
  </node>
  <node id='-190686737' action='modify' lat='55.2917335746' lon='9.43984541001'>
    <tag k='name' v='sbr' />
  </node>
  <node id='-190686738' action='modify' lat='55.29186159012' lon='9.43940247619' />
  <node id='-190686739' action='modify' lat='55.29289393893' lon='9.43841453309' />
  <node id='-190686740' action='modify' lat='55.30247659189' lon='9.43296430349' />
  <node id='-190686741' action='modify' lat='55.30314178287' lon='9.43270187155' />
  <node id='-190686742' action='modify' lat='55.30814072262' lon='9.43122624815' />
  <node id='-190686743' action='modify' lat='55.30933146315' lon='9.42958473623' />
  <node id='-190686744' action='modify' lat='55.30951077375' lon='9.42894820068'>
    <tag k='name' v='hje' />
  </node>
  <node id='-190686745' action='modify' lat='55.31067787284' lon='9.42480503976' />
  <node id='-190686746' action='modify' lat='55.31097401577' lon='9.42314743459' />
  <node id='-190686747' action='modify' lat='55.31131900424' lon='9.41797077119' />
  <node id='-190686748' action='modify' lat='55.31105644692' lon='9.41581963956' />
  <node id='-190686749' action='modify' lat='55.30913911518' lon='9.41012799203' />
  <node id='-190686750' action='modify' lat='55.30860175717' lon='9.40885662496' />
  <node id='-190686751' action='modify' lat='55.30547517532' lon='9.40274117231' />
  <node id='-190686752' action='modify' lat='55.30486447814' lon='9.40027355075' />
  <node id='-190686753' action='modify' lat='55.30433316926' lon='9.39538120151' />
  <node id='-190686754' action='modify' lat='55.3039484239' lon='9.39362167239' />
  <node id='-190686755' action='modify' lat='55.30365002884' lon='9.39272055714'>
    <tag k='name' v='ulr' />
  </node>
  <node id='-190686756' action='modify' lat='55.29937137096' lon='9.37980029827'>
    <tag k='name' v='sim' />
  </node>
  <node id='-190686757' action='modify' lat='55.29912352243' lon='9.37905191302' />
  <node id='-190686758' action='modify' lat='55.29877231541' lon='9.37836527556' />
  <node id='-190686759' action='modify' lat='55.29475922653' lon='9.37279700696' />
  <node id='-190686760' action='modify' lat='55.29378490667' lon='9.36895071924' />
  <node id='-190686761' action='modify' lat='55.29330537369' lon='9.36080216825' />
  <node id='-190686762' action='modify' lat='55.29340617078' lon='9.3590211761' />
  <node id='-190686763' action='modify' lat='55.29475617533' lon='9.3503630054' />
  <node id='-190686764' action='modify' lat='55.29555332381' lon='9.34833258122' />
  <node id='-190686765' action='modify' lat='55.29576556385' lon='9.3480650934'>
    <tag k='name' v='mau' />
  </node>
  <node id='-190686766' action='modify' lat='55.30070541882' lon='9.34183895051' />
  <node id='-190686767' action='modify' lat='55.30129479766' lon='9.34142052591' />
  <node id='-190686768' action='modify' lat='55.30480340852' lon='9.34048174739' />
  <node id='-190686769' action='modify' lat='55.30566448154' lon='9.34017061114' />
  <node id='-190686770' action='modify' lat='55.30718200091' lon='9.33944641471' />
  <node id='-190686771' action='modify' lat='55.30799722376' lon='9.33884559989' />
  <node id='-190686772' action='modify' lat='55.3084595566' lon='9.33841477856'>
    <tag k='name' v='kas' />
  </node>
  <node id='-190686773' action='modify' lat='55.31136952902' lon='9.3357030276' />
  <node id='-190686774' action='modify' lat='55.31190517551' lon='9.3348920238' />
  <node id='-190686775' action='modify' lat='55.31486641371' lon='9.32550429225' />
  <node id='-190686776' action='modify' lat='55.31592263692' lon='9.32294010043' />
  <node id='-190686777' action='modify' lat='55.3185941832' lon='9.3174585243'>
    <tag k='name' v='soo' />
  </node>
  <node id='-190686778' action='modify' lat='55.32047689569' lon='9.31359528422' />
  <node id='-190686779' action='modify' lat='55.32087368971' lon='9.31254385829' />
  <node id='-190686780' action='modify' lat='55.32194196155' lon='9.30941103816' />
  <node id='-190686781' action='modify' lat='55.32218002964' lon='9.30702923656' />
  <node id='-190686782' action='modify' lat='55.32166116145' lon='9.30470107913' />
  <node id='-190686783' action='modify' lat='55.32148354975' lon='9.30424714879'>
    <tag k='name' v='sob' />
  </node>
  <node id='-190686784' action='modify' lat='55.31819982865' lon='9.29585515916' />
  <node id='-190686785' action='modify' lat='55.31654231242' lon='9.29358601034' />
  <node id='-190686786' action='modify' lat='55.31486829819' lon='9.29205211242'>
    <tag k='name' v='soa' />
  </node>
  <node id='-190686787' action='modify' lat='55.31191127833' lon='9.28934275568' />
  <node id='-190686788' action='modify' lat='55.3103847838' lon='9.28333996654' />
  <node id='-190686789' action='modify' lat='55.31094201553' lon='9.2817065176'>
    <tag k='name' v='sov' />
  </node>
  <node id='-190686790' action='modify' lat='55.3116181984' lon='9.27972434878' />
  <node id='-190686791' action='modify' lat='55.31206392791' lon='9.27878021121' />
  <node id='-190686792' action='modify' lat='55.31677736343' lon='9.27105544925' />
  <node id='-190686793' action='modify' lat='55.31762291097' lon='9.26980554521' />
  <node id='-190686794' action='modify' lat='55.32159444837' lon='9.26508111545'>
    <tag k='name' v='mob' />
  </node>
  <node id='-190686795' action='modify' lat='55.32241198899' lon='9.26410853326' />
  <node id='-190686796' action='modify' lat='55.32460336544' lon='9.26404950857' />
  <node id='-190686797' action='modify' lat='55.32981576903' lon='9.26915643454' />
  <node id='-190686798' action='modify' lat='55.33063967498' lon='9.26968215823' />
  <node id='-190686799' action='modify' lat='55.33150018707' lon='9.27004693866' />
  <node id='-190686800' action='modify' lat='55.33360561657' lon='9.26956414104' />
  <node id='-190686801' action='modify' lat='55.33482945963' lon='9.26847883737'>
    <tag k='name' v='ler' />
  </node>
  <node id='-190686802' action='modify' lat='55.33533869777' lon='9.26802723527' />
  <node id='-190686803' action='modify' lat='55.33811512808' lon='9.26335215032' />
  <node id='-190686804' action='modify' lat='55.34242736551' lon='9.25343066186' />
  <node id='-190686805' action='modify' lat='55.34303595441' lon='9.25184547365' />
  <node id='-190686806' action='modify' lat='55.34337392182' lon='9.25086323909'>
    <tag k='name' v='sor' />
  </node>
  <node id='-190686807' action='modify' lat='55.34372144691' lon='9.24985321833' />
  <node id='-190686808' action='modify' lat='55.34418904167' lon='9.24823522031' />
  <node id='-190686809' action='modify' lat='55.34626562328' lon='9.23727710601' />
  <node id='-190686810' action='modify' lat='55.34693130217' lon='9.23534452379' />
  <node id='-190686811' action='modify' lat='55.35121361035' lon='9.22675608516' />
  <node id='-190686812' action='modify' lat='55.35179918874' lon='9.22514675975' />
  <node id='-190686813' action='modify' lat='55.35578211192' lon='9.20917152286' />
  <node id='-190686814' action='modify' lat='55.35617245343' lon='9.20787333369' />
  <node id='-190686815' action='modify' lat='55.35768600063' lon='9.2035858798'>
    <tag k='name' v='jel' />
  </node>
  <node id='-190686816' action='modify' lat='55.35866079009' lon='9.2008244884' />
  <node id='-190686817' action='modify' lat='55.35984391491' lon='9.19953702807' />
  <node id='-190686818' action='modify' lat='55.36324062833' lon='9.19888256907' />
  <node id='-190686819' action='modify' lat='55.36430775819' lon='9.19814227939' />
  <node id='-190686820' action='modify' lat='55.36881987496' lon='9.1929387939' />
  <node id='-190686821' action='modify' lat='55.36960029702' lon='9.1921663177' />
  <node id='-190686822' action='modify' lat='55.37320954886' lon='9.18895839572' />
  <node id='-190686823' action='modify' lat='55.37418496582' lon='9.18816446185' />
  <node id='-190686824' action='modify' lat='55.37825707184' lon='9.18536423564' />
  <node id='-190686825' action='modify' lat='55.37937865616' lon='9.18347596049' />
  <node id='-190686826' action='modify' lat='55.3799221575' lon='9.18144590881'>
    <tag k='name' v='har' />
  </node>
  <node id='-190686827' action='modify' lat='55.3806769722' lon='9.17862652659' />
  <node id='-190686828' action='modify' lat='55.38111583606' lon='9.17724249601' />
  <node id='-190686829' action='modify' lat='55.38463261751' lon='9.16888473272' />
  <node id='-190686830' action='modify' lat='55.38505314147' lon='9.16701792598' />
  <node id='-190686831' action='modify' lat='55.3853091141' lon='9.15969013095' />
  <node id='-190686832' action='modify' lat='55.38600998' lon='9.15691136777' />
  <node id='-190686833' action='modify' lat='55.38736607502' lon='9.15529738858'>
    <tag k='name' v='mik' />
  </node>
  <node id='-190686834' action='modify' lat='55.38817345363' lon='9.15433644712' />
  <node id='-190686835' action='modify' lat='55.38896341215' lon='9.15339622005' />
  <node id='-190686836' action='modify' lat='55.39249395539' lon='9.15220140338' />
  <node id='-190686837' action='modify' lat='55.40132015703' lon='9.15425275552'>
    <tag k='name' v='skk' />
  </node>
  <node id='-190686838' action='modify' lat='55.41450959114' lon='9.15731904745' />
  <node id='-190686839' action='modify' lat='55.41619041355' lon='9.15671823263' />
  <node id='-190686840' action='modify' lat='55.41897335717' lon='9.1542988801' />
  <node id='-190686841' action='modify' lat='55.41982280709' lon='9.15380000532' />
  <node id='-190686842' action='modify' lat='55.42047576231' lon='9.15366769298'>
    <tag k='name' v='sko' />
  </node>
  <node id='-190686843' action='modify' lat='55.42199356388' lon='9.15336012304' />
  <way id='-39535060' action='modify'>
    <nd ref='-190686697' />
    <nd ref='-190686696' />
    <tag k='type' v='straight' />
  </way>
  <way id='-39535061' action='modify'>
    <nd ref='-190686696' />
    <nd ref='-190686699' />
    <nd ref='-190686698' />
  </way>
  <way id='-39535062' action='modify'>
    <nd ref='-190686698' />
    <nd ref='-190686700' />
    <tag k='type' v='straight' />
  </way>
  <way id='-39535063' action='modify'>
    <nd ref='-190686700' />
    <nd ref='-190686702' />
    <nd ref='-190686701' />
  </way>
  <way id='-39535064' action='modify'>
    <nd ref='-190686701' />
    <nd ref='-190686704' />
    <nd ref='-190686703' />
    <tag k='type' v='straight' />
  </way>
  <way id='-39535065' action='modify'>
    <nd ref='-190686703' />
    <nd ref='-190686705' />
  </way>
  <way id='-39535066' action='modify'>
    <nd ref='-190686705' />
    <nd ref='-190686706' />
    <tag k='type' v='straight' />
  </way>
  <way id='-39535067' action='modify'>
    <nd ref='-190686706' />
    <nd ref='-190686707' />
  </way>
  <way id='-39535068' action='modify'>
    <nd ref='-190686707' />
    <nd ref='-190686708' />
    <tag k='type' v='straight' />
  </way>
  <way id='-39535069' action='modify'>
    <nd ref='-190686708' />
    <nd ref='-190686709' />
  </way>
  <way id='-39535070' action='modify'>
    <nd ref='-190686709' />
    <nd ref='-190686710' />
    <tag k='type' v='straight' />
  </way>
  <way id='-39535071' action='modify'>
    <nd ref='-190686710' />
    <nd ref='-190686711' />
  </way>
  <way id='-39535072' action='modify'>
    <nd ref='-190686711' />
    <nd ref='-190686713' />
    <nd ref='-190686712' />
    <tag k='type' v='straight' />
  </way>
  <way id='-39535073' action='modify'>
    <nd ref='-190686712' />
    <nd ref='-190686714' />
  </way>
  <way id='-39535074' action='modify'>
    <nd ref='-190686714' />
    <nd ref='-190686715' />
    <tag k='type' v='straight' />
  </way>
  <way id='-39535075' action='modify'>
    <nd ref='-190686715' />
    <nd ref='-190686716' />
  </way>
  <way id='-39535076' action='modify'>
    <nd ref='-190686716' />
    <nd ref='-190686717' />
    <nd ref='-190686718' />
    <tag k='type' v='straight' />
  </way>
  <way id='-39535077' action='modify'>
    <nd ref='-190686718' />
    <nd ref='-190686719' />
  </way>
  <way id='-39535078' action='modify'>
    <nd ref='-190686719' />
    <nd ref='-190686720' />
    <tag k='type' v='straight' />
  </way>
  <way id='-39535079' action='modify'>
    <nd ref='-190686720' />
    <nd ref='-190686721' />
  </way>
  <way id='-39535080' action='modify'>
    <nd ref='-190686721' />
    <nd ref='-190686722' />
    <tag k='type' v='straight' />
  </way>
  <way id='-39535081' action='modify'>
    <nd ref='-190686722' />
    <nd ref='-190686723' />
  </way>
  <way id='-39535082' action='modify'>
    <nd ref='-190686723' />
    <nd ref='-190686724' />
    <tag k='type' v='straight' />
  </way>
  <way id='-39535083' action='modify'>
    <nd ref='-190686724' />
    <nd ref='-190686725' />
  </way>
  <way id='-39535084' action='modify'>
    <nd ref='-190686725' />
    <nd ref='-190686726' />
    <tag k='type' v='straight' />
  </way>
  <way id='-39535085' action='modify'>
    <nd ref='-190686726' />
    <nd ref='-190686727' />
  </way>
  <way id='-39535086' action='modify'>
    <nd ref='-190686727' />
    <nd ref='-190686728' />
    <tag k='type' v='straight' />
  </way>
  <way id='-39535087' action='modify'>
    <nd ref='-190686728' />
    <nd ref='-190686729' />
  </way>
  <way id='-39535088' action='modify'>
    <nd ref='-190686729' />
    <nd ref='-190686730' />
    <tag k='type' v='straight' />
  </way>
  <way id='-39535089' action='modify'>
    <nd ref='-190686730' />
    <nd ref='-190686731' />
  </way>
  <way id='-39535090' action='modify'>
    <nd ref='-190686731' />
    <nd ref='-190686732' />
    <tag k='type' v='straight' />
  </way>
  <way id='-39535091' action='modify'>
    <nd ref='-190686732' />
    <nd ref='-190686733' />
  </way>
  <way id='-39535092' action='modify'>
    <nd ref='-190686733' />
    <nd ref='-190686734' />
    <tag k='type' v='straight' />
  </way>
  <way id='-39535093' action='modify'>
    <nd ref='-190686734' />
    <nd ref='-190686735' />
  </way>
  <way id='-39535094' action='modify'>
    <nd ref='-190686735' />
    <nd ref='-190686736' />
    <nd ref='-190686737' />
    <nd ref='-190686738' />
    <tag k='type' v='straight' />
  </way>
  <way id='-39535095' action='modify'>
    <nd ref='-190686738' />
    <nd ref='-190686739' />
  </way>
  <way id='-39535096' action='modify'>
    <nd ref='-190686739' />
    <nd ref='-190686740' />
    <tag k='type' v='straight' />
  </way>
  <way id='-39535097' action='modify'>
    <nd ref='-190686740' />
    <nd ref='-190686741' />
  </way>
  <way id='-39535098' action='modify'>
    <nd ref='-190686741' />
    <nd ref='-190686742' />
    <tag k='type' v='straight' />
  </way>
  <way id='-39535099' action='modify'>
    <nd ref='-190686742' />
    <nd ref='-190686743' />
  </way>
  <way id='-39535100' action='modify'>
    <nd ref='-190686743' />
    <nd ref='-190686744' />
    <nd ref='-190686745' />
    <tag k='type' v='straight' />
  </way>
  <way id='-39535101' action='modify'>
    <nd ref='-190686745' />
    <nd ref='-190686746' />
  </way>
  <way id='-39535102' action='modify'>
    <nd ref='-190686746' />
    <nd ref='-190686747' />
    <tag k='type' v='straight' />
  </way>
  <way id='-39535103' action='modify'>
    <nd ref='-190686747' />
    <nd ref='-190686748' />
  </way>
  <way id='-39535104' action='modify'>
    <nd ref='-190686748' />
    <nd ref='-190686749' />
    <tag k='type' v='straight' />
  </way>
  <way id='-39535105' action='modify'>
    <nd ref='-190686749' />
    <nd ref='-190686750' />
  </way>
  <way id='-39535106' action='modify'>
    <nd ref='-190686750' />
    <nd ref='-190686751' />
    <tag k='type' v='straight' />
  </way>
  <way id='-39535107' action='modify'>
    <nd ref='-190686751' />
    <nd ref='-190686752' />
  </way>
  <way id='-39535108' action='modify'>
    <nd ref='-190686752' />
    <nd ref='-190686753' />
    <tag k='type' v='straight' />
  </way>
  <way id='-39535109' action='modify'>
    <nd ref='-190686753' />
    <nd ref='-190686754' />
  </way>
  <way id='-39535110' action='modify'>
    <nd ref='-190686754' />
    <nd ref='-190686755' />
    <nd ref='-190686756' />
    <nd ref='-190686757' />
    <tag k='type' v='straight' />
  </way>
  <way id='-39535111' action='modify'>
    <nd ref='-190686757' />
    <nd ref='-190686758' />
  </way>
  <way id='-39535112' action='modify'>
    <nd ref='-190686758' />
    <nd ref='-190686759' />
    <tag k='type' v='straight' />
  </way>
  <way id='-39535113' action='modify'>
    <nd ref='-190686759' />
    <nd ref='-190686760' />
  </way>
  <way id='-39535114' action='modify'>
    <nd ref='-190686760' />
    <nd ref='-190686761' />
    <tag k='type' v='straight' />
  </way>
  <way id='-39535115' action='modify'>
    <nd ref='-190686761' />
    <nd ref='-190686762' />
  </way>
  <way id='-39535116' action='modify'>
    <nd ref='-190686762' />
    <nd ref='-190686763' />
    <tag k='type' v='straight' />
  </way>
  <way id='-39535117' action='modify'>
    <nd ref='-190686763' />
    <nd ref='-190686764' />
  </way>
  <way id='-39535118' action='modify'>
    <nd ref='-190686764' />
    <nd ref='-190686765' />
    <nd ref='-190686766' />
    <tag k='type' v='straight' />
  </way>
  <way id='-39535119' action='modify'>
    <nd ref='-190686766' />
    <nd ref='-190686767' />
  </way>
  <way id='-39535120' action='modify'>
    <nd ref='-190686767' />
    <nd ref='-190686768' />
    <tag k='type' v='straight' />
  </way>
  <way id='-39535121' action='modify'>
    <nd ref='-190686768' />
    <nd ref='-190686769' />
  </way>
  <way id='-39535122' action='modify'>
    <nd ref='-190686769' />
    <nd ref='-190686770' />
    <tag k='type' v='straight' />
  </way>
  <way id='-39535123' action='modify'>
    <nd ref='-190686770' />
    <nd ref='-190686771' />
  </way>
  <way id='-39535124' action='modify'>
    <nd ref='-190686771' />
    <nd ref='-190686772' />
    <nd ref='-190686773' />
    <tag k='type' v='straight' />
  </way>
  <way id='-39535125' action='modify'>
    <nd ref='-190686773' />
    <nd ref='-190686774' />
  </way>
  <way id='-39535126' action='modify'>
    <nd ref='-190686774' />
    <nd ref='-190686775' />
    <tag k='type' v='straight' />
  </way>
  <way id='-39535127' action='modify'>
    <nd ref='-190686775' />
    <nd ref='-190686776' />
  </way>
  <way id='-39535128' action='modify'>
    <nd ref='-190686776' />
    <nd ref='-190686777' />
    <nd ref='-190686778' />
    <tag k='type' v='straight' />
  </way>
  <way id='-39535129' action='modify'>
    <nd ref='-190686778' />
    <nd ref='-190686779' />
  </way>
  <way id='-39535130' action='modify'>
    <nd ref='-190686779' />
    <nd ref='-190686780' />
    <tag k='type' v='straight' />
  </way>
  <way id='-39535131' action='modify'>
    <nd ref='-190686780' />
    <nd ref='-190686781' />
    <nd ref='-190686782' />
  </way>
  <way id='-39535132' action='modify'>
    <nd ref='-190686782' />
    <nd ref='-190686783' />
    <nd ref='-190686784' />
    <tag k='type' v='straight' />
  </way>
  <way id='-39535133' action='modify'>
    <nd ref='-190686784' />
    <nd ref='-190686785' />
  </way>
  <way id='-39535134' action='modify'>
    <nd ref='-190686785' />
    <nd ref='-190686786' />
    <nd ref='-190686787' />
    <tag k='type' v='straight' />
  </way>
  <way id='-39535135' action='modify'>
    <nd ref='-190686787' />
    <nd ref='-190686788' />
  </way>
  <way id='-39535136' action='modify'>
    <nd ref='-190686788' />
    <nd ref='-190686789' />
    <nd ref='-190686790' />
    <tag k='type' v='straight' />
  </way>
  <way id='-39535137' action='modify'>
    <nd ref='-190686790' />
    <nd ref='-190686791' />
  </way>
  <way id='-39535138' action='modify'>
    <nd ref='-190686791' />
    <nd ref='-190686792' />
    <tag k='type' v='straight' />
  </way>
  <way id='-39535139' action='modify'>
    <nd ref='-190686792' />
    <nd ref='-190686793' />
  </way>
  <way id='-39535140' action='modify'>
    <nd ref='-190686793' />
    <nd ref='-190686794' />
    <nd ref='-190686795' />
    <tag k='type' v='straight' />
  </way>
  <way id='-39535141' action='modify'>
    <nd ref='-190686795' />
    <nd ref='-190686796' />
  </way>
  <way id='-39535142' action='modify'>
    <nd ref='-190686796' />
    <nd ref='-190686797' />
    <tag k='type' v='straight' />
  </way>
  <way id='-39535143' action='modify'>
    <nd ref='-190686797' />
    <nd ref='-190686798' />
  </way>
  <way id='-39535144' action='modify'>
    <nd ref='-190686798' />
    <nd ref='-190686799' />
    <tag k='type' v='straight' />
  </way>
  <way id='-39535145' action='modify'>
    <nd ref='-190686799' />
    <nd ref='-190686800' />
  </way>
  <way id='-39535146' action='modify'>
    <nd ref='-190686800' />
    <nd ref='-190686801' />
    <nd ref='-190686802' />
    <tag k='type' v='straight' />
  </way>
  <way id='-39535147' action='modify'>
    <nd ref='-190686802' />
    <nd ref='-190686803' />
  </way>
  <way id='-39535148' action='modify'>
    <nd ref='-190686803' />
    <nd ref='-190686804' />
    <tag k='type' v='straight' />
  </way>
  <way id='-39535149' action='modify'>
    <nd ref='-190686804' />
    <nd ref='-190686805' />
  </way>
  <way id='-39535150' action='modify'>
    <nd ref='-190686805' />
    <nd ref='-190686806' />
    <nd ref='-190686807' />
    <tag k='type' v='straight' />
  </way>
  <way id='-39535151' action='modify'>
    <nd ref='-190686807' />
    <nd ref='-190686808' />
  </way>
  <way id='-39535152' action='modify'>
    <nd ref='-190686808' />
    <nd ref='-190686809' />
    <tag k='type' v='straight' />
  </way>
  <way id='-39535153' action='modify'>
    <nd ref='-190686809' />
    <nd ref='-190686810' />
  </way>
  <way id='-39535154' action='modify'>
    <nd ref='-190686810' />
    <nd ref='-190686811' />
    <tag k='type' v='straight' />
  </way>
  <way id='-39535155' action='modify'>
    <nd ref='-190686811' />
    <nd ref='-190686812' />
  </way>
  <way id='-39535156' action='modify'>
    <nd ref='-190686812' />
    <nd ref='-190686813' />
    <tag k='type' v='straight' />
  </way>
  <way id='-39535157' action='modify'>
    <nd ref='-190686813' />
    <nd ref='-190686814' />
  </way>
  <way id='-39535158' action='modify'>
    <nd ref='-190686814' />
    <nd ref='-190686815' />
    <nd ref='-190686816' />
    <tag k='type' v='straight' />
  </way>
  <way id='-39535159' action='modify'>
    <nd ref='-190686816' />
    <nd ref='-190686817' />
  </way>
  <way id='-39535160' action='modify'>
    <nd ref='-190686817' />
    <nd ref='-190686818' />
    <tag k='type' v='straight' />
  </way>
  <way id='-39535161' action='modify'>
    <nd ref='-190686818' />
    <nd ref='-190686819' />
  </way>
  <way id='-39535162' action='modify'>
    <nd ref='-190686819' />
    <nd ref='-190686820' />
    <tag k='type' v='straight' />
  </way>
  <way id='-39535163' action='modify'>
    <nd ref='-190686820' />
    <nd ref='-190686821' />
  </way>
  <way id='-39535164' action='modify'>
    <nd ref='-190686821' />
    <nd ref='-190686822' />
    <tag k='type' v='straight' />
  </way>
  <way id='-39535165' action='modify'>
    <nd ref='-190686822' />
    <nd ref='-190686823' />
  </way>
  <way id='-39535166' action='modify'>
    <nd ref='-190686823' />
    <nd ref='-190686824' />
    <tag k='type' v='straight' />
  </way>
  <way id='-39535167' action='modify'>
    <nd ref='-190686824' />
    <nd ref='-190686825' />
  </way>
  <way id='-39535168' action='modify'>
    <nd ref='-190686825' />
    <nd ref='-190686826' />
    <nd ref='-190686827' />
    <tag k='type' v='straight' />
  </way>
  <way id='-39535169' action='modify'>
    <nd ref='-190686827' />
    <nd ref='-190686828' />
  </way>
  <way id='-39535170' action='modify'>
    <nd ref='-190686828' />
    <nd ref='-190686829' />
    <tag k='type' v='straight' />
  </way>
  <way id='-39535171' action='modify'>
    <nd ref='-190686829' />
    <nd ref='-190686830' />
  </way>
  <way id='-39535172' action='modify'>
    <nd ref='-190686830' />
    <nd ref='-190686831' />
    <tag k='type' v='straight' />
  </way>
  <way id='-39535173' action='modify'>
    <nd ref='-190686831' />
    <nd ref='-190686832' />
  </way>
  <way id='-39535174' action='modify'>
    <nd ref='-190686832' />
    <nd ref='-190686833' />
    <nd ref='-190686834' />
    <nd ref='-190686835' />
    <tag k='type' v='straight' />
  </way>
  <way id='-39535175' action='modify'>
    <nd ref='-190686835' />
    <nd ref='-190686836' />
  </way>
  <way id='-39535176' action='modify'>
    <nd ref='-190686836' />
    <nd ref='-190686837' />
    <nd ref='-190686838' />
    <tag k='type' v='straight' />
  </way>
  <way id='-39535177' action='modify'>
    <nd ref='-190686838' />
    <nd ref='-190686839' />
  </way>
  <way id='-39535178' action='modify'>
    <nd ref='-190686839' />
    <nd ref='-190686840' />
    <tag k='type' v='straight' />
  </way>
  <way id='-39535179' action='modify'>
    <nd ref='-190686840' />
    <nd ref='-190686841' />
  </way>
  <way id='-39535180' action='modify'>
    <nd ref='-190686841' />
    <nd ref='-190686842' />
    <nd ref='-190686843' />
    <tag k='type' v='straight' />
  </way>
  <relation id='-14497944' action='modify'>
    <member type='way' ref='-39535060' role='' />
    <member type='way' ref='-39535061' role='' />
    <member type='way' ref='-39535062' role='' />
    <member type='way' ref='-39535063' role='' />
    <member type='way' ref='-39535064' role='' />
    <member type='way' ref='-39535065' role='' />
    <member type='way' ref='-39535066' role='' />
    <member type='way' ref='-39535067' role='' />
    <member type='way' ref='-39535068' role='' />
    <member type='way' ref='-39535069' role='' />
    <member type='way' ref='-39535070' role='' />
    <member type='way' ref='-39535071' role='' />
    <member type='way' ref='-39535072' role='' />
    <member type='way' ref='-39535073' role='' />
    <member type='way' ref='-39535074' role='' />
    <member type='way' ref='-39535075' role='' />
    <member type='way' ref='-39535076' role='' />
    <member type='way' ref='-39535077' role='' />
    <member type='way' ref='-39535078' role='' />
    <member type='way' ref='-39535079' role='' />
    <member type='way' ref='-39535080' role='' />
    <member type='way' ref='-39535081' role='' />
    <member type='way' ref='-39535082' role='' />
    <member type='way' ref='-39535083' role='' />
    <member type='way' ref='-39535084' role='' />
    <member type='way' ref='-39535085' role='' />
    <member type='way' ref='-39535086' role='' />
    <member type='way' ref='-39535087' role='' />
    <member type='way' ref='-39535088' role='' />
    <member type='way' ref='-39535089' role='' />
    <member type='way' ref='-39535090' role='' />
    <member type='way' ref='-39535091' role='' />
    <member type='way' ref='-39535092' role='' />
    <member type='way' ref='-39535093' role='' />
    <member type='way' ref='-39535094' role='' />
    <member type='way' ref='-39535095' role='' />
    <member type='way' ref='-39535096' role='' />
    <member type='way' ref='-39535097' role='' />
    <member type='way' ref='-39535098' role='' />
    <member type='way' ref='-39535099' role='' />
    <member type='way' ref='-39535100' role='' />
    <member type='way' ref='-39535101' role='' />
    <member type='way' ref='-39535102' role='' />
    <member type='way' ref='-39535103' role='' />
    <member type='way' ref='-39535104' role='' />
    <member type='way' ref='-39535105' role='' />
    <member type='way' ref='-39535106' role='' />
    <member type='way' ref='-39535107' role='' />
    <member type='way' ref='-39535108' role='' />
    <member type='way' ref='-39535109' role='' />
    <member type='way' ref='-39535110' role='' />
    <member type='way' ref='-39535111' role='' />
    <member type='way' ref='-39535112' role='' />
    <member type='way' ref='-39535113' role='' />
    <member type='way' ref='-39535114' role='' />
    <member type='way' ref='-39535115' role='' />
    <member type='way' ref='-39535116' role='' />
    <member type='way' ref='-39535117' role='' />
    <member type='way' ref='-39535118' role='' />
    <member type='way' ref='-39535119' role='' />
    <member type='way' ref='-39535120' role='' />
    <member type='way' ref='-39535121' role='' />
    <member type='way' ref='-39535122' role='' />
    <member type='way' ref='-39535123' role='' />
    <member type='way' ref='-39535124' role='' />
    <member type='way' ref='-39535125' role='' />
    <member type='way' ref='-39535126' role='' />
    <member type='way' ref='-39535127' role='' />
    <member type='way' ref='-39535128' role='' />
    <member type='way' ref='-39535129' role='' />
    <member type='way' ref='-39535130' role='' />
    <member type='way' ref='-39535131' role='' />
    <member type='way' ref='-39535132' role='' />
    <member type='way' ref='-39535133' role='' />
    <member type='way' ref='-39535134' role='' />
    <member type='way' ref='-39535135' role='' />
    <member type='way' ref='-39535136' role='' />
    <member type='way' ref='-39535137' role='' />
    <member type='way' ref='-39535138' role='' />
    <member type='way' ref='-39535139' role='' />
    <member type='way' ref='-39535140' role='' />
    <member type='way' ref='-39535141' role='' />
    <member type='way' ref='-39535142' role='' />
    <member type='way' ref='-39535143' role='' />
    <member type='way' ref='-39535144' role='' />
    <member type='way' ref='-39535145' role='' />
    <member type='way' ref='-39535146' role='' />
    <member type='way' ref='-39535147' role='' />
    <member type='way' ref='-39535148' role='' />
    <member type='way' ref='-39535149' role='' />
    <member type='way' ref='-39535150' role='' />
    <member type='way' ref='-39535151' role='' />
    <member type='way' ref='-39535152' role='' />
    <member type='way' ref='-39535153' role='' />
    <member type='way' ref='-39535154' role='' />
    <member type='way' ref='-39535155' role='' />
    <member type='way' ref='-39535156' role='' />
    <member type='way' ref='-39535157' role='' />
    <member type='way' ref='-39535158' role='' />
    <member type='way' ref='-39535159' role='' />
    <member type='way' ref='-39535160' role='' />
    <member type='way' ref='-39535161' role='' />
    <member type='way' ref='-39535162' role='' />
    <member type='way' ref='-39535163' role='' />
    <member type='way' ref='-39535164' role='' />
    <member type='way' ref='-39535165' role='' />
    <member type='way' ref='-39535166' role='' />
    <member type='way' ref='-39535167' role='' />
    <member type='way' ref='-39535168' role='' />
    <member type='way' ref='-39535169' role='' />
    <member type='way' ref='-39535170' role='' />
    <member type='way' ref='-39535171' role='' />
    <member type='way' ref='-39535172' role='' />
    <member type='way' ref='-39535173' role='' />
    <member type='way' ref='-39535174' role='' />
    <member type='way' ref='-39535175' role='' />
    <member type='way' ref='-39535176' role='' />
    <member type='way' ref='-39535177' role='' />
    <member type='way' ref='-39535178' role='' />
    <member type='way' ref='-39535179' role='' />
    <member type='way' ref='-39535180' role='' />
    <tag k='key' v='path.dk.hsb' />
    <tag k='name' v='DK HSB' />
    <tag k='type' v='path' />
  </relation>
</osm>
