<?xml version='1.0' encoding='UTF-8'?>
<osm version='0.6' upload='false' generator='JOSM'>
  <node id='-169676827' action='modify' lat='55.86275578163' lon='9.83592063054' />
  <node id='-169676828' action='modify' lat='55.86354299033' lon='9.83580797777' />
  <node id='-169676829' action='modify' lat='55.86038728831' lon='9.8393350786' />
  <node id='-169676830' action='modify' lat='55.8602548229' lon='9.84064936101' />
  <node id='-169676831' action='modify' lat='55.85949464186' lon='9.84310090274' />
  <node id='-169676832' action='modify' lat='55.8593280258' lon='9.84335488987'>
    <tag k='name' v='son' />
  </node>
  <node id='-169676833' action='modify' lat='55.85896326' lon='9.84391092986' />
  <node id='-169676834' action='modify' lat='55.85814585105' lon='9.84835803241' />
  <node id='-169676835' action='modify' lat='55.85983484286' lon='9.85565632313' />
  <node id='-169676836' action='modify' lat='55.85976579682' lon='9.85711779794' />
  <node id='-169676837' action='modify' lat='55.85962852965' lon='9.85751551262' />
  <node id='-169676838' action='modify' lat='55.85931052382' lon='9.8600561409'>
    <tag k='name' v='hoh' />
  </node>
  <node id='-169676839' action='modify' lat='55.85939830271' lon='9.8612943238' />
  <node id='-169676840' action='modify' lat='55.85997483771' lon='9.86640929639' />
  <node id='-169676841' action='modify' lat='55.8603093275' lon='9.86836903503' />
  <node id='-169676842' action='modify' lat='55.86089607471' lon='9.87088858008' />
  <node id='-169676843' action='modify' lat='55.861278406' lon='9.87262934178' />
  <node id='-169676844' action='modify' lat='55.86210138807' lon='9.87623491598'>
    <tag k='name' v='lin' />
  </node>
  <node id='-169676845' action='modify' lat='55.86604675503' lon='9.89352105975'>
    <tag k='name' v='nas' />
  </node>
  <node id='-169676846' action='modify' lat='55.86635679306' lon='9.89631592959' />
  <node id='-169676847' action='modify' lat='55.86637033855' lon='9.89787965745' />
  <node id='-169676848' action='modify' lat='55.86570208867' lon='9.90204512805' />
  <node id='-169676849' action='modify' lat='55.86442124428' lon='9.9055132243' />
  <node id='-169676850' action='modify' lat='55.86387036284' lon='9.9074149105' />
  <node id='-169676851' action='modify' lat='55.86211109179' lon='9.91536616291'>
    <tag k='name' v='hus' />
  </node>
  <node id='-169676852' action='modify' lat='55.86119561707' lon='9.91950362653' />
  <node id='-169676853' action='modify' lat='55.86098638759' lon='9.92620646417' />
  <node id='-169676854' action='modify' lat='55.86114797635' lon='9.9275638653'>
    <tag k='name' v='str' />
  </node>
  <node id='-169676855' action='modify' lat='55.86130249152' lon='9.9288618511' />
  <node id='-169676856' action='modify' lat='55.86168482181' lon='9.93522941798' />
  <node id='-169676857' action='modify' lat='55.86158073522' lon='9.94274823543'>
    <tag k='name' v='elb' />
  </node>
  <node id='-169676858' action='modify' lat='55.8615478451' lon='9.94512408704' />
  <node id='-169676859' action='modify' lat='55.86350159905' lon='9.95297223061' />
  <node id='-169676860' action='modify' lat='55.86506990202' lon='9.95550777493'>
    <tag k='name' v='bra' />
  </node>
  <node id='-169676861' action='modify' lat='55.86713640816' lon='9.95884894252' />
  <node id='-169676862' action='modify' lat='55.86901463954' lon='9.96093032598' />
  <node id='-169676863' action='modify' lat='55.87256616355' lon='9.96329066992' />
  <node id='-169676864' action='modify' lat='55.87628888952' lon='9.96293126464' />
  <node id='-169676865' action='modify' lat='55.87827977077' lon='9.96104386375'>
    <tag k='name' v='has' />
  </node>
  <node id='-169676866' action='modify' lat='55.88116070524' lon='9.95831250072' />
  <node id='-169676867' action='modify' lat='55.88605597379' lon='9.95892405242' />
  <node id='-169676868' action='modify' lat='55.8876369519' lon='9.96046364039' />
  <node id='-169676869' action='modify' lat='55.88958434826' lon='9.9633432308'>
    <tag k='name' v='hal' />
  </node>
  <node id='-169676870' action='modify' lat='55.89069793959' lon='9.97301101416' />
  <node id='-169676871' action='modify' lat='55.89040313261' lon='9.97492342919' />
  <node id='-169676872' action='modify' lat='55.89058964491' lon='9.98157262266' />
  <node id='-169676873' action='modify' lat='55.89110659153' lon='9.9844236104'>
    <tag k='name' v='tof' />
  </node>
  <node id='-169676874' action='modify' lat='55.89305631631' lon='9.99517678678' />
  <node id='-169676875' action='modify' lat='55.89366243018' lon='9.99742448062'>
    <tag k='name' v='sov' />
  </node>
  <node id='-169676876' action='modify' lat='55.8980643801' lon='10.00041245878' />
  <node id='-169676877' action='modify' lat='55.90001328963' lon='9.99988674581' />
  <node id='-169676878' action='modify' lat='55.9032011096' lon='10.00121175706' />
  <node id='-169676879' action='modify' lat='55.90429272735' lon='10.00240802228' />
  <node id='-169676880' action='modify' lat='55.90621426081' lon='10.00593780935'>
    <tag k='name' v='tor' />
  </node>
  <node id='-169676881' action='modify' lat='55.90658111553' lon='10.0077992624' />
  <node id='-169676882' action='modify' lat='55.90833415206' lon='10.02138196886' />
  <node id='-169676883' action='modify' lat='55.90899565769' lon='10.02393006206'>
    <tag k='name' v='kro' />
  </node>
  <node id='-169676884' action='modify' lat='55.91091695515' lon='10.02648889482' />
  <node id='-169676885' action='modify' lat='55.91248940409' lon='10.02749204099' />
  <node id='-169676886' action='modify' lat='55.91510500007' lon='10.03241121233'>
    <tag k='name' v='ten' />
  </node>
  <node id='-169676887' action='modify' lat='55.91641874436' lon='10.03951906621' />
  <node id='-169676888' action='modify' lat='55.91675243282' lon='10.04380255669' />
  <node id='-169676889' action='modify' lat='55.91646533937' lon='10.05104183882' />
  <node id='-169676890' action='modify' lat='55.91647435805' lon='10.05253851146'>
    <tag k='name' v='hun' />
  </node>
  <node id='-169676891' action='modify' lat='55.91713121255' lon='10.05578130215' />
  <node id='-169676892' action='modify' lat='55.91720336065' lon='10.05598783225' />
  <node id='-169676893' action='modify' lat='55.92056411234' lon='10.05928158224' />
  <node id='-169676894' action='modify' lat='55.92172136943' lon='10.05945324361' />
  <node id='-169676895' action='modify' lat='55.92546643507' lon='10.065899937' />
  <node id='-169676896' action='modify' lat='55.92554908698' lon='10.06692990527' />
  <node id='-169676897' action='modify' lat='55.92794591799' lon='10.07394253671' />
  <node id='-169676898' action='modify' lat='55.92999550223' lon='10.07624387205' />
  <node id='-169676899' action='modify' lat='55.93124713632' lon='10.07899850339'>
    <tag k='name' v='old' />
  </node>
  <node id='-169676900' action='modify' lat='55.9315611673' lon='10.08387207448' />
  <node id='-169676901' action='modify' lat='55.93103828428' lon='10.09027718961' />
  <node id='-169676902' action='modify' lat='55.92966493146' lon='10.09546994627' />
  <node id='-169676903' action='modify' lat='55.92682190641' lon='10.10044276178' />
  <node id='-169676904' action='modify' lat='55.92588420336' lon='10.10249733388' />
  <node id='-169676905' action='modify' lat='55.92521998331' lon='10.10482012689' />
  <node id='-169676906' action='modify' lat='55.92356990172' lon='10.10812461108'>
    <tag k='name' v='bil' />
  </node>
  <node id='-169676907' action='modify' lat='55.92217524825' lon='10.10905264735' />
  <node id='-169676908' action='modify' lat='55.91739575944' lon='10.11062978625' />
  <node id='-169676909' action='modify' lat='55.91549732275' lon='10.11210232705'>
    <tag k='name' v='aka' />
  </node>
  <node id='-169676910' action='modify' lat='55.9144015123' lon='10.11441707075' />
  <node id='-169676911' action='modify' lat='55.91358677332' lon='10.11722266138' />
  <node id='-169676912' action='modify' lat='55.91206247397' lon='10.12029647291' />
  <node id='-169676913' action='modify' lat='55.91107630756' lon='10.12142300069' />
  <node id='-169676914' action='modify' lat='55.90914298783' lon='10.12650310457'>
    <tag k='name' v='fal' />
  </node>
  <node id='-169676915' action='modify' lat='55.90997586056' lon='10.13259171903' />
  <node id='-169676916' action='modify' lat='55.91154233445' lon='10.13592838705' />
  <node id='-169676917' action='modify' lat='55.91446765572' lon='10.13890026927' />
  <node id='-169676918' action='modify' lat='55.91703501939' lon='10.13974784732' />
  <node id='-169676919' action='modify' lat='55.91909492803' lon='10.14161620357'>
    <tag k='name' v='tre' />
  </node>
  <node id='-169676920' action='modify' lat='55.91982465056' lon='10.14279752702' />
  <node id='-169676921' action='modify' lat='55.92527207347' lon='10.15295637701'>
    <tag k='name' v='ort' />
  </node>
  <node id='-169676922' action='modify' lat='55.93450902272' lon='10.17018554449' />
  <node id='-169676923' action='modify' lat='55.93564406845' lon='10.17177523611'>
    <tag k='name' v='sme' />
  </node>
  <node id='-169676924' action='modify' lat='55.93841809503' lon='10.17320572793' />
  <node id='-169676925' action='modify' lat='55.94230732298' lon='10.17356811573'>
    <tag k='name' v='dra' />
  </node>
  <node id='-169676926' action='modify' lat='55.94336923208' lon='10.17366706789' />
  <node id='-169676927' action='modify' lat='55.94689592884' lon='10.17172783345' />
  <node id='-169676928' action='modify' lat='55.96300230843' lon='10.1527833885' />
  <node id='-169676929' action='modify' lat='55.96522422302' lon='10.1515073386' />
  <node id='-169676931' action='modify' lat='55.9713243593' lon='10.15036023789'>
    <tag k='name' v='odd' />
  </node>
  <node id='-169677040' action='modify' lat='55.86235258208' lon='9.83604482925'>
    <tag k='name' v='hor' />
  </node>
  <way id='-37940064' action='modify'>
    <nd ref='-169676828' />
    <nd ref='-169676827' />
    <tag k='type' v='straight' />
  </way>
  <way id='-37940065' action='modify'>
    <nd ref='-169676827' />
    <nd ref='-169677040' />
    <nd ref='-169676829' />
  </way>
  <way id='-37940066' action='modify'>
    <nd ref='-169676829' />
    <nd ref='-169676830' />
    <tag k='type' v='straight' />
  </way>
  <way id='-37940067' action='modify'>
    <nd ref='-169676830' />
    <nd ref='-169676831' />
  </way>
  <way id='-37940068' action='modify'>
    <nd ref='-169676831' />
    <nd ref='-169676832' />
    <nd ref='-169676833' />
    <tag k='type' v='straight' />
  </way>
  <way id='-37940069' action='modify'>
    <nd ref='-169676833' />
    <nd ref='-169676834' />
  </way>
  <way id='-37940070' action='modify'>
    <nd ref='-169676834' />
    <nd ref='-169676835' />
    <tag k='type' v='straight' />
  </way>
  <way id='-37940071' action='modify'>
    <nd ref='-169676835' />
    <nd ref='-169676836' />
  </way>
  <way id='-37940072' action='modify'>
    <nd ref='-169676836' />
    <nd ref='-169676837' />
    <tag k='type' v='straight' />
  </way>
  <way id='-37940073' action='modify'>
    <nd ref='-169676837' />
    <nd ref='-169676838' />
    <nd ref='-169676839' />
  </way>
  <way id='-37940074' action='modify'>
    <nd ref='-169676839' />
    <nd ref='-169676840' />
    <tag k='type' v='straight' />
  </way>
  <way id='-37940075' action='modify'>
    <nd ref='-169676840' />
    <nd ref='-169676841' />
  </way>
  <way id='-37940076' action='modify'>
    <nd ref='-169676841' />
    <nd ref='-169676842' />
    <tag k='type' v='straight' />
  </way>
  <way id='-37940077' action='modify'>
    <nd ref='-169676842' />
    <nd ref='-169676843' />
  </way>
  <way id='-37940078' action='modify'>
    <nd ref='-169676843' />
    <nd ref='-169676844' />
    <nd ref='-169676845' />
    <tag k='type' v='straight' />
  </way>
  <way id='-37940079' action='modify'>
    <nd ref='-169676845' />
    <nd ref='-169676846' />
  </way>
  <way id='-37940080' action='modify'>
    <nd ref='-169676846' />
    <nd ref='-169676847' />
    <tag k='type' v='straight' />
  </way>
  <way id='-37940081' action='modify'>
    <nd ref='-169676847' />
    <nd ref='-169676848' />
  </way>
  <way id='-37940082' action='modify'>
    <nd ref='-169676848' />
    <nd ref='-169676849' />
    <tag k='type' v='straight' />
  </way>
  <way id='-37940083' action='modify'>
    <nd ref='-169676849' />
    <nd ref='-169676850' />
  </way>
  <way id='-37940084' action='modify'>
    <nd ref='-169676850' />
    <nd ref='-169676851' />
    <nd ref='-169676852' />
    <tag k='type' v='straight' />
  </way>
  <way id='-37940085' action='modify'>
    <nd ref='-169676852' />
    <nd ref='-169676853' />
  </way>
  <way id='-37940086' action='modify'>
    <nd ref='-169676853' />
    <nd ref='-169676854' />
    <nd ref='-169676855' />
    <tag k='type' v='straight' />
  </way>
  <way id='-37940087' action='modify'>
    <nd ref='-169676855' />
    <nd ref='-169676856' />
  </way>
  <way id='-37940088' action='modify'>
    <nd ref='-169676856' />
    <nd ref='-169676857' />
    <nd ref='-169676858' />
    <tag k='type' v='straight' />
  </way>
  <way id='-37940089' action='modify'>
    <nd ref='-169676858' />
    <nd ref='-169676859' />
  </way>
  <way id='-37940090' action='modify'>
    <nd ref='-169676859' />
    <nd ref='-169676860' />
    <nd ref='-169676861' />
    <tag k='type' v='straight' />
  </way>
  <way id='-37940091' action='modify'>
    <nd ref='-169676861' />
    <nd ref='-169676862' />
  </way>
  <way id='-37940092' action='modify'>
    <nd ref='-169676862' />
    <nd ref='-169676863' />
    <tag k='type' v='straight' />
  </way>
  <way id='-37940093' action='modify'>
    <nd ref='-169676863' />
    <nd ref='-169676864' />
  </way>
  <way id='-37940094' action='modify'>
    <nd ref='-169676864' />
    <nd ref='-169676865' />
    <nd ref='-169676866' />
    <tag k='type' v='straight' />
  </way>
  <way id='-37940095' action='modify'>
    <nd ref='-169676866' />
    <nd ref='-169676867' />
  </way>
  <way id='-37940096' action='modify'>
    <nd ref='-169676867' />
    <nd ref='-169676868' />
    <tag k='type' v='straight' />
  </way>
  <way id='-37940097' action='modify'>
    <nd ref='-169676868' />
    <nd ref='-169676869' />
    <nd ref='-169676870' />
  </way>
  <way id='-37940098' action='modify'>
    <nd ref='-169676870' />
    <nd ref='-169676871' />
    <tag k='type' v='straight' />
  </way>
  <way id='-37940099' action='modify'>
    <nd ref='-169676871' />
    <nd ref='-169676872' />
  </way>
  <way id='-37940100' action='modify'>
    <nd ref='-169676872' />
    <nd ref='-169676873' />
    <nd ref='-169676874' />
    <tag k='type' v='straight' />
  </way>
  <way id='-37940101' action='modify'>
    <nd ref='-169676874' />
    <nd ref='-169676875' />
    <nd ref='-169676876' />
  </way>
  <way id='-37940102' action='modify'>
    <nd ref='-169676876' />
    <nd ref='-169676877' />
    <tag k='type' v='straight' />
  </way>
  <way id='-37940103' action='modify'>
    <nd ref='-169676877' />
    <nd ref='-169676878' />
  </way>
  <way id='-37940104' action='modify'>
    <nd ref='-169676878' />
    <nd ref='-169676879' />
    <tag k='type' v='straight' />
  </way>
  <way id='-37940105' action='modify'>
    <nd ref='-169676879' />
    <nd ref='-169676880' />
    <nd ref='-169676881' />
  </way>
  <way id='-37940106' action='modify'>
    <nd ref='-169676881' />
    <nd ref='-169676882' />
    <tag k='type' v='straight' />
  </way>
  <way id='-37940107' action='modify'>
    <nd ref='-169676882' />
    <nd ref='-169676883' />
    <nd ref='-169676884' />
  </way>
  <way id='-37940108' action='modify'>
    <nd ref='-169676884' />
    <nd ref='-169676885' />
    <tag k='type' v='straight' />
  </way>
  <way id='-37940109' action='modify'>
    <nd ref='-169676885' />
    <nd ref='-169676886' />
  </way>
  <way id='-37940110' action='modify'>
    <nd ref='-169676886' />
    <nd ref='-169676887' />
    <tag k='type' v='straight' />
  </way>
  <way id='-37940111' action='modify'>
    <nd ref='-169676887' />
    <nd ref='-169676888' />
  </way>
  <way id='-37940112' action='modify'>
    <nd ref='-169676888' />
    <nd ref='-169676889' />
    <tag k='type' v='straight' />
  </way>
  <way id='-37940113' action='modify'>
    <nd ref='-169676889' />
    <nd ref='-169676890' />
    <nd ref='-169676891' />
  </way>
  <way id='-37940114' action='modify'>
    <nd ref='-169676891' />
    <nd ref='-169676892' />
    <tag k='type' v='straight' />
  </way>
  <way id='-37940115' action='modify'>
    <nd ref='-169676892' />
    <nd ref='-169676893' />
  </way>
  <way id='-37940116' action='modify'>
    <nd ref='-169676893' />
    <nd ref='-169676894' />
    <tag k='type' v='straight' />
  </way>
  <way id='-37940117' action='modify'>
    <nd ref='-169676894' />
    <nd ref='-169676895' />
  </way>
  <way id='-37940118' action='modify'>
    <nd ref='-169676895' />
    <nd ref='-169676896' />
    <tag k='type' v='straight' />
  </way>
  <way id='-37940119' action='modify'>
    <nd ref='-169676896' />
    <nd ref='-169676897' />
  </way>
  <way id='-37940120' action='modify'>
    <nd ref='-169676897' />
    <nd ref='-169676898' />
    <tag k='type' v='straight' />
  </way>
  <way id='-37940121' action='modify'>
    <nd ref='-169676898' />
    <nd ref='-169676899' />
    <nd ref='-169676900' />
  </way>
  <way id='-37940122' action='modify'>
    <nd ref='-169676900' />
    <nd ref='-169676901' />
    <tag k='type' v='straight' />
  </way>
  <way id='-37940123' action='modify'>
    <nd ref='-169676901' />
    <nd ref='-169676902' />
  </way>
  <way id='-37940124' action='modify'>
    <nd ref='-169676902' />
    <nd ref='-169676903' />
    <tag k='type' v='straight' />
  </way>
  <way id='-37940125' action='modify'>
    <nd ref='-169676903' />
    <nd ref='-169676904' />
  </way>
  <way id='-37940126' action='modify'>
    <nd ref='-169676904' />
    <nd ref='-169676905' />
    <tag k='type' v='straight' />
  </way>
  <way id='-37940127' action='modify'>
    <nd ref='-169676905' />
    <nd ref='-169676906' />
    <nd ref='-169676907' />
  </way>
  <way id='-37940128' action='modify'>
    <nd ref='-169676907' />
    <nd ref='-169676908' />
    <tag k='type' v='straight' />
  </way>
  <way id='-37940129' action='modify'>
    <nd ref='-169676908' />
    <nd ref='-169676909' />
    <nd ref='-169676910' />
  </way>
  <way id='-37940130' action='modify'>
    <nd ref='-169676910' />
    <nd ref='-169676911' />
    <tag k='type' v='straight' />
  </way>
  <way id='-37940131' action='modify'>
    <nd ref='-169676911' />
    <nd ref='-169676912' />
  </way>
  <way id='-37940132' action='modify'>
    <nd ref='-169676912' />
    <nd ref='-169676913' />
    <tag k='type' v='straight' />
  </way>
  <way id='-37940133' action='modify'>
    <nd ref='-169676913' />
    <nd ref='-169676914' />
    <nd ref='-169676915' />
  </way>
  <way id='-37940134' action='modify'>
    <nd ref='-169676915' />
    <nd ref='-169676916' />
    <tag k='type' v='straight' />
  </way>
  <way id='-37940135' action='modify'>
    <nd ref='-169676916' />
    <nd ref='-169676917' />
  </way>
  <way id='-37940136' action='modify'>
    <nd ref='-169676917' />
    <nd ref='-169676918' />
    <tag k='type' v='straight' />
  </way>
  <way id='-37940137' action='modify'>
    <nd ref='-169676918' />
    <nd ref='-169676919' />
    <nd ref='-169676920' />
  </way>
  <way id='-37940138' action='modify'>
    <nd ref='-169676920' />
    <nd ref='-169676921' />
    <nd ref='-169676922' />
    <tag k='type' v='straight' />
  </way>
  <way id='-37940139' action='modify'>
    <nd ref='-169676922' />
    <nd ref='-169676923' />
    <nd ref='-169676924' />
  </way>
  <way id='-37940140' action='modify'>
    <nd ref='-169676924' />
    <nd ref='-169676925' />
    <nd ref='-169676926' />
    <tag k='type' v='straight' />
  </way>
  <way id='-37940141' action='modify'>
    <nd ref='-169676926' />
    <nd ref='-169676927' />
  </way>
  <way id='-37940142' action='modify'>
    <nd ref='-169676927' />
    <nd ref='-169676928' />
    <tag k='type' v='straight' />
  </way>
  <way id='-37940143' action='modify'>
    <nd ref='-169676928' />
    <nd ref='-169676929' />
  </way>
  <way id='-37940145' action='modify'>
    <nd ref='-169676929' />
    <nd ref='-169676931' />
    <tag k='type' v='straight' />
  </way>
  <relation id='-14482393' action='modify'>
    <member type='way' ref='-37940064' role='' />
    <member type='way' ref='-37940065' role='' />
    <member type='way' ref='-37940066' role='' />
    <member type='way' ref='-37940067' role='' />
    <member type='way' ref='-37940068' role='' />
    <member type='way' ref='-37940069' role='' />
    <member type='way' ref='-37940070' role='' />
    <member type='way' ref='-37940071' role='' />
    <member type='way' ref='-37940072' role='' />
    <member type='way' ref='-37940073' role='' />
    <member type='way' ref='-37940074' role='' />
    <member type='way' ref='-37940075' role='' />
    <member type='way' ref='-37940076' role='' />
    <member type='way' ref='-37940077' role='' />
    <member type='way' ref='-37940078' role='' />
    <member type='way' ref='-37940079' role='' />
    <member type='way' ref='-37940080' role='' />
    <member type='way' ref='-37940081' role='' />
    <member type='way' ref='-37940082' role='' />
    <member type='way' ref='-37940083' role='' />
    <member type='way' ref='-37940084' role='' />
    <member type='way' ref='-37940085' role='' />
    <member type='way' ref='-37940086' role='' />
    <member type='way' ref='-37940087' role='' />
    <member type='way' ref='-37940088' role='' />
    <member type='way' ref='-37940089' role='' />
    <member type='way' ref='-37940090' role='' />
    <member type='way' ref='-37940091' role='' />
    <member type='way' ref='-37940092' role='' />
    <member type='way' ref='-37940093' role='' />
    <member type='way' ref='-37940094' role='' />
    <member type='way' ref='-37940095' role='' />
    <member type='way' ref='-37940096' role='' />
    <member type='way' ref='-37940097' role='' />
    <member type='way' ref='-37940098' role='' />
    <member type='way' ref='-37940099' role='' />
    <member type='way' ref='-37940100' role='' />
    <member type='way' ref='-37940101' role='' />
    <member type='way' ref='-37940102' role='' />
    <member type='way' ref='-37940103' role='' />
    <member type='way' ref='-37940104' role='' />
    <member type='way' ref='-37940105' role='' />
    <member type='way' ref='-37940106' role='' />
    <member type='way' ref='-37940107' role='' />
    <member type='way' ref='-37940108' role='' />
    <member type='way' ref='-37940109' role='' />
    <member type='way' ref='-37940110' role='' />
    <member type='way' ref='-37940111' role='' />
    <member type='way' ref='-37940112' role='' />
    <member type='way' ref='-37940113' role='' />
    <member type='way' ref='-37940114' role='' />
    <member type='way' ref='-37940115' role='' />
    <member type='way' ref='-37940116' role='' />
    <member type='way' ref='-37940117' role='' />
    <member type='way' ref='-37940118' role='' />
    <member type='way' ref='-37940119' role='' />
    <member type='way' ref='-37940120' role='' />
    <member type='way' ref='-37940121' role='' />
    <member type='way' ref='-37940122' role='' />
    <member type='way' ref='-37940123' role='' />
    <member type='way' ref='-37940124' role='' />
    <member type='way' ref='-37940125' role='' />
    <member type='way' ref='-37940126' role='' />
    <member type='way' ref='-37940127' role='' />
    <member type='way' ref='-37940128' role='' />
    <member type='way' ref='-37940129' role='' />
    <member type='way' ref='-37940130' role='' />
    <member type='way' ref='-37940131' role='' />
    <member type='way' ref='-37940132' role='' />
    <member type='way' ref='-37940133' role='' />
    <member type='way' ref='-37940134' role='' />
    <member type='way' ref='-37940135' role='' />
    <member type='way' ref='-37940136' role='' />
    <member type='way' ref='-37940137' role='' />
    <member type='way' ref='-37940138' role='' />
    <member type='way' ref='-37940139' role='' />
    <member type='way' ref='-37940140' role='' />
    <member type='way' ref='-37940141' role='' />
    <member type='way' ref='-37940142' role='' />
    <member type='way' ref='-37940143' role='' />
    <member type='way' ref='-37940145' role='' />
    <tag k='key' v='path.dk.hso' />
    <tag k='name' v='DK HSO' />
    <tag k='type' v='path' />
  </relation>
</osm>
