<?xml version='1.0' encoding='UTF-8'?>
<osm version='0.6' upload='false' generator='JOSM'>
  <node id='-167399630' action='modify' lat='55.86233631939' lon='9.83535854673'>
    <tag k='name' v='hor' />
  </node>
  <node id='-167399631' action='modify' lat='55.86272944072' lon='9.8353144513' />
  <node id='-167399632' action='modify' lat='55.86351664995' lon='9.83520179853' />
  <node id='-167399633' action='modify' lat='55.8679987732' lon='9.83341008157' />
  <node id='-167399634' action='modify' lat='55.86994317321' lon='9.83179539174' />
  <node id='-167399635' action='modify' lat='55.87124791336' lon='9.83060985535' />
  <node id='-167399636' action='modify' lat='55.87265206315' lon='9.82925410726'>
    <tag k='name' v='byg' />
  </node>
  <node id='-167399637' action='modify' lat='55.87288968673' lon='9.82902466983' />
  <node id='-167399638' action='modify' lat='55.87473528142' lon='9.82753202185' />
  <node id='-167399640' action='modify' lat='55.8763286896' lon='9.82654120645' />
  <node id='-167399641' action='modify' lat='55.87970433563' lon='9.81980591744' />
  <node id='-167399642' action='modify' lat='55.87973442637' lon='9.81951087445' />
  <node id='-167399643' action='modify' lat='55.87953131342' lon='9.81546342105' />
  <node id='-167399644' action='modify' lat='55.87942900427' lon='9.81486260623' />
  <node id='-167399645' action='modify' lat='55.87920482593' lon='9.81282144517' />
  <node id='-167399646' action='modify' lat='55.87909800224' lon='9.8100641343' />
  <node id='-167399647' action='modify' lat='55.87958397394' lon='9.80666040838' />
  <node id='-167399648' action='modify' lat='55.88072740924' lon='9.80295359552' />
  <node id='-167399649' action='modify' lat='55.88187683168' lon='9.80052350879' />
  <node id='-167399650' action='modify' lat='55.88395292188' lon='9.79759453654' />
  <node id='-167399651' action='modify' lat='55.88537151514' lon='9.79270487756' />
  <node id='-167399652' action='modify' lat='55.88543168782' lon='9.7907844159' />
  <node id='-167399653' action='modify' lat='55.88571299533' lon='9.78816925943'>
    <tag k='name' v='lma' />
  </node>
  <node id='-167399654' action='modify' lat='55.88635683242' lon='9.78627025545' />
  <node id='-167399655' action='modify' lat='55.89420236272' lon='9.77243542135' />
  <node id='-167399656' action='modify' lat='55.89527317864' lon='9.76806342065' />
  <node id='-167399657' action='modify' lat='55.89538341014' lon='9.7661536511'>
    <tag k='name' v='lun' />
  </node>
  <node id='-167399658' action='modify' lat='55.89546267389' lon='9.76478039682' />
  <node id='-167399659' action='modify' lat='55.89380230312' lon='9.75998997152' />
  <node id='-167399660' action='modify' lat='55.89169966645' lon='9.75824653566' />
  <node id='-167399661' action='modify' lat='55.88964204043' lon='9.75463628232' />
  <node id='-167399662' action='modify' lat='55.88896516592' lon='9.75167512357' />
  <node id='-167399663' action='modify' lat='55.88756023759' lon='9.74897145689' />
  <node id='-167399664' action='modify' lat='55.88610712117' lon='9.74756061494' />
  <node id='-167399665' action='modify' lat='55.88411839804' lon='9.74377870291'>
    <tag k='name' v='kor' />
  </node>
  <node id='-167399666' action='modify' lat='55.88379947102' lon='9.7422257039' />
  <node id='-167399667' action='modify' lat='55.88212356125' lon='9.73780273318' />
  <node id='-167399668' action='modify' lat='55.88149168969' lon='9.73674057841' />
  <node id='-167399669' action='modify' lat='55.87995710164' lon='9.7323632133' />
  <node id='-167399670' action='modify' lat='55.87870230516' lon='9.72419052243' />
  <node id='-167399671' action='modify' lat='55.87846156767' lon='9.72265362471'>
    <tag k='name' v='vos' />
  </node>
  <node id='-167399672' action='modify' lat='55.87806435649' lon='9.71917211473' />
  <node id='-167399673' action='modify' lat='55.87686720373' lon='9.70492462267'>
    <tag k='name' v='vro' />
  </node>
  <node id='-167399674' action='modify' lat='55.87679144303' lon='9.70402299821' />
  <node id='-167399675' action='modify' lat='55.87651759417' lon='9.70167606801' />
  <node id='-167399676' action='modify' lat='55.87351116487' lon='9.67940568656' />
  <node id='-167399677' action='modify' lat='55.8725240197' lon='9.67509269178' />
  <node id='-167399678' action='modify' lat='55.87157597413' lon='9.67231392324' />
  <node id='-167399679' action='modify' lat='55.87039314045' lon='9.66604560345' />
  <node id='-167399680' action='modify' lat='55.87039694602' lon='9.66343050631'>
    <tag k='name' v='fle' />
  </node>
  <node id='-167399681' action='modify' lat='55.87041120073' lon='9.65363501966' />
  <node id='-167399682' action='modify' lat='55.87028178232' lon='9.65016691804' />
  <node id='-167399683' action='modify' lat='55.87012846755' lon='9.64783637225'>
    <tag k='name' v='hon' />
  </node>
  <node id='-167399684' action='modify' lat='55.86989200603' lon='9.64424192637' />
  <node id='-167399685' action='modify' lat='55.87070013852' lon='9.63764100999' />
  <node id='-167399686' action='modify' lat='55.8743538327' lon='9.62742983758' />
  <node id='-167399687' action='modify' lat='55.87462919855' lon='9.61877166957' />
  <node id='-167399688' action='modify' lat='55.87383619547' lon='9.6156281206' />
  <node id='-167399689' action='modify' lat='55.87365261371' lon='9.61493074626'>
    <tag k='name' v='ras' />
  </node>
  <node id='-167399690' action='modify' lat='55.87342689723' lon='9.61419313878' />
  <node id='-167399691' action='modify' lat='55.87334864854' lon='9.61395978659' />
  <node id='-167399692' action='modify' lat='55.87001014115' lon='9.612728654' />
  <node id='-167399693' action='modify' lat='55.86961208955' lon='9.61309745774' />
  <node id='-167399694' action='modify' lat='55.86927799469' lon='9.61332678527' />
  <node id='-167399695' action='modify' lat='55.86761499854' lon='9.6141099903' />
  <node id='-167399696' action='modify' lat='55.86477645481' lon='9.61248456895' />
  <node id='-167399697' action='modify' lat='55.85523012116' lon='9.59552441165'>
    <tag k='name' v='dor' />
  </node>
  <node id='-167399698' action='modify' lat='55.85502659297' lon='9.59516286582' />
  <node id='-167399699' action='modify' lat='55.85441385213' lon='9.59411143988' />
  <node id='-167399700' action='modify' lat='55.8541744741' lon='9.59373861283' />
  <node id='-167399701' action='modify' lat='55.8528465767' lon='9.59216952056' />
  <node id='-167399702' action='modify' lat='55.84944532643' lon='9.58895355195' />
  <node id='-167399703' action='modify' lat='55.84904631121' lon='9.58854585618'>
    <tag k='name' v='uld' />
  </node>
  <node id='-167399704' action='modify' lat='55.84754206227' lon='9.58278715342' />
  <node id='-167399705' action='modify' lat='55.8493730568' lon='9.56807254672' />
  <node id='-167399706' action='modify' lat='55.84929776807' lon='9.56273495615' />
  <node id='-167399707' action='modify' lat='55.84847262704' lon='9.55820202291' />
  <node id='-167399708' action='modify' lat='55.8481383496' lon='9.55681263864'>
    <tag k='name' v='hes' />
  </node>
  <node id='-167399709' action='modify' lat='55.8474577428' lon='9.55475806117' />
  <node id='-167399710' action='modify' lat='55.84154256105' lon='9.54117535472' />
  <node id='-167399711' action='modify' lat='55.84070821608' lon='9.53811227739' />
  <node id='-167399712' action='modify' lat='55.83909219239' lon='9.52818273962'>
    <tag k='name' v='olh' />
  </node>
  <node id='-167399713' action='modify' lat='55.8391238192' lon='9.52394216985' />
  <node id='-167399714' action='modify' lat='55.84062689239' lon='9.51554416537' />
  <node id='-167399715' action='modify' lat='55.84070821458' lon='9.51284855336' />
  <node id='-167399716' action='modify' lat='55.84054857461' lon='9.51057135522' />
  <node id='-167399717' action='modify' lat='55.84050941716' lon='9.50695573747' />
  <node id='-167399718' action='modify' lat='55.8406780951' lon='9.50485825002' />
  <node id='-167399719' action='modify' lat='55.84115099184' lon='9.50281977117' />
  <node id='-167399720' action='modify' lat='55.84141906451' lon='9.50203656614' />
  <node id='-167399721' action='modify' lat='55.84210730852' lon='9.50091004103' />
  <node id='-167399722' action='modify' lat='55.84344912785' lon='9.49981569707' />
  <node id='-167399723' action='modify' lat='55.84760229508' lon='9.49146866262' />
  <node id='-167399724' action='modify' lat='55.84991599805' lon='9.48232417111'>
    <tag k='name' v='tor' />
  </node>
  <node id='-167399725' action='modify' lat='55.85030056186' lon='9.48080419958' />
  <node id='-167399726' action='modify' lat='55.85147948754' lon='9.47787791222' />
  <node id='-167399727' action='modify' lat='55.8521856222' lon='9.47664677829' />
  <node id='-167399728' action='modify' lat='55.85370023174' lon='9.47258591115' />
  <node id='-167399729' action='modify' lat='55.85888632192' lon='9.44909166276'>
    <tag k='name' v='hau' />
  </node>
  <node id='-167399730' action='modify' lat='55.8594479814' lon='9.44654702067' />
  <node id='-167399731' action='modify' lat='55.8612498062' lon='9.44199800223' />
  <node id='-167399732' action='modify' lat='55.86341279569' lon='9.43880617082' />
  <node id='-167399733' action='modify' lat='55.86482461699' lon='9.43411230773' />
  <node id='-167399734' action='modify' lat='55.86489987263' lon='9.43347125977' />
  <node id='-167399735' action='modify' lat='55.86436555443' lon='9.42904829711' />
  <node id='-167399736' action='modify' lat='55.8630982126' lon='9.42618638009' />
  <node id='-167399737' action='modify' lat='55.86262859325' lon='9.4170561406' />
  <node id='-167399738' action='modify' lat='55.86322846885' lon='9.41529120365'>
    <tag k='name' v='von' />
  </node>
  <node id='-167399739' action='modify' lat='55.86494502594' lon='9.41024064749' />
  <node id='-167399740' action='modify' lat='55.86598052902' lon='9.40362631738' />
  <node id='-167399741' action='modify' lat='55.86811164889' lon='9.36930477083' />
  <node id='-167399742' action='modify' lat='55.86855238258' lon='9.36627592245'>
    <tag k='name' v='kol' />
  </node>
  <node id='-167399743' action='modify' lat='55.87348107081' lon='9.36011552274' />
  <node id='-167399744' action='modify' lat='55.87602707305' lon='9.35918747842' />
  <node id='-167399745' action='modify' lat='55.8791446436' lon='9.35671180218' />
  <node id='-167399746' action='modify' lat='55.88241541775' lon='9.35220837325' />
  <node id='-167399747' action='modify' lat='55.88318267077' lon='9.35136615962' />
  <node id='-167399748' action='modify' lat='55.8835948742' lon='9.35096919402' />
  <node id='-167399749' action='modify' lat='55.88543018501' lon='9.34776663244' />
  <node id='-167399750' action='modify' lat='55.88670582376' lon='9.34334635198' />
  <node id='-167399751' action='modify' lat='55.88776781971' lon='9.34039592475' />
  <node id='-167399752' action='modify' lat='55.89111034906' lon='9.33276158096'>
    <tag k='name' v='har' />
  </node>
  <node id='-167399753' action='modify' lat='55.89116872365' lon='9.33262824744' />
  <node id='-167399754' action='modify' lat='55.89313301901' lon='9.32996079192' />
  <node id='-167399755' action='modify' lat='55.89322927599' lon='9.32989105448' />
  <node id='-167399756' action='modify' lat='55.89599205253' lon='9.32958661973' />
  <node id='-167399757' action='modify' lat='55.90490017376' lon='9.33430193782' />
  <node id='-167399758' action='modify' lat='55.91047647611' lon='9.33339535922' />
  <node id='-167399759' action='modify' lat='55.9125063812' lon='9.33104864615'>
    <tag k='name' v='ves' />
  </node>
  <node id='-167399760' action='modify' lat='55.91336730196' lon='9.3300533241' />
  <node id='-167399761' action='modify' lat='55.91572730555' lon='9.31986092985' />
  <node id='-167399762' action='modify' lat='55.91412192647' lon='9.30393127441' />
  <node id='-167399763' action='modify' lat='55.91393852619' lon='9.29886459768' />
  <node id='-167399764' action='modify' lat='55.91548211396' lon='9.27067494919'>
    <tag k='name' v='thl' />
  </node>
  <node id='-167399765' action='modify' lat='55.91591069135' lon='9.26284788966' />
  <node id='-167399766' action='modify' lat='55.9119934318' lon='9.25384411699' />
  <node id='-167399767' action='modify' lat='55.91191792974' lon='9.25382221834' />
  <node id='-167399768' action='modify' lat='55.90872635683' lon='9.25228300899'>
    <tag k='name' v='thy' />
  </node>
  <node id='-167399771' action='modify' lat='55.86229277613' lon='9.83535862702' />
  <node id='-167399775' action='modify' lat='55.86469571458' lon='9.83504781807' />
  <node id='-167399777' action='modify' lat='55.86546197203' lon='9.83480501821' />
  <node id='-167399785' action='modify' lat='55.90867226143' lon='9.25224991158' />
  <way id='-37790067' action='modify'>
    <nd ref='-167399631' />
    <nd ref='-167399632' />
    <tag k='type' v='straight' />
  </way>
  <way id='-37790068' action='modify'>
    <nd ref='-167399632' />
    <nd ref='-167399775' />
  </way>
  <way id='-37790069' action='modify'>
    <nd ref='-167399633' />
    <nd ref='-167399634' />
    <tag k='type' v='straight' />
  </way>
  <way id='-37790070' action='modify'>
    <nd ref='-167399634' />
    <nd ref='-167399635' />
  </way>
  <way id='-37790071' action='modify'>
    <nd ref='-167399635' />
    <nd ref='-167399636' />
    <nd ref='-167399637' />
    <tag k='type' v='straight' />
  </way>
  <way id='-37790072' action='modify'>
    <nd ref='-167399637' />
    <nd ref='-167399638' />
  </way>
  <way id='-37790073' action='modify'>
    <nd ref='-167399638' />
    <nd ref='-167399640' />
    <tag k='type' v='straight' />
  </way>
  <way id='-37790075' action='modify'>
    <nd ref='-167399640' />
    <nd ref='-167399641' />
  </way>
  <way id='-37790076' action='modify'>
    <nd ref='-167399641' />
    <nd ref='-167399642' />
    <tag k='type' v='straight' />
  </way>
  <way id='-37790077' action='modify'>
    <nd ref='-167399642' />
    <nd ref='-167399643' />
  </way>
  <way id='-37790078' action='modify'>
    <nd ref='-167399643' />
    <nd ref='-167399644' />
    <tag k='type' v='straight' />
  </way>
  <way id='-37790079' action='modify'>
    <nd ref='-167399644' />
    <nd ref='-167399645' />
  </way>
  <way id='-37790080' action='modify'>
    <nd ref='-167399645' />
    <nd ref='-167399646' />
    <tag k='type' v='straight' />
  </way>
  <way id='-37790081' action='modify'>
    <nd ref='-167399646' />
    <nd ref='-167399647' />
  </way>
  <way id='-37790082' action='modify'>
    <nd ref='-167399647' />
    <nd ref='-167399648' />
    <tag k='type' v='straight' />
  </way>
  <way id='-37790083' action='modify'>
    <nd ref='-167399648' />
    <nd ref='-167399649' />
  </way>
  <way id='-37790084' action='modify'>
    <nd ref='-167399649' />
    <nd ref='-167399650' />
    <tag k='type' v='straight' />
  </way>
  <way id='-37790085' action='modify'>
    <nd ref='-167399650' />
    <nd ref='-167399651' />
  </way>
  <way id='-37790086' action='modify'>
    <nd ref='-167399651' />
    <nd ref='-167399652' />
    <tag k='type' v='straight' />
  </way>
  <way id='-37790087' action='modify'>
    <nd ref='-167399652' />
    <nd ref='-167399653' />
    <nd ref='-167399654' />
  </way>
  <way id='-37790088' action='modify'>
    <nd ref='-167399654' />
    <nd ref='-167399655' />
    <tag k='type' v='straight' />
  </way>
  <way id='-37790089' action='modify'>
    <nd ref='-167399655' />
    <nd ref='-167399656' />
  </way>
  <way id='-37790090' action='modify'>
    <nd ref='-167399656' />
    <nd ref='-167399657' />
    <nd ref='-167399658' />
    <tag k='type' v='straight' />
  </way>
  <way id='-37790091' action='modify'>
    <nd ref='-167399658' />
    <nd ref='-167399659' />
  </way>
  <way id='-37790092' action='modify'>
    <nd ref='-167399659' />
    <nd ref='-167399660' />
    <tag k='type' v='straight' />
  </way>
  <way id='-37790093' action='modify'>
    <nd ref='-167399660' />
    <nd ref='-167399661' />
  </way>
  <way id='-37790094' action='modify'>
    <nd ref='-167399661' />
    <nd ref='-167399662' />
    <tag k='type' v='straight' />
  </way>
  <way id='-37790095' action='modify'>
    <nd ref='-167399662' />
    <nd ref='-167399663' />
  </way>
  <way id='-37790096' action='modify'>
    <nd ref='-167399663' />
    <nd ref='-167399664' />
    <tag k='type' v='straight' />
  </way>
  <way id='-37790097' action='modify'>
    <nd ref='-167399664' />
    <nd ref='-167399665' />
  </way>
  <way id='-37790098' action='modify'>
    <nd ref='-167399665' />
    <nd ref='-167399666' />
    <tag k='type' v='straight' />
  </way>
  <way id='-37790099' action='modify'>
    <nd ref='-167399666' />
    <nd ref='-167399667' />
  </way>
  <way id='-37790100' action='modify'>
    <nd ref='-167399667' />
    <nd ref='-167399668' />
    <tag k='type' v='straight' />
  </way>
  <way id='-37790101' action='modify'>
    <nd ref='-167399668' />
    <nd ref='-167399669' />
  </way>
  <way id='-37790102' action='modify'>
    <nd ref='-167399669' />
    <nd ref='-167399670' />
    <tag k='type' v='straight' />
  </way>
  <way id='-37790103' action='modify'>
    <nd ref='-167399670' />
    <nd ref='-167399671' />
    <nd ref='-167399672' />
  </way>
  <way id='-37790104' action='modify'>
    <nd ref='-167399672' />
    <nd ref='-167399673' />
    <nd ref='-167399674' />
    <tag k='type' v='straight' />
  </way>
  <way id='-37790105' action='modify'>
    <nd ref='-167399674' />
    <nd ref='-167399675' />
  </way>
  <way id='-37790106' action='modify'>
    <nd ref='-167399675' />
    <nd ref='-167399676' />
    <tag k='type' v='straight' />
  </way>
  <way id='-37790107' action='modify'>
    <nd ref='-167399676' />
    <nd ref='-167399677' />
  </way>
  <way id='-37790108' action='modify'>
    <nd ref='-167399677' />
    <nd ref='-167399678' />
    <tag k='type' v='straight' />
  </way>
  <way id='-37790109' action='modify'>
    <nd ref='-167399678' />
    <nd ref='-167399679' />
  </way>
  <way id='-37790110' action='modify'>
    <nd ref='-167399679' />
    <nd ref='-167399680' />
    <nd ref='-167399681' />
    <tag k='type' v='straight' />
  </way>
  <way id='-37790111' action='modify'>
    <nd ref='-167399681' />
    <nd ref='-167399682' />
  </way>
  <way id='-37790112' action='modify'>
    <nd ref='-167399682' />
    <nd ref='-167399683' />
    <nd ref='-167399684' />
    <tag k='type' v='straight' />
  </way>
  <way id='-37790113' action='modify'>
    <nd ref='-167399684' />
    <nd ref='-167399685' />
  </way>
  <way id='-37790114' action='modify'>
    <nd ref='-167399685' />
    <nd ref='-167399686' />
    <tag k='type' v='straight' />
  </way>
  <way id='-37790115' action='modify'>
    <nd ref='-167399686' />
    <nd ref='-167399687' />
  </way>
  <way id='-37790116' action='modify'>
    <nd ref='-167399687' />
    <nd ref='-167399688' />
    <tag k='type' v='straight' />
  </way>
  <way id='-37790117' action='modify'>
    <nd ref='-167399688' />
    <nd ref='-167399689' />
    <nd ref='-167399690' />
  </way>
  <way id='-37790118' action='modify'>
    <nd ref='-167399690' />
    <nd ref='-167399691' />
    <tag k='type' v='straight' />
  </way>
  <way id='-37790119' action='modify'>
    <nd ref='-167399691' />
    <nd ref='-167399692' />
  </way>
  <way id='-37790120' action='modify'>
    <nd ref='-167399692' />
    <nd ref='-167399693' />
    <tag k='type' v='straight' />
  </way>
  <way id='-37790121' action='modify'>
    <nd ref='-167399693' />
    <nd ref='-167399694' />
  </way>
  <way id='-37790122' action='modify'>
    <nd ref='-167399694' />
    <nd ref='-167399695' />
    <tag k='type' v='straight' />
  </way>
  <way id='-37790123' action='modify'>
    <nd ref='-167399695' />
    <nd ref='-167399696' />
  </way>
  <way id='-37790124' action='modify'>
    <nd ref='-167399696' />
    <nd ref='-167399697' />
    <nd ref='-167399698' />
    <tag k='type' v='straight' />
  </way>
  <way id='-37790125' action='modify'>
    <nd ref='-167399698' />
    <nd ref='-167399699' />
  </way>
  <way id='-37790126' action='modify'>
    <nd ref='-167399699' />
    <nd ref='-167399700' />
    <tag k='type' v='straight' />
  </way>
  <way id='-37790127' action='modify'>
    <nd ref='-167399700' />
    <nd ref='-167399701' />
  </way>
  <way id='-37790128' action='modify'>
    <nd ref='-167399701' />
    <nd ref='-167399702' />
    <tag k='type' v='straight' />
  </way>
  <way id='-37790129' action='modify'>
    <nd ref='-167399702' />
    <nd ref='-167399703' />
    <nd ref='-167399704' />
  </way>
  <way id='-37790130' action='modify'>
    <nd ref='-167399704' />
    <nd ref='-167399705' />
    <tag k='type' v='straight' />
  </way>
  <way id='-37790131' action='modify'>
    <nd ref='-167399705' />
    <nd ref='-167399706' />
  </way>
  <way id='-37790132' action='modify'>
    <nd ref='-167399706' />
    <nd ref='-167399707' />
    <tag k='type' v='straight' />
  </way>
  <way id='-37790133' action='modify'>
    <nd ref='-167399707' />
    <nd ref='-167399708' />
    <nd ref='-167399709' />
  </way>
  <way id='-37790134' action='modify'>
    <nd ref='-167399709' />
    <nd ref='-167399710' />
    <tag k='type' v='straight' />
  </way>
  <way id='-37790135' action='modify'>
    <nd ref='-167399710' />
    <nd ref='-167399711' />
  </way>
  <way id='-37790136' action='modify'>
    <nd ref='-167399711' />
    <nd ref='-167399712' />
    <tag k='type' v='straight' />
  </way>
  <way id='-37790137' action='modify'>
    <nd ref='-167399712' />
    <nd ref='-167399713' />
  </way>
  <way id='-37790138' action='modify'>
    <nd ref='-167399713' />
    <nd ref='-167399714' />
    <tag k='type' v='straight' />
  </way>
  <way id='-37790139' action='modify'>
    <nd ref='-167399714' />
    <nd ref='-167399715' />
  </way>
  <way id='-37790140' action='modify'>
    <nd ref='-167399715' />
    <nd ref='-167399716' />
    <tag k='type' v='straight' />
  </way>
  <way id='-37790141' action='modify'>
    <nd ref='-167399716' />
    <nd ref='-167399717' />
  </way>
  <way id='-37790142' action='modify'>
    <nd ref='-167399717' />
    <nd ref='-167399718' />
    <tag k='type' v='straight' />
  </way>
  <way id='-37790143' action='modify'>
    <nd ref='-167399718' />
    <nd ref='-167399719' />
  </way>
  <way id='-37790144' action='modify'>
    <nd ref='-167399719' />
    <nd ref='-167399720' />
    <tag k='type' v='straight' />
  </way>
  <way id='-37790145' action='modify'>
    <nd ref='-167399720' />
    <nd ref='-167399721' />
  </way>
  <way id='-37790146' action='modify'>
    <nd ref='-167399721' />
    <nd ref='-167399722' />
    <tag k='type' v='straight' />
  </way>
  <way id='-37790147' action='modify'>
    <nd ref='-167399722' />
    <nd ref='-167399723' />
  </way>
  <way id='-37790148' action='modify'>
    <nd ref='-167399723' />
    <nd ref='-167399724' />
    <nd ref='-167399725' />
    <tag k='type' v='straight' />
  </way>
  <way id='-37790149' action='modify'>
    <nd ref='-167399725' />
    <nd ref='-167399726' />
  </way>
  <way id='-37790150' action='modify'>
    <nd ref='-167399726' />
    <nd ref='-167399727' />
    <tag k='type' v='straight' />
  </way>
  <way id='-37790151' action='modify'>
    <nd ref='-167399727' />
    <nd ref='-167399728' />
  </way>
  <way id='-37790152' action='modify'>
    <nd ref='-167399728' />
    <nd ref='-167399729' />
    <nd ref='-167399730' />
    <tag k='type' v='straight' />
  </way>
  <way id='-37790153' action='modify'>
    <nd ref='-167399730' />
    <nd ref='-167399731' />
  </way>
  <way id='-37790154' action='modify'>
    <nd ref='-167399731' />
    <nd ref='-167399732' />
    <tag k='type' v='straight' />
  </way>
  <way id='-37790155' action='modify'>
    <nd ref='-167399732' />
    <nd ref='-167399733' />
  </way>
  <way id='-37790156' action='modify'>
    <nd ref='-167399733' />
    <nd ref='-167399734' />
    <tag k='type' v='straight' />
  </way>
  <way id='-37790157' action='modify'>
    <nd ref='-167399734' />
    <nd ref='-167399735' />
  </way>
  <way id='-37790158' action='modify'>
    <nd ref='-167399735' />
    <nd ref='-167399736' />
    <tag k='type' v='straight' />
  </way>
  <way id='-37790159' action='modify'>
    <nd ref='-167399736' />
    <nd ref='-167399737' />
  </way>
  <way id='-37790160' action='modify'>
    <nd ref='-167399737' />
    <nd ref='-167399738' />
    <nd ref='-167399739' />
    <tag k='type' v='straight' />
  </way>
  <way id='-37790161' action='modify'>
    <nd ref='-167399739' />
    <nd ref='-167399740' />
  </way>
  <way id='-37790162' action='modify'>
    <nd ref='-167399740' />
    <nd ref='-167399741' />
    <tag k='type' v='straight' />
  </way>
  <way id='-37790163' action='modify'>
    <nd ref='-167399741' />
    <nd ref='-167399742' />
    <nd ref='-167399743' />
  </way>
  <way id='-37790164' action='modify'>
    <nd ref='-167399743' />
    <nd ref='-167399744' />
    <tag k='type' v='straight' />
  </way>
  <way id='-37790165' action='modify'>
    <nd ref='-167399744' />
    <nd ref='-167399745' />
  </way>
  <way id='-37790166' action='modify'>
    <nd ref='-167399745' />
    <nd ref='-167399746' />
    <tag k='type' v='straight' />
  </way>
  <way id='-37790167' action='modify'>
    <nd ref='-167399746' />
    <nd ref='-167399747' />
  </way>
  <way id='-37790168' action='modify'>
    <nd ref='-167399747' />
    <nd ref='-167399748' />
    <tag k='type' v='straight' />
  </way>
  <way id='-37790169' action='modify'>
    <nd ref='-167399748' />
    <nd ref='-167399749' />
  </way>
  <way id='-37790170' action='modify'>
    <nd ref='-167399749' />
    <nd ref='-167399750' />
    <tag k='type' v='straight' />
  </way>
  <way id='-37790171' action='modify'>
    <nd ref='-167399750' />
    <nd ref='-167399751' />
  </way>
  <way id='-37790172' action='modify'>
    <nd ref='-167399751' />
    <nd ref='-167399752' />
    <nd ref='-167399753' />
    <tag k='type' v='straight' />
  </way>
  <way id='-37790173' action='modify'>
    <nd ref='-167399753' />
    <nd ref='-167399754' />
  </way>
  <way id='-37790174' action='modify'>
    <nd ref='-167399754' />
    <nd ref='-167399755' />
    <tag k='type' v='straight' />
  </way>
  <way id='-37790175' action='modify'>
    <nd ref='-167399755' />
    <nd ref='-167399756' />
  </way>
  <way id='-37790176' action='modify'>
    <nd ref='-167399756' />
    <nd ref='-167399757' />
    <tag k='type' v='straight' />
  </way>
  <way id='-37790177' action='modify'>
    <nd ref='-167399757' />
    <nd ref='-167399758' />
  </way>
  <way id='-37790178' action='modify'>
    <nd ref='-167399758' />
    <nd ref='-167399759' />
    <nd ref='-167399760' />
    <tag k='type' v='straight' />
  </way>
  <way id='-37790179' action='modify'>
    <nd ref='-167399760' />
    <nd ref='-167399761' />
  </way>
  <way id='-37790180' action='modify'>
    <nd ref='-167399761' />
    <nd ref='-167399762' />
    <tag k='type' v='straight' />
  </way>
  <way id='-37790181' action='modify'>
    <nd ref='-167399762' />
    <nd ref='-167399763' />
  </way>
  <way id='-37790182' action='modify'>
    <nd ref='-167399763' />
    <nd ref='-167399764' />
    <nd ref='-167399765' />
    <tag k='type' v='straight' />
  </way>
  <way id='-37790183' action='modify'>
    <nd ref='-167399765' />
    <nd ref='-167399766' />
  </way>
  <way id='-37790184' action='modify'>
    <nd ref='-167399766' />
    <nd ref='-167399767' />
    <tag k='type' v='straight' />
  </way>
  <way id='-37790185' action='modify'>
    <nd ref='-167399767' />
    <nd ref='-167399768' />
  </way>
  <way id='-37790189' action='modify'>
    <nd ref='-167399771' />
    <nd ref='-167399630' />
    <tag k='type' v='straight' />
  </way>
  <way id='-37790190' action='modify'>
    <nd ref='-167399630' />
    <nd ref='-167399631' />
  </way>
  <way id='-37790207' action='modify'>
    <nd ref='-167399775' />
    <nd ref='-167399777' />
    <tag k='type' v='straight' />
  </way>
  <way id='-37790208' action='modify'>
    <nd ref='-167399777' />
    <nd ref='-167399633' />
  </way>
  <way id='-37790237' action='modify'>
    <nd ref='-167399768' />
    <nd ref='-167399785' />
    <tag k='type' v='straight' />
  </way>
  <relation id='-14481222' action='modify'>
    <member type='way' ref='-37790189' role='' />
    <member type='way' ref='-37790190' role='' />
    <member type='way' ref='-37790067' role='' />
    <member type='way' ref='-37790068' role='' />
    <member type='way' ref='-37790207' role='' />
    <member type='way' ref='-37790208' role='' />
    <member type='way' ref='-37790069' role='' />
    <member type='way' ref='-37790070' role='' />
    <member type='way' ref='-37790071' role='' />
    <member type='way' ref='-37790072' role='' />
    <member type='way' ref='-37790073' role='' />
    <member type='way' ref='-37790075' role='' />
    <member type='way' ref='-37790076' role='' />
    <member type='way' ref='-37790077' role='' />
    <member type='way' ref='-37790078' role='' />
    <member type='way' ref='-37790079' role='' />
    <member type='way' ref='-37790080' role='' />
    <member type='way' ref='-37790081' role='' />
    <member type='way' ref='-37790082' role='' />
    <member type='way' ref='-37790083' role='' />
    <member type='way' ref='-37790084' role='' />
    <member type='way' ref='-37790085' role='' />
    <member type='way' ref='-37790086' role='' />
    <member type='way' ref='-37790087' role='' />
    <member type='way' ref='-37790088' role='' />
    <member type='way' ref='-37790089' role='' />
    <member type='way' ref='-37790090' role='' />
    <member type='way' ref='-37790091' role='' />
    <member type='way' ref='-37790092' role='' />
    <member type='way' ref='-37790093' role='' />
    <member type='way' ref='-37790094' role='' />
    <member type='way' ref='-37790095' role='' />
    <member type='way' ref='-37790096' role='' />
    <member type='way' ref='-37790097' role='' />
    <member type='way' ref='-37790098' role='' />
    <member type='way' ref='-37790099' role='' />
    <member type='way' ref='-37790100' role='' />
    <member type='way' ref='-37790101' role='' />
    <member type='way' ref='-37790102' role='' />
    <member type='way' ref='-37790103' role='' />
    <member type='way' ref='-37790104' role='' />
    <member type='way' ref='-37790105' role='' />
    <member type='way' ref='-37790106' role='' />
    <member type='way' ref='-37790107' role='' />
    <member type='way' ref='-37790108' role='' />
    <member type='way' ref='-37790109' role='' />
    <member type='way' ref='-37790110' role='' />
    <member type='way' ref='-37790111' role='' />
    <member type='way' ref='-37790112' role='' />
    <member type='way' ref='-37790113' role='' />
    <member type='way' ref='-37790114' role='' />
    <member type='way' ref='-37790115' role='' />
    <member type='way' ref='-37790116' role='' />
    <member type='way' ref='-37790117' role='' />
    <member type='way' ref='-37790118' role='' />
    <member type='way' ref='-37790119' role='' />
    <member type='way' ref='-37790120' role='' />
    <member type='way' ref='-37790121' role='' />
    <member type='way' ref='-37790122' role='' />
    <member type='way' ref='-37790123' role='' />
    <member type='way' ref='-37790124' role='' />
    <member type='way' ref='-37790125' role='' />
    <member type='way' ref='-37790126' role='' />
    <member type='way' ref='-37790127' role='' />
    <member type='way' ref='-37790128' role='' />
    <member type='way' ref='-37790129' role='' />
    <member type='way' ref='-37790130' role='' />
    <member type='way' ref='-37790131' role='' />
    <member type='way' ref='-37790132' role='' />
    <member type='way' ref='-37790133' role='' />
    <member type='way' ref='-37790134' role='' />
    <member type='way' ref='-37790135' role='' />
    <member type='way' ref='-37790136' role='' />
    <member type='way' ref='-37790137' role='' />
    <member type='way' ref='-37790138' role='' />
    <member type='way' ref='-37790139' role='' />
    <member type='way' ref='-37790140' role='' />
    <member type='way' ref='-37790141' role='' />
    <member type='way' ref='-37790142' role='' />
    <member type='way' ref='-37790143' role='' />
    <member type='way' ref='-37790144' role='' />
    <member type='way' ref='-37790145' role='' />
    <member type='way' ref='-37790146' role='' />
    <member type='way' ref='-37790147' role='' />
    <member type='way' ref='-37790148' role='' />
    <member type='way' ref='-37790149' role='' />
    <member type='way' ref='-37790150' role='' />
    <member type='way' ref='-37790151' role='' />
    <member type='way' ref='-37790152' role='' />
    <member type='way' ref='-37790153' role='' />
    <member type='way' ref='-37790154' role='' />
    <member type='way' ref='-37790155' role='' />
    <member type='way' ref='-37790156' role='' />
    <member type='way' ref='-37790157' role='' />
    <member type='way' ref='-37790158' role='' />
    <member type='way' ref='-37790159' role='' />
    <member type='way' ref='-37790160' role='' />
    <member type='way' ref='-37790161' role='' />
    <member type='way' ref='-37790162' role='' />
    <member type='way' ref='-37790163' role='' />
    <member type='way' ref='-37790164' role='' />
    <member type='way' ref='-37790165' role='' />
    <member type='way' ref='-37790166' role='' />
    <member type='way' ref='-37790167' role='' />
    <member type='way' ref='-37790168' role='' />
    <member type='way' ref='-37790169' role='' />
    <member type='way' ref='-37790170' role='' />
    <member type='way' ref='-37790171' role='' />
    <member type='way' ref='-37790172' role='' />
    <member type='way' ref='-37790173' role='' />
    <member type='way' ref='-37790174' role='' />
    <member type='way' ref='-37790175' role='' />
    <member type='way' ref='-37790176' role='' />
    <member type='way' ref='-37790177' role='' />
    <member type='way' ref='-37790178' role='' />
    <member type='way' ref='-37790179' role='' />
    <member type='way' ref='-37790180' role='' />
    <member type='way' ref='-37790181' role='' />
    <member type='way' ref='-37790182' role='' />
    <member type='way' ref='-37790183' role='' />
    <member type='way' ref='-37790184' role='' />
    <member type='way' ref='-37790185' role='' />
    <member type='way' ref='-37790237' role='' />
    <tag k='key' v='path.dk.htg' />
    <tag k='name' v='DK HTG' />
    <tag k='type' v='path' />
  </relation>
</osm>
