<?xml version='1.0' encoding='UTF-8'?>
<osm version='0.6' upload='false' generator='JOSM'>
  <node id='-141589612' action='modify' lat='55.51080044144' lon='11.28565046089' />
  <node id='-141589613' action='modify' lat='55.51097816139' lon='11.28557345519' />
  <node id='-141589614' action='modify' lat='55.51633847924' lon='11.29207392801' />
  <node id='-141589615' action='modify' lat='55.51769423198' lon='11.30683132482' />
  <node id='-141589616' action='modify' lat='55.51968803491' lon='11.31561554704' />
  <node id='-141589617' action='modify' lat='55.52328314808' lon='11.3260365333'>
    <tag k='name' v='kul' />
  </node>
  <node id='-141589618' action='modify' lat='55.52485007369' lon='11.33057880517' />
  <node id='-141589619' action='modify' lat='55.52620805108' lon='11.33733066752' />
  <node id='-141589620' action='modify' lat='55.52653728698' lon='11.34248411919' />
  <node id='-141589621' action='modify' lat='55.52810823146' lon='11.34904818984' />
  <node id='-141589622' action='modify' lat='55.52918698539' lon='11.35130235725' />
  <node id='-141589623' action='modify' lat='55.52992853858' lon='11.35281325065' />
  <node id='-141589624' action='modify' lat='55.53766462761' lon='11.36673844697' />
  <node id='-141589625' action='modify' lat='55.5393877213' lon='11.37179728544' />
  <node id='-141589626' action='modify' lat='55.53978276198' lon='11.37429292252'>
    <tag k='name' v='rud' />
  </node>
  <node id='-141589627' action='modify' lat='55.54211069379' lon='11.38899994984' />
  <node id='-141589628' action='modify' lat='55.54220826994' lon='11.39629570049'>
    <tag k='name' v='hes' />
  </node>
  <node id='-141589629' action='modify' lat='55.54204668121' lon='11.39736896565' />
  <node id='-141589630' action='modify' lat='55.54170730937' lon='11.39932770464' />
  <node id='-141589631' action='modify' lat='55.54136239985' lon='11.40208835336' />
  <node id='-141589632' action='modify' lat='55.54012204033' lon='11.4209209313'>
    <tag k='name' v='con' />
  </node>
  <node id='-141589633' action='modify' lat='55.53939772382' lon='11.43191807059' />
  <node id='-141589634' action='modify' lat='55.5392151886' lon='11.43394099487' />
  <node id='-141589635' action='modify' lat='55.53879088846' lon='11.43778967885' />
  <node id='-141589636' action='modify' lat='55.53855556957' lon='11.44048322006' />
  <node id='-141589637' action='modify' lat='55.53806086456' lon='11.44882634173'>
    <tag k='name' v='ske' />
  </node>
  <node id='-141589638' action='modify' lat='55.53656970602' lon='11.47397385968' />
  <node id='-141589639' action='modify' lat='55.53633290869' lon='11.47620554891' />
  <node id='-141589640' action='modify' lat='55.53430579701' lon='11.49041154699' />
  <node id='-141589641' action='modify' lat='55.53407654175' lon='11.49323683631' />
  <node id='-141589642' action='modify' lat='55.53396538346' lon='11.4992235491'>
    <tag k='name' v='dia' />
  </node>
  <node id='-141589643' action='modify' lat='55.53377496091' lon='11.50947920173' />
  <node id='-141589644' action='modify' lat='55.5337736301' lon='11.51074108275' />
  <node id='-141589645' action='modify' lat='55.53387735424' lon='11.51701778226' />
  <node id='-141589646' action='modify' lat='55.53350764431' lon='11.52190134106' />
  <node id='-141589647' action='modify' lat='55.53151037388' lon='11.53364708982' />
  <node id='-141589648' action='modify' lat='55.53163991723' lon='11.54252810652' />
  <node id='-141589650' action='modify' lat='55.53239208512' lon='11.54637248977' />
  <node id='-141589651' action='modify' lat='55.53258778172' lon='11.54729335773'>
    <tag k='name' v='ved' />
  </node>
  <node id='-141589652' action='modify' lat='55.53414256027' lon='11.55238878249' />
  <node id='-141589653' action='modify' lat='55.53622986593' lon='11.55753690137' />
  <node id='-141589654' action='modify' lat='55.53741645499' lon='11.56192493719' />
  <node id='-141589655' action='modify' lat='55.53854738837' lon='11.56930677179' />
  <node id='-141589656' action='modify' lat='55.53874562917' lon='11.57139497665' />
  <node id='-141589657' action='modify' lat='55.53933454115' lon='11.58245211138' />
  <node id='-141589658' action='modify' lat='55.53936766033' lon='11.58542379385' />
  <node id='-141589659' action='modify' lat='55.53915603891' lon='11.59046942027'>
    <tag k='name' v='ste' />
  </node>
  <node id='-141589660' action='modify' lat='55.53889427969' lon='11.59671043001' />
  <node id='-141589661' action='modify' lat='55.53919322156' lon='11.60169903855' />
  <node id='-141589662' action='modify' lat='55.54124534699' lon='11.61406096143' />
  <node id='-141589663' action='modify' lat='55.54150470429' lon='11.61767881702' />
  <node id='-141589664' action='modify' lat='55.54094807129' lon='11.64310450615' />
  <node id='-141589665' action='modify' lat='55.54168185678' lon='11.64971691005' />
  <node id='-141589666' action='modify' lat='55.54207805824' lon='11.65141359692' />
  <node id='-141589667' action='modify' lat='55.54231279194' lon='11.65258968328'>
    <tag k='name' v='nyr' />
  </node>
  <node id='-141589668' action='modify' lat='55.54281646731' lon='11.65713950802' />
  <node id='-141589669' action='modify' lat='55.54427514601' lon='11.68333570435' />
  <node id='-141589670' action='modify' lat='55.54432210488' lon='11.68481242847' />
  <node id='-141589671' action='modify' lat='55.54432551488' lon='11.68499174912'>
    <tag k='name' v='bag' />
  </node>
  <node id='-141589672' action='modify' lat='55.54475545736' lon='11.70760110987' />
  <node id='-141589673' action='modify' lat='55.54503674424' lon='11.71125092623'>
    <tag k='name' v='sme' />
  </node>
  <node id='-141589674' action='modify' lat='55.54576090477' lon='11.71503812174' />
  <node id='-141589675' action='modify' lat='55.54933610254' lon='11.72990719089' />
  <node id='-141589676' action='modify' lat='55.5524228431' lon='11.73745833947' />
  <node id='-141589677' action='modify' lat='55.55354635186' lon='11.73920840063'>
    <tag k='name' v='uds' />
  </node>
  <node id='-141589678' action='modify' lat='55.55838933271' lon='11.74675276205' />
  <node id='-141589679' action='modify' lat='55.55876107292' lon='11.74729916163' />
  <node id='-141589680' action='modify' lat='55.56921664032' lon='11.7620266705' />
  <node id='-141589681' action='modify' lat='55.57331225001' lon='11.76499255396' />
  <node id='-141589682' action='modify' lat='55.57428344992' lon='11.76526400878'>
    <tag k='name' v='kes' />
  </node>
  <node id='-141589683' action='modify' lat='55.59244855152' lon='11.77034247538' />
  <node id='-141589684' action='modify' lat='55.5954259708' lon='11.77235186163' />
  <node id='-141589685' action='modify' lat='55.59705759673' lon='11.77402870418' />
  <node id='-141589686' action='modify' lat='55.60040437374' lon='11.77594024181' />
  <node id='-141589687' action='modify' lat='55.60735907493' lon='11.77743192035' />
  <node id='-141589688' action='modify' lat='55.60899416529' lon='11.77719689637' />
  <node id='-141589689' action='modify' lat='55.60917651426' lon='11.77709659234' />
  <node id='-141589690' action='modify' lat='55.61047865898' lon='11.77579477295' />
  <node id='-141589691' action='modify' lat='55.61168681683' lon='11.77343711123'>
    <tag k='name' v='tol' />
  </node>
  <node id='-141589696' action='modify' lat='55.5078390005' lon='11.28584503591' />
  <node id='-141589697' action='modify' lat='55.50708561023' lon='11.28582357824'>
    <tag k='name' v='hon' />
  </node>
  <node id='-141589701' action='modify' lat='55.50893868139' lon='11.2859898752' />
  <node id='-141589705' action='modify' lat='55.5100079549' lon='11.28589331567' />
  <way id='-36224842' action='modify'>
    <nd ref='-141589696' />
    <nd ref='-141589701' />
    <nd ref='-141589705' />
    <nd ref='-141589612' />
  </way>
  <way id='-36224843' action='modify'>
    <nd ref='-141589613' />
    <nd ref='-141589614' />
  </way>
  <way id='-36224844' action='modify'>
    <nd ref='-141589614' />
    <nd ref='-141589615' />
    <tag k='type' v='straight' />
  </way>
  <way id='-36224845' action='modify'>
    <nd ref='-141589615' />
    <nd ref='-141589616' />
  </way>
  <way id='-36224846' action='modify'>
    <nd ref='-141589616' />
    <nd ref='-141589617' />
    <nd ref='-141589618' />
    <tag k='type' v='straight' />
  </way>
  <way id='-36224847' action='modify'>
    <nd ref='-141589618' />
    <nd ref='-141589619' />
  </way>
  <way id='-36224848' action='modify'>
    <nd ref='-141589619' />
    <nd ref='-141589620' />
    <tag k='type' v='straight' />
  </way>
  <way id='-36224849' action='modify'>
    <nd ref='-141589620' />
    <nd ref='-141589621' />
  </way>
  <way id='-36224850' action='modify'>
    <nd ref='-141589621' />
    <nd ref='-141589622' />
    <tag k='type' v='straight' />
  </way>
  <way id='-36224851' action='modify'>
    <nd ref='-141589622' />
    <nd ref='-141589623' />
  </way>
  <way id='-36224852' action='modify'>
    <nd ref='-141589623' />
    <nd ref='-141589624' />
    <tag k='type' v='straight' />
  </way>
  <way id='-36224853' action='modify'>
    <nd ref='-141589624' />
    <nd ref='-141589625' />
  </way>
  <way id='-36224854' action='modify'>
    <nd ref='-141589625' />
    <nd ref='-141589626' />
    <nd ref='-141589627' />
    <tag k='type' v='straight' />
  </way>
  <way id='-36224855' action='modify'>
    <nd ref='-141589627' />
    <nd ref='-141589628' />
    <nd ref='-141589629' />
  </way>
  <way id='-36224856' action='modify'>
    <nd ref='-141589629' />
    <nd ref='-141589630' />
    <tag k='type' v='straight' />
  </way>
  <way id='-36224857' action='modify'>
    <nd ref='-141589630' />
    <nd ref='-141589631' />
  </way>
  <way id='-36224858' action='modify'>
    <nd ref='-141589631' />
    <nd ref='-141589632' />
    <nd ref='-141589633' />
    <tag k='type' v='straight' />
  </way>
  <way id='-36224859' action='modify'>
    <nd ref='-141589633' />
    <nd ref='-141589634' />
  </way>
  <way id='-36224860' action='modify'>
    <nd ref='-141589634' />
    <nd ref='-141589635' />
    <tag k='type' v='straight' />
  </way>
  <way id='-36224861' action='modify'>
    <nd ref='-141589635' />
    <nd ref='-141589636' />
  </way>
  <way id='-36224862' action='modify'>
    <nd ref='-141589636' />
    <nd ref='-141589637' />
    <nd ref='-141589638' />
    <tag k='type' v='straight' />
  </way>
  <way id='-36224863' action='modify'>
    <nd ref='-141589638' />
    <nd ref='-141589639' />
  </way>
  <way id='-36224864' action='modify'>
    <nd ref='-141589639' />
    <nd ref='-141589640' />
    <tag k='type' v='straight' />
  </way>
  <way id='-36224865' action='modify'>
    <nd ref='-141589640' />
    <nd ref='-141589641' />
  </way>
  <way id='-36224866' action='modify'>
    <nd ref='-141589641' />
    <nd ref='-141589642' />
    <nd ref='-141589643' />
    <tag k='type' v='straight' />
  </way>
  <way id='-36224867' action='modify'>
    <nd ref='-141589643' />
    <nd ref='-141589644' />
  </way>
  <way id='-36224868' action='modify'>
    <nd ref='-141589644' />
    <nd ref='-141589645' />
    <tag k='type' v='straight' />
  </way>
  <way id='-36224869' action='modify'>
    <nd ref='-141589645' />
    <nd ref='-141589646' />
  </way>
  <way id='-36224870' action='modify'>
    <nd ref='-141589646' />
    <nd ref='-141589647' />
    <tag k='type' v='straight' />
  </way>
  <way id='-36224871' action='modify'>
    <nd ref='-141589647' />
    <nd ref='-141589648' />
  </way>
  <way id='-36224872' action='modify'>
    <nd ref='-141589648' />
    <nd ref='-141589650' />
    <tag k='type' v='straight' />
  </way>
  <way id='-36224873' action='modify'>
    <nd ref='-141589650' />
    <nd ref='-141589651' />
    <nd ref='-141589652' />
  </way>
  <way id='-36224874' action='modify'>
    <nd ref='-141589652' />
    <nd ref='-141589653' />
    <tag k='type' v='straight' />
  </way>
  <way id='-36224875' action='modify'>
    <nd ref='-141589653' />
    <nd ref='-141589654' />
  </way>
  <way id='-36224876' action='modify'>
    <nd ref='-141589654' />
    <nd ref='-141589655' />
    <tag k='type' v='straight' />
  </way>
  <way id='-36224877' action='modify'>
    <nd ref='-141589655' />
    <nd ref='-141589656' />
  </way>
  <way id='-36224878' action='modify'>
    <nd ref='-141589656' />
    <nd ref='-141589657' />
    <tag k='type' v='straight' />
  </way>
  <way id='-36224879' action='modify'>
    <nd ref='-141589657' />
    <nd ref='-141589658' />
  </way>
  <way id='-36224880' action='modify'>
    <nd ref='-141589658' />
    <nd ref='-141589659' />
    <nd ref='-141589660' />
    <tag k='type' v='straight' />
  </way>
  <way id='-36224881' action='modify'>
    <nd ref='-141589660' />
    <nd ref='-141589661' />
  </way>
  <way id='-36224882' action='modify'>
    <nd ref='-141589661' />
    <nd ref='-141589662' />
    <tag k='type' v='straight' />
  </way>
  <way id='-36224883' action='modify'>
    <nd ref='-141589662' />
    <nd ref='-141589663' />
  </way>
  <way id='-36224884' action='modify'>
    <nd ref='-141589663' />
    <nd ref='-141589664' />
    <tag k='type' v='straight' />
  </way>
  <way id='-36224885' action='modify'>
    <nd ref='-141589664' />
    <nd ref='-141589665' />
  </way>
  <way id='-36224886' action='modify'>
    <nd ref='-141589665' />
    <nd ref='-141589666' />
    <tag k='type' v='straight' />
  </way>
  <way id='-36224887' action='modify'>
    <nd ref='-141589666' />
    <nd ref='-141589667' />
    <nd ref='-141589668' />
  </way>
  <way id='-36224888' action='modify'>
    <nd ref='-141589668' />
    <nd ref='-141589669' />
    <tag k='type' v='straight' />
  </way>
  <way id='-36224889' action='modify'>
    <nd ref='-141589669' />
    <nd ref='-141589670' />
  </way>
  <way id='-36224890' action='modify'>
    <nd ref='-141589670' />
    <nd ref='-141589671' />
    <nd ref='-141589672' />
    <tag k='type' v='straight' />
  </way>
  <way id='-36224891' action='modify'>
    <nd ref='-141589672' />
    <nd ref='-141589673' />
    <nd ref='-141589674' />
  </way>
  <way id='-36224892' action='modify'>
    <nd ref='-141589674' />
    <nd ref='-141589675' />
    <tag k='type' v='straight' />
  </way>
  <way id='-36224893' action='modify'>
    <nd ref='-141589675' />
    <nd ref='-141589676' />
  </way>
  <way id='-36224894' action='modify'>
    <nd ref='-141589676' />
    <nd ref='-141589677' />
    <nd ref='-141589678' />
    <tag k='type' v='straight' />
  </way>
  <way id='-36224895' action='modify'>
    <nd ref='-141589678' />
    <nd ref='-141589679' />
  </way>
  <way id='-36224896' action='modify'>
    <nd ref='-141589679' />
    <nd ref='-141589680' />
    <tag k='type' v='straight' />
  </way>
  <way id='-36224897' action='modify'>
    <nd ref='-141589680' />
    <nd ref='-141589681' />
  </way>
  <way id='-36224898' action='modify'>
    <nd ref='-141589681' />
    <nd ref='-141589682' />
    <nd ref='-141589683' />
    <tag k='type' v='straight' />
  </way>
  <way id='-36224899' action='modify'>
    <nd ref='-141589683' />
    <nd ref='-141589684' />
  </way>
  <way id='-36224900' action='modify'>
    <nd ref='-141589684' />
    <nd ref='-141589685' />
    <tag k='type' v='straight' />
  </way>
  <way id='-36224901' action='modify'>
    <nd ref='-141589685' />
    <nd ref='-141589686' />
  </way>
  <way id='-36224902' action='modify'>
    <nd ref='-141589686' />
    <nd ref='-141589687' />
    <tag k='type' v='straight' />
  </way>
  <way id='-36224903' action='modify'>
    <nd ref='-141589687' />
    <nd ref='-141589688' />
  </way>
  <way id='-36224904' action='modify'>
    <nd ref='-141589688' />
    <nd ref='-141589689' />
    <tag k='type' v='straight' />
  </way>
  <way id='-36224905' action='modify'>
    <nd ref='-141589689' />
    <nd ref='-141589690' />
  </way>
  <way id='-36224906' action='modify'>
    <nd ref='-141589690' />
    <nd ref='-141589691' />
    <tag k='type' v='straight' />
  </way>
  <way id='-36224921' action='modify'>
    <nd ref='-141589697' />
    <nd ref='-141589696' />
    <tag k='type' v='straight' />
  </way>
  <way id='-36224923' action='modify'>
    <nd ref='-141589612' />
    <nd ref='-141589613' />
    <tag k='type' v='straight' />
  </way>
  <relation id='-14466554' action='modify'>
    <member type='way' ref='-36224921' role='' />
    <member type='way' ref='-36224842' role='' />
    <member type='way' ref='-36224923' role='' />
    <member type='way' ref='-36224843' role='' />
    <member type='way' ref='-36224844' role='' />
    <member type='way' ref='-36224845' role='' />
    <member type='way' ref='-36224846' role='' />
    <member type='way' ref='-36224847' role='' />
    <member type='way' ref='-36224848' role='' />
    <member type='way' ref='-36224849' role='' />
    <member type='way' ref='-36224850' role='' />
    <member type='way' ref='-36224851' role='' />
    <member type='way' ref='-36224852' role='' />
    <member type='way' ref='-36224853' role='' />
    <member type='way' ref='-36224854' role='' />
    <member type='way' ref='-36224855' role='' />
    <member type='way' ref='-36224856' role='' />
    <member type='way' ref='-36224857' role='' />
    <member type='way' ref='-36224858' role='' />
    <member type='way' ref='-36224859' role='' />
    <member type='way' ref='-36224860' role='' />
    <member type='way' ref='-36224861' role='' />
    <member type='way' ref='-36224862' role='' />
    <member type='way' ref='-36224863' role='' />
    <member type='way' ref='-36224864' role='' />
    <member type='way' ref='-36224865' role='' />
    <member type='way' ref='-36224866' role='' />
    <member type='way' ref='-36224867' role='' />
    <member type='way' ref='-36224868' role='' />
    <member type='way' ref='-36224869' role='' />
    <member type='way' ref='-36224870' role='' />
    <member type='way' ref='-36224871' role='' />
    <member type='way' ref='-36224872' role='' />
    <member type='way' ref='-36224873' role='' />
    <member type='way' ref='-36224874' role='' />
    <member type='way' ref='-36224875' role='' />
    <member type='way' ref='-36224876' role='' />
    <member type='way' ref='-36224877' role='' />
    <member type='way' ref='-36224878' role='' />
    <member type='way' ref='-36224879' role='' />
    <member type='way' ref='-36224880' role='' />
    <member type='way' ref='-36224881' role='' />
    <member type='way' ref='-36224882' role='' />
    <member type='way' ref='-36224883' role='' />
    <member type='way' ref='-36224884' role='' />
    <member type='way' ref='-36224885' role='' />
    <member type='way' ref='-36224886' role='' />
    <member type='way' ref='-36224887' role='' />
    <member type='way' ref='-36224888' role='' />
    <member type='way' ref='-36224889' role='' />
    <member type='way' ref='-36224890' role='' />
    <member type='way' ref='-36224891' role='' />
    <member type='way' ref='-36224892' role='' />
    <member type='way' ref='-36224893' role='' />
    <member type='way' ref='-36224894' role='' />
    <member type='way' ref='-36224895' role='' />
    <member type='way' ref='-36224896' role='' />
    <member type='way' ref='-36224897' role='' />
    <member type='way' ref='-36224898' role='' />
    <member type='way' ref='-36224899' role='' />
    <member type='way' ref='-36224900' role='' />
    <member type='way' ref='-36224901' role='' />
    <member type='way' ref='-36224902' role='' />
    <member type='way' ref='-36224903' role='' />
    <member type='way' ref='-36224904' role='' />
    <member type='way' ref='-36224905' role='' />
    <member type='way' ref='-36224906' role='' />
    <tag k='key' v='path.dk.htl' />
    <tag k='name' v='DK HTL' />
    <tag k='type' v='path' />
  </relation>
</osm>
