<?xml version='1.0' encoding='UTF-8'?>
<osm version='0.6' upload='false' generator='JOSM'>
  <node id='-188180157' action='modify' lat='55.25270580676' lon='9.48940872878' />
  <node id='-188180158' action='modify' lat='55.25250401172' lon='9.4895938012' />
  <node id='-188180159' action='modify' lat='55.25144761661' lon='9.49236940947'>
    <tag k='name' v='had' />
  </node>
  <node id='-188180160' action='modify' lat='55.25142469665' lon='9.49307799071' />
  <node id='-188180161' action='modify' lat='55.25136965996' lon='9.49662655324' />
  <node id='-188180162' action='modify' lat='55.25129169273' lon='9.49895202577' />
  <node id='-188180163' action='modify' lat='55.25122748305' lon='9.50027703702' />
  <node id='-188180164' action='modify' lat='55.2504997691' lon='9.50194000125' />
  <node id='-188180165' action='modify' lat='55.24915742955' lon='9.49999272287' />
  <node id='-188180166' action='modify' lat='55.24904123429' lon='9.49857651651' />
  <node id='-188180167' action='modify' lat='55.24889779314' lon='9.49756930402' />
  <node id='-188180168' action='modify' lat='55.2480015773' lon='9.49349104822' />
  <node id='-188180169' action='modify' lat='55.24792818873' lon='9.49239670694' />
  <node id='-188180170' action='modify' lat='55.24794288415' lon='9.49195086301' />
  <node id='-188180171' action='modify' lat='55.24789706224' lon='9.49098944168' />
  <node id='-188180172' action='modify' lat='55.24784256854' lon='9.49050843179'>
    <tag k='name' v='has' />
  </node>
  <node id='-188180173' action='modify' lat='55.24729520661' lon='9.48876499593' />
  <node id='-188180174' action='modify' lat='55.24701387798' lon='9.48826074064' />
  <node id='-188180175' action='modify' lat='55.2465123742' lon='9.48652803361' />
  <node id='-188180176' action='modify' lat='55.24610260421' lon='9.48229550779' />
  <node id='-188180177' action='modify' lat='55.24520048376' lon='9.47925388277' />
  <node id='-188180178' action='modify' lat='55.24448488892' lon='9.47825610101' />
  <node id='-188180179' action='modify' lat='55.24334419187' lon='9.4760513252' />
  <node id='-188180180' action='modify' lat='55.24298026286' lon='9.47506427228' />
  <node id='-188180181' action='modify' lat='55.24110552005' lon='9.47253226161' />
  <node id='-188180182' action='modify' lat='55.23998276548' lon='9.47087933105' />
  <node id='-188180183' action='modify' lat='55.23936101953' lon='9.47005260708' />
  <node id='-188180184' action='modify' lat='55.23861591663' lon='9.46925996661' />
  <node id='-188180185' action='modify' lat='55.23769268887' lon='9.4685539421' />
  <node id='-188180186' action='modify' lat='55.23719671176' lon='9.46844457507' />
  <node id='-188180187' action='modify' lat='55.23557557526' lon='9.46731804729' />
  <node id='-188180188' action='modify' lat='55.23380139704' lon='9.46458700298'>
    <tag k='name' v='erl' />
  </node>
  <node id='-188180189' action='modify' lat='55.2330733896' lon='9.46346639514' />
  <node id='-188180190' action='modify' lat='55.23257050943' lon='9.46258140786' />
  <node id='-188180191' action='modify' lat='55.231525504' lon='9.46050523639' />
  <node id='-188180192' action='modify' lat='55.23086472817' lon='9.45864914775' />
  <node id='-188180193' action='modify' lat='55.23033548776' lon='9.45710687757' />
  <node id='-188180194' action='modify' lat='55.22961350683' lon='9.45580600619' />
  <node id='-188180195' action='modify' lat='55.22757693537' lon='9.45316228933'>
    <tag k='name' v='erk' />
  </node>
  <node id='-188180196' action='modify' lat='55.22649140028' lon='9.45175318837' />
  <node id='-188180197' action='modify' lat='55.22564084459' lon='9.45104777277' />
  <node id='-188180198' action='modify' lat='55.21408327865' lon='9.44724695013'>
    <tag k='name' v='nor' />
  </node>
  <node id='-188180199' action='modify' lat='55.20993141811' lon='9.4458818382' />
  <node id='-188180200' action='modify' lat='55.20841783083' lon='9.44221526116' />
  <node id='-188180201' action='modify' lat='55.20871643423' lon='9.44037339895'>
    <tag k='name' v='mar' />
  </node>
  <node id='-188180202' action='modify' lat='55.20939578062' lon='9.43618296504' />
  <node id='-188180203' action='modify' lat='55.20949984543' lon='9.43491696775' />
  <node id='-188180204' action='modify' lat='55.20933150021' lon='9.42730485857' />
  <node id='-188180205' action='modify' lat='55.20926416192' lon='9.42617296636' />
  <node id='-188180206' action='modify' lat='55.2088142168' lon='9.42030965745' />
  <node id='-188180207' action='modify' lat='55.20887849498' lon='9.41902756155' />
  <node id='-188180208' action='modify' lat='55.20970491955' lon='9.41301404893' />
  <node id='-188180209' action='modify' lat='55.20974470993' lon='9.41172658861' />
  <node id='-188180210' action='modify' lat='55.20958085513' lon='9.40914600356'>
    <tag k='name' v='pam' />
  </node>
  <node id='-188180211' action='modify' lat='55.20908357231' lon='9.40131425321' />
  <node id='-188180212' action='modify' lat='55.20880809353' lon='9.39957886666' />
  <node id='-188180213' action='modify' lat='55.20841170903' lon='9.39805268973' />
  <node id='-188180214' action='modify' lat='55.20826019575' lon='9.39686715066' />
  <node id='-188180215' action='modify' lat='55.20814388096' lon='9.39147054613' />
  <node id='-188180216' action='modify' lat='55.2081836729' lon='9.39017235696' />
  <node id='-188180217' action='modify' lat='55.20851807667' lon='9.38624292076' />
  <node id='-188180218' action='modify' lat='55.20854945079' lon='9.38506811321' />
  <node id='-188180219' action='modify' lat='55.2085186063' lon='9.38098794573'>
    <tag k='name' v='ust' />
  </node>
  <node id='-188180221' action='modify' lat='55.20844078909' lon='9.3706941551' />
  <node id='-188180222' action='modify' lat='55.20834284332' lon='9.36885951877' />
  <node id='-188180223' action='modify' lat='55.20711846261' lon='9.35884951472' />
  <node id='-188180224' action='modify' lat='55.20721947544' lon='9.35702024817' />
  <node id='-188180225' action='modify' lat='55.20750185188' lon='9.35569227108'>
    <tag k='name' v='hog' />
  </node>
  <node id='-188180226' action='modify' lat='55.20812858554' lon='9.35274479628' />
  <node id='-188180227' action='modify' lat='55.20947535889' lon='9.34955834806' />
  <node id='-188180228' action='modify' lat='55.21481000653' lon='9.34450506628' />
  <node id='-188180229' action='modify' lat='55.21551695743' lon='9.34416173816' />
  <node id='-188180230' action='modify' lat='55.23084406145' lon='9.34274381144' />
  <node id='-188180231' action='modify' lat='55.23200610209' lon='9.34110511409'>
    <tag k='name' v='gla' />
  </node>
  <node id='-188180232' action='modify' lat='55.23217709164' lon='9.34006600499' />
  <node id='-188180233' action='modify' lat='55.23232420334' lon='9.33802898763' />
  <node id='-188180234' action='modify' lat='55.23244322695' lon='9.33661400735' />
  <node id='-188180235' action='modify' lat='55.23292961314' lon='9.33359920442' />
  <node id='-188180236' action='modify' lat='55.23314680254' lon='9.33142661512' />
  <node id='-188180237' action='modify' lat='55.23338927135' lon='9.32323577938'>
    <tag k='name' v='jer' />
  </node>
  <node id='-188180238' action='modify' lat='55.23343740622' lon='9.32160973012' />
  <node id='-188180239' action='modify' lat='55.23354141123' lon='9.32001113355' />
  <node id='-188180240' action='modify' lat='55.23416237666' lon='9.31626676977' />
  <node id='-188180241' action='modify' lat='55.23524827814' lon='9.31370257795' />
  <node id='-188180242' action='modify' lat='55.24263203483' lon='9.30457761293' />
  <node id='-188180243' action='modify' lat='55.24473871555' lon='9.30414317966' />
  <node id='-188180244' action='modify' lat='55.2456053739' lon='9.30461931043'>
    <tag k='name' v='voa' />
  </node>
  <node id='-188180246' action='modify' lat='55.24401699607' lon='9.3026089561' />
  <node id='-188180247' action='modify' lat='55.24238390447' lon='9.29066776156' />
  <node id='-188180248' action='modify' lat='55.24236555475' lon='9.28885458827' />
  <node id='-188180249' action='modify' lat='55.24348487247' lon='9.28155897975' />
  <node id='-188180250' action='modify' lat='55.24350933502' lon='9.27889286935' />
  <node id='-188180251' action='modify' lat='55.24179058935' lon='9.26190912187' />
  <node id='-188180252' action='modify' lat='55.24179976435' lon='9.26097571313' />
  <node id='-188180253' action='modify' lat='55.24226768635' lon='9.25633549154' />
  <node id='-188180254' action='modify' lat='55.2423624934' lon='9.25550400674' />
  <node id='-188180255' action='modify' lat='55.24254708381' lon='9.25403576218'>
    <tag k='name' v='skr' />
  </node>
  <node id='-188180256' action='modify' lat='55.24298026286' lon='9.25059019983' />
  <node id='-188180257' action='modify' lat='55.24309953408' lon='9.24718379438' />
  <node id='-188180258' action='modify' lat='55.24274477762' lon='9.24319266737' />
  <node id='-188180259' action='modify' lat='55.24280594275' lon='9.24155115545' />
  <node id='-188180260' action='modify' lat='55.24342064712' lon='9.23654078901' />
  <node id='-188180261' action='modify' lat='55.24368059386' lon='9.23531233728' />
  <node id='-188180262' action='modify' lat='55.24535644503' lon='9.23034488618' />
  <node id='-188180263' action='modify' lat='55.24588548404' lon='9.22918081015'>
    <tag k='name' v='uld' />
  </node>
  <node id='-188180264' action='modify' lat='55.24672337351' lon='9.22847806871' />
  <node id='-188180265' action='modify' lat='55.25222425332' lon='9.22762512088' />
  <node id='-188180266' action='modify' lat='55.25300391271' lon='9.22744810045' />
  <node id='-188180267' action='modify' lat='55.25711905402' lon='9.2260640806' />
  <node id='-188180268' action='modify' lat='55.25767545202' lon='9.22577976644' />
  <node id='-188180269' action='modify' lat='55.26094031487' lon='9.2231082809' />
  <node id='-188180270' action='modify' lat='55.26145997449' lon='9.22162234247'>
    <tag k='name' v='bak' />
  </node>
  <node id='-188180271' action='modify' lat='55.26159753111' lon='9.22057628095' />
  <node id='-188180272' action='modify' lat='55.26214163933' lon='9.21453058183' />
  <node id='-188180273' action='modify' lat='55.26208071598' lon='9.21275746087' />
  <node id='-188180274' action='modify' lat='55.26143246616' lon='9.20938609958' />
  <node id='-188180275' action='modify' lat='55.26129185213' lon='9.20687555194' />
  <node id='-188180276' action='modify' lat='55.26141765027' lon='9.20508991287'>
    <tag k='name' v='kol' />
  </node>
  <node id='-188180277' action='modify' lat='55.26194906562' lon='9.19808327079' />
  <node id='-188180278' action='modify' lat='55.26234644218' lon='9.19588386476' />
  <node id='-188180279' action='modify' lat='55.2633796106' lon='9.19282078207' />
  <node id='-188180280' action='modify' lat='55.26410403516' lon='9.19165670335' />
  <node id='-188180281' action='modify' lat='55.26858172802' lon='9.18816177964'>
    <tag k='name' v='snu' />
  </node>
  <node id='-188180282' action='modify' lat='55.26957347109' lon='9.18687969178' />
  <node id='-188180283' action='modify' lat='55.27106792232' lon='9.18415724963' />
  <node id='-188180284' action='modify' lat='55.27133532994' lon='9.1834598726' />
  <node id='-188180285' action='modify' lat='55.2736700907' lon='9.17672752798' />
  <node id='-188180286' action='modify' lat='55.27398790398' lon='9.17595504642' />
  <node id='-188180287' action='modify' lat='55.27491076156' lon='9.17432426333' />
  <node id='-188180288' action='modify' lat='55.27537829075' lon='9.17305290163' />
  <node id='-188180289' action='modify' lat='55.27595810454' lon='9.16992538205'>
    <tag k='name' v='lnu' />
  </node>
  <node id='-188180290' action='modify' lat='55.2761361091' lon='9.16896521509' />
  <node id='-188180291' action='modify' lat='55.27631486503' lon='9.16824638575' />
  <node id='-188180292' action='modify' lat='55.27847976332' lon='9.16294095755' />
  <node id='-188180293' action='modify' lat='55.27935974034' lon='9.16092393637' />
  <node id='-188180294' action='modify' lat='55.28525019536' lon='9.14961574316' />
  <node id='-188180295' action='modify' lat='55.28644772671' lon='9.14847849727' />
  <node id='-188180296' action='modify' lat='55.30666279367' lon='9.14403214622'>
    <tag k='name' v='oli' />
  </node>
  <node id='-188180297' action='modify' lat='55.30678812319' lon='9.14400457263' />
  <node id='-188180298' action='modify' lat='55.3084368845' lon='9.14237915933' />
  <node id='-188180299' action='modify' lat='55.31296147454' lon='9.13328110635' />
  <node id='-188180300' action='modify' lat='55.3133095016' lon='9.13105486751' />
  <node id='-188180301' action='modify' lat='55.31144723233' lon='9.11351322055' />
  <node id='-188180302' action='modify' lat='55.31145333827' lon='9.11124943614' />
  <node id='-188180303' action='modify' lat='55.31257448997' lon='9.09845179219'>
    <tag k='name' v='vli' />
  </node>
  <node id='-188180304' action='modify' lat='55.31265313341' lon='9.09755408496' />
  <node id='-188180305' action='modify' lat='55.31263787359' lon='9.09625052333' />
  <node id='-188180306' action='modify' lat='55.31216162137' lon='9.09215210795' />
  <node id='-188180307' action='modify' lat='55.31181664024' lon='9.091036309' />
  <node id='-188180308' action='modify' lat='55.30941084764' lon='9.08646046042' />
  <node id='-188180309' action='modify' lat='55.30893150045' lon='9.08538758218' />
  <node id='-188180310' action='modify' lat='55.30538967303' lon='9.07579063296' />
  <node id='-188180311' action='modify' lat='55.30485837118' lon='9.07403110385' />
  <node id='-188180312' action='modify' lat='55.30160933609' lon='9.05891417384' />
  <node id='-188180313' action='modify' lat='55.30051609199' lon='9.05671475172' />
  <node id='-188180314' action='modify' lat='55.29607559851' lon='9.05385015249' />
  <node id='-188180315' action='modify' lat='55.29532426' lon='9.05268608987'>
    <tag k='name' v='gra' />
  </node>
  <node id='-188180316' action='modify' lat='55.29521125395' lon='9.05062078893' />
  <node id='-188180317' action='modify' lat='55.29533342264' lon='9.04934405744' />
  <node id='-188180318' action='modify' lat='55.2942308366' lon='9.04463946283' />
  <node id='-188180319' action='modify' lat='55.29302742517' lon='9.04389917314' />
  <node id='-188180320' action='modify' lat='55.29138412932' lon='9.04451608121' />
  <node id='-188180321' action='modify' lat='55.29032725253' lon='9.04680132329' />
  <node id='-188180322' action='modify' lat='55.28971327361' lon='9.04768108785' />
  <node id='-188180323' action='modify' lat='55.28837950909' lon='9.04882299216'>
    <tag k='name' v='grb' />
  </node>
  <node id='-188180324' action='modify' lat='55.2881217716' lon='9.04904365003' />
  <node id='-188180325' action='modify' lat='55.28655769978' lon='9.04902219236' />
  <node id='-188180326' action='modify' lat='55.28081103956' lon='9.04654919565' />
  <node id='-188180327' action='modify' lat='55.27877919297' lon='9.04416202962' />
  <node id='-188180328' action='modify' lat='55.27794503637' lon='9.04197334707' />
  <node id='-188180329' action='modify' lat='55.27770975826' lon='9.04048740327' />
  <node id='-188180330' action='modify' lat='55.27801531703' lon='9.03079389453' />
  <node id='-188180331' action='modify' lat='55.27799698375' lon='9.02976392627' />
  <node id='-188180332' action='modify' lat='55.27736753612' lon='9.01994704127' />
  <node id='-188180333' action='modify' lat='55.27650432109' lon='9.01697515368' />
  <node id='-188180334' action='modify' lat='55.27497595823' lon='9.01507857363'>
    <tag k='name' v='tis' />
  </node>
  <node id='-188180335' action='modify' lat='55.2738564974' lon='9.01368945569' />
  <node id='-188180336' action='modify' lat='55.2730314067' lon='9.01260315835' />
  <node id='-188180337' action='modify' lat='55.26722167012' lon='9.00366065741' />
  <node id='-188180338' action='modify' lat='55.26672958138' lon='9.00297939241' />
  <node id='-188180339' action='modify' lat='55.24884248761' lon='8.98044345617' />
  <node id='-188180340' action='modify' lat='55.2482890146' lon='8.97982119977' />
  <node id='-188180341' action='modify' lat='55.24648179449' lon='8.97789000928' />
  <node id='-188180342' action='modify' lat='55.24588161616' lon='8.97236890074' />
  <node id='-188180343' action='modify' lat='55.24688544469' lon='8.97026180685' />
  <node id='-188180344' action='modify' lat='55.24731661196' lon='8.96900653303' />
  <node id='-188180345' action='modify' lat='55.24755877803' lon='8.9680590754'>
    <tag k='name' v='arn' />
  </node>
  <node id='-188180363' action='modify' lat='55.24473876889' lon='9.30414260439' />
  <node id='-188180364' action='modify' lat='55.2456054819' lon='9.30461802503'>
    <tag k='name' v='voa' />
  </node>
  <way id='-39338097' action='modify'>
    <nd ref='-188180157' />
    <nd ref='-188180158' />
    <tag k='type' v='straight' />
  </way>
  <way id='-39338098' action='modify'>
    <nd ref='-188180158' />
    <nd ref='-188180159' />
    <nd ref='-188180160' />
  </way>
  <way id='-39338099' action='modify'>
    <nd ref='-188180160' />
    <nd ref='-188180161' />
    <tag k='type' v='straight' />
  </way>
  <way id='-39338100' action='modify'>
    <nd ref='-188180161' />
    <nd ref='-188180162' />
  </way>
  <way id='-39338101' action='modify'>
    <nd ref='-188180162' />
    <nd ref='-188180163' />
    <tag k='type' v='straight' />
  </way>
  <way id='-39338102' action='modify'>
    <nd ref='-188180163' />
    <nd ref='-188180164' />
    <nd ref='-188180165' />
  </way>
  <way id='-39338103' action='modify'>
    <nd ref='-188180165' />
    <nd ref='-188180166' />
    <tag k='type' v='straight' />
  </way>
  <way id='-39338104' action='modify'>
    <nd ref='-188180166' />
    <nd ref='-188180167' />
  </way>
  <way id='-39338105' action='modify'>
    <nd ref='-188180167' />
    <nd ref='-188180168' />
    <tag k='type' v='straight' />
  </way>
  <way id='-39338106' action='modify'>
    <nd ref='-188180168' />
    <nd ref='-188180169' />
  </way>
  <way id='-39338107' action='modify'>
    <nd ref='-188180169' />
    <nd ref='-188180170' />
    <tag k='type' v='straight' />
  </way>
  <way id='-39338108' action='modify'>
    <nd ref='-188180170' />
    <nd ref='-188180171' />
  </way>
  <way id='-39338109' action='modify'>
    <nd ref='-188180171' />
    <nd ref='-188180172' />
    <tag k='type' v='straight' />
  </way>
  <way id='-39338110' action='modify'>
    <nd ref='-188180172' />
    <nd ref='-188180173' />
  </way>
  <way id='-39338111' action='modify'>
    <nd ref='-188180173' />
    <nd ref='-188180174' />
    <tag k='type' v='straight' />
  </way>
  <way id='-39338112' action='modify'>
    <nd ref='-188180174' />
    <nd ref='-188180175' />
  </way>
  <way id='-39338113' action='modify'>
    <nd ref='-188180175' />
    <nd ref='-188180176' />
    <tag k='type' v='straight' />
  </way>
  <way id='-39338114' action='modify'>
    <nd ref='-188180176' />
    <nd ref='-188180177' />
  </way>
  <way id='-39338115' action='modify'>
    <nd ref='-188180177' />
    <nd ref='-188180178' />
    <tag k='type' v='straight' />
  </way>
  <way id='-39338116' action='modify'>
    <nd ref='-188180178' />
    <nd ref='-188180179' />
  </way>
  <way id='-39338117' action='modify'>
    <nd ref='-188180179' />
    <nd ref='-188180180' />
    <tag k='type' v='straight' />
  </way>
  <way id='-39338118' action='modify'>
    <nd ref='-188180180' />
    <nd ref='-188180181' />
  </way>
  <way id='-39338119' action='modify'>
    <nd ref='-188180181' />
    <nd ref='-188180182' />
    <tag k='type' v='straight' />
  </way>
  <way id='-39338120' action='modify'>
    <nd ref='-188180182' />
    <nd ref='-188180183' />
  </way>
  <way id='-39338121' action='modify'>
    <nd ref='-188180183' />
    <nd ref='-188180184' />
    <tag k='type' v='straight' />
  </way>
  <way id='-39338122' action='modify'>
    <nd ref='-188180184' />
    <nd ref='-188180185' />
  </way>
  <way id='-39338123' action='modify'>
    <nd ref='-188180185' />
    <nd ref='-188180186' />
    <tag k='type' v='straight' />
  </way>
  <way id='-39338124' action='modify'>
    <nd ref='-188180186' />
    <nd ref='-188180187' />
  </way>
  <way id='-39338125' action='modify'>
    <nd ref='-188180187' />
    <nd ref='-188180188' />
    <nd ref='-188180189' />
    <tag k='type' v='straight' />
  </way>
  <way id='-39338126' action='modify'>
    <nd ref='-188180189' />
    <nd ref='-188180190' />
  </way>
  <way id='-39338127' action='modify'>
    <nd ref='-188180190' />
    <nd ref='-188180191' />
    <tag k='type' v='straight' />
  </way>
  <way id='-39338128' action='modify'>
    <nd ref='-188180191' />
    <nd ref='-188180192' />
  </way>
  <way id='-39338129' action='modify'>
    <nd ref='-188180192' />
    <nd ref='-188180193' />
    <tag k='type' v='straight' />
  </way>
  <way id='-39338130' action='modify'>
    <nd ref='-188180193' />
    <nd ref='-188180194' />
  </way>
  <way id='-39338131' action='modify'>
    <nd ref='-188180194' />
    <nd ref='-188180195' />
    <nd ref='-188180196' />
    <tag k='type' v='straight' />
  </way>
  <way id='-39338132' action='modify'>
    <nd ref='-188180196' />
    <nd ref='-188180197' />
  </way>
  <way id='-39338133' action='modify'>
    <nd ref='-188180197' />
    <nd ref='-188180198' />
    <nd ref='-188180199' />
    <tag k='type' v='straight' />
  </way>
  <way id='-39338134' action='modify'>
    <nd ref='-188180199' />
    <nd ref='-188180200' />
  </way>
  <way id='-39338135' action='modify'>
    <nd ref='-188180200' />
    <nd ref='-188180201' />
    <nd ref='-188180202' />
    <tag k='type' v='straight' />
  </way>
  <way id='-39338136' action='modify'>
    <nd ref='-188180202' />
    <nd ref='-188180203' />
  </way>
  <way id='-39338137' action='modify'>
    <nd ref='-188180203' />
    <nd ref='-188180204' />
    <tag k='type' v='straight' />
  </way>
  <way id='-39338138' action='modify'>
    <nd ref='-188180204' />
    <nd ref='-188180205' />
  </way>
  <way id='-39338139' action='modify'>
    <nd ref='-188180205' />
    <nd ref='-188180206' />
    <tag k='type' v='straight' />
  </way>
  <way id='-39338140' action='modify'>
    <nd ref='-188180206' />
    <nd ref='-188180207' />
  </way>
  <way id='-39338141' action='modify'>
    <nd ref='-188180207' />
    <nd ref='-188180208' />
    <tag k='type' v='straight' />
  </way>
  <way id='-39338142' action='modify'>
    <nd ref='-188180208' />
    <nd ref='-188180209' />
  </way>
  <way id='-39338143' action='modify'>
    <nd ref='-188180209' />
    <nd ref='-188180210' />
    <nd ref='-188180211' />
    <tag k='type' v='straight' />
  </way>
  <way id='-39338144' action='modify'>
    <nd ref='-188180211' />
    <nd ref='-188180212' />
  </way>
  <way id='-39338145' action='modify'>
    <nd ref='-188180212' />
    <nd ref='-188180213' />
    <tag k='type' v='straight' />
  </way>
  <way id='-39338146' action='modify'>
    <nd ref='-188180213' />
    <nd ref='-188180214' />
  </way>
  <way id='-39338147' action='modify'>
    <nd ref='-188180214' />
    <nd ref='-188180215' />
    <tag k='type' v='straight' />
  </way>
  <way id='-39338148' action='modify'>
    <nd ref='-188180215' />
    <nd ref='-188180216' />
  </way>
  <way id='-39338149' action='modify'>
    <nd ref='-188180216' />
    <nd ref='-188180217' />
    <tag k='type' v='straight' />
  </way>
  <way id='-39338150' action='modify'>
    <nd ref='-188180217' />
    <nd ref='-188180218' />
  </way>
  <way id='-39338151' action='modify'>
    <nd ref='-188180218' />
    <nd ref='-188180219' />
    <nd ref='-188180221' />
    <tag k='type' v='straight' />
  </way>
  <way id='-39338152' action='modify'>
    <nd ref='-188180221' />
    <nd ref='-188180222' />
  </way>
  <way id='-39338153' action='modify'>
    <nd ref='-188180222' />
    <nd ref='-188180223' />
    <tag k='type' v='straight' />
  </way>
  <way id='-39338154' action='modify'>
    <nd ref='-188180223' />
    <nd ref='-188180224' />
  </way>
  <way id='-39338155' action='modify'>
    <nd ref='-188180224' />
    <nd ref='-188180225' />
    <nd ref='-188180226' />
    <tag k='type' v='straight' />
  </way>
  <way id='-39338156' action='modify'>
    <nd ref='-188180226' />
    <nd ref='-188180227' />
  </way>
  <way id='-39338157' action='modify'>
    <nd ref='-188180227' />
    <nd ref='-188180228' />
    <tag k='type' v='straight' />
  </way>
  <way id='-39338158' action='modify'>
    <nd ref='-188180228' />
    <nd ref='-188180229' />
  </way>
  <way id='-39338159' action='modify'>
    <nd ref='-188180229' />
    <nd ref='-188180230' />
    <tag k='type' v='straight' />
  </way>
  <way id='-39338160' action='modify'>
    <nd ref='-188180230' />
    <nd ref='-188180231' />
    <nd ref='-188180232' />
  </way>
  <way id='-39338161' action='modify'>
    <nd ref='-188180232' />
    <nd ref='-188180233' />
    <nd ref='-188180234' />
    <nd ref='-188180235' />
    <tag k='type' v='straight' />
  </way>
  <way id='-39338162' action='modify'>
    <nd ref='-188180235' />
    <nd ref='-188180236' />
  </way>
  <way id='-39338163' action='modify'>
    <nd ref='-188180236' />
    <nd ref='-188180237' />
    <nd ref='-188180238' />
    <tag k='type' v='straight' />
  </way>
  <way id='-39338164' action='modify'>
    <nd ref='-188180238' />
    <nd ref='-188180239' />
  </way>
  <way id='-39338165' action='modify'>
    <nd ref='-188180239' />
    <nd ref='-188180240' />
    <tag k='type' v='straight' />
  </way>
  <way id='-39338166' action='modify'>
    <nd ref='-188180240' />
    <nd ref='-188180241' />
  </way>
  <way id='-39338167' action='modify'>
    <nd ref='-188180241' />
    <nd ref='-188180242' />
    <tag k='type' v='straight' />
  </way>
  <way id='-39338168' action='modify'>
    <nd ref='-188180242' />
    <nd ref='-188180243' />
  </way>
  <way id='-39338169' action='modify'>
    <nd ref='-188180243' />
    <nd ref='-188180244' />
    <tag k='type' v='straight' />
  </way>
  <way id='-39338170' action='modify'>
    <nd ref='-188180364' />
    <nd ref='-188180363' />
    <tag k='type' v='straight' />
  </way>
  <way id='-39338171' action='modify'>
    <nd ref='-188180246' />
    <nd ref='-188180247' />
    <tag k='type' v='straight' />
  </way>
  <way id='-39338172' action='modify'>
    <nd ref='-188180247' />
    <nd ref='-188180248' />
  </way>
  <way id='-39338173' action='modify'>
    <nd ref='-188180248' />
    <nd ref='-188180249' />
    <tag k='type' v='straight' />
  </way>
  <way id='-39338174' action='modify'>
    <nd ref='-188180249' />
    <nd ref='-188180250' />
  </way>
  <way id='-39338175' action='modify'>
    <nd ref='-188180250' />
    <nd ref='-188180251' />
    <tag k='type' v='straight' />
  </way>
  <way id='-39338176' action='modify'>
    <nd ref='-188180251' />
    <nd ref='-188180252' />
  </way>
  <way id='-39338177' action='modify'>
    <nd ref='-188180252' />
    <nd ref='-188180253' />
    <tag k='type' v='straight' />
  </way>
  <way id='-39338178' action='modify'>
    <nd ref='-188180253' />
    <nd ref='-188180254' />
  </way>
  <way id='-39338179' action='modify'>
    <nd ref='-188180254' />
    <nd ref='-188180255' />
    <nd ref='-188180256' />
    <tag k='type' v='straight' />
  </way>
  <way id='-39338180' action='modify'>
    <nd ref='-188180256' />
    <nd ref='-188180257' />
  </way>
  <way id='-39338181' action='modify'>
    <nd ref='-188180257' />
    <nd ref='-188180258' />
    <tag k='type' v='straight' />
  </way>
  <way id='-39338182' action='modify'>
    <nd ref='-188180258' />
    <nd ref='-188180259' />
  </way>
  <way id='-39338183' action='modify'>
    <nd ref='-188180259' />
    <nd ref='-188180260' />
    <tag k='type' v='straight' />
  </way>
  <way id='-39338184' action='modify'>
    <nd ref='-188180260' />
    <nd ref='-188180261' />
  </way>
  <way id='-39338185' action='modify'>
    <nd ref='-188180261' />
    <nd ref='-188180262' />
    <tag k='type' v='straight' />
  </way>
  <way id='-39338186' action='modify'>
    <nd ref='-188180262' />
    <nd ref='-188180263' />
    <nd ref='-188180264' />
  </way>
  <way id='-39338187' action='modify'>
    <nd ref='-188180264' />
    <nd ref='-188180265' />
    <tag k='type' v='straight' />
  </way>
  <way id='-39338188' action='modify'>
    <nd ref='-188180265' />
    <nd ref='-188180266' />
  </way>
  <way id='-39338189' action='modify'>
    <nd ref='-188180266' />
    <nd ref='-188180267' />
    <tag k='type' v='straight' />
  </way>
  <way id='-39338190' action='modify'>
    <nd ref='-188180267' />
    <nd ref='-188180268' />
  </way>
  <way id='-39338191' action='modify'>
    <nd ref='-188180268' />
    <nd ref='-188180269' />
    <tag k='type' v='straight' />
  </way>
  <way id='-39338192' action='modify'>
    <nd ref='-188180269' />
    <nd ref='-188180270' />
    <nd ref='-188180271' />
  </way>
  <way id='-39338193' action='modify'>
    <nd ref='-188180271' />
    <nd ref='-188180272' />
    <tag k='type' v='straight' />
  </way>
  <way id='-39338194' action='modify'>
    <nd ref='-188180272' />
    <nd ref='-188180273' />
  </way>
  <way id='-39338195' action='modify'>
    <nd ref='-188180273' />
    <nd ref='-188180274' />
    <tag k='type' v='straight' />
  </way>
  <way id='-39338196' action='modify'>
    <nd ref='-188180274' />
    <nd ref='-188180275' />
  </way>
  <way id='-39338197' action='modify'>
    <nd ref='-188180275' />
    <nd ref='-188180276' />
    <nd ref='-188180277' />
    <tag k='type' v='straight' />
  </way>
  <way id='-39338198' action='modify'>
    <nd ref='-188180277' />
    <nd ref='-188180278' />
  </way>
  <way id='-39338199' action='modify'>
    <nd ref='-188180278' />
    <nd ref='-188180279' />
    <tag k='type' v='straight' />
  </way>
  <way id='-39338200' action='modify'>
    <nd ref='-188180279' />
    <nd ref='-188180280' />
  </way>
  <way id='-39338201' action='modify'>
    <nd ref='-188180280' />
    <nd ref='-188180281' />
    <tag k='type' v='straight' />
  </way>
  <way id='-39338202' action='modify'>
    <nd ref='-188180281' />
    <nd ref='-188180282' />
  </way>
  <way id='-39338203' action='modify'>
    <nd ref='-188180282' />
    <nd ref='-188180283' />
    <tag k='type' v='straight' />
  </way>
  <way id='-39338204' action='modify'>
    <nd ref='-188180283' />
    <nd ref='-188180284' />
  </way>
  <way id='-39338205' action='modify'>
    <nd ref='-188180284' />
    <nd ref='-188180285' />
    <tag k='type' v='straight' />
  </way>
  <way id='-39338206' action='modify'>
    <nd ref='-188180285' />
    <nd ref='-188180286' />
  </way>
  <way id='-39338207' action='modify'>
    <nd ref='-188180286' />
    <nd ref='-188180287' />
    <tag k='type' v='straight' />
  </way>
  <way id='-39338208' action='modify'>
    <nd ref='-188180287' />
    <nd ref='-188180288' />
  </way>
  <way id='-39338209' action='modify'>
    <nd ref='-188180288' />
    <nd ref='-188180289' />
    <nd ref='-188180290' />
    <nd ref='-188180291' />
    <nd ref='-188180292' />
    <tag k='type' v='straight' />
  </way>
  <way id='-39338210' action='modify'>
    <nd ref='-188180292' />
    <nd ref='-188180293' />
  </way>
  <way id='-39338211' action='modify'>
    <nd ref='-188180293' />
    <nd ref='-188180294' />
    <tag k='type' v='straight' />
  </way>
  <way id='-39338212' action='modify'>
    <nd ref='-188180294' />
    <nd ref='-188180295' />
  </way>
  <way id='-39338213' action='modify'>
    <nd ref='-188180295' />
    <nd ref='-188180296' />
    <nd ref='-188180297' />
    <tag k='type' v='straight' />
  </way>
  <way id='-39338214' action='modify'>
    <nd ref='-188180297' />
    <nd ref='-188180298' />
  </way>
  <way id='-39338215' action='modify'>
    <nd ref='-188180298' />
    <nd ref='-188180299' />
    <tag k='type' v='straight' />
  </way>
  <way id='-39338216' action='modify'>
    <nd ref='-188180299' />
    <nd ref='-188180300' />
  </way>
  <way id='-39338217' action='modify'>
    <nd ref='-188180300' />
    <nd ref='-188180301' />
    <tag k='type' v='straight' />
  </way>
  <way id='-39338218' action='modify'>
    <nd ref='-188180301' />
    <nd ref='-188180302' />
  </way>
  <way id='-39338219' action='modify'>
    <nd ref='-188180302' />
    <nd ref='-188180303' />
    <nd ref='-188180304' />
    <tag k='type' v='straight' />
  </way>
  <way id='-39338220' action='modify'>
    <nd ref='-188180304' />
    <nd ref='-188180305' />
  </way>
  <way id='-39338221' action='modify'>
    <nd ref='-188180305' />
    <nd ref='-188180306' />
    <tag k='type' v='straight' />
  </way>
  <way id='-39338222' action='modify'>
    <nd ref='-188180306' />
    <nd ref='-188180307' />
  </way>
  <way id='-39338223' action='modify'>
    <nd ref='-188180307' />
    <nd ref='-188180308' />
    <tag k='type' v='straight' />
  </way>
  <way id='-39338224' action='modify'>
    <nd ref='-188180308' />
    <nd ref='-188180309' />
  </way>
  <way id='-39338225' action='modify'>
    <nd ref='-188180309' />
    <nd ref='-188180310' />
    <tag k='type' v='straight' />
  </way>
  <way id='-39338226' action='modify'>
    <nd ref='-188180310' />
    <nd ref='-188180311' />
  </way>
  <way id='-39338227' action='modify'>
    <nd ref='-188180311' />
    <nd ref='-188180312' />
    <tag k='type' v='straight' />
  </way>
  <way id='-39338228' action='modify'>
    <nd ref='-188180312' />
    <nd ref='-188180313' />
  </way>
  <way id='-39338229' action='modify'>
    <nd ref='-188180313' />
    <nd ref='-188180314' />
    <tag k='type' v='straight' />
  </way>
  <way id='-39338230' action='modify'>
    <nd ref='-188180314' />
    <nd ref='-188180315' />
    <nd ref='-188180316' />
  </way>
  <way id='-39338231' action='modify'>
    <nd ref='-188180316' />
    <nd ref='-188180317' />
    <tag k='type' v='straight' />
  </way>
  <way id='-39338232' action='modify'>
    <nd ref='-188180317' />
    <nd ref='-188180318' />
  </way>
  <way id='-39338233' action='modify'>
    <nd ref='-188180318' />
    <nd ref='-188180319' />
    <tag k='type' v='straight' />
  </way>
  <way id='-39338234' action='modify'>
    <nd ref='-188180319' />
    <nd ref='-188180320' />
  </way>
  <way id='-39338235' action='modify'>
    <nd ref='-188180320' />
    <nd ref='-188180321' />
    <tag k='type' v='straight' />
  </way>
  <way id='-39338236' action='modify'>
    <nd ref='-188180321' />
    <nd ref='-188180322' />
  </way>
  <way id='-39338237' action='modify'>
    <nd ref='-188180322' />
    <nd ref='-188180323' />
    <nd ref='-188180324' />
    <tag k='type' v='straight' />
  </way>
  <way id='-39338238' action='modify'>
    <nd ref='-188180324' />
    <nd ref='-188180325' />
  </way>
  <way id='-39338239' action='modify'>
    <nd ref='-188180325' />
    <nd ref='-188180326' />
    <tag k='type' v='straight' />
  </way>
  <way id='-39338240' action='modify'>
    <nd ref='-188180326' />
    <nd ref='-188180327' />
  </way>
  <way id='-39338241' action='modify'>
    <nd ref='-188180327' />
    <nd ref='-188180328' />
    <tag k='type' v='straight' />
  </way>
  <way id='-39338242' action='modify'>
    <nd ref='-188180328' />
    <nd ref='-188180329' />
  </way>
  <way id='-39338243' action='modify'>
    <nd ref='-188180329' />
    <nd ref='-188180330' />
    <tag k='type' v='straight' />
  </way>
  <way id='-39338244' action='modify'>
    <nd ref='-188180330' />
    <nd ref='-188180331' />
  </way>
  <way id='-39338245' action='modify'>
    <nd ref='-188180331' />
    <nd ref='-188180332' />
    <tag k='type' v='straight' />
  </way>
  <way id='-39338246' action='modify'>
    <nd ref='-188180332' />
    <nd ref='-188180333' />
  </way>
  <way id='-39338247' action='modify'>
    <nd ref='-188180333' />
    <nd ref='-188180334' />
    <nd ref='-188180335' />
    <tag k='type' v='straight' />
  </way>
  <way id='-39338248' action='modify'>
    <nd ref='-188180335' />
    <nd ref='-188180336' />
  </way>
  <way id='-39338249' action='modify'>
    <nd ref='-188180336' />
    <nd ref='-188180337' />
    <tag k='type' v='straight' />
  </way>
  <way id='-39338250' action='modify'>
    <nd ref='-188180337' />
    <nd ref='-188180338' />
  </way>
  <way id='-39338251' action='modify'>
    <nd ref='-188180338' />
    <nd ref='-188180339' />
    <tag k='type' v='straight' />
  </way>
  <way id='-39338252' action='modify'>
    <nd ref='-188180339' />
    <nd ref='-188180340' />
  </way>
  <way id='-39338253' action='modify'>
    <nd ref='-188180340' />
    <nd ref='-188180341' />
    <tag k='type' v='straight' />
  </way>
  <way id='-39338254' action='modify'>
    <nd ref='-188180341' />
    <nd ref='-188180342' />
  </way>
  <way id='-39338255' action='modify'>
    <nd ref='-188180342' />
    <nd ref='-188180343' />
    <tag k='type' v='straight' />
  </way>
  <way id='-39338256' action='modify'>
    <nd ref='-188180343' />
    <nd ref='-188180344' />
  </way>
  <way id='-39338257' action='modify'>
    <nd ref='-188180344' />
    <nd ref='-188180345' />
    <tag k='type' v='straight' />
  </way>
  <way id='-39338271' action='modify'>
    <nd ref='-188180363' />
    <nd ref='-188180246' />
  </way>
  <relation id='-14496056' action='modify'>
    <member type='way' ref='-39338097' role='' />
    <member type='way' ref='-39338098' role='' />
    <member type='way' ref='-39338099' role='' />
    <member type='way' ref='-39338100' role='' />
    <member type='way' ref='-39338101' role='' />
    <member type='way' ref='-39338102' role='' />
    <member type='way' ref='-39338103' role='' />
    <member type='way' ref='-39338104' role='' />
    <member type='way' ref='-39338105' role='' />
    <member type='way' ref='-39338106' role='' />
    <member type='way' ref='-39338107' role='' />
    <member type='way' ref='-39338108' role='' />
    <member type='way' ref='-39338109' role='' />
    <member type='way' ref='-39338110' role='' />
    <member type='way' ref='-39338111' role='' />
    <member type='way' ref='-39338112' role='' />
    <member type='way' ref='-39338113' role='' />
    <member type='way' ref='-39338114' role='' />
    <member type='way' ref='-39338115' role='' />
    <member type='way' ref='-39338116' role='' />
    <member type='way' ref='-39338117' role='' />
    <member type='way' ref='-39338118' role='' />
    <member type='way' ref='-39338119' role='' />
    <member type='way' ref='-39338120' role='' />
    <member type='way' ref='-39338121' role='' />
    <member type='way' ref='-39338122' role='' />
    <member type='way' ref='-39338123' role='' />
    <member type='way' ref='-39338124' role='' />
    <member type='way' ref='-39338125' role='' />
    <member type='way' ref='-39338126' role='' />
    <member type='way' ref='-39338127' role='' />
    <member type='way' ref='-39338128' role='' />
    <member type='way' ref='-39338129' role='' />
    <member type='way' ref='-39338130' role='' />
    <member type='way' ref='-39338131' role='' />
    <member type='way' ref='-39338132' role='' />
    <member type='way' ref='-39338133' role='' />
    <member type='way' ref='-39338134' role='' />
    <member type='way' ref='-39338135' role='' />
    <member type='way' ref='-39338136' role='' />
    <member type='way' ref='-39338137' role='' />
    <member type='way' ref='-39338138' role='' />
    <member type='way' ref='-39338139' role='' />
    <member type='way' ref='-39338140' role='' />
    <member type='way' ref='-39338141' role='' />
    <member type='way' ref='-39338142' role='' />
    <member type='way' ref='-39338143' role='' />
    <member type='way' ref='-39338144' role='' />
    <member type='way' ref='-39338145' role='' />
    <member type='way' ref='-39338146' role='' />
    <member type='way' ref='-39338147' role='' />
    <member type='way' ref='-39338148' role='' />
    <member type='way' ref='-39338149' role='' />
    <member type='way' ref='-39338150' role='' />
    <member type='way' ref='-39338151' role='' />
    <member type='way' ref='-39338152' role='' />
    <member type='way' ref='-39338153' role='' />
    <member type='way' ref='-39338154' role='' />
    <member type='way' ref='-39338155' role='' />
    <member type='way' ref='-39338156' role='' />
    <member type='way' ref='-39338157' role='' />
    <member type='way' ref='-39338158' role='' />
    <member type='way' ref='-39338159' role='' />
    <member type='way' ref='-39338160' role='' />
    <member type='way' ref='-39338161' role='' />
    <member type='way' ref='-39338162' role='' />
    <member type='way' ref='-39338163' role='' />
    <member type='way' ref='-39338164' role='' />
    <member type='way' ref='-39338165' role='' />
    <member type='way' ref='-39338166' role='' />
    <member type='way' ref='-39338167' role='' />
    <member type='way' ref='-39338168' role='' />
    <member type='way' ref='-39338169' role='' />
    <tag k='key' v='path.dk.hva.1' />
    <tag k='name' v='DK HVA (1)' />
    <tag k='type' v='path' />
  </relation>
  <relation id='-14496057' action='modify'>
    <member type='way' ref='-39338170' role='' />
    <member type='way' ref='-39338271' role='' />
    <member type='way' ref='-39338171' role='' />
    <member type='way' ref='-39338172' role='' />
    <member type='way' ref='-39338173' role='' />
    <member type='way' ref='-39338174' role='' />
    <member type='way' ref='-39338175' role='' />
    <member type='way' ref='-39338176' role='' />
    <member type='way' ref='-39338177' role='' />
    <member type='way' ref='-39338178' role='' />
    <member type='way' ref='-39338179' role='' />
    <member type='way' ref='-39338180' role='' />
    <member type='way' ref='-39338181' role='' />
    <member type='way' ref='-39338182' role='' />
    <member type='way' ref='-39338183' role='' />
    <member type='way' ref='-39338184' role='' />
    <member type='way' ref='-39338185' role='' />
    <member type='way' ref='-39338186' role='' />
    <member type='way' ref='-39338187' role='' />
    <member type='way' ref='-39338188' role='' />
    <member type='way' ref='-39338189' role='' />
    <member type='way' ref='-39338190' role='' />
    <member type='way' ref='-39338191' role='' />
    <member type='way' ref='-39338192' role='' />
    <member type='way' ref='-39338193' role='' />
    <member type='way' ref='-39338194' role='' />
    <member type='way' ref='-39338195' role='' />
    <member type='way' ref='-39338196' role='' />
    <member type='way' ref='-39338197' role='' />
    <member type='way' ref='-39338198' role='' />
    <member type='way' ref='-39338199' role='' />
    <member type='way' ref='-39338200' role='' />
    <member type='way' ref='-39338201' role='' />
    <member type='way' ref='-39338202' role='' />
    <member type='way' ref='-39338203' role='' />
    <member type='way' ref='-39338204' role='' />
    <member type='way' ref='-39338205' role='' />
    <member type='way' ref='-39338206' role='' />
    <member type='way' ref='-39338207' role='' />
    <member type='way' ref='-39338208' role='' />
    <member type='way' ref='-39338209' role='' />
    <member type='way' ref='-39338210' role='' />
    <member type='way' ref='-39338211' role='' />
    <member type='way' ref='-39338212' role='' />
    <member type='way' ref='-39338213' role='' />
    <member type='way' ref='-39338214' role='' />
    <member type='way' ref='-39338215' role='' />
    <member type='way' ref='-39338216' role='' />
    <member type='way' ref='-39338217' role='' />
    <member type='way' ref='-39338218' role='' />
    <member type='way' ref='-39338219' role='' />
    <member type='way' ref='-39338220' role='' />
    <member type='way' ref='-39338221' role='' />
    <member type='way' ref='-39338222' role='' />
    <member type='way' ref='-39338223' role='' />
    <member type='way' ref='-39338224' role='' />
    <member type='way' ref='-39338225' role='' />
    <member type='way' ref='-39338226' role='' />
    <member type='way' ref='-39338227' role='' />
    <member type='way' ref='-39338228' role='' />
    <member type='way' ref='-39338229' role='' />
    <member type='way' ref='-39338230' role='' />
    <member type='way' ref='-39338231' role='' />
    <member type='way' ref='-39338232' role='' />
    <member type='way' ref='-39338233' role='' />
    <member type='way' ref='-39338234' role='' />
    <member type='way' ref='-39338235' role='' />
    <member type='way' ref='-39338236' role='' />
    <member type='way' ref='-39338237' role='' />
    <member type='way' ref='-39338238' role='' />
    <member type='way' ref='-39338239' role='' />
    <member type='way' ref='-39338240' role='' />
    <member type='way' ref='-39338241' role='' />
    <member type='way' ref='-39338242' role='' />
    <member type='way' ref='-39338243' role='' />
    <member type='way' ref='-39338244' role='' />
    <member type='way' ref='-39338245' role='' />
    <member type='way' ref='-39338246' role='' />
    <member type='way' ref='-39338247' role='' />
    <member type='way' ref='-39338248' role='' />
    <member type='way' ref='-39338249' role='' />
    <member type='way' ref='-39338250' role='' />
    <member type='way' ref='-39338251' role='' />
    <member type='way' ref='-39338252' role='' />
    <member type='way' ref='-39338253' role='' />
    <member type='way' ref='-39338254' role='' />
    <member type='way' ref='-39338255' role='' />
    <member type='way' ref='-39338256' role='' />
    <member type='way' ref='-39338257' role='' />
    <tag k='key' v='path.dk.hva.2' />
    <tag k='name' v='DK HVA (2)' />
    <tag k='type' v='path' />
  </relation>
</osm>
