<?xml version='1.0' encoding='UTF-8'?>
<osm version='0.6' upload='false' generator='JOSM'>
  <node id='-163205507' action='modify' lat='56.13256253701' lon='8.97889793198'>
    <tag k='name' v='her' />
  </node>
  <node id='-163205508' action='modify' lat='56.1314408844' lon='8.9865850566' />
  <node id='-163205509' action='modify' lat='56.13510349624' lon='8.99606465757'>
    <tag k='name' v='her.xv' />
  </node>
  <node id='-163205510' action='modify' lat='56.14594098695' lon='9.00106429517' />
  <node id='-163205511' action='modify' lat='56.14866034095' lon='9.00104820192' />
  <node id='-163205512' action='modify' lat='56.15736247307' lon='8.99695515364' />
  <node id='-163205513' action='modify' lat='56.16670330978' lon='8.99753450811' />
  <node id='-163205514' action='modify' lat='56.17586580002' lon='9.0028901'>
    <tag k='name' v='nyb' />
  </node>
  <node id='-163205515' action='modify' lat='56.19626564844' lon='9.014818663' />
  <node id='-163205516' action='modify' lat='56.19858602437' lon='9.01752768874' />
  <node id='-163205517' action='modify' lat='56.20034455394' lon='9.02093294328'>
    <tag k='name' v='sun' />
  </node>
  <node id='-163205518' action='modify' lat='56.21680697861' lon='9.05281871147'>
    <tag k='name' v='nor' />
  </node>
  <node id='-163205519' action='modify' lat='56.23394277002' lon='9.08602326035' />
  <node id='-163205520' action='modify' lat='56.23760502476' lon='9.09163565978'>
    <tag k='name' v='ils' />
  </node>
  <node id='-163205521' action='modify' lat='56.24336781503' lon='9.09748433948' />
  <node id='-163205522' action='modify' lat='56.27600587816' lon='9.1202831161' />
  <node id='-163205523' action='modify' lat='56.2768583258' lon='9.12094164869'>
    <tag k='name' v='ged' />
  </node>
  <node id='-163205524' action='modify' lat='56.28040158187' lon='9.1245746398' />
  <node id='-163205525' action='modify' lat='56.29015322263' lon='9.13670327313'>
    <tag k='name' v='gro' />
  </node>
  <node id='-163205526' action='modify' lat='56.29472008658' lon='9.14238438811'>
    <tag k='name' v='kol' />
  </node>
  <node id='-163205527' action='modify' lat='56.30386058019' lon='9.15375707388' />
  <node id='-163205528' action='modify' lat='56.30576821297' lon='9.15750950307' />
  <node id='-163205529' action='modify' lat='56.30607920037' lon='9.15849655598' />
  <node id='-163205530' action='modify' lat='56.30723236272' lon='9.16488825738' />
  <node id='-163205531' action='modify' lat='56.30743204703' lon='9.16789903372'>
    <tag k='name' v='kar' />
  </node>
  <node id='-163205532' action='modify' lat='56.307747182' lon='9.17265057027' />
  <node id='-163205533' action='modify' lat='56.31152032776' lon='9.18635129392' />
  <node id='-163205534' action='modify' lat='56.33861761167' lon='9.24980008386'>
    <tag k='name' v='fre' />
  </node>
  <node id='-163205535' action='modify' lat='56.35504224449' lon='9.28828060091' />
  <node id='-163205536' action='modify' lat='56.35964876564' lon='9.29574250638' />
  <node id='-163205537' action='modify' lat='56.35993108271' lon='9.29608582914' />
  <node id='-163205538' action='modify' lat='56.36159076613' lon='9.29774075478'>
    <tag k='name' v='ske' />
  </node>
  <node id='-163205539' action='modify' lat='56.36359507143' lon='9.29906308115' />
  <node id='-163205540' action='modify' lat='56.36398730239' lon='9.29927765787' />
  <node id='-163205541' action='modify' lat='56.36737012547' lon='9.29915696114' />
  <node id='-163205542' action='modify' lat='56.37004705357' lon='9.29757714003' />
  <node id='-163205543' action='modify' lat='56.37214003674' lon='9.29578810662' />
  <node id='-163205544' action='modify' lat='56.37624248649' lon='9.29129540384' />
  <node id='-163205545' action='modify' lat='56.382102785' lon='9.29186939657' />
  <node id='-163205546' action='modify' lat='56.38735044734' lon='9.29847299516' />
  <node id='-163205547' action='modify' lat='56.39080266146' lon='9.30369288293'>
    <tag k='name' v='sta' />
  </node>
  <node id='-163205548' action='modify' lat='56.39467873964' lon='9.31333779752' />
  <node id='-163205549' action='modify' lat='56.39660559691' lon='9.32165264547' />
  <node id='-163205550' action='modify' lat='56.39709249148' lon='9.32744621694' />
  <node id='-163205551' action='modify' lat='56.39686388932' lon='9.33062195241' />
  <node id='-163205552' action='modify' lat='56.39673696777' lon='9.33415308461'>
    <tag k='name' v='bak' />
  </node>
  <node id='-163205553' action='modify' lat='56.39921070578' lon='9.34879392117' />
  <node id='-163205554' action='modify' lat='56.39935617108' lon='9.34920698136' />
  <node id='-163205555' action='modify' lat='56.40410575434' lon='9.35630678594' />
  <node id='-163205556' action='modify' lat='56.40701714479' lon='9.35868077737'>
    <tag k='name' v='hal' />
  </node>
  <node id='-163205557' action='modify' lat='56.41115779282' lon='9.3620574367' />
  <node id='-163205558' action='modify' lat='56.41507799017' lon='9.36767398775' />
  <node id='-163205559' action='modify' lat='56.41901039471' lon='9.37625974283' />
  <node id='-163205560' action='modify' lat='56.42220809719' lon='9.38117891282' />
  <node id='-163205561' action='modify' lat='56.42743688403' lon='9.3870341751' />
  <node id='-163205562' action='modify' lat='56.42962460723' lon='9.39079998851' />
  <node id='-163205563' action='modify' lat='56.43002357423' lon='9.39182995677' />
  <node id='-163205564' action='modify' lat='56.43414418239' lon='9.39718127814' />
  <node id='-163205567' action='modify' lat='56.43756236846' lon='9.39891971513' />
  <node id='-163205568' action='modify' lat='56.43995857309' lon='9.40076976947' />
  <node id='-163205569' action='modify' lat='56.44132194074' lon='9.40233215555' />
  <node id='-163205570' action='modify' lat='56.44535318877' lon='9.40195128188' />
  <node id='-163205571' action='modify' lat='56.44618636877' lon='9.40060481295' />
  <node id='-163205572' action='modify' lat='56.44710551412' lon='9.39867228135' />
  <node id='-163205573' action='modify' lat='56.44725358718' lon='9.39826928345'>
    <tag k='name' v='vib' />
  </node>
  <node id='-163205574' action='modify' lat='56.44884886422' lon='9.39392745361' />
  <way id='-37498960' action='modify'>
    <nd ref='-163205507' />
    <nd ref='-163205508' />
    <tag k='type' v='straight' />
  </way>
  <way id='-37498961' action='modify'>
    <nd ref='-163205508' />
    <nd ref='-163205509' />
  </way>
  <way id='-37498962' action='modify'>
    <nd ref='-163205509' />
    <nd ref='-163205510' />
    <tag k='type' v='straight' />
  </way>
  <way id='-37498963' action='modify'>
    <nd ref='-163205510' />
    <nd ref='-163205511' />
  </way>
  <way id='-37498964' action='modify'>
    <nd ref='-163205511' />
    <nd ref='-163205512' />
    <tag k='type' v='straight' />
  </way>
  <way id='-37498965' action='modify'>
    <nd ref='-163205512' />
    <nd ref='-163205513' />
  </way>
  <way id='-37498966' action='modify'>
    <nd ref='-163205513' />
    <nd ref='-163205514' />
    <nd ref='-163205515' />
    <tag k='type' v='straight' />
  </way>
  <way id='-37498967' action='modify'>
    <nd ref='-163205515' />
    <nd ref='-163205516' />
  </way>
  <way id='-37498968' action='modify'>
    <nd ref='-163205516' />
    <nd ref='-163205517' />
    <nd ref='-163205518' />
    <nd ref='-163205519' />
    <tag k='type' v='straight' />
  </way>
  <way id='-37498969' action='modify'>
    <nd ref='-163205519' />
    <nd ref='-163205520' />
    <nd ref='-163205521' />
  </way>
  <way id='-37498970' action='modify'>
    <nd ref='-163205521' />
    <nd ref='-163205522' />
    <tag k='type' v='straight' />
  </way>
  <way id='-37498971' action='modify'>
    <nd ref='-163205522' />
    <nd ref='-163205523' />
    <nd ref='-163205524' />
  </way>
  <way id='-37498972' action='modify'>
    <nd ref='-163205524' />
    <nd ref='-163205525' />
    <nd ref='-163205526' />
    <nd ref='-163205527' />
    <tag k='type' v='straight' />
  </way>
  <way id='-37498973' action='modify'>
    <nd ref='-163205527' />
    <nd ref='-163205528' />
  </way>
  <way id='-37498974' action='modify'>
    <nd ref='-163205528' />
    <nd ref='-163205529' />
    <tag k='type' v='straight' />
  </way>
  <way id='-37498975' action='modify'>
    <nd ref='-163205529' />
    <nd ref='-163205530' />
  </way>
  <way id='-37498976' action='modify'>
    <nd ref='-163205530' />
    <nd ref='-163205531' />
    <nd ref='-163205532' />
    <tag k='type' v='straight' />
  </way>
  <way id='-37498977' action='modify'>
    <nd ref='-163205532' />
    <nd ref='-163205533' />
  </way>
  <way id='-37498978' action='modify'>
    <nd ref='-163205533' />
    <nd ref='-163205534' />
    <nd ref='-163205535' />
    <tag k='type' v='straight' />
  </way>
  <way id='-37498979' action='modify'>
    <nd ref='-163205535' />
    <nd ref='-163205536' />
  </way>
  <way id='-37498980' action='modify'>
    <nd ref='-163205536' />
    <nd ref='-163205537' />
    <tag k='type' v='straight' />
  </way>
  <way id='-37498981' action='modify'>
    <nd ref='-163205537' />
    <nd ref='-163205538' />
    <nd ref='-163205539' />
  </way>
  <way id='-37498982' action='modify'>
    <nd ref='-163205539' />
    <nd ref='-163205540' />
    <tag k='type' v='straight' />
  </way>
  <way id='-37498983' action='modify'>
    <nd ref='-163205540' />
    <nd ref='-163205541' />
  </way>
  <way id='-37498984' action='modify'>
    <nd ref='-163205541' />
    <nd ref='-163205542' />
    <tag k='type' v='straight' />
  </way>
  <way id='-37498985' action='modify'>
    <nd ref='-163205542' />
    <nd ref='-163205543' />
  </way>
  <way id='-37498986' action='modify'>
    <nd ref='-163205543' />
    <nd ref='-163205544' />
    <tag k='type' v='straight' />
  </way>
  <way id='-37498987' action='modify'>
    <nd ref='-163205544' />
    <nd ref='-163205545' />
  </way>
  <way id='-37498988' action='modify'>
    <nd ref='-163205545' />
    <nd ref='-163205546' />
    <tag k='type' v='straight' />
  </way>
  <way id='-37498989' action='modify'>
    <nd ref='-163205546' />
    <nd ref='-163205547' />
    <nd ref='-163205548' />
  </way>
  <way id='-37498990' action='modify'>
    <nd ref='-163205548' />
    <nd ref='-163205549' />
    <tag k='type' v='straight' />
  </way>
  <way id='-37498991' action='modify'>
    <nd ref='-163205549' />
    <nd ref='-163205550' />
  </way>
  <way id='-37498992' action='modify'>
    <nd ref='-163205550' />
    <nd ref='-163205551' />
    <tag k='type' v='straight' />
  </way>
  <way id='-37498993' action='modify'>
    <nd ref='-163205551' />
    <nd ref='-163205552' />
    <nd ref='-163205553' />
  </way>
  <way id='-37498994' action='modify'>
    <nd ref='-163205553' />
    <nd ref='-163205554' />
    <tag k='type' v='straight' />
  </way>
  <way id='-37498995' action='modify'>
    <nd ref='-163205554' />
    <nd ref='-163205555' />
  </way>
  <way id='-37498996' action='modify'>
    <nd ref='-163205555' />
    <nd ref='-163205556' />
    <nd ref='-163205557' />
    <tag k='type' v='straight' />
  </way>
  <way id='-37498997' action='modify'>
    <nd ref='-163205557' />
    <nd ref='-163205558' />
  </way>
  <way id='-37498998' action='modify'>
    <nd ref='-163205558' />
    <nd ref='-163205559' />
    <tag k='type' v='straight' />
  </way>
  <way id='-37498999' action='modify'>
    <nd ref='-163205559' />
    <nd ref='-163205560' />
  </way>
  <way id='-37499000' action='modify'>
    <nd ref='-163205560' />
    <nd ref='-163205561' />
    <tag k='type' v='straight' />
  </way>
  <way id='-37499001' action='modify'>
    <nd ref='-163205561' />
    <nd ref='-163205562' />
  </way>
  <way id='-37499002' action='modify'>
    <nd ref='-163205562' />
    <nd ref='-163205563' />
    <tag k='type' v='straight' />
  </way>
  <way id='-37499003' action='modify'>
    <nd ref='-163205563' />
    <nd ref='-163205564' />
  </way>
  <way id='-37499005' action='modify'>
    <nd ref='-163205564' />
    <nd ref='-163205567' />
    <tag k='type' v='straight' />
  </way>
  <way id='-37499006' action='modify'>
    <nd ref='-163205567' />
    <nd ref='-163205568' />
  </way>
  <way id='-37499007' action='modify'>
    <nd ref='-163205568' />
    <nd ref='-163205569' />
    <tag k='type' v='straight' />
  </way>
  <way id='-37499008' action='modify'>
    <nd ref='-163205569' />
    <nd ref='-163205570' />
  </way>
  <way id='-37499009' action='modify'>
    <nd ref='-163205570' />
    <nd ref='-163205571' />
    <tag k='type' v='straight' />
  </way>
  <way id='-37499010' action='modify'>
    <nd ref='-163205571' />
    <nd ref='-163205572' />
  </way>
  <way id='-37499011' action='modify'>
    <nd ref='-163205572' />
    <nd ref='-163205573' />
    <nd ref='-163205574' />
    <tag k='type' v='straight' />
  </way>
  <relation id='-14478502' action='modify'>
    <member type='way' ref='-37498960' role='' />
    <member type='way' ref='-37498961' role='' />
    <member type='way' ref='-37498962' role='' />
    <member type='way' ref='-37498963' role='' />
    <member type='way' ref='-37498964' role='' />
    <member type='way' ref='-37498965' role='' />
    <member type='way' ref='-37498966' role='' />
    <member type='way' ref='-37498967' role='' />
    <member type='way' ref='-37498968' role='' />
    <member type='way' ref='-37498969' role='' />
    <member type='way' ref='-37498970' role='' />
    <member type='way' ref='-37498971' role='' />
    <member type='way' ref='-37498972' role='' />
    <member type='way' ref='-37498973' role='' />
    <member type='way' ref='-37498974' role='' />
    <member type='way' ref='-37498975' role='' />
    <member type='way' ref='-37498976' role='' />
    <member type='way' ref='-37498977' role='' />
    <member type='way' ref='-37498978' role='' />
    <member type='way' ref='-37498979' role='' />
    <member type='way' ref='-37498980' role='' />
    <member type='way' ref='-37498981' role='' />
    <member type='way' ref='-37498982' role='' />
    <member type='way' ref='-37498983' role='' />
    <member type='way' ref='-37498984' role='' />
    <member type='way' ref='-37498985' role='' />
    <member type='way' ref='-37498986' role='' />
    <member type='way' ref='-37498987' role='' />
    <member type='way' ref='-37498988' role='' />
    <member type='way' ref='-37498989' role='' />
    <member type='way' ref='-37498990' role='' />
    <member type='way' ref='-37498991' role='' />
    <member type='way' ref='-37498992' role='' />
    <member type='way' ref='-37498993' role='' />
    <member type='way' ref='-37498994' role='' />
    <member type='way' ref='-37498995' role='' />
    <member type='way' ref='-37498996' role='' />
    <member type='way' ref='-37498997' role='' />
    <member type='way' ref='-37498998' role='' />
    <member type='way' ref='-37498999' role='' />
    <member type='way' ref='-37499000' role='' />
    <member type='way' ref='-37499001' role='' />
    <member type='way' ref='-37499002' role='' />
    <member type='way' ref='-37499003' role='' />
    <member type='way' ref='-37499005' role='' />
    <member type='way' ref='-37499006' role='' />
    <member type='way' ref='-37499007' role='' />
    <member type='way' ref='-37499008' role='' />
    <member type='way' ref='-37499009' role='' />
    <member type='way' ref='-37499010' role='' />
    <member type='way' ref='-37499011' role='' />
    <tag k='key' v='path.dk.hvi' />
    <tag k='name' v='DK HVI' />
    <tag k='type' v='path' />
  </relation>
</osm>
