<?xml version='1.0' encoding='UTF-8'?>
<osm version='0.6' upload='false' generator='JOSM'>
  <node id='-142898628' action='modify' lat='55.74787319613' lon='11.46213322744' />
  <node id='-142898629' action='modify' lat='55.74852837558' lon='11.46056949958' />
  <node id='-142898630' action='modify' lat='55.75184335453' lon='11.45655020937'>
    <tag k='name' v='hor' />
  </node>
  <node id='-142898631' action='modify' lat='55.7532275315' lon='11.45627327129' />
  <node id='-142898632' action='modify' lat='55.75328639944' lon='11.45627528295'>
    <tag k='name' v='hor.yv' />
  </node>
  <node id='-142898633' action='modify' lat='55.75619648051' lon='11.45263552129' />
  <node id='-142898634' action='modify' lat='55.75806195624' lon='11.44527553976' />
  <node id='-142898635' action='modify' lat='55.75837436791' lon='11.44043415517' />
  <node id='-142898636' action='modify' lat='55.75829437981' lon='11.43910645902' />
  <node id='-142898637' action='modify' lat='55.75728317625' lon='11.4345467037' />
  <node id='-142898638' action='modify' lat='55.75299055468' lon='11.42435430408' />
  <node id='-142898639' action='modify' lat='55.75149315224' lon='11.41877799958' />
  <node id='-142898640' action='modify' lat='55.75133645273' lon='11.41772753623'>
    <tag k='name' v='bje' />
  </node>
  <node id='-142898641' action='modify' lat='55.75116106024' lon='11.4165517661' />
  <node id='-142898642' action='modify' lat='55.75062065145' lon='11.41432284772' />
  <node id='-142898643' action='modify' lat='55.74896540737' lon='11.40966385469' />
  <node id='-142898644' action='modify' lat='55.74649939931' lon='11.40495120943' />
  <node id='-142898645' action='modify' lat='55.74290011826' lon='11.40059530199' />
  <node id='-142898646' action='modify' lat='55.74033331406' lon='11.39445840776'>
    <tag k='name' v='sta' />
  </node>
  <node id='-142898647' action='modify' lat='55.73874483367' lon='11.38624547839' />
  <node id='-142898648' action='modify' lat='55.7358515742' lon='11.37878893733' />
  <node id='-142898649' action='modify' lat='55.72789551514' lon='11.36370419383' />
  <node id='-142898650' action='modify' lat='55.72596062169' lon='11.35592311084' />
  <node id='-142898651' action='modify' lat='55.72588037434' lon='11.35386789705'>
    <tag k='name' v='fol' />
  </node>
  <node id='-142898652' action='modify' lat='55.72565701191' lon='11.34814738691' />
  <node id='-142898653' action='modify' lat='55.72475371959' lon='11.34199708432' />
  <node id='-142898654' action='modify' lat='55.72185036064' lon='11.3309168762' />
  <node id='-142898655' action='modify' lat='55.72114035192' lon='11.32902859569' />
  <node id='-142898656' action='modify' lat='55.71629984288' lon='11.31925462604' />
  <node id='-142898657' action='modify' lat='55.71557462131' lon='11.31752728343' />
  <node id='-142898658' action='modify' lat='55.71259703695' lon='11.3084179922'>
    <tag k='name' v='esk' />
  </node>
  <node id='-142898659' action='modify' lat='55.71205710571' lon='11.30676626086' />
  <node id='-142898660' action='modify' lat='55.71223842567' lon='11.29514693677' />
  <node id='-142898661' action='modify' lat='55.71416040054' lon='11.28992198825' />
  <node id='-142898662' action='modify' lat='55.71591305972' lon='11.28666042209' />
  <node id='-142898663' action='modify' lat='55.71718822094' lon='11.28502963901' />
  <node id='-142898664' action='modify' lat='55.71878966475' lon='11.27615689695' />
  <node id='-142898665' action='modify' lat='55.71566829199' lon='11.26894980401' />
  <node id='-142898666' action='modify' lat='55.71349350991' lon='11.26689834547'>
    <tag k='name' v='all' />
  </node>
  <node id='-142898667' action='modify' lat='55.69307409587' lon='11.24764240597'>
    <tag k='name' v='kal' />
  </node>
  <node id='-142898668' action='modify' lat='55.68232690102' lon='11.23751161337' />
  <node id='-142898669' action='modify' lat='55.67966537107' lon='11.23526929736' />
  <node id='-142898670' action='modify' lat='55.67258271372' lon='11.23101532191'>
    <tag k='name' v='var.xs' />
  </node>
  <node id='-142898671' action='modify' lat='55.66834695703' lon='11.21700668852'>
    <tag k='name' v='var.ys' />
  </node>
  <node id='-142898672' action='modify' lat='55.66873042068' lon='11.21536093011' />
  <node id='-142898673' action='modify' lat='55.66986873888' lon='11.20736413059'>
    <tag k='name' v='var' />
  </node>
  <node id='-142898674' action='modify' lat='55.66852008298' lon='11.19175990169' />
  <node id='-142898675' action='modify' lat='55.66766647982' lon='11.18785140306' />
  <way id='-36294906' action='modify'>
    <nd ref='-142898628' />
    <nd ref='-142898629' />
    <tag k='type' v='straight' />
  </way>
  <way id='-36294907' action='modify'>
    <nd ref='-142898629' />
    <nd ref='-142898630' />
    <nd ref='-142898631' />
  </way>
  <way id='-36294908' action='modify'>
    <nd ref='-142898631' />
    <nd ref='-142898632' />
    <tag k='type' v='straight' />
  </way>
  <way id='-36294909' action='modify'>
    <nd ref='-142898632' />
    <nd ref='-142898633' />
  </way>
  <way id='-36294910' action='modify'>
    <nd ref='-142898633' />
    <nd ref='-142898634' />
    <tag k='type' v='straight' />
  </way>
  <way id='-36294911' action='modify'>
    <nd ref='-142898634' />
    <nd ref='-142898635' />
  </way>
  <way id='-36294912' action='modify'>
    <nd ref='-142898635' />
    <nd ref='-142898636' />
    <tag k='type' v='straight' />
  </way>
  <way id='-36294913' action='modify'>
    <nd ref='-142898636' />
    <nd ref='-142898637' />
  </way>
  <way id='-36294914' action='modify'>
    <nd ref='-142898637' />
    <nd ref='-142898638' />
    <tag k='type' v='straight' />
  </way>
  <way id='-36294915' action='modify'>
    <nd ref='-142898638' />
    <nd ref='-142898639' />
  </way>
  <way id='-36294916' action='modify'>
    <nd ref='-142898639' />
    <nd ref='-142898640' />
    <nd ref='-142898641' />
    <tag k='type' v='straight' />
  </way>
  <way id='-36294917' action='modify'>
    <nd ref='-142898641' />
    <nd ref='-142898642' />
  </way>
  <way id='-36294918' action='modify'>
    <nd ref='-142898642' />
    <nd ref='-142898643' />
    <tag k='type' v='straight' />
  </way>
  <way id='-36294919' action='modify'>
    <nd ref='-142898643' />
    <nd ref='-142898644' />
  </way>
  <way id='-36294920' action='modify'>
    <nd ref='-142898644' />
    <nd ref='-142898645' />
    <tag k='type' v='straight' />
  </way>
  <way id='-36294921' action='modify'>
    <nd ref='-142898645' />
    <nd ref='-142898646' />
  </way>
  <way id='-36294922' action='modify'>
    <nd ref='-142898646' />
    <nd ref='-142898647' />
    <tag k='type' v='straight' />
  </way>
  <way id='-36294923' action='modify'>
    <nd ref='-142898647' />
    <nd ref='-142898648' />
  </way>
  <way id='-36294924' action='modify'>
    <nd ref='-142898648' />
    <nd ref='-142898649' />
    <tag k='type' v='straight' />
  </way>
  <way id='-36294925' action='modify'>
    <nd ref='-142898649' />
    <nd ref='-142898650' />
  </way>
  <way id='-36294926' action='modify'>
    <nd ref='-142898650' />
    <nd ref='-142898651' />
    <nd ref='-142898652' />
    <tag k='type' v='straight' />
  </way>
  <way id='-36294927' action='modify'>
    <nd ref='-142898652' />
    <nd ref='-142898653' />
  </way>
  <way id='-36294928' action='modify'>
    <nd ref='-142898653' />
    <nd ref='-142898654' />
    <tag k='type' v='straight' />
  </way>
  <way id='-36294929' action='modify'>
    <nd ref='-142898654' />
    <nd ref='-142898655' />
  </way>
  <way id='-36294930' action='modify'>
    <nd ref='-142898655' />
    <nd ref='-142898656' />
    <tag k='type' v='straight' />
  </way>
  <way id='-36294931' action='modify'>
    <nd ref='-142898656' />
    <nd ref='-142898657' />
  </way>
  <way id='-36294932' action='modify'>
    <nd ref='-142898657' />
    <nd ref='-142898658' />
    <nd ref='-142898659' />
    <tag k='type' v='straight' />
  </way>
  <way id='-36294933' action='modify'>
    <nd ref='-142898659' />
    <nd ref='-142898660' />
  </way>
  <way id='-36294934' action='modify'>
    <nd ref='-142898660' />
    <nd ref='-142898661' />
    <tag k='type' v='straight' />
  </way>
  <way id='-36294935' action='modify'>
    <nd ref='-142898661' />
    <nd ref='-142898662' />
  </way>
  <way id='-36294936' action='modify'>
    <nd ref='-142898662' />
    <nd ref='-142898663' />
    <tag k='type' v='straight' />
  </way>
  <way id='-36294937' action='modify'>
    <nd ref='-142898663' />
    <nd ref='-142898664' />
    <nd ref='-142898665' />
  </way>
  <way id='-36294938' action='modify'>
    <nd ref='-142898665' />
    <nd ref='-142898666' />
    <nd ref='-142898667' />
    <nd ref='-142898668' />
    <tag k='type' v='straight' />
  </way>
  <way id='-36294939' action='modify'>
    <nd ref='-142898668' />
    <nd ref='-142898669' />
  </way>
  <way id='-36294940' action='modify'>
    <nd ref='-142898669' />
    <nd ref='-142898670' />
    <tag k='type' v='straight' />
  </way>
  <way id='-36294941' action='modify'>
    <nd ref='-142898670' />
    <nd ref='-142898671' />
  </way>
  <way id='-36294942' action='modify'>
    <nd ref='-142898671' />
    <nd ref='-142898672' />
    <tag k='type' v='straight' />
  </way>
  <way id='-36294943' action='modify'>
    <nd ref='-142898672' />
    <nd ref='-142898673' />
    <nd ref='-142898674' />
  </way>
  <way id='-36294944' action='modify'>
    <nd ref='-142898674' />
    <nd ref='-142898675' />
    <tag k='type' v='straight' />
  </way>
  <relation id='-14466921' action='modify'>
    <member type='way' ref='-36294906' role='' />
    <member type='way' ref='-36294907' role='' />
    <member type='way' ref='-36294908' role='' />
    <member type='way' ref='-36294909' role='' />
    <member type='way' ref='-36294910' role='' />
    <member type='way' ref='-36294911' role='' />
    <member type='way' ref='-36294912' role='' />
    <member type='way' ref='-36294913' role='' />
    <member type='way' ref='-36294914' role='' />
    <member type='way' ref='-36294915' role='' />
    <member type='way' ref='-36294916' role='' />
    <member type='way' ref='-36294917' role='' />
    <member type='way' ref='-36294918' role='' />
    <member type='way' ref='-36294919' role='' />
    <member type='way' ref='-36294920' role='' />
    <member type='way' ref='-36294921' role='' />
    <member type='way' ref='-36294922' role='' />
    <member type='way' ref='-36294923' role='' />
    <member type='way' ref='-36294924' role='' />
    <member type='way' ref='-36294925' role='' />
    <member type='way' ref='-36294926' role='' />
    <member type='way' ref='-36294927' role='' />
    <member type='way' ref='-36294928' role='' />
    <member type='way' ref='-36294929' role='' />
    <member type='way' ref='-36294930' role='' />
    <member type='way' ref='-36294931' role='' />
    <member type='way' ref='-36294932' role='' />
    <member type='way' ref='-36294933' role='' />
    <member type='way' ref='-36294934' role='' />
    <member type='way' ref='-36294935' role='' />
    <member type='way' ref='-36294936' role='' />
    <member type='way' ref='-36294937' role='' />
    <member type='way' ref='-36294938' role='' />
    <member type='way' ref='-36294939' role='' />
    <member type='way' ref='-36294940' role='' />
    <member type='way' ref='-36294941' role='' />
    <member type='way' ref='-36294942' role='' />
    <member type='way' ref='-36294943' role='' />
    <member type='way' ref='-36294944' role='' />
    <tag k='key' v='path.dk.hvl' />
    <tag k='name' v='DK HVL' />
    <tag k='type' v='path' />
  </relation>
</osm>
