<?xml version='1.0' encoding='UTF-8'?>
<osm version='0.6' upload='false' generator='JOSM'>
  <node id='-166830415' action='modify' lat='56.13625679974' lon='9.46592681671'>
    <tag k='name' v='fun' />
  </node>
  <node id='-166830416' action='modify' lat='56.13609068094' lon='9.46569934353' />
  <node id='-166830417' action='modify' lat='56.135161037' lon='9.46435153351' />
  <node id='-166830418' action='modify' lat='56.13413421766' lon='9.46273013816' />
  <node id='-166830419' action='modify' lat='56.13161824451' lon='9.45299573176' />
  <node id='-166830420' action='modify' lat='56.13156854407' lon='9.44969460234' />
  <node id='-166830421' action='modify' lat='56.13186899009' lon='9.4457235919' />
  <node id='-166830422' action='modify' lat='56.13193212322' lon='9.44516980241' />
  <node id='-166830423' action='modify' lat='56.13287643943' lon='9.44122552603' />
  <node id='-166830424' action='modify' lat='56.13345488835' lon='9.439787862' />
  <node id='-166830425' action='modify' lat='56.13420521405' lon='9.431801586' />
  <node id='-166830427' action='modify' lat='56.13394215306' lon='9.43017884955' />
  <node id='-166830428' action='modify' lat='56.12874484001' lon='9.42361949801' />
  <node id='-166830429' action='modify' lat='56.1249536581' lon='9.42366241336' />
  <node id='-166830430' action='modify' lat='56.12239410003' lon='9.42313670039' />
  <node id='-166830431' action='modify' lat='56.11942767015' lon='9.42106603503' />
  <node id='-166830432' action='modify' lat='56.11797427525' lon='9.42025064349' />
  <node id='-166830433' action='modify' lat='56.11659858341' lon='9.41964982867' />
  <node id='-166830434' action='modify' lat='56.11423586744' lon='9.41767572284' />
  <node id='-166830435' action='modify' lat='56.11205845135' lon='9.41468237758' />
  <node id='-166830436' action='modify' lat='56.10955187457' lon='9.41294967592' />
  <node id='-166830437' action='modify' lat='56.10726650273' lon='9.41259562433' />
  <node id='-166830438' action='modify' lat='56.10322339845' lon='9.40974174857' />
  <node id='-166830439' action='modify' lat='56.10060545132' lon='9.406154182'>
    <tag k='name' v='chr' />
  </node>
  <node id='-166830440' action='modify' lat='56.08601562542' lon='9.38616513133'>
    <tag k='name' v='seb' />
  </node>
  <node id='-166830441' action='modify' lat='56.07652943301' lon='9.37947034299' />
  <node id='-166830442' action='modify' lat='56.06939380341' lon='9.37834091683'>
    <tag k='name' v='hjo' />
  </node>
  <node id='-166830443' action='modify' lat='56.03930150466' lon='9.373580212' />
  <node id='-166830444' action='modify' lat='56.03434914991' lon='9.37099992961' />
  <node id='-166830445' action='modify' lat='56.02045607765' lon='9.35763497397'>
    <tag k='name' v='ham' />
  </node>
  <node id='-166830446' action='modify' lat='56.0005168054' lon='9.33846205205' />
  <node id='-166830447' action='modify' lat='55.99753798415' lon='9.33440386981' />
  <node id='-166830448' action='modify' lat='55.99236724932' lon='9.32485788792' />
  <node id='-166830449' action='modify' lat='55.99050549543' lon='9.32067364186' />
  <node id='-166830450' action='modify' lat='55.98330066829' lon='9.300900397' />
  <node id='-166830451' action='modify' lat='55.98290825781' lon='9.29965185163'>
    <tag k='name' v='ejs.yr' />
  </node>
  <node id='-166830452' action='modify' lat='55.98281356708' lon='9.29929539354' />
  <node id='-166830453' action='modify' lat='55.98198919283' lon='9.29381668031' />
  <node id='-166830454' action='modify' lat='55.98166019981' lon='9.28926998078'>
    <tag k='name' v='ejs' />
  </node>
  <node id='-166830455' action='modify' lat='55.98063565394' lon='9.27511095464' />
  <node id='-166830456' action='modify' lat='55.98035653693' lon='9.27154361665' />
  <node id='-166830457' action='modify' lat='55.97675484488' lon='9.23131584853' />
  <node id='-166830458' action='modify' lat='55.97650946751' lon='9.2272308442' />
  <node id='-166830459' action='modify' lat='55.97615678096' lon='9.21435490116' />
  <node id='-166830460' action='modify' lat='55.97619280008' lon='9.20895427331' />
  <node id='-166830461' action='modify' lat='55.97670199105' lon='9.19626527633'>
    <tag k='name' v='lun' />
  </node>
  <node id='-166830462' action='modify' lat='55.97871780781' lon='9.14602964848' />
  <node id='-166830463' action='modify' lat='55.97875082766' lon='9.14322673202' />
  <node id='-166830464' action='modify' lat='55.97852872089' lon='9.12730514467' />
  <node id='-166830465' action='modify' lat='55.9704459381' lon='9.1128171093' />
  <node id='-166830466' action='modify' lat='55.96644727857' lon='9.11251410775' />
  <node id='-166830467' action='modify' lat='55.96147507029' lon='9.11376871102' />
  <node id='-166830468' action='modify' lat='55.95648908486' lon='9.11679223046' />
  <node id='-166830469' action='modify' lat='55.94473333057' lon='9.13006761579'>
    <tag k='name' v='brd' />
  </node>
  <node id='-166830470' action='modify' lat='55.94454946284' lon='9.13039773569' />
  <node id='-166830472' action='modify' lat='55.94006492226' lon='9.1385306629' />
  <node id='-166830473' action='modify' lat='55.93258888234' lon='9.14334475458' />
  <node id='-166830474' action='modify' lat='55.93036814227' lon='9.14273321092' />
  <node id='-166830475' action='modify' lat='55.92151396745' lon='9.12820368469' />
  <node id='-166830476' action='modify' lat='55.91923397398' lon='9.10943627089' />
  <node id='-166830477' action='modify' lat='55.91776701457' lon='9.10325914085' />
  <node id='-166830478' action='modify' lat='55.9168501358' lon='9.10076736867'>
    <tag k='name' v='dra' />
  </node>
  <node id='-166830479' action='modify' lat='55.91423315435' lon='9.0954190439' />
  <node id='-166830480' action='modify' lat='55.90564292278' lon='9.08249616086' />
  <node id='-166830481' action='modify' lat='55.90371233786' lon='9.07996684045' />
  <node id='-166830482' action='modify' lat='55.88621843843' lon='9.06036257207' />
  <node id='-166830483' action='modify' lat='55.88194302456' lon='9.05344783723' />
  <node id='-166830484' action='modify' lat='55.87298175733' lon='9.03269622931'>
    <tag k='name' v='bla' />
  </node>
  <node id='-166830485' action='modify' lat='55.872674501' lon='9.0319848007' />
  <node id='-166830486' action='modify' lat='55.85950216996' lon='9.02295648515' />
  <node id='-166830487' action='modify' lat='55.85167046652' lon='9.02529929266'>
    <tag k='name' v='hal' />
  </node>
  <node id='-166830488' action='modify' lat='55.83860722006' lon='9.02920603484' />
  <node id='-166830489' action='modify' lat='55.8365964861' lon='9.02964591444' />
  <node id='-166830490' action='modify' lat='55.82123314302' lon='9.03166830271' />
  <node id='-166830491' action='modify' lat='55.81625736176' lon='9.02968883246' />
  <node id='-166830492' action='modify' lat='55.81090618484' lon='9.02446846788'>
    <tag k='name' v='fil' />
  </node>
  <node id='-166830493' action='modify' lat='55.80675760929' lon='9.02042180032' />
  <node id='-166830494' action='modify' lat='55.80280058065' lon='9.0129733032' />
  <node id='-166830495' action='modify' lat='55.79271700217' lon='8.97668838233' />
  <node id='-166830496' action='modify' lat='55.79141784872' lon='8.97257049649'>
    <tag k='name' v='kol' />
  </node>
  <node id='-166830497' action='modify' lat='55.79107033434' lon='8.97155999601' />
  <node id='-166830498' action='modify' lat='55.77654285405' lon='8.93278597713' />
  <node id='-166830499' action='modify' lat='55.77331445627' lon='8.92766832769' />
  <node id='-166830500' action='modify' lat='55.77306083238' lon='8.92743845165' />
  <node id='-166830501' action='modify' lat='55.77285280414' lon='8.92724990308' />
  <node id='-166830502' action='modify' lat='55.76585192175' lon='8.92657934546' />
  <node id='-166830503' action='modify' lat='55.76394154805' lon='8.9278989923' />
  <node id='-166830504' action='modify' lat='55.76215782179' lon='8.92945736158' />
  <node id='-166830506' action='modify' lat='55.75912084659' lon='8.93225288846'>
    <tag k='name' v='gri' />
  </node>
  <node id='-166830507' action='modify' lat='55.7585358604' lon='8.93279134155' />
  <node id='-166830508' action='modify' lat='55.75602319516' lon='8.9353843124' />
  <node id='-166830510' action='modify' lat='55.75468598093' lon='8.93725808477' />
  <node id='-166830511' action='modify' lat='55.74197005173' lon='8.93393396258' />
  <node id='-166830512' action='modify' lat='55.73150523872' lon='8.90564739168' />
  <node id='-166830513' action='modify' lat='55.72904190079' lon='8.90040367305' />
  <node id='-166830514' action='modify' lat='55.72552288762' lon='8.89427662473'>
    <tag k='name' v='hor' />
  </node>
  <node id='-166830515' action='modify' lat='55.71890145991' lon='8.882749376' />
  <node id='-166830516' action='modify' lat='55.71618954434' lon='8.87709662184' />
  <node id='-166830517' action='modify' lat='55.71002622517' lon='8.86183418266' />
  <node id='-166830518' action='modify' lat='55.70401061208' lon='8.85188017007' />
  <node id='-166830519' action='modify' lat='55.70066929725' lon='8.84797313524'>
    <tag k='name' v='kro' />
  </node>
  <node id='-166830520' action='modify' lat='55.69977126384' lon='8.8469231122' />
  <node id='-166830521' action='modify' lat='55.6989482419' lon='8.8460359709' />
  <node id='-166830522' action='modify' lat='55.69734308863' lon='8.84441433256' />
  <node id='-166830523' action='modify' lat='55.69229011756' lon='8.84165525302' />
  <node id='-166830524' action='modify' lat='55.68515531642' lon='8.84108528361' />
  <node id='-166830525' action='modify' lat='55.68235411114' lon='8.84057565987' />
  <node id='-166830526' action='modify' lat='55.67252372329' lon='8.8377499567' />
  <node id='-166830527' action='modify' lat='55.66691816348' lon='8.83443608746' />
  <node id='-166830528' action='modify' lat='55.66001817237' lon='8.82766619191' />
  <node id='-166830529' action='modify' lat='55.65549391991' lon='8.82458031043' />
  <node id='-166830530' action='modify' lat='55.65062872272' lon='8.82265982822'>
    <tag k='name' v='tof' />
  </node>
  <node id='-166830531' action='modify' lat='55.64983711229' lon='8.82234737143' />
  <node id='-166830532' action='modify' lat='55.64534725298' lon='8.82120340928' />
  <node id='-166830533' action='modify' lat='55.6248892317' lon='8.81886506566' />
  <node id='-166830534' action='modify' lat='55.61654785535' lon='8.81835356288' />
  <node id='-166830535' action='modify' lat='55.61034837227' lon='8.81531864338' />
  <node id='-166830536' action='modify' lat='55.60192215041' lon='8.80580679761'>
    <tag k='name' v='age' />
  </node>
  <node id='-166830537' action='modify' lat='55.59948460576' lon='8.80305558376' />
  <node id='-166830538' action='modify' lat='55.58880540983' lon='8.80335599117' />
  <node id='-166830539' action='modify' lat='55.57728407955' lon='8.81790831551' />
  <node id='-166830540' action='modify' lat='55.57255237722' lon='8.82145821914' />
  <node id='-166830541' action='modify' lat='55.56788986835' lon='8.82308095559' />
  <node id='-166830542' action='modify' lat='55.56534872344' lon='8.82348731026' />
  <node id='-166830543' action='modify' lat='55.55959432949' lon='8.82329016857'>
    <tag k='name' v='gle' />
  </node>
  <node id='-166830544' action='modify' lat='55.55813009638' lon='8.82310509413' />
  <node id='-166830545' action='modify' lat='55.55623686414' lon='8.82268801063' />
  <node id='-166830546' action='modify' lat='55.55313437457' lon='8.8210894154' />
  <node id='-166830547' action='modify' lat='55.54666235595' lon='8.8159409152' />
  <node id='-166830548' action='modify' lat='55.54306059655' lon='8.81368651852' />
  <node id='-166830549' action='modify' lat='55.53126208754' lon='8.8082751625' />
  <node id='-166830550' action='modify' lat='55.52525484945' lon='8.80107611284' />
  <node id='-166830551' action='modify' lat='55.52064092833' lon='8.7899884602'>
    <tag k='name' v='vej' />
  </node>
  <node id='-166830552' action='modify' lat='55.5187212969' lon='8.78537580237' />
  <node id='-166830553' action='modify' lat='55.51596816451' lon='8.78101855382' />
  <node id='-166830554' action='modify' lat='55.51403569373' lon='8.77925097808' />
  <node id='-166830555' action='modify' lat='55.51324018057' lon='8.77862278297' />
  <node id='-166830556' action='modify' lat='55.51025779998' lon='8.77658352122' />
  <node id='-166830557' action='modify' lat='55.50975278734' lon='8.77625092797' />
  <node id='-166830558' action='modify' lat='55.4998237216' lon='8.77019007215'>
    <tag k='name' v='vbj' />
  </node>
  <node id='-166830559' action='modify' lat='55.49819291786' lon='8.76919475036' />
  <node id='-166830560' action='modify' lat='55.49669662559' lon='8.76830327731' />
  <node id='-166830561' action='modify' lat='55.48368194149' lon='8.75990755722' />
  <node id='-166830562' action='modify' lat='55.47463057957' lon='8.75026166171' />
  <node id='-166830563' action='modify' lat='55.47043308797' lon='8.74320476979' />
  <node id='-166830564' action='modify' lat='55.46599079465' lon='8.72791920669' />
  <node id='-166830566' action='modify' lat='55.46528619893' lon='8.71724492213' />
  <node id='-166830627' action='modify' lat='55.46458768117' lon='8.70666290388'>
    <tag k='name' v='bra' />
  </node>
  <way id='-37752710' action='modify'>
    <nd ref='-166830415' />
    <nd ref='-166830416' />
    <tag k='type' v='straight' />
  </way>
  <way id='-37752711' action='modify'>
    <nd ref='-166830416' />
    <nd ref='-166830417' />
  </way>
  <way id='-37752712' action='modify'>
    <nd ref='-166830417' />
    <nd ref='-166830418' />
    <tag k='type' v='straight' />
  </way>
  <way id='-37752713' action='modify'>
    <nd ref='-166830418' />
    <nd ref='-166830419' />
  </way>
  <way id='-37752714' action='modify'>
    <nd ref='-166830419' />
    <nd ref='-166830420' />
    <tag k='type' v='straight' />
  </way>
  <way id='-37752715' action='modify'>
    <nd ref='-166830420' />
    <nd ref='-166830421' />
  </way>
  <way id='-37752716' action='modify'>
    <nd ref='-166830421' />
    <nd ref='-166830422' />
    <tag k='type' v='straight' />
  </way>
  <way id='-37752717' action='modify'>
    <nd ref='-166830422' />
    <nd ref='-166830423' />
  </way>
  <way id='-37752718' action='modify'>
    <nd ref='-166830423' />
    <nd ref='-166830424' />
    <tag k='type' v='straight' />
  </way>
  <way id='-37752719' action='modify'>
    <nd ref='-166830424' />
    <nd ref='-166830425' />
  </way>
  <way id='-37752720' action='modify'>
    <nd ref='-166830425' />
    <nd ref='-166830427' />
    <tag k='type' v='straight' />
  </way>
  <way id='-37752721' action='modify'>
    <nd ref='-166830427' />
    <nd ref='-166830428' />
  </way>
  <way id='-37752722' action='modify'>
    <nd ref='-166830428' />
    <nd ref='-166830429' />
    <tag k='type' v='straight' />
  </way>
  <way id='-37752723' action='modify'>
    <nd ref='-166830429' />
    <nd ref='-166830430' />
  </way>
  <way id='-37752724' action='modify'>
    <nd ref='-166830430' />
    <nd ref='-166830431' />
    <tag k='type' v='straight' />
  </way>
  <way id='-37752725' action='modify'>
    <nd ref='-166830431' />
    <nd ref='-166830432' />
  </way>
  <way id='-37752726' action='modify'>
    <nd ref='-166830432' />
    <nd ref='-166830433' />
    <tag k='type' v='straight' />
  </way>
  <way id='-37752727' action='modify'>
    <nd ref='-166830433' />
    <nd ref='-166830434' />
  </way>
  <way id='-37752728' action='modify'>
    <nd ref='-166830434' />
    <nd ref='-166830435' />
    <tag k='type' v='straight' />
  </way>
  <way id='-37752729' action='modify'>
    <nd ref='-166830435' />
    <nd ref='-166830436' />
  </way>
  <way id='-37752730' action='modify'>
    <nd ref='-166830436' />
    <nd ref='-166830437' />
    <tag k='type' v='straight' />
  </way>
  <way id='-37752731' action='modify'>
    <nd ref='-166830437' />
    <nd ref='-166830438' />
  </way>
  <way id='-37752732' action='modify'>
    <nd ref='-166830438' />
    <nd ref='-166830439' />
    <nd ref='-166830440' />
    <tag k='type' v='straight' />
  </way>
  <way id='-37752733' action='modify'>
    <nd ref='-166830440' />
    <nd ref='-166830441' />
  </way>
  <way id='-37752734' action='modify'>
    <nd ref='-166830441' />
    <nd ref='-166830442' />
    <nd ref='-166830443' />
    <tag k='type' v='straight' />
  </way>
  <way id='-37752735' action='modify'>
    <nd ref='-166830443' />
    <nd ref='-166830444' />
  </way>
  <way id='-37752736' action='modify'>
    <nd ref='-166830444' />
    <nd ref='-166830445' />
    <nd ref='-166830446' />
    <tag k='type' v='straight' />
  </way>
  <way id='-37752737' action='modify'>
    <nd ref='-166830446' />
    <nd ref='-166830447' />
  </way>
  <way id='-37752738' action='modify'>
    <nd ref='-166830447' />
    <nd ref='-166830448' />
    <tag k='type' v='straight' />
  </way>
  <way id='-37752739' action='modify'>
    <nd ref='-166830448' />
    <nd ref='-166830449' />
  </way>
  <way id='-37752740' action='modify'>
    <nd ref='-166830449' />
    <nd ref='-166830450' />
    <tag k='type' v='straight' />
  </way>
  <way id='-37752741' action='modify'>
    <nd ref='-166830450' />
    <nd ref='-166830451' />
  </way>
  <way id='-37752742' action='modify'>
    <nd ref='-166830451' />
    <nd ref='-166830452' />
    <tag k='type' v='straight' />
  </way>
  <way id='-37752743' action='modify'>
    <nd ref='-166830452' />
    <nd ref='-166830453' />
  </way>
  <way id='-37752744' action='modify'>
    <nd ref='-166830453' />
    <nd ref='-166830454' />
    <nd ref='-166830455' />
    <tag k='type' v='straight' />
  </way>
  <way id='-37752745' action='modify'>
    <nd ref='-166830455' />
    <nd ref='-166830456' />
  </way>
  <way id='-37752746' action='modify'>
    <nd ref='-166830456' />
    <nd ref='-166830457' />
    <tag k='type' v='straight' />
  </way>
  <way id='-37752747' action='modify'>
    <nd ref='-166830457' />
    <nd ref='-166830458' />
  </way>
  <way id='-37752748' action='modify'>
    <nd ref='-166830458' />
    <nd ref='-166830459' />
    <tag k='type' v='straight' />
  </way>
  <way id='-37752749' action='modify'>
    <nd ref='-166830459' />
    <nd ref='-166830460' />
  </way>
  <way id='-37752750' action='modify'>
    <nd ref='-166830460' />
    <nd ref='-166830461' />
    <nd ref='-166830462' />
    <tag k='type' v='straight' />
  </way>
  <way id='-37752751' action='modify'>
    <nd ref='-166830462' />
    <nd ref='-166830463' />
  </way>
  <way id='-37752752' action='modify'>
    <nd ref='-166830463' />
    <nd ref='-166830464' />
    <tag k='type' v='straight' />
  </way>
  <way id='-37752753' action='modify'>
    <nd ref='-166830464' />
    <nd ref='-166830465' />
  </way>
  <way id='-37752754' action='modify'>
    <nd ref='-166830465' />
    <nd ref='-166830466' />
    <tag k='type' v='straight' />
  </way>
  <way id='-37752755' action='modify'>
    <nd ref='-166830466' />
    <nd ref='-166830467' />
  </way>
  <way id='-37752756' action='modify'>
    <nd ref='-166830467' />
    <nd ref='-166830468' />
    <tag k='type' v='straight' />
  </way>
  <way id='-37752757' action='modify'>
    <nd ref='-166830468' />
    <nd ref='-166830469' />
    <nd ref='-166830470' />
  </way>
  <way id='-37752758' action='modify'>
    <nd ref='-166830470' />
    <nd ref='-166830472' />
    <tag k='type' v='straight' />
  </way>
  <way id='-37752760' action='modify'>
    <nd ref='-166830472' />
    <nd ref='-166830473' />
  </way>
  <way id='-37752761' action='modify'>
    <nd ref='-166830473' />
    <nd ref='-166830474' />
    <tag k='type' v='straight' />
  </way>
  <way id='-37752762' action='modify'>
    <nd ref='-166830474' />
    <nd ref='-166830475' />
  </way>
  <way id='-37752763' action='modify'>
    <nd ref='-166830475' />
    <nd ref='-166830476' />
    <tag k='type' v='straight' />
  </way>
  <way id='-37752764' action='modify'>
    <nd ref='-166830476' />
    <nd ref='-166830477' />
  </way>
  <way id='-37752765' action='modify'>
    <nd ref='-166830477' />
    <nd ref='-166830478' />
    <tag k='type' v='straight' />
  </way>
  <way id='-37752766' action='modify'>
    <nd ref='-166830478' />
    <nd ref='-166830479' />
  </way>
  <way id='-37752767' action='modify'>
    <nd ref='-166830479' />
    <nd ref='-166830480' />
    <tag k='type' v='straight' />
  </way>
  <way id='-37752768' action='modify'>
    <nd ref='-166830480' />
    <nd ref='-166830481' />
  </way>
  <way id='-37752769' action='modify'>
    <nd ref='-166830481' />
    <nd ref='-166830482' />
    <tag k='type' v='straight' />
  </way>
  <way id='-37752770' action='modify'>
    <nd ref='-166830482' />
    <nd ref='-166830483' />
  </way>
  <way id='-37752771' action='modify'>
    <nd ref='-166830483' />
    <nd ref='-166830484' />
    <nd ref='-166830485' />
    <tag k='type' v='straight' />
  </way>
  <way id='-37752772' action='modify'>
    <nd ref='-166830485' />
    <nd ref='-166830486' />
  </way>
  <way id='-37752773' action='modify'>
    <nd ref='-166830486' />
    <nd ref='-166830487' />
    <nd ref='-166830488' />
    <tag k='type' v='straight' />
  </way>
  <way id='-37752774' action='modify'>
    <nd ref='-166830488' />
    <nd ref='-166830489' />
  </way>
  <way id='-37752775' action='modify'>
    <nd ref='-166830489' />
    <nd ref='-166830490' />
    <tag k='type' v='straight' />
  </way>
  <way id='-37752776' action='modify'>
    <nd ref='-166830490' />
    <nd ref='-166830491' />
  </way>
  <way id='-37752777' action='modify'>
    <nd ref='-166830491' />
    <nd ref='-166830492' />
    <nd ref='-166830493' />
    <tag k='type' v='straight' />
  </way>
  <way id='-37752778' action='modify'>
    <nd ref='-166830493' />
    <nd ref='-166830494' />
  </way>
  <way id='-37752779' action='modify'>
    <nd ref='-166830494' />
    <nd ref='-166830495' />
    <tag k='type' v='straight' />
  </way>
  <way id='-37752780' action='modify'>
    <nd ref='-166830495' />
    <nd ref='-166830496' />
    <nd ref='-166830497' />
  </way>
  <way id='-37752781' action='modify'>
    <nd ref='-166830497' />
    <nd ref='-166830498' />
    <tag k='type' v='straight' />
  </way>
  <way id='-37752782' action='modify'>
    <nd ref='-166830498' />
    <nd ref='-166830499' />
  </way>
  <way id='-37752783' action='modify'>
    <nd ref='-166830499' />
    <nd ref='-166830500' />
    <nd ref='-166830501' />
    <tag k='type' v='straight' />
  </way>
  <way id='-37752784' action='modify'>
    <nd ref='-166830501' />
    <nd ref='-166830502' />
    <nd ref='-166830503' />
  </way>
  <way id='-37752785' action='modify'>
    <nd ref='-166830503' />
    <nd ref='-166830504' />
    <tag k='type' v='straight' />
  </way>
  <way id='-37752788' action='modify'>
    <nd ref='-166830504' />
    <nd ref='-166830506' />
    <nd ref='-166830507' />
    <tag k='type' v='straight' />
  </way>
  <way id='-37752789' action='modify'>
    <nd ref='-166830507' />
    <nd ref='-166830508' />
  </way>
  <way id='-37752790' action='modify'>
    <nd ref='-166830508' />
    <nd ref='-166830510' />
    <tag k='type' v='straight' />
  </way>
  <way id='-37752792' action='modify'>
    <nd ref='-166830510' />
    <nd ref='-166830511' />
  </way>
  <way id='-37752793' action='modify'>
    <nd ref='-166830511' />
    <nd ref='-166830512' />
    <tag k='type' v='straight' />
  </way>
  <way id='-37752794' action='modify'>
    <nd ref='-166830512' />
    <nd ref='-166830513' />
  </way>
  <way id='-37752795' action='modify'>
    <nd ref='-166830513' />
    <nd ref='-166830514' />
    <nd ref='-166830515' />
    <tag k='type' v='straight' />
  </way>
  <way id='-37752796' action='modify'>
    <nd ref='-166830515' />
    <nd ref='-166830516' />
  </way>
  <way id='-37752797' action='modify'>
    <nd ref='-166830516' />
    <nd ref='-166830517' />
    <tag k='type' v='straight' />
  </way>
  <way id='-37752798' action='modify'>
    <nd ref='-166830517' />
    <nd ref='-166830518' />
  </way>
  <way id='-37752799' action='modify'>
    <nd ref='-166830518' />
    <nd ref='-166830519' />
    <nd ref='-166830520' />
    <tag k='type' v='straight' />
  </way>
  <way id='-37752800' action='modify'>
    <nd ref='-166830520' />
    <nd ref='-166830521' />
  </way>
  <way id='-37752801' action='modify'>
    <nd ref='-166830521' />
    <nd ref='-166830522' />
    <tag k='type' v='straight' />
  </way>
  <way id='-37752802' action='modify'>
    <nd ref='-166830522' />
    <nd ref='-166830523' />
  </way>
  <way id='-37752803' action='modify'>
    <nd ref='-166830523' />
    <nd ref='-166830524' />
    <tag k='type' v='straight' />
  </way>
  <way id='-37752804' action='modify'>
    <nd ref='-166830524' />
    <nd ref='-166830525' />
  </way>
  <way id='-37752805' action='modify'>
    <nd ref='-166830525' />
    <nd ref='-166830526' />
    <tag k='type' v='straight' />
  </way>
  <way id='-37752806' action='modify'>
    <nd ref='-166830526' />
    <nd ref='-166830527' />
  </way>
  <way id='-37752807' action='modify'>
    <nd ref='-166830527' />
    <nd ref='-166830528' />
    <tag k='type' v='straight' />
  </way>
  <way id='-37752808' action='modify'>
    <nd ref='-166830528' />
    <nd ref='-166830529' />
  </way>
  <way id='-37752809' action='modify'>
    <nd ref='-166830529' />
    <nd ref='-166830530' />
    <nd ref='-166830531' />
    <tag k='type' v='straight' />
  </way>
  <way id='-37752810' action='modify'>
    <nd ref='-166830531' />
    <nd ref='-166830532' />
  </way>
  <way id='-37752811' action='modify'>
    <nd ref='-166830532' />
    <nd ref='-166830533' />
    <nd ref='-166830534' />
    <tag k='type' v='straight' />
  </way>
  <way id='-37752812' action='modify'>
    <nd ref='-166830534' />
    <nd ref='-166830535' />
  </way>
  <way id='-37752813' action='modify'>
    <nd ref='-166830535' />
    <nd ref='-166830536' />
    <nd ref='-166830537' />
    <tag k='type' v='straight' />
  </way>
  <way id='-37752814' action='modify'>
    <nd ref='-166830537' />
    <nd ref='-166830538' />
  </way>
  <way id='-37752815' action='modify'>
    <nd ref='-166830538' />
    <nd ref='-166830539' />
    <tag k='type' v='straight' />
  </way>
  <way id='-37752816' action='modify'>
    <nd ref='-166830539' />
    <nd ref='-166830540' />
  </way>
  <way id='-37752817' action='modify'>
    <nd ref='-166830540' />
    <nd ref='-166830541' />
    <tag k='type' v='straight' />
  </way>
  <way id='-37752818' action='modify'>
    <nd ref='-166830541' />
    <nd ref='-166830542' />
  </way>
  <way id='-37752819' action='modify'>
    <nd ref='-166830542' />
    <nd ref='-166830543' />
    <tag k='type' v='straight' />
  </way>
  <way id='-37752820' action='modify'>
    <nd ref='-166830543' />
    <nd ref='-166830544' />
  </way>
  <way id='-37752821' action='modify'>
    <nd ref='-166830544' />
    <nd ref='-166830545' />
    <tag k='type' v='straight' />
  </way>
  <way id='-37752822' action='modify'>
    <nd ref='-166830545' />
    <nd ref='-166830546' />
  </way>
  <way id='-37752823' action='modify'>
    <nd ref='-166830546' />
    <nd ref='-166830547' />
    <tag k='type' v='straight' />
  </way>
  <way id='-37752824' action='modify'>
    <nd ref='-166830547' />
    <nd ref='-166830548' />
  </way>
  <way id='-37752825' action='modify'>
    <nd ref='-166830548' />
    <nd ref='-166830549' />
    <tag k='type' v='straight' />
  </way>
  <way id='-37752826' action='modify'>
    <nd ref='-166830549' />
    <nd ref='-166830550' />
  </way>
  <way id='-37752827' action='modify'>
    <nd ref='-166830550' />
    <nd ref='-166830551' />
    <nd ref='-166830552' />
    <tag k='type' v='straight' />
  </way>
  <way id='-37752828' action='modify'>
    <nd ref='-166830552' />
    <nd ref='-166830553' />
  </way>
  <way id='-37752829' action='modify'>
    <nd ref='-166830553' />
    <nd ref='-166830554' />
    <tag k='type' v='straight' />
  </way>
  <way id='-37752830' action='modify'>
    <nd ref='-166830554' />
    <nd ref='-166830555' />
  </way>
  <way id='-37752831' action='modify'>
    <nd ref='-166830555' />
    <nd ref='-166830556' />
    <tag k='type' v='straight' />
  </way>
  <way id='-37752832' action='modify'>
    <nd ref='-166830556' />
    <nd ref='-166830557' />
  </way>
  <way id='-37752833' action='modify'>
    <nd ref='-166830557' />
    <nd ref='-166830558' />
    <nd ref='-166830559' />
    <tag k='type' v='straight' />
  </way>
  <way id='-37752834' action='modify'>
    <nd ref='-166830559' />
    <nd ref='-166830560' />
  </way>
  <way id='-37752835' action='modify'>
    <nd ref='-166830560' />
    <nd ref='-166830561' />
    <tag k='type' v='straight' />
  </way>
  <way id='-37752836' action='modify'>
    <nd ref='-166830561' />
    <nd ref='-166830562' />
  </way>
  <way id='-37752837' action='modify'>
    <nd ref='-166830562' />
    <nd ref='-166830563' />
    <tag k='type' v='straight' />
  </way>
  <way id='-37752838' action='modify'>
    <nd ref='-166830563' />
    <nd ref='-166830564' />
  </way>
  <way id='-37752839' action='modify'>
    <nd ref='-166830564' />
    <nd ref='-166830566' />
    <nd ref='-166830627' />
    <tag k='type' v='straight' />
  </way>
  <relation id='-14480932' action='modify'>
    <member type='way' ref='-37752710' role='' />
    <member type='way' ref='-37752711' role='' />
    <member type='way' ref='-37752712' role='' />
    <member type='way' ref='-37752713' role='' />
    <member type='way' ref='-37752714' role='' />
    <member type='way' ref='-37752715' role='' />
    <member type='way' ref='-37752716' role='' />
    <member type='way' ref='-37752717' role='' />
    <member type='way' ref='-37752718' role='' />
    <member type='way' ref='-37752719' role='' />
    <member type='way' ref='-37752720' role='' />
    <member type='way' ref='-37752721' role='' />
    <member type='way' ref='-37752722' role='' />
    <member type='way' ref='-37752723' role='' />
    <member type='way' ref='-37752724' role='' />
    <member type='way' ref='-37752725' role='' />
    <member type='way' ref='-37752726' role='' />
    <member type='way' ref='-37752727' role='' />
    <member type='way' ref='-37752728' role='' />
    <member type='way' ref='-37752729' role='' />
    <member type='way' ref='-37752730' role='' />
    <member type='way' ref='-37752731' role='' />
    <member type='way' ref='-37752732' role='' />
    <member type='way' ref='-37752733' role='' />
    <member type='way' ref='-37752734' role='' />
    <member type='way' ref='-37752735' role='' />
    <member type='way' ref='-37752736' role='' />
    <member type='way' ref='-37752737' role='' />
    <member type='way' ref='-37752738' role='' />
    <member type='way' ref='-37752739' role='' />
    <member type='way' ref='-37752740' role='' />
    <member type='way' ref='-37752741' role='' />
    <member type='way' ref='-37752742' role='' />
    <member type='way' ref='-37752743' role='' />
    <member type='way' ref='-37752744' role='' />
    <member type='way' ref='-37752745' role='' />
    <member type='way' ref='-37752746' role='' />
    <member type='way' ref='-37752747' role='' />
    <member type='way' ref='-37752748' role='' />
    <member type='way' ref='-37752749' role='' />
    <member type='way' ref='-37752750' role='' />
    <member type='way' ref='-37752751' role='' />
    <member type='way' ref='-37752752' role='' />
    <member type='way' ref='-37752753' role='' />
    <member type='way' ref='-37752754' role='' />
    <member type='way' ref='-37752755' role='' />
    <member type='way' ref='-37752756' role='' />
    <member type='way' ref='-37752757' role='' />
    <member type='way' ref='-37752758' role='' />
    <member type='way' ref='-37752760' role='' />
    <member type='way' ref='-37752761' role='' />
    <member type='way' ref='-37752762' role='' />
    <member type='way' ref='-37752763' role='' />
    <member type='way' ref='-37752764' role='' />
    <member type='way' ref='-37752765' role='' />
    <member type='way' ref='-37752766' role='' />
    <member type='way' ref='-37752767' role='' />
    <member type='way' ref='-37752768' role='' />
    <member type='way' ref='-37752769' role='' />
    <member type='way' ref='-37752770' role='' />
    <member type='way' ref='-37752771' role='' />
    <member type='way' ref='-37752772' role='' />
    <member type='way' ref='-37752773' role='' />
    <member type='way' ref='-37752774' role='' />
    <member type='way' ref='-37752775' role='' />
    <member type='way' ref='-37752776' role='' />
    <member type='way' ref='-37752777' role='' />
    <member type='way' ref='-37752778' role='' />
    <member type='way' ref='-37752779' role='' />
    <member type='way' ref='-37752780' role='' />
    <member type='way' ref='-37752781' role='' />
    <member type='way' ref='-37752782' role='' />
    <member type='way' ref='-37752783' role='' />
    <member type='way' ref='-37752784' role='' />
    <member type='way' ref='-37752785' role='' />
    <member type='way' ref='-37752788' role='' />
    <member type='way' ref='-37752789' role='' />
    <member type='way' ref='-37752790' role='' />
    <member type='way' ref='-37752792' role='' />
    <member type='way' ref='-37752793' role='' />
    <member type='way' ref='-37752794' role='' />
    <member type='way' ref='-37752795' role='' />
    <member type='way' ref='-37752796' role='' />
    <member type='way' ref='-37752797' role='' />
    <member type='way' ref='-37752798' role='' />
    <member type='way' ref='-37752799' role='' />
    <member type='way' ref='-37752800' role='' />
    <member type='way' ref='-37752801' role='' />
    <member type='way' ref='-37752802' role='' />
    <member type='way' ref='-37752803' role='' />
    <member type='way' ref='-37752804' role='' />
    <member type='way' ref='-37752805' role='' />
    <member type='way' ref='-37752806' role='' />
    <member type='way' ref='-37752807' role='' />
    <member type='way' ref='-37752808' role='' />
    <member type='way' ref='-37752809' role='' />
    <member type='way' ref='-37752810' role='' />
    <member type='way' ref='-37752811' role='' />
    <member type='way' ref='-37752812' role='' />
    <member type='way' ref='-37752813' role='' />
    <member type='way' ref='-37752814' role='' />
    <member type='way' ref='-37752815' role='' />
    <member type='way' ref='-37752816' role='' />
    <member type='way' ref='-37752817' role='' />
    <member type='way' ref='-37752818' role='' />
    <member type='way' ref='-37752819' role='' />
    <member type='way' ref='-37752820' role='' />
    <member type='way' ref='-37752821' role='' />
    <member type='way' ref='-37752822' role='' />
    <member type='way' ref='-37752823' role='' />
    <member type='way' ref='-37752824' role='' />
    <member type='way' ref='-37752825' role='' />
    <member type='way' ref='-37752826' role='' />
    <member type='way' ref='-37752827' role='' />
    <member type='way' ref='-37752828' role='' />
    <member type='way' ref='-37752829' role='' />
    <member type='way' ref='-37752830' role='' />
    <member type='way' ref='-37752831' role='' />
    <member type='way' ref='-37752832' role='' />
    <member type='way' ref='-37752833' role='' />
    <member type='way' ref='-37752834' role='' />
    <member type='way' ref='-37752835' role='' />
    <member type='way' ref='-37752836' role='' />
    <member type='way' ref='-37752837' role='' />
    <member type='way' ref='-37752838' role='' />
    <member type='way' ref='-37752839' role='' />
    <tag k='key' v='path.dk.fbm' />
    <tag k='name' v='DK FBM' />
    <tag k='type' v='path' />
  </relation>
</osm>
