<?xml version='1.0' encoding='UTF-8'?>
<osm version='0.6' upload='false' generator='JOSM'>
  <node id='-182018899' action='modify' lat='57.44668138352' lon='10.54245471687' />
  <node id='-182018900' action='modify' lat='57.44111864135' lon='10.54057801937'>
    <tag k='name' v='fre' />
  </node>
  <node id='-182018901' action='modify' lat='57.45019986838' lon='10.54233401745' />
  <node id='-182018902' action='modify' lat='57.45188250237' lon='10.54175734252' />
  <node id='-182018903' action='modify' lat='57.45660313212' lon='10.53571700916' />
  <node id='-182018904' action='modify' lat='57.45676256812' lon='10.53524225816' />
  <node id='-182018905' action='modify' lat='57.4588683566' lon='10.52985638246'>
    <tag k='name' v='aph.yf' />
  </node>
  <node id='-182018906' action='modify' lat='57.46287686441' lon='10.5232613787'>
    <tag k='name' v='aph' />
  </node>
  <node id='-182018907' action='modify' lat='57.47841198935' lon='10.49769535527' />
  <node id='-182018908' action='modify' lat='57.48223669966' lon='10.49485355482' />
  <node id='-182018909' action='modify' lat='57.48429344236' lon='10.49468859896' />
  <node id='-182018910' action='modify' lat='57.48999305437' lon='10.49006563813'>
    <tag k='name' v='str' />
  </node>
  <node id='-182018911' action='modify' lat='57.49150013875' lon='10.48653200202' />
  <node id='-182018912' action='modify' lat='57.50393948035' lon='10.44752597675' />
  <node id='-182018913' action='modify' lat='57.50478276504' lon='10.44531845078'>
    <tag k='name' v='rim' />
  </node>
  <node id='-182018914' action='modify' lat='57.50627741873' lon='10.44270202383' />
  <node id='-182018915' action='modify' lat='57.51491604445' lon='10.430551617' />
  <node id='-182018916' action='modify' lat='57.5194794559' lon='10.42580947146' />
  <node id='-182018917' action='modify' lat='57.52895131882' lon='10.41937623538' />
  <node id='-182018918' action='modify' lat='57.53185747951' lon='10.41740205232'>
    <tag k='name' v='jer' />
  </node>
  <node id='-182018919' action='modify' lat='57.54431466482' lon='10.40893798238' />
  <node id='-182018920' action='modify' lat='57.54740961953' lon='10.40802877363' />
  <node id='-182018921' action='modify' lat='57.55444382352' lon='10.40837057065'>
    <tag k='name' v='nap' />
  </node>
  <node id='-182018922' action='modify' lat='57.57915955202' lon='10.4095720493' />
  <node id='-182018923' action='modify' lat='57.58081216255' lon='10.40952645175' />
  <node id='-182018924' action='modify' lat='57.59228431249' lon='10.4083221599'>
    <tag k='name' v='alb' />
  </node>
  <node id='-182018925' action='modify' lat='57.59370871778' lon='10.40817260608' />
  <node id='-182018926' action='modify' lat='57.59779048165' lon='10.40991604261' />
  <node id='-182018927' action='modify' lat='57.62350917491' lon='10.43415918812' />
  <node id='-182018928' action='modify' lat='57.62442909427' lon='10.4349571453' />
  <node id='-182018929' action='modify' lat='57.63030127496' lon='10.43967655105'>
    <tag k='name' v='bun' />
  </node>
  <node id='-182018930' action='modify' lat='57.65791757462' lon='10.46188169973' />
  <node id='-182018931' action='modify' lat='57.65850663548' lon='10.46234913689' />
  <node id='-182018932' action='modify' lat='57.65981781189' lon='10.46340048133'>
    <tag k='name' v='hul' />
  </node>
  <node id='-182018933' action='modify' lat='57.66329226029' lon='10.46618659225' />
  <node id='-182018934' action='modify' lat='57.66418740244' lon='10.46690896019' />
  <node id='-182018935' action='modify' lat='57.69359965944' lon='10.49060761794' />
  <node id='-182018936' action='modify' lat='57.69667223198' lon='10.49481063947' />
  <node id='-182018937' action='modify' lat='57.69963848291' lon='10.50131901965' />
  <node id='-182018938' action='modify' lat='57.70035403004' lon='10.50301618807'>
    <tag k='name' v='san' />
  </node>
  <node id='-182018939' action='modify' lat='57.70548857328' lon='10.51601685517' />
  <node id='-182018940' action='modify' lat='57.7073457293' lon='10.51959961586' />
  <node id='-182018941' action='modify' lat='57.71980558775' lon='10.53800372747'>
    <tag k='name' v='hoj' />
  </node>
  <node id='-182018942' action='modify' lat='57.72173904062' lon='10.54086014494' />
  <node id='-182018943' action='modify' lat='57.72389614721' lon='10.54834082589' />
  <node id='-182018944' action='modify' lat='57.72473031812' lon='10.56373000528'>
    <tag k='name' v='frv' />
  </node>
  <node id='-182018945' action='modify' lat='57.72515368388' lon='10.57154059276' />
  <node id='-182018946' action='modify' lat='57.72518913167' lon='10.57433947854' />
  <node id='-182018947' action='modify' lat='57.72490590356' lon='10.58508776061' />
  <node id='-182018948' action='modify' lat='57.72480636178' lon='10.58652341232' />
  <node id='-182018949' action='modify' lat='57.72426474962' lon='10.59138332873'>
    <tag k='name' v='ska' />
  </node>
  <node id='-182018950' action='modify' lat='57.72414695859' lon='10.59244026472'>
    <tag k='name' v='ska.f' />
  </node>
  <node id='-182018952' action='modify' lat='57.44518902951' lon='10.5373156017' />
  <node id='-182018953' action='modify' lat='57.44167068927' lon='10.53486624298'>
    <tag k='name' v='fre' />
  </node>
  <node id='-182018955' action='modify' lat='57.44989769144' lon='10.53775189541' />
  <node id='-182018957' action='modify' lat='57.45310561057' lon='10.53658531395' />
  <node id='-182018958' action='modify' lat='57.45705887575' lon='10.53283319677'>
    <tag k='name' v='fre.zs' />
  </node>
  <way id='-38859552' action='modify'>
    <nd ref='-182018900' />
    <nd ref='-182018899' />
    <tag k='type' v='straight' />
  </way>
  <way id='-38859553' action='modify'>
    <nd ref='-182018899' />
    <nd ref='-182018901' />
  </way>
  <way id='-38859554' action='modify'>
    <nd ref='-182018901' />
    <nd ref='-182018902' />
    <tag k='type' v='straight' />
  </way>
  <way id='-38859555' action='modify'>
    <nd ref='-182018902' />
    <nd ref='-182018903' />
  </way>
  <way id='-38859556' action='modify'>
    <nd ref='-182018903' />
    <nd ref='-182018904' />
    <tag k='type' v='straight' />
  </way>
  <way id='-38859557' action='modify'>
    <nd ref='-182018904' />
    <nd ref='-182018905' />
  </way>
  <way id='-38859558' action='modify'>
    <nd ref='-182018905' />
    <nd ref='-182018906' />
    <tag k='type' v='straight' />
  </way>
  <way id='-38859559' action='modify'>
    <nd ref='-182018906' />
    <nd ref='-182018907' />
    <tag k='type' v='straight' />
  </way>
  <way id='-38859560' action='modify'>
    <nd ref='-182018907' />
    <nd ref='-182018908' />
  </way>
  <way id='-38859561' action='modify'>
    <nd ref='-182018908' />
    <nd ref='-182018909' />
    <tag k='type' v='straight' />
  </way>
  <way id='-38859562' action='modify'>
    <nd ref='-182018909' />
    <nd ref='-182018910' />
    <nd ref='-182018911' />
  </way>
  <way id='-38859563' action='modify'>
    <nd ref='-182018911' />
    <nd ref='-182018912' />
    <tag k='type' v='straight' />
  </way>
  <way id='-38859564' action='modify'>
    <nd ref='-182018912' />
    <nd ref='-182018913' />
    <nd ref='-182018914' />
  </way>
  <way id='-38859565' action='modify'>
    <nd ref='-182018916' />
    <nd ref='-182018917' />
    <nd ref='-182018918' />
    <nd ref='-182018919' />
    <tag k='type' v='straight' />
  </way>
  <way id='-38859566' action='modify'>
    <nd ref='-182018919' />
    <nd ref='-182018920' />
  </way>
  <way id='-38859567' action='modify'>
    <nd ref='-182018920' />
    <nd ref='-182018921' />
    <nd ref='-182018922' />
    <tag k='type' v='straight' />
  </way>
  <way id='-38859568' action='modify'>
    <nd ref='-182018922' />
    <nd ref='-182018923' />
  </way>
  <way id='-38859569' action='modify'>
    <nd ref='-182018923' />
    <nd ref='-182018924' />
    <nd ref='-182018925' />
    <tag k='type' v='straight' />
  </way>
  <way id='-38859570' action='modify'>
    <nd ref='-182018925' />
    <nd ref='-182018926' />
  </way>
  <way id='-38859571' action='modify'>
    <nd ref='-182018926' />
    <nd ref='-182018927' />
    <tag k='type' v='straight' />
  </way>
  <way id='-38859572' action='modify'>
    <nd ref='-182018927' />
    <nd ref='-182018928' />
  </way>
  <way id='-38859573' action='modify'>
    <nd ref='-182018928' />
    <nd ref='-182018929' />
    <nd ref='-182018930' />
    <tag k='type' v='straight' />
  </way>
  <way id='-38859574' action='modify'>
    <nd ref='-182018930' />
    <nd ref='-182018931' />
  </way>
  <way id='-38859575' action='modify'>
    <nd ref='-182018931' />
    <nd ref='-182018932' />
    <nd ref='-182018933' />
    <tag k='type' v='straight' />
  </way>
  <way id='-38859576' action='modify'>
    <nd ref='-182018933' />
    <nd ref='-182018934' />
  </way>
  <way id='-38859577' action='modify'>
    <nd ref='-182018934' />
    <nd ref='-182018935' />
    <tag k='type' v='straight' />
  </way>
  <way id='-38859578' action='modify'>
    <nd ref='-182018935' />
    <nd ref='-182018936' />
  </way>
  <way id='-38859579' action='modify'>
    <nd ref='-182018936' />
    <nd ref='-182018937' />
    <tag k='type' v='straight' />
  </way>
  <way id='-38859580' action='modify'>
    <nd ref='-182018937' />
    <nd ref='-182018938' />
  </way>
  <way id='-38859581' action='modify'>
    <nd ref='-182018938' />
    <nd ref='-182018939' />
    <tag k='type' v='straight' />
  </way>
  <way id='-38859582' action='modify'>
    <nd ref='-182018939' />
    <nd ref='-182018940' />
  </way>
  <way id='-38859583' action='modify'>
    <nd ref='-182018940' />
    <nd ref='-182018941' />
    <nd ref='-182018942' />
    <tag k='type' v='straight' />
  </way>
  <way id='-38859584' action='modify'>
    <nd ref='-182018942' />
    <nd ref='-182018943' />
  </way>
  <way id='-38859585' action='modify'>
    <nd ref='-182018943' />
    <nd ref='-182018944' />
    <nd ref='-182018945' />
    <tag k='type' v='straight' />
  </way>
  <way id='-38859586' action='modify'>
    <nd ref='-182018945' />
    <nd ref='-182018946' />
  </way>
  <way id='-38859587' action='modify'>
    <nd ref='-182018946' />
    <nd ref='-182018947' />
    <tag k='type' v='straight' />
  </way>
  <way id='-38859588' action='modify'>
    <nd ref='-182018947' />
    <nd ref='-182018948' />
  </way>
  <way id='-38859589' action='modify'>
    <nd ref='-182018948' />
    <nd ref='-182018949' />
    <nd ref='-182018950' />
    <tag k='type' v='straight' />
  </way>
  <way id='-38859590' action='modify'>
    <nd ref='-182018953' />
    <nd ref='-182018952' />
    <tag k='type' v='straight' />
  </way>
  <way id='-38859591' action='modify'>
    <nd ref='-182018952' />
    <nd ref='-182018955' />
  </way>
  <way id='-38859593' action='modify'>
    <nd ref='-182018955' />
    <nd ref='-182018957' />
    <tag k='type' v='straight' />
  </way>
  <way id='-38859594' action='modify'>
    <nd ref='-182018957' />
    <nd ref='-182018958' />
  </way>
  <way id='-38859595' action='modify'>
    <nd ref='-182018958' />
    <nd ref='-182018905' />
    <tag k='type' v='straight' />
  </way>
  <way id='-38859657' action='modify'>
    <nd ref='-182018914' />
    <nd ref='-182018915' />
    <tag k='type' v='straight' />
  </way>
  <way id='-38859658' action='modify'>
    <nd ref='-182018915' />
    <nd ref='-182018916' />
  </way>
  <relation id='-14491579' action='modify'>
    <member type='way' ref='-38859552' role='' />
    <member type='way' ref='-38859553' role='' />
    <member type='way' ref='-38859554' role='' />
    <member type='way' ref='-38859555' role='' />
    <member type='way' ref='-38859556' role='' />
    <member type='way' ref='-38859557' role='' />
    <member type='way' ref='-38859558' role='' />
    <member type='way' ref='-38859559' role='' />
    <member type='way' ref='-38859560' role='' />
    <member type='way' ref='-38859561' role='' />
    <member type='way' ref='-38859562' role='' />
    <member type='way' ref='-38859563' role='' />
    <member type='way' ref='-38859564' role='' />
    <member type='way' ref='-38859657' role='' />
    <member type='way' ref='-38859658' role='' />
    <member type='way' ref='-38859565' role='' />
    <member type='way' ref='-38859566' role='' />
    <member type='way' ref='-38859567' role='' />
    <member type='way' ref='-38859568' role='' />
    <member type='way' ref='-38859569' role='' />
    <member type='way' ref='-38859570' role='' />
    <member type='way' ref='-38859571' role='' />
    <member type='way' ref='-38859572' role='' />
    <member type='way' ref='-38859573' role='' />
    <member type='way' ref='-38859574' role='' />
    <member type='way' ref='-38859575' role='' />
    <member type='way' ref='-38859576' role='' />
    <member type='way' ref='-38859577' role='' />
    <member type='way' ref='-38859578' role='' />
    <member type='way' ref='-38859579' role='' />
    <member type='way' ref='-38859580' role='' />
    <member type='way' ref='-38859581' role='' />
    <member type='way' ref='-38859582' role='' />
    <member type='way' ref='-38859583' role='' />
    <member type='way' ref='-38859584' role='' />
    <member type='way' ref='-38859585' role='' />
    <member type='way' ref='-38859586' role='' />
    <member type='way' ref='-38859587' role='' />
    <member type='way' ref='-38859588' role='' />
    <member type='way' ref='-38859589' role='' />
    <tag k='key' v='path.dk.fhs' />
    <tag k='name' v='DK FHS' />
    <tag k='type' v='path' />
  </relation>
  <relation id='-14491580' action='modify'>
    <member type='way' ref='-38859590' role='' />
    <member type='way' ref='-38859591' role='' />
    <member type='way' ref='-38859593' role='' />
    <member type='way' ref='-38859594' role='' />
    <member type='way' ref='-38859595' role='' />
    <member type='way' ref='-38859558' role='' />
    <tag k='key' v='path.dk.fhs.fre' />
    <tag k='name' v='DK FHS (Fre)' />
    <tag k='type' v='path' />
  </relation>
</osm>
