<?xml version='1.0' encoding='UTF-8'?>
<osm version='0.6' upload='false' generator='JOSM'>
  <node id='-70272844' action='modify' lat='55.5669208276' lon='9.73896899668' />
  <node id='-70272845' action='modify' lat='55.56835482217' lon='9.73967254876'>
    <tag k='name' v='fre' />
  </node>
  <node id='-70272846' action='modify' lat='55.56355914167' lon='9.7366258741' />
  <node id='-70272847' action='modify' lat='55.56259730138' lon='9.7357397824' />
  <node id='-70272848' action='modify' lat='55.55805257234' lon='9.72696780975' />
  <node id='-70272849' action='modify' lat='55.55792325468' lon='9.7264157387' />
  <node id='-70272850' action='modify' lat='55.55752392256' lon='9.71958699447' />
  <node id='-70272852' action='modify' lat='55.5576691881' lon='9.70924090872' />
  <node id='-70272853' action='modify' lat='55.557188548' lon='9.70315103882' />
  <node id='-70272854' action='modify' lat='55.55634746251' lon='9.69837947486' />
  <node id='-70272855' action='modify' lat='55.55594695177' lon='9.69591743749' />
  <node id='-70272858' action='modify' lat='55.54548647189' lon='9.62583913375' />
  <node id='-70272859' action='modify' lat='55.54493376717' lon='9.61844159212' />
  <node id='-70272860' action='modify' lat='55.54492678142' lon='9.61576354557'>
    <tag k='name' v='tau' />
  </node>
  <node id='-70272861' action='modify' lat='55.54492617541' lon='9.61553122525' />
  <node id='-70272862' action='modify' lat='55.54154160885' lon='9.60124584064' />
  <node id='-70272863' action='modify' lat='55.53727410041' lon='9.59375128323' />
  <node id='-70272864' action='modify' lat='55.53416162943' lon='9.58310318001' />
  <node id='-70272865' action='modify' lat='55.53385174868' lon='9.57981504057' />
  <node id='-70272866' action='modify' lat='55.53368136153' lon='9.57675183929' />
  <node id='-70272867' action='modify' lat='55.53357027713' lon='9.57040854625' />
  <node id='-70272868' action='modify' lat='55.5334287846' lon='9.56725283753' />
  <node id='-70272869' action='modify' lat='55.53217755879' lon='9.5551284025' />
  <node id='-70272870' action='modify' lat='55.5315883057' lon='9.5515085504' />
  <node id='-70272871' action='modify' lat='55.52986352629' lon='9.54387346631' />
  <node id='-70272872' action='modify' lat='55.52878468401' lon='9.54037200604' />
  <node id='-70272873' action='modify' lat='55.52779964531' lon='9.53792015078' />
  <node id='-70272874' action='modify' lat='55.52663249755' lon='9.53547062039' />
  <node id='-70272875' action='modify' lat='55.52585437065' lon='9.53408248858'>
    <tag k='name' v='elt' />
  </node>
  <node id='-70272876' action='modify' lat='55.52204215334' lon='9.5272821178' />
  <node id='-70272877' action='modify' lat='55.5179620769' lon='9.52271729836' />
  <node id='-70272878' action='modify' lat='55.51343726398' lon='9.51989985078' />
  <node id='-70272879' action='modify' lat='55.51187193585' lon='9.51917766974' />
  <node id='-70272880' action='modify' lat='55.50586879719' lon='9.51733492308' />
  <node id='-70272881' action='modify' lat='55.49906949137' lon='9.50586434692' />
  <node id='-70272882' action='modify' lat='55.49840999237' lon='9.50059772761' />
  <node id='-70272884' action='modify' lat='55.49692483992' lon='9.49495568354' />
  <node id='-70272885' action='modify' lat='55.49276430962' lon='9.48534368751' />
  <node id='-70272886' action='modify' lat='55.49170679382' lon='9.48323589999' />
  <node id='-70272887' action='modify' lat='55.490634497' lon='9.48138712232'>
    <tag k='name' v='kol' />
  </node>
  <node id='-70272888' action='modify' lat='55.48962500013' lon='9.47964666583' />
  <node id='-70272889' action='modify' lat='55.48769028302' lon='9.47266852578' />
  <node id='-70272890' action='modify' lat='55.48764459814' lon='9.47195823307' />
  <node id='-70272892' action='modify' lat='55.4880358511' lon='9.46679295947' />
  <node id='-70272893' action='modify' lat='55.48984659657' lon='9.45876406571' />
  <node id='-70272894' action='modify' lat='55.49047683517' lon='9.45501955273' />
  <node id='-70272895' action='modify' lat='55.49121891406' lon='9.44851483641' />
  <node id='-70272896' action='modify' lat='55.49218170686' lon='9.44362066351' />
  <node id='-70272897' action='modify' lat='55.49407946531' lon='9.43702124526' />
  <node id='-70272898' action='modify' lat='55.49489301434' lon='9.42440530141' />
  <node id='-70272899' action='modify' lat='55.49411653703' lon='9.41887655298' />
  <node id='-70272900' action='modify' lat='55.49582892239' lon='9.40383127069' />
  <node id='-70272901' action='modify' lat='55.50012467794' lon='9.39363619789' />
  <node id='-70272902' action='modify' lat='55.50196315803' lon='9.38461700489' />
  <node id='-70272903' action='modify' lat='55.50206219118' lon='9.38121540517'>
    <tag k='name' v='ejs' />
  </node>
  <node id='-70272904' action='modify' lat='55.50240739228' lon='9.36935833997' />
  <node id='-70272905' action='modify' lat='55.5022629268' lon='9.36457200055' />
  <node id='-70272906' action='modify' lat='55.5020499234' lon='9.36220914166' />
  <node id='-70272907' action='modify' lat='55.50190856864' lon='9.3602130789' />
  <node id='-70272908' action='modify' lat='55.50164437187' lon='9.35508881573' />
  <node id='-70272909' action='modify' lat='55.50145051291' lon='9.35255885348' />
  <node id='-70272910' action='modify' lat='55.50109557' lon='9.34907862246' />
  <node id='-70272911' action='modify' lat='55.50090509889' lon='9.34677802134' />
  <node id='-70272912' action='modify' lat='55.50062569369' lon='9.34239728251' />
  <node id='-70272913' action='modify' lat='55.50050037858' lon='9.33996221826' />
  <node id='-70272914' action='modify' lat='55.50047163336' lon='9.33922878712' />
  <node id='-70272915' action='modify' lat='55.49896401749' lon='9.33135400521' />
  <node id='-70272916' action='modify' lat='55.49767315952' lon='9.32789687022' />
  <node id='-70272917' action='modify' lat='55.49600023408' lon='9.32448576891' />
  <node id='-70272918' action='modify' lat='55.49385677595' lon='9.32112392531' />
  <node id='-70272919' action='modify' lat='55.49277997253' lon='9.3192164604' />
  <node id='-70272920' action='modify' lat='55.48980932862' lon='9.31327289337' />
  <node id='-70272922' action='modify' lat='55.48743060809' lon='9.30970163979' />
  <node id='-70272923' action='modify' lat='55.48583510643' lon='9.30792910663' />
  <node id='-70272924' action='modify' lat='55.48049965504' lon='9.30398018113' />
  <node id='-70272925' action='modify' lat='55.47999709518' lon='9.30377076053'>
    <tag k='name' v='lun' />
  </node>
  <node id='-70272926' action='modify' lat='55.47582627857' lon='9.30203285184' />
  <node id='-70272927' action='modify' lat='55.4726127736' lon='9.30120354372' />
  <node id='-70272929' action='modify' lat='55.46189612042' lon='9.30009492037' />
  <node id='-70272930' action='modify' lat='55.45941773768' lon='9.30007954628' />
  <node id='-70272931' action='modify' lat='55.4525334923' lon='9.30071453813' />
  <node id='-70272932' action='modify' lat='55.44852998649' lon='9.30036091581' />
  <node id='-70272933' action='modify' lat='55.44015688483' lon='9.29809417948' />
  <node id='-70272935' action='modify' lat='55.43440314309' lon='9.29416453408' />
  <node id='-70272936' action='modify' lat='55.4289740184' lon='9.28780003862' />
  <node id='-70272937' action='modify' lat='55.42803795423' lon='9.28665858487'>
    <tag k='name' v='vam' />
  </node>
  <node id='-70272938' action='modify' lat='55.42680346348' lon='9.28513157192' />
  <node id='-70272939' action='modify' lat='55.42462657879' lon='9.28232694465' />
  <node id='-70272940' action='modify' lat='55.41868814276' lon='9.27791336671' />
  <node id='-70272941' action='modify' lat='55.39261145781' lon='9.27017101927' />
  <node id='-70272942' action='modify' lat='55.39191379181' lon='9.26999911194'>
    <tag k='name' v='fag' />
  </node>
  <node id='-70272943' action='modify' lat='55.3888151411' lon='9.26984469457' />
  <node id='-70272944' action='modify' lat='55.38549113686' lon='9.2702517302'>
    <tag k='name' v='far' />
  </node>
  <node id='-70272945' action='modify' lat='55.34488120411' lon='9.27522179471' />
  <node id='-70272946' action='modify' lat='55.33922061224' lon='9.27673083691' />
  <node id='-70272947' action='modify' lat='55.31389542173' lon='9.28722424966'>
    <tag k='name' v='som' />
  </node>
  <node id='-70272948' action='modify' lat='55.29440532789' lon='9.29529534592' />
  <node id='-70272949' action='modify' lat='55.29276638084' lon='9.29581110319' />
  <node id='-70272950' action='modify' lat='55.27719333509' lon='9.29919412693'>
    <tag k='name' v='jeg' />
  </node>
  <node id='-70272952' action='modify' lat='55.26019356851' lon='9.3028855712' />
  <node id='-70272953' action='modify' lat='55.25810457753' lon='9.30326604498' />
  <node id='-70272954' action='modify' lat='55.25719275578' lon='9.30340036051' />
  <node id='-70272955' action='modify' lat='55.25510377417' lon='9.30378064162' />
  <node id='-70272956' action='modify' lat='55.25120276151' lon='9.30462681839' />
  <node id='-70272959' action='modify' lat='55.24839213405' lon='9.30500718132'>
    <tag k='name' v='voj' />
  </node>
  <node id='-70272960' action='modify' lat='55.24537230353' lon='9.30517127552' />
  <node id='-70272962' action='modify' lat='55.2403412145' lon='9.30372581276' />
  <node id='-70272963' action='modify' lat='55.23869076309' lon='9.30265046766' />
  <node id='-70272964' action='modify' lat='55.22961172262' lon='9.30060372946' />
  <node id='-70272965' action='modify' lat='55.21639105293' lon='9.30292949255' />
  <node id='-70272966' action='modify' lat='55.2113989624' lon='9.30269267451' />
  <node id='-70272967' action='modify' lat='55.20794887221' lon='9.30175323627' />
  <node id='-70272968' action='modify' lat='55.20075665814' lon='9.30187209026' />
  <node id='-70272969' action='modify' lat='55.19683224601' lon='9.30307371534'>
    <tag k='name' v='oje' />
  </node>
  <node id='-70272970' action='modify' lat='55.17823434708' lon='9.30876664065' />
  <node id='-70272971' action='modify' lat='55.17474601088' lon='9.31039531595' />
  <node id='-70272972' action='modify' lat='55.14027623083' lon='9.33226004913' />
  <node id='-70272973' action='modify' lat='55.13728863005' lon='9.33379648612' />
  <node id='-70272974' action='modify' lat='55.13215786848' lon='9.33585237081'>
    <tag k='name' v='hov' />
  </node>
  <node id='-70272975' action='modify' lat='55.12669510838' lon='9.33804099617' />
  <node id='-70272976' action='modify' lat='55.12150017969' lon='9.3388012234' />
  <node id='-70272978' action='modify' lat='55.07426083937' lon='9.33398923687' />
  <node id='-70272979' action='modify' lat='55.07048305588' lon='9.33316933534' />
  <node id='-70272980' action='modify' lat='55.06916308554' lon='9.33272827802'>
    <tag k='name' v='rod' />
  </node>
  <node id='-70272982' action='modify' lat='55.05919243584' lon='9.32939713674' />
  <node id='-70272983' action='modify' lat='55.05748044861' lon='9.32881353003' />
  <node id='-70272984' action='modify' lat='55.04343027921' lon='9.32392849823' />
  <node id='-70272985' action='modify' lat='55.03886336391' lon='9.32127167886' />
  <node id='-70272986' action='modify' lat='55.02247064079' lon='9.3075640726'>
    <tag k='name' v='hjo' />
  </node>
  <node id='-70272987' action='modify' lat='54.99340754044' lon='9.28327526105' />
  <node id='-70272988' action='modify' lat='54.9886450915' lon='9.28031612527' />
  <node id='-70272989' action='modify' lat='54.98748343419' lon='9.27982504963'>
    <tag k='name' v='bol' />
  </node>
  <node id='-70272991' action='modify' lat='54.94073625618' lon='9.26007506594' />
  <node id='-70272992' action='modify' lat='54.94000064784' lon='9.25978431741' />
  <node id='-70272994' action='modify' lat='54.93822921003' lon='9.25913166343' />
  <node id='-70272995' action='modify' lat='54.93723038907' lon='9.25873795326' />
  <node id='-70272996' action='modify' lat='54.93628673791' lon='9.258341539'>
    <tag k='name' v='tin' />
  </node>
  <node id='-70272998' action='modify' lat='54.93038609645' lon='9.25586297542' />
  <node id='-70273000' action='modify' lat='54.92366617489' lon='9.25692881668' />
  <node id='-70273001' action='modify' lat='54.9118310405' lon='9.26609031439' />
  <node id='-70273002' action='modify' lat='54.90983477986' lon='9.2679750114' />
  <node id='-70273003' action='modify' lat='54.90555491871' lon='9.27280860301'>
    <tag k='name' v='baj' />
  </node>
  <node id='-70273005' action='modify' lat='54.87532648641' lon='9.30693338167'>
    <tag k='name' v='vej' />
  </node>
  <node id='-70273007' action='modify' lat='54.85656714423' lon='9.32809787391'>
    <tag k='name' v='fah' />
  </node>
  <node id='-70273009' action='modify' lat='54.83522049871' lon='9.35216941916'>
    <tag k='name' v='pak' />
  </node>
  <node id='-70273010' action='modify' lat='54.83494746115' lon='9.3524772275' />
  <node id='-70273011' action='modify' lat='54.83326193815' lon='9.35395526685' />
  <node id='-70273013' action='modify' lat='54.82951968584' lon='9.35639704783' />
  <node id='-70273014' action='modify' lat='54.82874665494' lon='9.35680673163' />
  <node id='-70273016' action='modify' lat='54.82346574815' lon='9.35898298713'>
    <tag k='name' v='pad' />
  </node>
  <node id='-70273017' action='modify' lat='54.81995283769' lon='9.3604304958' />
  <node id='-70273018' action='modify' lat='54.81848532883' lon='9.36114572729' />
  <node id='-70273019' action='modify' lat='54.81521933138' lon='9.36298919027'>
    <tag k='name' v='pag' />
  </node>
  <way id='-22124688' action='modify'>
    <nd ref='-70272845' />
    <nd ref='-70272844' />
    <tag k='type' v='straight' />
  </way>
  <way id='-22124689' action='modify'>
    <nd ref='-70272844' />
    <nd ref='-70272846' />
    <tag k='type' v='arc' />
  </way>
  <way id='-22124690' action='modify'>
    <nd ref='-70272846' />
    <nd ref='-70272847' />
    <tag k='type' v='straight' />
  </way>
  <way id='-22124691' action='modify'>
    <nd ref='-70272847' />
    <nd ref='-70272848' />
    <tag k='type' v='arc' />
  </way>
  <way id='-22124692' action='modify'>
    <nd ref='-70272848' />
    <nd ref='-70272849' />
    <tag k='type' v='straight' />
  </way>
  <way id='-22124693' action='modify'>
    <nd ref='-70272849' />
    <nd ref='-70272850' />
    <tag k='type' v='arc' />
  </way>
  <way id='-22124694' action='modify'>
    <nd ref='-70272850' />
    <nd ref='-70272852' />
    <tag k='type' v='straight' />
  </way>
  <way id='-22124695' action='modify'>
    <nd ref='-70272852' />
    <nd ref='-70272853' />
    <tag k='type' v='arc' />
  </way>
  <way id='-22124696' action='modify'>
    <nd ref='-70272853' />
    <nd ref='-70272854' />
    <tag k='type' v='straight' />
  </way>
  <way id='-22124697' action='modify'>
    <nd ref='-70272854' />
    <nd ref='-70272855' />
    <tag k='type' v='arc' />
  </way>
  <way id='-22124698' action='modify'>
    <nd ref='-70272855' />
    <nd ref='-70272858' />
    <tag k='type' v='straight' />
  </way>
  <way id='-22124700' action='modify'>
    <nd ref='-70272858' />
    <nd ref='-70272859' />
    <tag k='type' v='arc' />
  </way>
  <way id='-22124701' action='modify'>
    <nd ref='-70272859' />
    <nd ref='-70272860' />
    <nd ref='-70272861' />
    <tag k='type' v='straight' />
  </way>
  <way id='-22124702' action='modify'>
    <nd ref='-70272861' />
    <nd ref='-70272862' />
    <tag k='type' v='arc' />
  </way>
  <way id='-22124703' action='modify'>
    <nd ref='-70272862' />
    <nd ref='-70272863' />
    <tag k='type' v='straight' />
  </way>
  <way id='-22124704' action='modify'>
    <nd ref='-70272863' />
    <nd ref='-70272864' />
    <tag k='type' v='arc' />
  </way>
  <way id='-22124705' action='modify'>
    <nd ref='-70272864' />
    <nd ref='-70272865' />
    <tag k='type' v='straight' />
  </way>
  <way id='-22124706' action='modify'>
    <nd ref='-70272865' />
    <nd ref='-70272866' />
    <tag k='type' v='arc' />
  </way>
  <way id='-22124707' action='modify'>
    <nd ref='-70272866' />
    <nd ref='-70272867' />
    <tag k='type' v='straight' />
  </way>
  <way id='-22124708' action='modify'>
    <nd ref='-70272867' />
    <nd ref='-70272868' />
  </way>
  <way id='-22124709' action='modify'>
    <nd ref='-70272868' />
    <nd ref='-70272869' />
    <tag k='type' v='straight' />
  </way>
  <way id='-22124710' action='modify'>
    <nd ref='-70272869' />
    <nd ref='-70272870' />
    <tag k='type' v='arc' />
  </way>
  <way id='-22124711' action='modify'>
    <nd ref='-70272870' />
    <nd ref='-70272871' />
    <tag k='type' v='straight' />
  </way>
  <way id='-22124712' action='modify'>
    <nd ref='-70272871' />
    <nd ref='-70272872' />
    <tag k='type' v='arc' />
  </way>
  <way id='-22124713' action='modify'>
    <nd ref='-70272872' />
    <nd ref='-70272873' />
    <tag k='type' v='straight' />
  </way>
  <way id='-22124714' action='modify'>
    <nd ref='-70272873' />
    <nd ref='-70272874' />
    <tag k='type' v='arc' />
  </way>
  <way id='-22124715' action='modify'>
    <nd ref='-70272874' />
    <nd ref='-70272875' />
    <nd ref='-70272876' />
    <tag k='type' v='straight' />
  </way>
  <way id='-22124716' action='modify'>
    <nd ref='-70272876' />
    <nd ref='-70272877' />
    <tag k='type' v='arc' />
  </way>
  <way id='-22124717' action='modify'>
    <nd ref='-70272877' />
    <nd ref='-70272878' />
    <tag k='type' v='straight' />
  </way>
  <way id='-22124718' action='modify'>
    <nd ref='-70272878' />
    <nd ref='-70272879' />
    <tag k='type' v='arc' />
  </way>
  <way id='-22124719' action='modify'>
    <nd ref='-70272879' />
    <nd ref='-70272880' />
    <tag k='type' v='straight' />
  </way>
  <way id='-22124720' action='modify'>
    <nd ref='-70272880' />
    <nd ref='-70272881' />
    <tag k='type' v='arc' />
  </way>
  <way id='-22124721' action='modify'>
    <nd ref='-70272881' />
    <nd ref='-70272882' />
    <tag k='type' v='straight' />
  </way>
  <way id='-22124722' action='modify'>
    <nd ref='-70272882' />
    <nd ref='-70272884' />
    <tag k='type' v='arc' />
  </way>
  <way id='-22124723' action='modify'>
    <nd ref='-70272884' />
    <nd ref='-70272885' />
    <tag k='type' v='straight' />
  </way>
  <way id='-22124724' action='modify'>
    <nd ref='-70272885' />
    <nd ref='-70272886' />
    <tag k='type' v='arc' />
  </way>
  <way id='-22124725' action='modify'>
    <nd ref='-70272886' />
    <nd ref='-70272887' />
    <nd ref='-70272888' />
    <tag k='type' v='straight' />
  </way>
  <way id='-22124726' action='modify'>
    <nd ref='-70272888' />
    <nd ref='-70272889' />
    <tag k='type' v='arc' />
  </way>
  <way id='-22124727' action='modify'>
    <nd ref='-70272889' />
    <nd ref='-70272890' />
    <tag k='type' v='straight' />
  </way>
  <way id='-22124728' action='modify'>
    <nd ref='-70272890' />
    <nd ref='-70272892' />
    <tag k='type' v='arc' />
  </way>
  <way id='-22124729' action='modify'>
    <nd ref='-70272892' />
    <nd ref='-70272893' />
    <tag k='type' v='straight' />
  </way>
  <way id='-22124730' action='modify'>
    <nd ref='-70272893' />
    <nd ref='-70272894' />
    <tag k='type' v='arc' />
  </way>
  <way id='-22124731' action='modify'>
    <nd ref='-70272894' />
    <nd ref='-70272895' />
    <tag k='type' v='straight' />
  </way>
  <way id='-22124732' action='modify'>
    <nd ref='-70272895' />
    <nd ref='-70272896' />
    <tag k='type' v='arc' />
  </way>
  <way id='-22124733' action='modify'>
    <nd ref='-70272896' />
    <nd ref='-70272897' />
    <tag k='type' v='straight' />
  </way>
  <way id='-22124734' action='modify'>
    <nd ref='-70272897' />
    <nd ref='-70272898' />
    <tag k='type' v='arc' />
  </way>
  <way id='-22124735' action='modify'>
    <nd ref='-70272898' />
    <nd ref='-70272899' />
    <tag k='type' v='straight' />
  </way>
  <way id='-22124736' action='modify'>
    <nd ref='-70272899' />
    <nd ref='-70272900' />
    <tag k='type' v='arc' />
  </way>
  <way id='-22124737' action='modify'>
    <nd ref='-70272900' />
    <nd ref='-70272901' />
    <tag k='type' v='straight' />
  </way>
  <way id='-22124738' action='modify'>
    <nd ref='-70272901' />
    <nd ref='-70272902' />
    <tag k='type' v='arc' />
  </way>
  <way id='-22124739' action='modify'>
    <nd ref='-70272902' />
    <nd ref='-70272903' />
    <nd ref='-70272904' />
    <tag k='type' v='straight' />
  </way>
  <way id='-22124740' action='modify'>
    <nd ref='-70272904' />
    <nd ref='-70272905' />
    <tag k='type' v='arc' />
  </way>
  <way id='-22124741' action='modify'>
    <nd ref='-70272905' />
    <nd ref='-70272906' />
    <tag k='type' v='straight' />
  </way>
  <way id='-22124742' action='modify'>
    <nd ref='-70272906' />
    <nd ref='-70272907' />
    <tag k='type' v='arc' />
  </way>
  <way id='-22124743' action='modify'>
    <nd ref='-70272907' />
    <nd ref='-70272908' />
    <tag k='type' v='straight' />
  </way>
  <way id='-22124744' action='modify'>
    <nd ref='-70272908' />
    <nd ref='-70272909' />
    <tag k='type' v='arc' />
  </way>
  <way id='-22124745' action='modify'>
    <nd ref='-70272909' />
    <nd ref='-70272910' />
    <tag k='type' v='straight' />
  </way>
  <way id='-22124746' action='modify'>
    <nd ref='-70272910' />
    <nd ref='-70272911' />
    <tag k='type' v='arc' />
  </way>
  <way id='-22124747' action='modify'>
    <nd ref='-70272911' />
    <nd ref='-70272912' />
    <tag k='type' v='straight' />
  </way>
  <way id='-22124748' action='modify'>
    <nd ref='-70272912' />
    <nd ref='-70272913' />
    <tag k='type' v='arc' />
  </way>
  <way id='-22124749' action='modify'>
    <nd ref='-70272913' />
    <nd ref='-70272914' />
    <tag k='type' v='straight' />
  </way>
  <way id='-22124750' action='modify'>
    <nd ref='-70272914' />
    <nd ref='-70272915' />
    <tag k='type' v='arc' />
  </way>
  <way id='-22124751' action='modify'>
    <nd ref='-70272915' />
    <nd ref='-70272916' />
    <tag k='type' v='straight' />
  </way>
  <way id='-22124752' action='modify'>
    <nd ref='-70272916' />
    <nd ref='-70272917' />
    <tag k='type' v='arc' />
  </way>
  <way id='-22124753' action='modify'>
    <nd ref='-70272917' />
    <nd ref='-70272918' />
    <tag k='type' v='straight' />
  </way>
  <way id='-22124754' action='modify'>
    <nd ref='-70272918' />
    <nd ref='-70272919' />
    <tag k='type' v='arc' />
  </way>
  <way id='-22124755' action='modify'>
    <nd ref='-70272919' />
    <nd ref='-70272920' />
    <tag k='type' v='straight' />
  </way>
  <way id='-22124756' action='modify'>
    <nd ref='-70272920' />
    <nd ref='-70272922' />
    <tag k='type' v='arc' />
  </way>
  <way id='-22124757' action='modify'>
    <nd ref='-70272922' />
    <nd ref='-70272923' />
    <tag k='type' v='straight' />
  </way>
  <way id='-22124758' action='modify'>
    <nd ref='-70272923' />
    <nd ref='-70272924' />
    <tag k='type' v='arc' />
  </way>
  <way id='-22124759' action='modify'>
    <nd ref='-70272924' />
    <nd ref='-70272925' />
    <nd ref='-70272926' />
    <tag k='type' v='straight' />
  </way>
  <way id='-22124760' action='modify'>
    <nd ref='-70272926' />
    <nd ref='-70272927' />
    <tag k='type' v='arc' />
  </way>
  <way id='-22124761' action='modify'>
    <nd ref='-70272927' />
    <nd ref='-70272929' />
    <tag k='type' v='straight' />
  </way>
  <way id='-22124762' action='modify'>
    <nd ref='-70272929' />
    <nd ref='-70272930' />
    <tag k='type' v='arc' />
  </way>
  <way id='-22124763' action='modify'>
    <nd ref='-70272930' />
    <nd ref='-70272931' />
    <tag k='type' v='straight' />
  </way>
  <way id='-22124764' action='modify'>
    <nd ref='-70272931' />
    <nd ref='-70272932' />
    <tag k='type' v='arc' />
  </way>
  <way id='-22124765' action='modify'>
    <nd ref='-70272932' />
    <nd ref='-70272933' />
    <tag k='type' v='straight' />
  </way>
  <way id='-22124766' action='modify'>
    <nd ref='-70272933' />
    <nd ref='-70272935' />
    <tag k='type' v='arc' />
  </way>
  <way id='-22124767' action='modify'>
    <nd ref='-70272935' />
    <nd ref='-70272936' />
    <tag k='type' v='straight' />
  </way>
  <way id='-22124768' action='modify'>
    <nd ref='-70272936' />
    <nd ref='-70272937' />
    <nd ref='-70272938' />
    <tag k='type' v='arc' />
  </way>
  <way id='-22124769' action='modify'>
    <nd ref='-70272938' />
    <nd ref='-70272939' />
    <tag k='type' v='straight' />
  </way>
  <way id='-22124770' action='modify'>
    <nd ref='-70272939' />
    <nd ref='-70272940' />
    <tag k='type' v='arc' />
  </way>
  <way id='-22124771' action='modify'>
    <nd ref='-70272940' />
    <nd ref='-70272941' />
    <tag k='type' v='straight' />
  </way>
  <way id='-22124772' action='modify'>
    <nd ref='-70272941' />
    <nd ref='-70272942' />
    <nd ref='-70272943' />
    <tag k='type' v='arc' />
  </way>
  <way id='-22124773' action='modify'>
    <nd ref='-70272943' />
    <nd ref='-70272944' />
    <nd ref='-70272945' />
    <tag k='type' v='straight' />
  </way>
  <way id='-22124774' action='modify'>
    <nd ref='-70272945' />
    <nd ref='-70272946' />
    <tag k='type' v='arc' />
  </way>
  <way id='-22124775' action='modify'>
    <nd ref='-70272946' />
    <nd ref='-70272947' />
    <nd ref='-70272948' />
    <tag k='type' v='straight' />
  </way>
  <way id='-22124776' action='modify'>
    <nd ref='-70272948' />
    <nd ref='-70272949' />
    <tag k='type' v='arc' />
  </way>
  <way id='-22124777' action='modify'>
    <nd ref='-70272949' />
    <nd ref='-70272950' />
    <nd ref='-70272952' />
    <tag k='type' v='straight' />
  </way>
  <way id='-22124778' action='modify'>
    <nd ref='-70272952' />
    <nd ref='-70272953' />
    <tag k='type' v='arc' />
  </way>
  <way id='-22124779' action='modify'>
    <nd ref='-70272953' />
    <nd ref='-70272954' />
    <tag k='type' v='straight' />
  </way>
  <way id='-22124780' action='modify'>
    <nd ref='-70272954' />
    <nd ref='-70272955' />
    <tag k='type' v='arc' />
  </way>
  <way id='-22124781' action='modify'>
    <nd ref='-70272955' />
    <nd ref='-70272956' />
    <tag k='type' v='straight' />
  </way>
  <way id='-22124782' action='modify'>
    <nd ref='-70272956' />
    <nd ref='-70272959' />
  </way>
  <way id='-22124785' action='modify'>
    <nd ref='-70272959' />
    <nd ref='-70272960' />
    <tag k='type' v='straight' />
  </way>
  <way id='-22124786' action='modify'>
    <nd ref='-70272960' />
    <nd ref='-70272962' />
    <tag k='type' v='arc' />
  </way>
  <way id='-22124787' action='modify'>
    <nd ref='-70272962' />
    <nd ref='-70272963' />
    <tag k='type' v='straight' />
  </way>
  <way id='-22124788' action='modify'>
    <nd ref='-70272963' />
    <nd ref='-70272964' />
    <tag k='type' v='arc' />
  </way>
  <way id='-22124789' action='modify'>
    <nd ref='-70272964' />
    <nd ref='-70272965' />
    <tag k='type' v='straight' />
  </way>
  <way id='-22124790' action='modify'>
    <nd ref='-70272965' />
    <nd ref='-70272966' />
    <tag k='type' v='arc' />
  </way>
  <way id='-22124791' action='modify'>
    <nd ref='-70272966' />
    <nd ref='-70272967' />
    <tag k='type' v='straight' />
  </way>
  <way id='-22124792' action='modify'>
    <nd ref='-70272967' />
    <nd ref='-70272968' />
    <tag k='type' v='arc' />
  </way>
  <way id='-22124793' action='modify'>
    <nd ref='-70272968' />
    <nd ref='-70272969' />
    <nd ref='-70272970' />
    <tag k='type' v='straight' />
  </way>
  <way id='-22124794' action='modify'>
    <nd ref='-70272970' />
    <nd ref='-70272971' />
    <tag k='type' v='arc' />
  </way>
  <way id='-22124795' action='modify'>
    <nd ref='-70272971' />
    <nd ref='-70272972' />
    <tag k='type' v='straight' />
  </way>
  <way id='-22124796' action='modify'>
    <nd ref='-70272972' />
    <nd ref='-70272973' />
    <tag k='type' v='arc' />
  </way>
  <way id='-22124797' action='modify'>
    <nd ref='-70272973' />
    <nd ref='-70272974' />
    <nd ref='-70272975' />
    <tag k='type' v='straight' />
  </way>
  <way id='-22124798' action='modify'>
    <nd ref='-70272975' />
    <nd ref='-70272976' />
    <tag k='type' v='arc' />
  </way>
  <way id='-22124799' action='modify'>
    <nd ref='-70272976' />
    <nd ref='-70272978' />
    <tag k='type' v='straight' />
  </way>
  <way id='-22124801' action='modify'>
    <nd ref='-70272978' />
    <nd ref='-70272979' />
    <tag k='type' v='arc' />
  </way>
  <way id='-22124803' action='modify'>
    <nd ref='-70272979' />
    <nd ref='-70272980' />
    <nd ref='-70272982' />
    <tag k='type' v='straight' />
  </way>
  <way id='-22124804' action='modify'>
    <nd ref='-70272982' />
    <nd ref='-70272983' />
    <tag k='type' v='arc' />
  </way>
  <way id='-22124805' action='modify'>
    <nd ref='-70272983' />
    <nd ref='-70272984' />
    <tag k='type' v='straight' />
  </way>
  <way id='-22124806' action='modify'>
    <nd ref='-70272984' />
    <nd ref='-70272985' />
    <tag k='type' v='arc' />
  </way>
  <way id='-22124807' action='modify'>
    <nd ref='-70272985' />
    <nd ref='-70272986' />
    <nd ref='-70272987' />
    <tag k='type' v='straight' />
  </way>
  <way id='-22124808' action='modify'>
    <nd ref='-70272987' />
    <nd ref='-70272988' />
    <tag k='type' v='arc' />
  </way>
  <way id='-22124810' action='modify'>
    <nd ref='-70272988' />
    <nd ref='-70272989' />
    <nd ref='-70272991' />
    <tag k='type' v='straight' />
  </way>
  <way id='-22124811' action='modify'>
    <nd ref='-70272991' />
    <nd ref='-70272992' />
    <tag k='type' v='arc' />
  </way>
  <way id='-22124812' action='modify'>
    <nd ref='-70272992' />
    <nd ref='-70272994' />
    <tag k='type' v='straight' />
  </way>
  <way id='-22124814' action='modify'>
    <nd ref='-70272994' />
    <nd ref='-70272995' />
    <tag k='type' v='arc' />
  </way>
  <way id='-22124815' action='modify'>
    <nd ref='-70272995' />
    <nd ref='-70272996' />
    <nd ref='-70272998' />
    <tag k='type' v='straight' />
  </way>
  <way id='-22124817' action='modify'>
    <nd ref='-70272998' />
    <nd ref='-70273000' />
    <tag k='type' v='arc' />
  </way>
  <way id='-22124818' action='modify'>
    <nd ref='-70273000' />
    <nd ref='-70273001' />
    <tag k='type' v='straight' />
  </way>
  <way id='-22124819' action='modify'>
    <nd ref='-70273001' />
    <nd ref='-70273002' />
    <tag k='type' v='arc' />
  </way>
  <way id='-22124820' action='modify'>
    <nd ref='-70273002' />
    <nd ref='-70273003' />
    <nd ref='-70273005' />
    <nd ref='-70273007' />
    <nd ref='-70273009' />
    <nd ref='-70273010' />
    <tag k='type' v='straight' />
  </way>
  <way id='-22124821' action='modify'>
    <nd ref='-70273010' />
    <nd ref='-70273011' />
    <tag k='type' v='arc' />
  </way>
  <way id='-22124822' action='modify'>
    <nd ref='-70273011' />
    <nd ref='-70273013' />
    <tag k='type' v='straight' />
  </way>
  <way id='-22124823' action='modify'>
    <nd ref='-70273013' />
    <nd ref='-70273014' />
    <tag k='type' v='arc' />
  </way>
  <way id='-22124824' action='modify'>
    <nd ref='-70273014' />
    <nd ref='-70273016' />
    <nd ref='-70273017' />
    <tag k='type' v='straight' />
  </way>
  <way id='-22124825' action='modify'>
    <nd ref='-70273017' />
    <nd ref='-70273018' />
    <tag k='type' v='arc' />
  </way>
  <way id='-22124826' action='modify'>
    <nd ref='-70273018' />
    <nd ref='-70273019' />
    <tag k='type' v='straight' />
  </way>
  <relation id='-14212254' action='modify'>
    <member type='way' ref='-22124688' role='' />
    <member type='way' ref='-22124689' role='' />
    <member type='way' ref='-22124690' role='' />
    <member type='way' ref='-22124691' role='' />
    <member type='way' ref='-22124692' role='' />
    <member type='way' ref='-22124693' role='' />
    <member type='way' ref='-22124694' role='' />
    <member type='way' ref='-22124695' role='' />
    <member type='way' ref='-22124696' role='' />
    <member type='way' ref='-22124697' role='' />
    <member type='way' ref='-22124698' role='' />
    <member type='way' ref='-22124700' role='' />
    <member type='way' ref='-22124701' role='' />
    <member type='way' ref='-22124702' role='' />
    <member type='way' ref='-22124703' role='' />
    <member type='way' ref='-22124704' role='' />
    <member type='way' ref='-22124705' role='' />
    <member type='way' ref='-22124706' role='' />
    <member type='way' ref='-22124707' role='' />
    <member type='way' ref='-22124708' role='' />
    <member type='way' ref='-22124709' role='' />
    <member type='way' ref='-22124710' role='' />
    <member type='way' ref='-22124711' role='' />
    <member type='way' ref='-22124712' role='' />
    <member type='way' ref='-22124713' role='' />
    <member type='way' ref='-22124714' role='' />
    <member type='way' ref='-22124715' role='' />
    <member type='way' ref='-22124716' role='' />
    <member type='way' ref='-22124717' role='' />
    <member type='way' ref='-22124718' role='' />
    <member type='way' ref='-22124719' role='' />
    <member type='way' ref='-22124720' role='' />
    <member type='way' ref='-22124721' role='' />
    <member type='way' ref='-22124722' role='' />
    <member type='way' ref='-22124723' role='' />
    <member type='way' ref='-22124724' role='' />
    <member type='way' ref='-22124725' role='' />
    <member type='way' ref='-22124726' role='' />
    <member type='way' ref='-22124727' role='' />
    <member type='way' ref='-22124728' role='' />
    <member type='way' ref='-22124729' role='' />
    <member type='way' ref='-22124730' role='' />
    <member type='way' ref='-22124731' role='' />
    <member type='way' ref='-22124732' role='' />
    <member type='way' ref='-22124733' role='' />
    <member type='way' ref='-22124734' role='' />
    <member type='way' ref='-22124735' role='' />
    <member type='way' ref='-22124736' role='' />
    <member type='way' ref='-22124737' role='' />
    <member type='way' ref='-22124738' role='' />
    <member type='way' ref='-22124739' role='' />
    <member type='way' ref='-22124740' role='' />
    <member type='way' ref='-22124741' role='' />
    <member type='way' ref='-22124742' role='' />
    <member type='way' ref='-22124743' role='' />
    <member type='way' ref='-22124744' role='' />
    <member type='way' ref='-22124745' role='' />
    <member type='way' ref='-22124746' role='' />
    <member type='way' ref='-22124747' role='' />
    <member type='way' ref='-22124748' role='' />
    <member type='way' ref='-22124749' role='' />
    <member type='way' ref='-22124750' role='' />
    <member type='way' ref='-22124751' role='' />
    <member type='way' ref='-22124752' role='' />
    <member type='way' ref='-22124753' role='' />
    <member type='way' ref='-22124754' role='' />
    <member type='way' ref='-22124755' role='' />
    <member type='way' ref='-22124756' role='' />
    <member type='way' ref='-22124757' role='' />
    <member type='way' ref='-22124758' role='' />
    <member type='way' ref='-22124759' role='' />
    <member type='way' ref='-22124760' role='' />
    <member type='way' ref='-22124761' role='' />
    <member type='way' ref='-22124762' role='' />
    <member type='way' ref='-22124763' role='' />
    <member type='way' ref='-22124764' role='' />
    <member type='way' ref='-22124765' role='' />
    <member type='way' ref='-22124766' role='' />
    <member type='way' ref='-22124767' role='' />
    <member type='way' ref='-22124768' role='' />
    <member type='way' ref='-22124769' role='' />
    <member type='way' ref='-22124770' role='' />
    <member type='way' ref='-22124771' role='' />
    <member type='way' ref='-22124772' role='' />
    <member type='way' ref='-22124773' role='' />
    <member type='way' ref='-22124774' role='' />
    <member type='way' ref='-22124775' role='' />
    <member type='way' ref='-22124776' role='' />
    <member type='way' ref='-22124777' role='' />
    <member type='way' ref='-22124778' role='' />
    <member type='way' ref='-22124779' role='' />
    <member type='way' ref='-22124780' role='' />
    <member type='way' ref='-22124781' role='' />
    <member type='way' ref='-22124782' role='' />
    <member type='way' ref='-22124785' role='' />
    <member type='way' ref='-22124786' role='' />
    <member type='way' ref='-22124787' role='' />
    <member type='way' ref='-22124788' role='' />
    <member type='way' ref='-22124789' role='' />
    <member type='way' ref='-22124790' role='' />
    <member type='way' ref='-22124791' role='' />
    <member type='way' ref='-22124792' role='' />
    <member type='way' ref='-22124793' role='' />
    <member type='way' ref='-22124794' role='' />
    <member type='way' ref='-22124795' role='' />
    <member type='way' ref='-22124796' role='' />
    <member type='way' ref='-22124797' role='' />
    <member type='way' ref='-22124798' role='' />
    <member type='way' ref='-22124799' role='' />
    <member type='way' ref='-22124801' role='' />
    <member type='way' ref='-22124803' role='' />
    <member type='way' ref='-22124804' role='' />
    <member type='way' ref='-22124805' role='' />
    <member type='way' ref='-22124806' role='' />
    <member type='way' ref='-22124807' role='' />
    <member type='way' ref='-22124808' role='' />
    <member type='way' ref='-22124810' role='' />
    <member type='way' ref='-22124811' role='' />
    <member type='way' ref='-22124812' role='' />
    <member type='way' ref='-22124814' role='' />
    <member type='way' ref='-22124815' role='' />
    <member type='way' ref='-22124817' role='' />
    <member type='way' ref='-22124818' role='' />
    <member type='way' ref='-22124819' role='' />
    <member type='way' ref='-22124820' role='' />
    <member type='way' ref='-22124821' role='' />
    <member type='way' ref='-22124822' role='' />
    <member type='way' ref='-22124823' role='' />
    <member type='way' ref='-22124824' role='' />
    <member type='way' ref='-22124825' role='' />
    <member type='way' ref='-22124826' role='' />
    <tag k='key' v='path.dk.fpb' />
    <tag k='name' v='DK FPB' />
    <tag k='type' v='path' />
  </relation>
</osm>
