<?xml version='1.0' encoding='UTF-8'?>
<osm version='0.6' upload='false' generator='JOSM'>
  <node id='-156210161' action='modify' lat='55.56225458738' lon='9.76211548205' />
  <node id='-156210162' action='modify' lat='55.56230156022' lon='9.75509226054'>
    <tag k='name' v='fre.a' />
  </node>
  <node id='-156210163' action='modify' lat='55.56231243005' lon='9.75346703748'>
    <tag k='name' v='fre' />
  </node>
  <node id='-156210164' action='modify' lat='55.56237285047' lon='9.74443316191'>
    <tag k='name' v='fre.ya' />
  </node>
  <node id='-156210165' action='modify' lat='55.56444173909' lon='9.73875758886' />
  <node id='-156210166' action='modify' lat='55.56814239276' lon='9.73727700949' />
  <node id='-156210167' action='modify' lat='55.57405057653' lon='9.72490667224' />
  <node id='-156210168' action='modify' lat='55.5753428199' lon='9.711937786' />
  <node id='-156210169' action='modify' lat='55.57616168635' lon='9.70636640311' />
  <node id='-156210170' action='modify' lat='55.57711350784' lon='9.70101355433' />
  <node id='-156210171' action='modify' lat='55.5805400686' lon='9.69150780559' />
  <node id='-156210172' action='modify' lat='55.58341451014' lon='9.68678711772' />
  <node id='-156210173' action='modify' lat='55.58544246707' lon='9.68405647982' />
  <node id='-156210174' action='modify' lat='55.59173220328' lon='9.67709730557'>
    <tag k='name' v='pje.yf' />
  </node>
  <node id='-156210175' action='modify' lat='55.59472905935' lon='9.67378109157' />
  <node id='-156210176' action='modify' lat='55.59708720253' lon='9.67033445701' />
  <node id='-156210177' action='modify' lat='55.59966872432' lon='9.66573446855' />
  <node id='-156210178' action='modify' lat='55.60312364555' lon='9.66172464136'>
    <tag k='name' v='pje' />
  </node>
  <node id='-156210179' action='modify' lat='55.60577671487' lon='9.66041296586' />
  <node id='-156210180' action='modify' lat='55.610775589' lon='9.6589940773' />
  <way id='-37062057' action='modify'>
    <nd ref='-156210161' />
    <nd ref='-156210162' />
    <nd ref='-156210163' />
    <nd ref='-156210164' />
    <tag k='type' v='straight' />
  </way>
  <way id='-37062058' action='modify'>
    <nd ref='-156210164' />
    <nd ref='-156210165' />
  </way>
  <way id='-37062059' action='modify'>
    <nd ref='-156210165' />
    <nd ref='-156210166' />
    <tag k='type' v='straight' />
  </way>
  <way id='-37062060' action='modify'>
    <nd ref='-156210166' />
    <nd ref='-156210167' />
  </way>
  <way id='-37062061' action='modify'>
    <nd ref='-156210167' />
    <nd ref='-156210168' />
    <tag k='type' v='straight' />
  </way>
  <way id='-37062062' action='modify'>
    <nd ref='-156210168' />
    <nd ref='-156210169' />
  </way>
  <way id='-37062063' action='modify'>
    <nd ref='-156210169' />
    <nd ref='-156210170' />
    <tag k='type' v='straight' />
  </way>
  <way id='-37062064' action='modify'>
    <nd ref='-156210170' />
    <nd ref='-156210171' />
  </way>
  <way id='-37062065' action='modify'>
    <nd ref='-156210171' />
    <nd ref='-156210172' />
    <tag k='type' v='straight' />
  </way>
  <way id='-37062066' action='modify'>
    <nd ref='-156210172' />
    <nd ref='-156210173' />
  </way>
  <way id='-37062067' action='modify'>
    <nd ref='-156210173' />
    <nd ref='-156210174' />
    <tag k='type' v='straight' />
  </way>
  <way id='-37062068' action='modify'>
    <nd ref='-156210174' />
    <nd ref='-156210175' />
    <tag k='type' v='straight' />
  </way>
  <way id='-37062069' action='modify'>
    <nd ref='-156210175' />
    <nd ref='-156210176' />
  </way>
  <way id='-37062070' action='modify'>
    <nd ref='-156210176' />
    <nd ref='-156210177' />
    <tag k='type' v='straight' />
  </way>
  <way id='-37062071' action='modify'>
    <nd ref='-156210177' />
    <nd ref='-156210178' />
    <nd ref='-156210179' />
  </way>
  <way id='-37062072' action='modify'>
    <nd ref='-156210179' />
    <nd ref='-156210180' />
    <tag k='type' v='straight' />
  </way>
  <relation id='-14475155' action='modify'>
    <member type='way' ref='-37062057' role='' />
    <member type='way' ref='-37062058' role='' />
    <member type='way' ref='-37062059' role='' />
    <member type='way' ref='-37062060' role='' />
    <member type='way' ref='-37062061' role='' />
    <member type='way' ref='-37062062' role='' />
    <member type='way' ref='-37062063' role='' />
    <member type='way' ref='-37062064' role='' />
    <member type='way' ref='-37062065' role='' />
    <member type='way' ref='-37062066' role='' />
    <member type='way' ref='-37062067' role='' />
    <member type='way' ref='-37062068' role='' />
    <member type='way' ref='-37062069' role='' />
    <member type='way' ref='-37062070' role='' />
    <member type='way' ref='-37062071' role='' />
    <member type='way' ref='-37062072' role='' />
    <tag k='key' v='path.dk.fps' />
    <tag k='name' v='DK FPS' />
    <tag k='type' v='path' />
  </relation>
</osm>
