<?xml version='1.0' encoding='UTF-8'?>
<osm version='0.6' upload='false' generator='JOSM'>
  <node id='-156210093' action='modify' lat='55.56230156022' lon='9.75509226054'>
    <tag k='name' v='fre.a' />
  </node>
  <node id='-156210094' action='modify' lat='55.56231243005' lon='9.75346703748'>
    <tag k='name' v='fre' />
  </node>
  <node id='-156210095' action='modify' lat='55.56237285047' lon='9.74443316191' />
  <node id='-156210096' action='modify' lat='55.56208769018' lon='9.74188506067' />
  <node id='-156210097' action='modify' lat='55.55889616658' lon='9.7302496326' />
  <node id='-156210098' action='modify' lat='55.55752392256' lon='9.71958699447' />
  <node id='-156210099' action='modify' lat='55.55759049422' lon='9.71484564023' />
  <node id='-156210100' action='modify' lat='55.5576691881' lon='9.70924090872' />
  <node id='-156210101' action='modify' lat='55.557188548' lon='9.70315103882' />
  <node id='-156210102' action='modify' lat='55.55634746251' lon='9.69837947486' />
  <node id='-156210103' action='modify' lat='55.55594695177' lon='9.69591743749' />
  <node id='-156210104' action='modify' lat='55.55007067173' lon='9.65654794807' />
  <node id='-156210105' action='modify' lat='55.54876579838' lon='9.64780644762' />
  <node id='-156210106' action='modify' lat='55.54548647189' lon='9.62583913375' />
  <node id='-156210107' action='modify' lat='55.54493376717' lon='9.61844159212' />
  <node id='-156210108' action='modify' lat='55.54492678142' lon='9.61576354557'>
    <tag k='name' v='tau' />
  </node>
  <node id='-156210109' action='modify' lat='55.54492617541' lon='9.61553122525' />
  <way id='-37061980' action='modify'>
    <nd ref='-156210093' />
    <nd ref='-156210094' />
    <nd ref='-156210095' />
    <tag k='type' v='straight' />
  </way>
  <way id='-37061981' action='modify'>
    <nd ref='-156210095' />
    <nd ref='-156210096' />
  </way>
  <way id='-37061982' action='modify'>
    <nd ref='-156210096' />
    <nd ref='-156210097' />
    <tag k='type' v='straight' />
  </way>
  <way id='-37061983' action='modify'>
    <nd ref='-156210097' />
    <nd ref='-156210098' />
  </way>
  <way id='-37061984' action='modify'>
    <nd ref='-156210098' />
    <nd ref='-156210099' />
    <nd ref='-156210100' />
    <tag k='type' v='straight' />
  </way>
  <way id='-37061985' action='modify'>
    <nd ref='-156210100' />
    <nd ref='-156210101' />
    <tag k='type' v='arc' />
  </way>
  <way id='-37061986' action='modify'>
    <nd ref='-156210101' />
    <nd ref='-156210102' />
    <tag k='type' v='straight' />
  </way>
  <way id='-37061987' action='modify'>
    <nd ref='-156210102' />
    <nd ref='-156210103' />
    <tag k='type' v='arc' />
  </way>
  <way id='-37061989' action='modify'>
    <nd ref='-156210103' />
    <nd ref='-156210104' />
    <nd ref='-156210105' />
    <nd ref='-156210106' />
    <tag k='type' v='straight' />
  </way>
  <way id='-37061990' action='modify'>
    <nd ref='-156210106' />
    <nd ref='-156210107' />
    <tag k='type' v='arc' />
  </way>
  <way id='-37061991' action='modify'>
    <nd ref='-156210107' />
    <nd ref='-156210108' />
    <nd ref='-156210109' />
    <tag k='type' v='straight' />
  </way>
  <relation id='-14475138' action='modify'>
    <member type='way' ref='-37061980' role='' />
    <member type='way' ref='-37061981' role='' />
    <member type='way' ref='-37061982' role='' />
    <member type='way' ref='-37061983' role='' />
    <member type='way' ref='-37061984' role='' />
    <member type='way' ref='-37061985' role='' />
    <member type='way' ref='-37061986' role='' />
    <member type='way' ref='-37061987' role='' />
    <member type='way' ref='-37061989' role='' />
    <member type='way' ref='-37061990' role='' />
    <member type='way' ref='-37061991' role='' />
    <tag k='key' v='path.dk.frt' />
    <tag k='name' v='DK FRT' />
    <tag k='type' v='path' />
  </relation>
</osm>
