<?xml version='1.0' encoding='UTF-8'?>
<osm version='0.6' upload='false' generator='JOSM'>
  <node id='-182221555' action='modify' lat='57.44521212251' lon='10.53718685567' />
  <node id='-182221556' action='modify' lat='57.4416937845' lon='10.53473749695'>
    <tag k='name' v='fre' />
  </node>
  <node id='-182221558' action='modify' lat='57.44988614642' lon='10.53764997147' />
  <node id='-182221560' action='modify' lat='57.45309406656' lon='10.53648339001' />
  <node id='-182221561' action='modify' lat='57.45811810933' lon='10.53024781425' />
  <node id='-182221562' action='modify' lat='57.47619394988' lon='10.487591203'>
    <tag k='name' v='ell' />
  </node>
  <node id='-182221563' action='modify' lat='57.47894986298' lon='10.48108575583' />
  <node id='-182221564' action='modify' lat='57.48070326962' lon='10.47775981665' />
  <node id='-182221565' action='modify' lat='57.4981843348' lon='10.45001386698'>
    <tag k='name' v='rim' />
  </node>
  <node id='-182221566' action='modify' lat='57.51484066543' lon='10.4235645719' />
  <node id='-182221567' action='modify' lat='57.51874990659' lon='10.42072532415' />
  <node id='-182221568' action='modify' lat='57.525893638' lon='10.42036054373' />
  <node id='-182221569' action='modify' lat='57.52895131882' lon='10.41937623538' />
  <node id='-182221570' action='modify' lat='57.53185747951' lon='10.41740205232'>
    <tag k='name' v='jer' />
  </node>
  <node id='-182221571' action='modify' lat='57.54431466482' lon='10.40893798238' />
  <node id='-182221572' action='modify' lat='57.54740961953' lon='10.40802877363' />
  <node id='-182221573' action='modify' lat='57.55444382352' lon='10.40837057065'>
    <tag k='name' v='nap' />
  </node>
  <node id='-182221574' action='modify' lat='57.57915955202' lon='10.4095720493' />
  <node id='-182221575' action='modify' lat='57.58081216255' lon='10.40952645175' />
  <node id='-182221576' action='modify' lat='57.59228431249' lon='10.4083221599'>
    <tag k='name' v='alb' />
  </node>
  <node id='-182221577' action='modify' lat='57.59370871778' lon='10.40817260608' />
  <node id='-182221578' action='modify' lat='57.59779048165' lon='10.40991604261' />
  <node id='-182221579' action='modify' lat='57.62350917491' lon='10.43415918812' />
  <node id='-182221580' action='modify' lat='57.62442909427' lon='10.4349571453' />
  <node id='-182221581' action='modify' lat='57.63030127496' lon='10.43967655105'>
    <tag k='name' v='bun' />
  </node>
  <node id='-182221582' action='modify' lat='57.65791757462' lon='10.46188169973' />
  <node id='-182221583' action='modify' lat='57.65850663548' lon='10.46234913689' />
  <node id='-182221584' action='modify' lat='57.65981781189' lon='10.46340048133'>
    <tag k='name' v='hul' />
  </node>
  <node id='-182221585' action='modify' lat='57.66329226029' lon='10.46618659225' />
  <node id='-182221586' action='modify' lat='57.66418740244' lon='10.46690896019' />
  <node id='-182221587' action='modify' lat='57.69359965944' lon='10.49060761794' />
  <node id='-182221588' action='modify' lat='57.69667223198' lon='10.49481063947' />
  <node id='-182221589' action='modify' lat='57.69963848291' lon='10.50131901965' />
  <node id='-182221590' action='modify' lat='57.70035403004' lon='10.50301618807'>
    <tag k='name' v='san' />
  </node>
  <node id='-182221591' action='modify' lat='57.70548857328' lon='10.51601685517' />
  <node id='-182221592' action='modify' lat='57.7073457293' lon='10.51959961586' />
  <node id='-182221593' action='modify' lat='57.71980558775' lon='10.53800372747'>
    <tag k='name' v='hoj' />
  </node>
  <node id='-182221594' action='modify' lat='57.72173904062' lon='10.54086014494' />
  <node id='-182221595' action='modify' lat='57.72389614721' lon='10.54834082589' />
  <node id='-182221596' action='modify' lat='57.72473031812' lon='10.56373000528'>
    <tag k='name' v='frv' />
  </node>
  <node id='-182221597' action='modify' lat='57.72515368388' lon='10.57154059276' />
  <node id='-182221598' action='modify' lat='57.72518913167' lon='10.57433947854' />
  <node id='-182221599' action='modify' lat='57.72490590356' lon='10.58508776061' />
  <node id='-182221600' action='modify' lat='57.72480636178' lon='10.58652341232' />
  <node id='-182221601' action='modify' lat='57.72426474962' lon='10.59138332873'>
    <tag k='name' v='ska' />
  </node>
  <node id='-182221602' action='modify' lat='57.72414695859' lon='10.59244026472'>
    <tag k='name' v='ska.f' />
  </node>
  <way id='-38883542' action='modify'>
    <nd ref='-182221556' />
    <nd ref='-182221555' />
    <tag k='type' v='straight' />
  </way>
  <way id='-38883543' action='modify'>
    <nd ref='-182221555' />
    <nd ref='-182221558' />
  </way>
  <way id='-38883545' action='modify'>
    <nd ref='-182221558' />
    <nd ref='-182221560' />
    <tag k='type' v='straight' />
  </way>
  <way id='-38883546' action='modify'>
    <nd ref='-182221560' />
    <nd ref='-182221561' />
  </way>
  <way id='-38883547' action='modify'>
    <nd ref='-182221561' />
    <nd ref='-182221562' />
    <nd ref='-182221563' />
    <tag k='type' v='straight' />
  </way>
  <way id='-38883548' action='modify'>
    <nd ref='-182221563' />
    <nd ref='-182221564' />
  </way>
  <way id='-38883549' action='modify'>
    <nd ref='-182221564' />
    <nd ref='-182221565' />
    <nd ref='-182221566' />
    <tag k='type' v='straight' />
  </way>
  <way id='-38883550' action='modify'>
    <nd ref='-182221566' />
    <nd ref='-182221567' />
  </way>
  <way id='-38883551' action='modify'>
    <nd ref='-182221567' />
    <nd ref='-182221568' />
    <tag k='type' v='straight' />
  </way>
  <way id='-38883552' action='modify'>
    <nd ref='-182221568' />
    <nd ref='-182221569' />
  </way>
  <way id='-38883553' action='modify'>
    <nd ref='-182221569' />
    <nd ref='-182221570' />
    <nd ref='-182221571' />
    <tag k='type' v='straight' />
  </way>
  <way id='-38883554' action='modify'>
    <nd ref='-182221571' />
    <nd ref='-182221572' />
  </way>
  <way id='-38883555' action='modify'>
    <nd ref='-182221572' />
    <nd ref='-182221573' />
    <nd ref='-182221574' />
    <tag k='type' v='straight' />
  </way>
  <way id='-38883556' action='modify'>
    <nd ref='-182221574' />
    <nd ref='-182221575' />
  </way>
  <way id='-38883557' action='modify'>
    <nd ref='-182221575' />
    <nd ref='-182221576' />
    <nd ref='-182221577' />
    <tag k='type' v='straight' />
  </way>
  <way id='-38883558' action='modify'>
    <nd ref='-182221577' />
    <nd ref='-182221578' />
  </way>
  <way id='-38883559' action='modify'>
    <nd ref='-182221578' />
    <nd ref='-182221579' />
    <tag k='type' v='straight' />
  </way>
  <way id='-38883560' action='modify'>
    <nd ref='-182221579' />
    <nd ref='-182221580' />
  </way>
  <way id='-38883561' action='modify'>
    <nd ref='-182221580' />
    <nd ref='-182221581' />
    <nd ref='-182221582' />
    <tag k='type' v='straight' />
  </way>
  <way id='-38883562' action='modify'>
    <nd ref='-182221582' />
    <nd ref='-182221583' />
  </way>
  <way id='-38883563' action='modify'>
    <nd ref='-182221583' />
    <nd ref='-182221584' />
    <nd ref='-182221585' />
    <tag k='type' v='straight' />
  </way>
  <way id='-38883564' action='modify'>
    <nd ref='-182221585' />
    <nd ref='-182221586' />
  </way>
  <way id='-38883565' action='modify'>
    <nd ref='-182221586' />
    <nd ref='-182221587' />
    <tag k='type' v='straight' />
  </way>
  <way id='-38883566' action='modify'>
    <nd ref='-182221587' />
    <nd ref='-182221588' />
  </way>
  <way id='-38883567' action='modify'>
    <nd ref='-182221588' />
    <nd ref='-182221589' />
    <tag k='type' v='straight' />
  </way>
  <way id='-38883568' action='modify'>
    <nd ref='-182221589' />
    <nd ref='-182221590' />
  </way>
  <way id='-38883569' action='modify'>
    <nd ref='-182221590' />
    <nd ref='-182221591' />
    <tag k='type' v='straight' />
  </way>
  <way id='-38883570' action='modify'>
    <nd ref='-182221591' />
    <nd ref='-182221592' />
  </way>
  <way id='-38883571' action='modify'>
    <nd ref='-182221592' />
    <nd ref='-182221593' />
    <nd ref='-182221594' />
    <tag k='type' v='straight' />
  </way>
  <way id='-38883572' action='modify'>
    <nd ref='-182221594' />
    <nd ref='-182221595' />
  </way>
  <way id='-38883573' action='modify'>
    <nd ref='-182221595' />
    <nd ref='-182221596' />
    <nd ref='-182221597' />
    <tag k='type' v='straight' />
  </way>
  <way id='-38883574' action='modify'>
    <nd ref='-182221597' />
    <nd ref='-182221598' />
  </way>
  <way id='-38883575' action='modify'>
    <nd ref='-182221598' />
    <nd ref='-182221599' />
    <tag k='type' v='straight' />
  </way>
  <way id='-38883576' action='modify'>
    <nd ref='-182221599' />
    <nd ref='-182221600' />
  </way>
  <way id='-38883577' action='modify'>
    <nd ref='-182221600' />
    <nd ref='-182221601' />
    <nd ref='-182221602' />
    <tag k='type' v='straight' />
  </way>
  <relation id='-14491947' action='modify'>
    <member type='way' ref='-38883542' role='' />
    <member type='way' ref='-38883543' role='' />
    <member type='way' ref='-38883545' role='' />
    <member type='way' ref='-38883546' role='' />
    <member type='way' ref='-38883547' role='' />
    <member type='way' ref='-38883548' role='' />
    <member type='way' ref='-38883549' role='' />
    <member type='way' ref='-38883550' role='' />
    <member type='way' ref='-38883551' role='' />
    <member type='way' ref='-38883552' role='' />
    <member type='way' ref='-38883553' role='' />
    <member type='way' ref='-38883554' role='' />
    <member type='way' ref='-38883555' role='' />
    <member type='way' ref='-38883556' role='' />
    <member type='way' ref='-38883557' role='' />
    <member type='way' ref='-38883558' role='' />
    <member type='way' ref='-38883559' role='' />
    <member type='way' ref='-38883560' role='' />
    <member type='way' ref='-38883561' role='' />
    <member type='way' ref='-38883562' role='' />
    <member type='way' ref='-38883563' role='' />
    <member type='way' ref='-38883564' role='' />
    <member type='way' ref='-38883565' role='' />
    <member type='way' ref='-38883566' role='' />
    <member type='way' ref='-38883567' role='' />
    <member type='way' ref='-38883568' role='' />
    <member type='way' ref='-38883569' role='' />
    <member type='way' ref='-38883570' role='' />
    <member type='way' ref='-38883571' role='' />
    <member type='way' ref='-38883572' role='' />
    <member type='way' ref='-38883573' role='' />
    <member type='way' ref='-38883574' role='' />
    <member type='way' ref='-38883575' role='' />
    <member type='way' ref='-38883576' role='' />
    <member type='way' ref='-38883577' role='' />
    <tag k='key' v='path.dk.fss' />
    <tag k='name' v='DK FSS' />
    <tag k='type' v='path' />
  </relation>
</osm>
