<?xml version='1.0' encoding='UTF-8'?>
<osm version='0.6' upload='false' generator='JOSM'>
  <node id='-174433908' action='modify' lat='56.54317246038' lon='9.85016220911' />
  <node id='-174433909' action='modify' lat='56.54648768153' lon='9.84547825832'>
    <tag k='name' v='far' />
  </node>
  <node id='-174433911' action='modify' lat='56.54030683432' lon='9.85387265146' />
  <node id='-174433912' action='modify' lat='56.53858838728' lon='9.85464512765' />
  <node id='-174433913' action='modify' lat='56.53437179677' lon='9.85439032048' />
  <node id='-174433914' action='modify' lat='56.51540986524' lon='9.84440426353'>
    <tag k='name' v='rej' />
  </node>
  <node id='-174433915' action='modify' lat='56.51241459239' lon='9.84282729864' />
  <node id='-174433916' action='modify' lat='56.50974174348' lon='9.83987688482' />
  <node id='-174433917' action='modify' lat='56.50813407443' lon='9.83651213354'>
    <tag k='name' v='son' />
  </node>
  <node id='-174433918' action='modify' lat='56.50714272163' lon='9.83443736494' />
  <node id='-174433919' action='modify' lat='56.50570104908' lon='9.82555388331' />
  <node id='-174433920' action='modify' lat='56.50639969128' lon='9.81927751422' />
  <node id='-174433921' action='modify' lat='56.50669423764' lon='9.81135695904'>
    <tag k='name' v='vil' />
  </node>
  <node id='-174433922' action='modify' lat='56.50529349236' lon='9.79629825522'>
    <tag k='name' v='las' />
  </node>
  <node id='-174433923' action='modify' lat='56.503339719' lon='9.77529515552'>
    <tag k='name' v='hoj' />
  </node>
  <node id='-174433924' action='modify' lat='56.50127509248' lon='9.75310155823'>
    <tag k='name' v='ham' />
  </node>
  <node id='-174433925' action='modify' lat='56.50086940532' lon='9.74874078691' />
  <node id='-174433926' action='modify' lat='56.50071544882' lon='9.74539874911' />
  <node id='-174433927' action='modify' lat='56.50025681002' lon='9.71896187447'>
    <tag k='name' v='aru' />
  </node>
  <node id='-174433928' action='modify' lat='56.50014845367' lon='9.71271604031' />
  <node id='-174433929' action='modify' lat='56.49981240035' lon='9.70880806178' />
  <node id='-174433930' action='modify' lat='56.49845798297' lon='9.69962156797'>
    <tag k='name' v='kvo' />
  </node>
  <node id='-174433931' action='modify' lat='56.49493446571' lon='9.67572443809'>
    <tag k='name' v='mol' />
  </node>
  <node id='-174433932' action='modify' lat='56.49052203896' lon='9.645801694'>
    <tag k='name' v='hul' />
  </node>
  <node id='-174433933' action='modify' lat='56.4883063295' lon='9.63077723712' />
  <node id='-174433934' action='modify' lat='56.48536669944' lon='9.62450085998' />
  <node id='-174433935' action='modify' lat='56.4824918337' lon='9.62161692637'>
    <tag k='name' v='oru' />
  </node>
  <node id='-174433936' action='modify' lat='56.4805591288' lon='9.61967824817' />
  <node id='-174433937' action='modify' lat='56.47860986602' lon='9.61573002577' />
  <node id='-174433938' action='modify' lat='56.47450510308' lon='9.60141241282' />
  <node id='-174433939' action='modify' lat='56.4742403895' lon='9.60055625089'>
    <tag k='name' v='vel' />
  </node>
  <node id='-174433940' action='modify' lat='56.4734399591' lon='9.59842979372' />
  <node id='-174433941' action='modify' lat='56.47092734032' lon='9.59297954768' />
  <node id='-174433942' action='modify' lat='56.46732997993' lon='9.58972334325' />
  <node id='-174433943' action='modify' lat='56.46490754736' lon='9.58942490218'>
    <tag k='name' v='fad' />
  </node>
  <node id='-174433944' action='modify' lat='56.46349814801' lon='9.58925127447' />
  <node id='-174433945' action='modify' lat='56.4606766294' lon='9.5876258558' />
  <node id='-174433946' action='modify' lat='56.45907016696' lon='9.58570002973' />
  <node id='-174433947' action='modify' lat='56.45630315769' lon='9.58422213256' />
  <node id='-174433948' action='modify' lat='56.4546060958' lon='9.58416044444' />
  <node id='-174433949' action='modify' lat='56.45087989468' lon='9.58218191037'>
    <tag k='name' v='vis' />
  </node>
  <node id='-174433950' action='modify' lat='56.45028677359' lon='9.58125292718' />
  <node id='-174433951' action='modify' lat='56.44524941285' lon='9.57204222143' />
  <node id='-174433952' action='modify' lat='56.44372235878' lon='9.56861972272' />
  <node id='-174433953' action='modify' lat='56.4406747748' lon='9.55886152264'>
    <tag k='name' v='vej' />
  </node>
  <node id='-174433954' action='modify' lat='56.44030627976' lon='9.55768167436' />
  <node id='-174433955' action='modify' lat='56.43911710383' lon='9.55157696664' />
  <node id='-174433956' action='modify' lat='56.43900544962' lon='9.55028050666'>
    <tag k='name' v='lov' />
  </node>
  <node id='-174433957' action='modify' lat='56.43880571745' lon='9.54796134889' />
  <node id='-174433958' action='modify' lat='56.43877902558' lon='9.54375564784' />
  <node id='-174433959' action='modify' lat='56.4392238628' lon='9.53721105784' />
  <node id='-174433960' action='modify' lat='56.43929948461' lon='9.53567951649' />
  <node id='-174433961' action='modify' lat='56.43946258922' lon='9.52990203962' />
  <node id='-174433962' action='modify' lat='56.43943293449' lon='9.5272010538' />
  <node id='-174433963' action='modify' lat='56.43895844389' lon='9.5199134919' />
  <node id='-174433964' action='modify' lat='56.43891247878' lon='9.51752364099' />
  <node id='-174433965' action='modify' lat='56.43891921002' lon='9.51662793455'>
    <tag k='name' v='hau' />
  </node>
  <node id='-174433966' action='modify' lat='56.43894954713' lon='9.51259106129' />
  <node id='-174433967' action='modify' lat='56.4388464929' lon='9.50963258475' />
  <node id='-174433968' action='modify' lat='56.43786486802' lon='9.49805751309' />
  <node id='-174433969' action='modify' lat='56.4379234407' lon='9.49503600329' />
  <node id='-174433970' action='modify' lat='56.4384053583' lon='9.49113607138' />
  <node id='-174433971' action='modify' lat='56.43825188674' lon='9.48577165335' />
  <node id='-174433972' action='modify' lat='56.43795920493' lon='9.48423888129'>
    <tag k='name' v='tap' />
  </node>
  <node id='-174433973' action='modify' lat='56.43574881491' lon='9.47266346959'>
    <tag k='name' v='pra' />
  </node>
  <node id='-174433974' action='modify' lat='56.43475671868' lon='9.46746826038' />
  <node id='-174433975' action='modify' lat='56.43379501158' lon='9.46451782644' />
  <node id='-174433976' action='modify' lat='56.43060199183' lon='9.45794104993' />
  <node id='-174433977' action='modify' lat='56.42864793169' lon='9.45574432343' />
  <node id='-174433978' action='modify' lat='56.4242640967' lon='9.45294141635' />
  <node id='-174433979' action='modify' lat='56.42139744061' lon='9.44462751884'>
    <tag k='name' v='bru' />
  </node>
  <node id='-174433980' action='modify' lat='56.42170372377' lon='9.44220184743' />
  <node id='-174433981' action='modify' lat='56.42391698831' lon='9.43063080043' />
  <node id='-174433982' action='modify' lat='56.4245207203' lon='9.42819266975' />
  <node id='-174433983' action='modify' lat='56.42562082193' lon='9.42453373377'>
    <tag k='name' v='sog' />
  </node>
  <node id='-174433984' action='modify' lat='56.42779879331' lon='9.41728949279' />
  <node id='-174433985' action='modify' lat='56.4282140948' lon='9.41098898381' />
  <node id='-174433986' action='modify' lat='56.42738645378' lon='9.40400719374' />
  <node id='-174433987' action='modify' lat='56.43016595549' lon='9.396657933' />
  <node id='-174433988' action='modify' lat='56.43213550825' lon='9.39602493167' />
  <node id='-174433989' action='modify' lat='56.43407529638' lon='9.39639508188'>
    <tag k='name' v='lyn' />
  </node>
  <node id='-174433990' action='modify' lat='56.43456131418' lon='9.39678943853' />
  <node id='-174433991' action='modify' lat='56.43491576416' lon='9.39715559407' />
  <node id='-174433992' action='modify' lat='56.43614123031' lon='9.39815036553' />
  <node id='-174433994' action='modify' lat='56.43756162704' lon='9.39887277648' />
  <node id='-174433995' action='modify' lat='56.43999341778' lon='9.40070271425' />
  <node id='-174433996' action='modify' lat='56.44135678418' lon='9.40226510033' />
  <node id='-174433997' action='modify' lat='56.44535911894' lon='9.40195128188' />
  <node id='-174433998' action='modify' lat='56.44619229881' lon='9.40060481295' />
  <node id='-174433999' action='modify' lat='56.44696319629' lon='9.39848989114' />
  <node id='-174434000' action='modify' lat='56.44711126991' lon='9.39808689324'>
    <tag k='name' v='vib' />
  </node>
  <node id='-174434003' action='modify' lat='56.54119465312' lon='9.85300925118' />
  <way id='-38262654' action='modify'>
    <nd ref='-174433909' />
    <nd ref='-174433908' />
    <tag k='type' v='straight' />
  </way>
  <way id='-38262655' action='modify'>
    <nd ref='-174433908' />
    <nd ref='-174434003' />
    <nd ref='-174433911' />
  </way>
  <way id='-38262656' action='modify'>
    <nd ref='-174433911' />
    <nd ref='-174433912' />
    <tag k='type' v='straight' />
  </way>
  <way id='-38262657' action='modify'>
    <nd ref='-174433912' />
    <nd ref='-174433913' />
  </way>
  <way id='-38262658' action='modify'>
    <nd ref='-174433913' />
    <nd ref='-174433914' />
    <nd ref='-174433915' />
    <tag k='type' v='straight' />
  </way>
  <way id='-38262659' action='modify'>
    <nd ref='-174433915' />
    <nd ref='-174433916' />
  </way>
  <way id='-38262660' action='modify'>
    <nd ref='-174433916' />
    <nd ref='-174433917' />
    <nd ref='-174433918' />
    <tag k='type' v='straight' />
  </way>
  <way id='-38262661' action='modify'>
    <nd ref='-174433918' />
    <nd ref='-174433919' />
  </way>
  <way id='-38262662' action='modify'>
    <nd ref='-174433919' />
    <nd ref='-174433920' />
    <tag k='type' v='straight' />
  </way>
  <way id='-38262663' action='modify'>
    <nd ref='-174433920' />
    <nd ref='-174433921' />
  </way>
  <way id='-38262664' action='modify'>
    <nd ref='-174433921' />
    <nd ref='-174433922' />
    <nd ref='-174433923' />
    <nd ref='-174433924' />
    <nd ref='-174433925' />
    <tag k='type' v='straight' />
  </way>
  <way id='-38262665' action='modify'>
    <nd ref='-174433925' />
    <nd ref='-174433926' />
  </way>
  <way id='-38262666' action='modify'>
    <nd ref='-174433926' />
    <nd ref='-174433927' />
    <nd ref='-174433928' />
    <tag k='type' v='straight' />
  </way>
  <way id='-38262667' action='modify'>
    <nd ref='-174433928' />
    <nd ref='-174433929' />
  </way>
  <way id='-38262668' action='modify'>
    <nd ref='-174433929' />
    <nd ref='-174433930' />
    <nd ref='-174433931' />
    <nd ref='-174433932' />
    <nd ref='-174433933' />
    <tag k='type' v='straight' />
  </way>
  <way id='-38262669' action='modify'>
    <nd ref='-174433933' />
    <nd ref='-174433934' />
  </way>
  <way id='-38262670' action='modify'>
    <nd ref='-174433934' />
    <nd ref='-174433935' />
    <nd ref='-174433936' />
    <tag k='type' v='straight' />
  </way>
  <way id='-38262671' action='modify'>
    <nd ref='-174433936' />
    <nd ref='-174433937' />
  </way>
  <way id='-38262672' action='modify'>
    <nd ref='-174433937' />
    <nd ref='-174433938' />
    <tag k='type' v='straight' />
  </way>
  <way id='-38262673' action='modify'>
    <nd ref='-174433938' />
    <nd ref='-174433939' />
    <nd ref='-174433940' />
  </way>
  <way id='-38262674' action='modify'>
    <nd ref='-174433940' />
    <nd ref='-174433941' />
    <tag k='type' v='straight' />
  </way>
  <way id='-38262675' action='modify'>
    <nd ref='-174433941' />
    <nd ref='-174433942' />
  </way>
  <way id='-38262676' action='modify'>
    <nd ref='-174433942' />
    <nd ref='-174433943' />
    <nd ref='-174433944' />
    <tag k='type' v='straight' />
  </way>
  <way id='-38262677' action='modify'>
    <nd ref='-174433944' />
    <nd ref='-174433945' />
  </way>
  <way id='-38262678' action='modify'>
    <nd ref='-174433945' />
    <nd ref='-174433946' />
    <tag k='type' v='straight' />
  </way>
  <way id='-38262679' action='modify'>
    <nd ref='-174433946' />
    <nd ref='-174433947' />
  </way>
  <way id='-38262680' action='modify'>
    <nd ref='-174433947' />
    <nd ref='-174433948' />
    <tag k='type' v='straight' />
  </way>
  <way id='-38262681' action='modify'>
    <nd ref='-174433948' />
    <nd ref='-174433949' />
    <nd ref='-174433950' />
  </way>
  <way id='-38262682' action='modify'>
    <nd ref='-174433950' />
    <nd ref='-174433951' />
    <tag k='type' v='straight' />
  </way>
  <way id='-38262683' action='modify'>
    <nd ref='-174433951' />
    <nd ref='-174433952' />
  </way>
  <way id='-38262684' action='modify'>
    <nd ref='-174433952' />
    <nd ref='-174433953' />
    <nd ref='-174433954' />
    <tag k='type' v='straight' />
  </way>
  <way id='-38262685' action='modify'>
    <nd ref='-174433954' />
    <nd ref='-174433955' />
  </way>
  <way id='-38262686' action='modify'>
    <nd ref='-174433955' />
    <nd ref='-174433956' />
    <nd ref='-174433957' />
    <tag k='type' v='straight' />
  </way>
  <way id='-38262687' action='modify'>
    <nd ref='-174433957' />
    <nd ref='-174433958' />
  </way>
  <way id='-38262688' action='modify'>
    <nd ref='-174433958' />
    <nd ref='-174433959' />
    <tag k='type' v='straight' />
  </way>
  <way id='-38262689' action='modify'>
    <nd ref='-174433959' />
    <nd ref='-174433960' />
  </way>
  <way id='-38262690' action='modify'>
    <nd ref='-174433960' />
    <nd ref='-174433961' />
    <tag k='type' v='straight' />
  </way>
  <way id='-38262691' action='modify'>
    <nd ref='-174433961' />
    <nd ref='-174433962' />
  </way>
  <way id='-38262692' action='modify'>
    <nd ref='-174433962' />
    <nd ref='-174433963' />
    <tag k='type' v='straight' />
  </way>
  <way id='-38262693' action='modify'>
    <nd ref='-174433963' />
    <nd ref='-174433964' />
  </way>
  <way id='-38262694' action='modify'>
    <nd ref='-174433964' />
    <nd ref='-174433965' />
    <nd ref='-174433966' />
    <tag k='type' v='straight' />
  </way>
  <way id='-38262695' action='modify'>
    <nd ref='-174433966' />
    <nd ref='-174433967' />
  </way>
  <way id='-38262696' action='modify'>
    <nd ref='-174433967' />
    <nd ref='-174433968' />
    <tag k='type' v='straight' />
  </way>
  <way id='-38262697' action='modify'>
    <nd ref='-174433968' />
    <nd ref='-174433969' />
  </way>
  <way id='-38262698' action='modify'>
    <nd ref='-174433969' />
    <nd ref='-174433970' />
    <tag k='type' v='straight' />
  </way>
  <way id='-38262699' action='modify'>
    <nd ref='-174433970' />
    <nd ref='-174433971' />
  </way>
  <way id='-38262700' action='modify'>
    <nd ref='-174433971' />
    <nd ref='-174433972' />
    <nd ref='-174433973' />
    <nd ref='-174433974' />
    <tag k='type' v='straight' />
  </way>
  <way id='-38262701' action='modify'>
    <nd ref='-174433974' />
    <nd ref='-174433975' />
  </way>
  <way id='-38262702' action='modify'>
    <nd ref='-174433975' />
    <nd ref='-174433976' />
    <tag k='type' v='straight' />
  </way>
  <way id='-38262703' action='modify'>
    <nd ref='-174433976' />
    <nd ref='-174433977' />
  </way>
  <way id='-38262704' action='modify'>
    <nd ref='-174433977' />
    <nd ref='-174433978' />
    <tag k='type' v='straight' />
  </way>
  <way id='-38262705' action='modify'>
    <nd ref='-174433978' />
    <nd ref='-174433979' />
    <nd ref='-174433980' />
  </way>
  <way id='-38262706' action='modify'>
    <nd ref='-174433980' />
    <nd ref='-174433981' />
    <tag k='type' v='straight' />
  </way>
  <way id='-38262707' action='modify'>
    <nd ref='-174433981' />
    <nd ref='-174433982' />
  </way>
  <way id='-38262708' action='modify'>
    <nd ref='-174433982' />
    <nd ref='-174433983' />
    <nd ref='-174433984' />
    <tag k='type' v='straight' />
  </way>
  <way id='-38262709' action='modify'>
    <nd ref='-174433984' />
    <nd ref='-174433985' />
  </way>
  <way id='-38262710' action='modify'>
    <nd ref='-174433985' />
    <nd ref='-174433986' />
    <tag k='type' v='straight' />
  </way>
  <way id='-38262711' action='modify'>
    <nd ref='-174433986' />
    <nd ref='-174433987' />
  </way>
  <way id='-38262712' action='modify'>
    <nd ref='-174433987' />
    <nd ref='-174433988' />
    <tag k='type' v='straight' />
  </way>
  <way id='-38262713' action='modify'>
    <nd ref='-174433988' />
    <nd ref='-174433989' />
    <nd ref='-174433990' />
  </way>
  <way id='-38262714' action='modify'>
    <nd ref='-174433990' />
    <nd ref='-174433991' />
    <tag k='type' v='straight' />
  </way>
  <way id='-38262715' action='modify'>
    <nd ref='-174433991' />
    <nd ref='-174433992' />
  </way>
  <way id='-38262717' action='modify'>
    <nd ref='-174433992' />
    <nd ref='-174433994' />
    <tag k='type' v='straight' />
  </way>
  <way id='-38262718' action='modify'>
    <nd ref='-174433994' />
    <nd ref='-174433995' />
  </way>
  <way id='-38262719' action='modify'>
    <nd ref='-174433995' />
    <nd ref='-174433996' />
    <tag k='type' v='straight' />
  </way>
  <way id='-38262720' action='modify'>
    <nd ref='-174433996' />
    <nd ref='-174433997' />
  </way>
  <way id='-38262721' action='modify'>
    <nd ref='-174433997' />
    <nd ref='-174433998' />
    <tag k='type' v='straight' />
  </way>
  <way id='-38262722' action='modify'>
    <nd ref='-174433998' />
    <nd ref='-174433999' />
  </way>
  <way id='-38262723' action='modify'>
    <nd ref='-174433999' />
    <nd ref='-174434000' />
    <tag k='type' v='straight' />
  </way>
  <relation id='-14485005' action='modify'>
    <member type='way' ref='-38262654' role='' />
    <member type='way' ref='-38262655' role='' />
    <member type='way' ref='-38262656' role='' />
    <member type='way' ref='-38262657' role='' />
    <member type='way' ref='-38262658' role='' />
    <member type='way' ref='-38262659' role='' />
    <member type='way' ref='-38262660' role='' />
    <member type='way' ref='-38262661' role='' />
    <member type='way' ref='-38262662' role='' />
    <member type='way' ref='-38262663' role='' />
    <member type='way' ref='-38262664' role='' />
    <member type='way' ref='-38262665' role='' />
    <member type='way' ref='-38262666' role='' />
    <member type='way' ref='-38262667' role='' />
    <member type='way' ref='-38262668' role='' />
    <member type='way' ref='-38262669' role='' />
    <member type='way' ref='-38262670' role='' />
    <member type='way' ref='-38262671' role='' />
    <member type='way' ref='-38262672' role='' />
    <member type='way' ref='-38262673' role='' />
    <member type='way' ref='-38262674' role='' />
    <member type='way' ref='-38262675' role='' />
    <member type='way' ref='-38262676' role='' />
    <member type='way' ref='-38262677' role='' />
    <member type='way' ref='-38262678' role='' />
    <member type='way' ref='-38262679' role='' />
    <member type='way' ref='-38262680' role='' />
    <member type='way' ref='-38262681' role='' />
    <member type='way' ref='-38262682' role='' />
    <member type='way' ref='-38262683' role='' />
    <member type='way' ref='-38262684' role='' />
    <member type='way' ref='-38262685' role='' />
    <member type='way' ref='-38262686' role='' />
    <member type='way' ref='-38262687' role='' />
    <member type='way' ref='-38262688' role='' />
    <member type='way' ref='-38262689' role='' />
    <member type='way' ref='-38262690' role='' />
    <member type='way' ref='-38262691' role='' />
    <member type='way' ref='-38262692' role='' />
    <member type='way' ref='-38262693' role='' />
    <member type='way' ref='-38262694' role='' />
    <member type='way' ref='-38262695' role='' />
    <member type='way' ref='-38262696' role='' />
    <member type='way' ref='-38262697' role='' />
    <member type='way' ref='-38262698' role='' />
    <member type='way' ref='-38262699' role='' />
    <member type='way' ref='-38262700' role='' />
    <member type='way' ref='-38262701' role='' />
    <member type='way' ref='-38262702' role='' />
    <member type='way' ref='-38262703' role='' />
    <member type='way' ref='-38262704' role='' />
    <member type='way' ref='-38262705' role='' />
    <member type='way' ref='-38262706' role='' />
    <member type='way' ref='-38262707' role='' />
    <member type='way' ref='-38262708' role='' />
    <member type='way' ref='-38262709' role='' />
    <member type='way' ref='-38262710' role='' />
    <member type='way' ref='-38262711' role='' />
    <member type='way' ref='-38262712' role='' />
    <member type='way' ref='-38262713' role='' />
    <member type='way' ref='-38262714' role='' />
    <member type='way' ref='-38262715' role='' />
    <member type='way' ref='-38262717' role='' />
    <member type='way' ref='-38262718' role='' />
    <member type='way' ref='-38262719' role='' />
    <member type='way' ref='-38262720' role='' />
    <member type='way' ref='-38262721' role='' />
    <member type='way' ref='-38262722' role='' />
    <member type='way' ref='-38262723' role='' />
    <tag k='key' v='path.dk.fvb' />
    <tag k='name' v='DK FVB' />
    <tag k='type' v='path' />
  </relation>
</osm>
