<?xml version='1.0' encoding='UTF-8'?>
<osm version='0.6' upload='false' generator='JOSM'>
  <node id='-189730319' action='modify' lat='55.2085186063' lon='9.38098794573'>
    <tag k='name' v='ust' />
  </node>
  <node id='-189730320' action='modify' lat='55.20848644645' lon='9.37673378503' />
  <node id='-189730321' action='modify' lat='55.2073572198' lon='9.37430976748' />
  <node id='-189730322' action='modify' lat='55.20072658395' lon='9.36948179126' />
  <node id='-189730323' action='modify' lat='55.19892026371' lon='9.36647771716' />
  <node id='-189730324' action='modify' lat='55.19636065642' lon='9.36003505647' />
  <node id='-189730325' action='modify' lat='55.1960177335' lon='9.35732602' />
  <node id='-189730326' action='modify' lat='55.19601917794' lon='9.35582405953'>
    <tag k='name' v='slu' />
  </node>
  <node id='-189730327' action='modify' lat='55.1960299809' lon='9.3445908916' />
  <node id='-189730328' action='modify' lat='55.19618613196' lon='9.34257387578' />
  <node id='-189730329' action='modify' lat='55.19735267567' lon='9.33510660589' />
  <node id='-189730330' action='modify' lat='55.19747820721' lon='9.33362602651' />
  <node id='-189730331' action='modify' lat='55.19758230623' lon='9.32971536577' />
  <node id='-189730332' action='modify' lat='55.19772008394' lon='9.32821869314'>
    <tag k='name' v='arl' />
  </node>
  <node id='-189730333' action='modify' lat='55.1982466996' lon='9.32612656474' />
  <node id='-189730334' action='modify' lat='55.19843040004' lon='9.32503222346' />
  <node id='-189730335' action='modify' lat='55.20110008402' lon='9.30526970744' />
  <node id='-189730336' action='modify' lat='55.20053411198' lon='9.30266382309' />
  <node id='-189730337' action='modify' lat='55.19991863572' lon='9.3016689517' />
  <node id='-189730338' action='modify' lat='55.19839671862' lon='9.30101036489' />
  <node id='-189730339' action='modify' lat='55.19657474341' lon='9.30187019181'>
    <tag k='name' v='oja' />
  </node>
  <node id='-189730340' action='modify' lat='55.19539004577' lon='9.30242925346' />
  <node id='-189730341' action='modify' lat='55.19347019703' lon='9.30065629721' />
  <node id='-189730342' action='modify' lat='55.18566733418' lon='9.25980088949' />
  <node id='-189730343' action='modify' lat='55.18453413831' lon='9.25804136038' />
  <node id='-189730344' action='modify' lat='55.18356471847' lon='9.25766743304'>
    <tag k='name' v='nje' />
  </node>
  <node id='-189730345' action='modify' lat='55.17584435817' lon='9.25468983873' />
  <node id='-189730346' action='modify' lat='55.17490678991' lon='9.25467252195' />
  <node id='-189730347' action='modify' lat='55.17458391592' lon='9.25477681514'>
    <tag k='name' v='bla' />
  </node>
  <node id='-189730348' action='modify' lat='55.17143572153' lon='9.25579368532' />
  <node id='-189730349' action='modify' lat='55.169603571' lon='9.25574538946' />
  <node id='-189730350' action='modify' lat='55.16068054021' lon='9.25239800334' />
  <node id='-189730351' action='modify' lat='55.15924771293' lon='9.25134563899'>
    <tag k='name' v='str' />
  </node>
  <node id='-189730352' action='modify' lat='55.15804492433' lon='9.24665807605' />
  <node id='-189730353' action='modify' lat='55.15859198218' lon='9.2372730267' />
  <node id='-189730354' action='modify' lat='55.1586456103' lon='9.23611432046' />
  <node id='-189730355' action='modify' lat='55.15892756398' lon='9.22435015172' />
  <node id='-189730356' action='modify' lat='55.15881110663' lon='9.22315120161' />
  <node id='-189730357' action='modify' lat='55.15835139717' lon='9.22137021482' />
  <node id='-189730358' action='modify' lat='55.15823187185' lon='9.22058164537' />
  <node id='-189730359' action='modify' lat='55.15800693188' lon='9.21670657093'>
    <tag k='name' v='gal' />
  </node>
  <node id='-189730360' action='modify' lat='55.15794071891' lon='9.21556591451' />
  <node id='-189730361' action='modify' lat='55.15644201387' lon='9.21298562944' />
  <node id='-189730362' action='modify' lat='55.15393178664' lon='9.21258329809' />
  <node id='-189730363' action='modify' lat='55.15244212963' lon='9.21161769748' />
  <node id='-189730364' action='modify' lat='55.14889859942' lon='9.20766412139' />
  <node id='-189730365' action='modify' lat='55.1483226184' lon='9.20691672402'>
    <tag k='name' v='ran' />
  </node>
  <node id='-189730366' action='modify' lat='55.14709299149' lon='9.20349060953' />
  <node id='-189730367' action='modify' lat='55.14622847943' lon='9.19235407769' />
  <node id='-189730368' action='modify' lat='55.1460108187' lon='9.19067500949' />
  <node id='-189730369' action='modify' lat='55.14275491718' lon='9.17545079112' />
  <node id='-189730370' action='modify' lat='55.14229502268' lon='9.17341231227' />
  <node id='-189730371' action='modify' lat='55.13945655301' lon='9.16191508279'>
    <tag k='name' v='oga' />
  </node>
  <node id='-189730372' action='modify' lat='55.13803308146' lon='9.15614961505' />
  <node id='-189730373' action='modify' lat='55.13745661131' lon='9.15391801715' />
  <node id='-189730374' action='modify' lat='55.13499732063' lon='9.14516328692' />
  <node id='-189730375' action='modify' lat='55.13465999656' lon='9.143055076' />
  <node id='-189730376' action='modify' lat='55.13472132786' lon='9.13599013746' />
  <node id='-189730377' action='modify' lat='55.13382589066' lon='9.13225648642' />
  <node id='-189730378' action='modify' lat='55.13071666269' lon='9.12732445351'>
    <tag k='name' v='age' />
  </node>
  <node id='-189730379' action='modify' lat='55.12961210716' lon='9.12557243764' />
  <node id='-189730380' action='modify' lat='55.12843178568' lon='9.12370029747' />
  <node id='-189730381' action='modify' lat='55.12796511815' lon='9.1230297035' />
  <node id='-189730382' action='modify' lat='55.12346852294' lon='9.11709665716' />
  <node id='-189730383' action='modify' lat='55.12091941259' lon='9.11210774302' />
  <node id='-189730384' action='modify' lat='55.11723161865' lon='9.101576222'>
    <tag k='name' v='kar' />
  </node>
  <node id='-189730385' action='modify' lat='55.11451370199' lon='9.09381507754' />
  <node id='-189730386' action='modify' lat='55.11410870875' lon='9.0870773685' />
  <node id='-189730387' action='modify' lat='55.11475915044' lon='9.08467947364' />
  <node id='-189730388' action='modify' lat='55.11516413708' lon='9.07846211314' />
  <node id='-189730389' action='modify' lat='55.11506289081' lon='9.07732485652' />
  <node id='-189730390' action='modify' lat='55.11509356846' lon='9.07547950208' />
  <node id='-189730391' action='modify' lat='55.11523284766' lon='9.07496833983'>
    <tag k='name' v='brm' />
  </node>
  <node id='-189730392' action='modify' lat='55.11540344238' lon='9.07434224546' />
  <node id='-189730393' action='modify' lat='55.11595261897' lon='9.07322108209' />
  <node id='-189730394' action='modify' lat='55.12030332511' lon='9.06730452106'>
    <tag k='name' v='bra' />
  </node>
  <node id='-189730395' action='modify' lat='55.12113002102' lon='9.06618021763' />
  <node id='-189730396' action='modify' lat='55.1212829212' lon='9.0659925288' />
  <node id='-189730397' action='modify' lat='55.12173845495' lon='9.06549632281' />
  <node id='-189730398' action='modify' lat='55.12190563663' lon='9.06524419516' />
  <node id='-189730399' action='modify' lat='55.12504821981' lon='9.05892490268' />
  <node id='-189730400' action='modify' lat='55.12784856887' lon='9.05678986967' />
  <node id='-189730401' action='modify' lat='55.13776985019' lon='9.05915846146'>
    <tag k='name' v='brk' />
  </node>
  <node id='-189730402' action='modify' lat='55.13849915763' lon='9.05933259845' />
  <node id='-189730403' action='modify' lat='55.13926264916' lon='9.05937551916' />
  <node id='-189730404' action='modify' lat='55.1466239531' lon='9.05908583522'>
    <tag k='name' v='mas' />
  </node>
  <node id='-189730405' action='modify' lat='55.14807091294' lon='9.0587532413' />
  <node id='-189730406' action='modify' lat='55.15277317001' lon='9.05676840663' />
  <node id='-189730407' action='modify' lat='55.1538766181' lon='9.05592082858' />
  <node id='-189730408' action='modify' lat='55.15518705585' lon='9.05407281157'>
    <tag k='name' v='man' />
  </node>
  <node id='-189730409' action='modify' lat='55.15579698527' lon='9.05321265085' />
  <node id='-189730410' action='modify' lat='55.15821042161' lon='9.05229448199' />
  <node id='-189730411' action='modify' lat='55.1725275869' lon='9.05718756504' />
  <node id='-189730412' action='modify' lat='55.17437067816' lon='9.05902683198' />
  <node id='-189730413' action='modify' lat='55.17693169549' lon='9.06421958864' />
  <node id='-189730414' action='modify' lat='55.17828565968' lon='9.06608104169' />
  <node id='-189730415' action='modify' lat='55.18031345666' lon='9.06808733404' />
  <node id='-189730416' action='modify' lat='55.18211143202' lon='9.06881153047' />
  <node id='-189730417' action='modify' lat='55.18307606676' lon='9.06880071033'>
    <tag k='name' v='tok' />
  </node>
  <node id='-189730418' action='modify' lat='55.18545906438' lon='9.06877397954' />
  <node id='-189730419' action='modify' lat='55.18837308106' lon='9.06660139292' />
  <node id='-189730420' action='modify' lat='55.19104497494' lon='9.06234740138' />
  <node id='-189730421' action='modify' lat='55.19177224442' lon='9.06124233931'>
    <tag k='name' v='tof' />
  </node>
  <node id='-189730422' action='modify' lat='55.19414383274' lon='9.05884444177' />
  <node id='-189730423' action='modify' lat='55.20080005965' lon='9.05556677699' />
  <node id='-189730424' action='modify' lat='55.20241037414' lon='9.05500886679' />
  <node id='-189730425' action='modify' lat='55.20915091396' lon='9.05396818042' />
  <node id='-189730426' action='modify' lat='55.21003854841' lon='9.05316351771' />
  <node id='-189730427' action='modify' lat='55.21108859487' lon='9.05097619068'>
    <tag k='name' v='ste' />
  </node>
  <node id='-189730428' action='modify' lat='55.21153217826' lon='9.05005215526' />
  <node id='-189730429' action='modify' lat='55.21220551765' lon='9.04818533778' />
  <node id='-189730430' action='modify' lat='55.21237691132' lon='9.03933404803' />
  <node id='-189730431' action='modify' lat='55.21301350989' lon='9.03610466838' />
  <node id='-189730432' action='modify' lat='55.21521092095' lon='9.03272508502' />
  <node id='-189730433' action='modify' lat='55.21588324192' lon='9.03124472966'>
    <tag k='name' v='gra' />
  </node>
  <node id='-189730434' action='modify' lat='55.21663703089' lon='9.02881978869' />
  <node id='-189730435' action='modify' lat='55.21887096306' lon='9.0182304275' />
  <node id='-189730436' action='modify' lat='55.21935445516' lon='9.01642798305' />
  <node id='-189730437' action='modify' lat='55.22237155794' lon='9.00802730441' />
  <node id='-189730438' action='modify' lat='55.22289172495' lon='9.00666474223' />
  <node id='-189730439' action='modify' lat='55.22582901104' lon='9.0004956615' />
  <node id='-189730440' action='modify' lat='55.22643479932' lon='8.99946569324' />
  <node id='-189730441' action='modify' lat='55.2301639292' lon='8.99558452329'>
    <tag k='name' v='vho' />
  </node>
  <node id='-189730442' action='modify' lat='55.23147043671' lon='8.99422466218' />
  <node id='-189730443' action='modify' lat='55.23223826998' lon='8.99374186456' />
  <node id='-189730444' action='modify' lat='55.23437038262' lon='8.99296938837' />
  <node id='-189730445' action='modify' lat='55.23627297487' lon='8.99012624681' />
  <node id='-189730446' action='modify' lat='55.23810818967' lon='8.98454188228' />
  <node id='-189730447' action='modify' lat='55.23844463292' lon='8.98354947031' />
  <node id='-189730448' action='modify' lat='55.23894929703' lon='8.98217081487' />
  <node id='-189730449' action='modify' lat='55.23975980477' lon='8.98060440481' />
  <node id='-189730450' action='modify' lat='55.24459192315' lon='8.97475182474' />
  <node id='-189730451' action='modify' lat='55.24528305157' lon='8.97362529695' />
  <node id='-189730452' action='modify' lat='55.24588161616' lon='8.97236890074'>
    <tag k='name' v='arn.yv' />
  </node>
  <node id='-189730453' action='modify' lat='55.24688544469' lon='8.97026180685' />
  <node id='-189730454' action='modify' lat='55.24731661196' lon='8.96900653303' />
  <node id='-189730455' action='modify' lat='55.24755877803' lon='8.9680590754'>
    <tag k='name' v='arn' />
  </node>
  <node id='-189730456' action='modify' lat='55.24816670111' lon='8.96568059385' />
  <node id='-189730457' action='modify' lat='55.24838074947' lon='8.964296574' />
  <node id='-189730458' action='modify' lat='55.24859785449' lon='8.94926547468' />
  <node id='-189730459' action='modify' lat='55.24881495832' lon='8.94743084371' />
  <node id='-189730460' action='modify' lat='55.25412599135' lon='8.92538308024' />
  <node id='-189730461' action='modify' lat='55.25436446655' lon='8.92412780643' />
  <node id='-189730462' action='modify' lat='55.25732837687' lon='8.90409138277'>
    <tag k='name' v='spa' />
  </node>
  <node id='-189730463' action='modify' lat='55.25801058067' lon='8.89947938372' />
  <node id='-189730464' action='modify' lat='55.25823642782' lon='8.89745324314' />
  <node id='-189730465' action='modify' lat='55.25991670165' lon='8.87136002481'>
    <tag k='name' v='fje' />
  </node>
  <node id='-189730466' action='modify' lat='55.26018469294' lon='8.86719824685' />
  <node id='-189730467' action='modify' lat='55.260001848' lon='8.86378883243' />
  <node id='-189730468' action='modify' lat='55.25304977779' lon='8.83151649356' />
  <node id='-189730469' action='modify' lat='55.25254835016' lon='8.82979451537' />
  <node id='-189730470' action='modify' lat='55.25112368312' lon='8.82658160844'>
    <tag k='name' v='roa' />
  </node>
  <node id='-189730471' action='modify' lat='55.25045389955' lon='8.82507115334' />
  <node id='-189730472' action='modify' lat='55.24683957556' lon='8.8252615875' />
  <node id='-189730473' action='modify' lat='55.24092813332' lon='8.831291188' />
  <node id='-189730474' action='modify' lat='55.23968639945' lon='8.83203416795'>
    <tag k='name' v='oab' />
  </node>
  <node id='-189730475' action='modify' lat='55.23903187782' lon='8.83231579721' />
  <node id='-189730476' action='modify' lat='55.23833146799' lon='8.83251963973' />
  <node id='-189730477' action='modify' lat='55.23032019169' lon='8.83303998828' />
  <node id='-189730478' action='modify' lat='55.22957067398' lon='8.83294343412' />
  <node id='-189730479' action='modify' lat='55.22388308019' lon='8.83125364244' />
  <node id='-189730480' action='modify' lat='55.22212065142' lon='8.83055089831' />
  <node id='-189730481' action='modify' lat='55.21811205223' lon='8.82837294459' />
  <node id='-189730482' action='modify' lat='55.21665539249' lon='8.82791160464' />
  <node id='-189730483' action='modify' lat='55.21562329479' lon='8.82775733458'>
    <tag k='name' v='fri' />
  </node>
  <node id='-189730484' action='modify' lat='55.21270745415' lon='8.82732151866' />
  <node id='-189730485' action='modify' lat='55.21112204778' lon='8.82642029643' />
  <node id='-189730486' action='modify' lat='55.20848364469' lon='8.82334112048' />
  <node id='-189730487' action='modify' lat='55.20768168241' lon='8.82233260989' />
  <node id='-189730488' action='modify' lat='55.2016695118' lon='8.8146293056' />
  <node id='-189730489' action='modify' lat='55.20058575515' lon='8.81367443919' />
  <node id='-189730490' action='modify' lat='55.18929333824' lon='8.80850314021' />
  <node id='-189730491' action='modify' lat='55.18754774494' lon='8.80710839957'>
    <tag k='name' v='ull' />
  </node>
  <node id='-189730492' action='modify' lat='55.18678824144' lon='8.80618571162' />
  <node id='-189730493' action='modify' lat='55.18026994506' lon='8.79505004354' />
  <node id='-189730494' action='modify' lat='55.17968246447' lon='8.79391192317' />
  <node id='-189730495' action='modify' lat='55.17510285183' lon='8.78408967912' />
  <node id='-189730496' action='modify' lat='55.17397242212' lon='8.78208874583' />
  <node id='-189730497' action='modify' lat='55.16478684734' lon='8.76928924978' />
  <node id='-189730498' action='modify' lat='55.16158836157' lon='8.769139777' />
  <node id='-189730499' action='modify' lat='55.16037573671' lon='8.77070384417'>
    <tag k='name' v='skk' />
  </node>
  <way id='-39466286' action='modify'>
    <nd ref='-189730319' />
    <nd ref='-189730320' />
    <tag k='type' v='straight' />
  </way>
  <way id='-39466287' action='modify'>
    <nd ref='-189730320' />
    <nd ref='-189730321' />
  </way>
  <way id='-39466288' action='modify'>
    <nd ref='-189730321' />
    <nd ref='-189730322' />
    <tag k='type' v='straight' />
  </way>
  <way id='-39466289' action='modify'>
    <nd ref='-189730322' />
    <nd ref='-189730323' />
  </way>
  <way id='-39466290' action='modify'>
    <nd ref='-189730323' />
    <nd ref='-189730324' />
    <tag k='type' v='straight' />
  </way>
  <way id='-39466291' action='modify'>
    <nd ref='-189730324' />
    <nd ref='-189730325' />
  </way>
  <way id='-39466292' action='modify'>
    <nd ref='-189730325' />
    <nd ref='-189730326' />
    <nd ref='-189730327' />
    <tag k='type' v='straight' />
  </way>
  <way id='-39466293' action='modify'>
    <nd ref='-189730327' />
    <nd ref='-189730328' />
  </way>
  <way id='-39466294' action='modify'>
    <nd ref='-189730328' />
    <nd ref='-189730329' />
    <tag k='type' v='straight' />
  </way>
  <way id='-39466295' action='modify'>
    <nd ref='-189730329' />
    <nd ref='-189730330' />
  </way>
  <way id='-39466296' action='modify'>
    <nd ref='-189730330' />
    <nd ref='-189730331' />
    <tag k='type' v='straight' />
  </way>
  <way id='-39466297' action='modify'>
    <nd ref='-189730331' />
    <nd ref='-189730332' />
  </way>
  <way id='-39466298' action='modify'>
    <nd ref='-189730332' />
    <nd ref='-189730333' />
    <tag k='type' v='straight' />
  </way>
  <way id='-39466299' action='modify'>
    <nd ref='-189730333' />
    <nd ref='-189730334' />
  </way>
  <way id='-39466300' action='modify'>
    <nd ref='-189730334' />
    <nd ref='-189730335' />
    <tag k='type' v='straight' />
  </way>
  <way id='-39466301' action='modify'>
    <nd ref='-189730335' />
    <nd ref='-189730336' />
  </way>
  <way id='-39466302' action='modify'>
    <nd ref='-189730336' />
    <nd ref='-189730337' />
    <tag k='type' v='straight' />
  </way>
  <way id='-39466303' action='modify'>
    <nd ref='-189730337' />
    <nd ref='-189730338' />
  </way>
  <way id='-39466304' action='modify'>
    <nd ref='-189730338' />
    <nd ref='-189730339' />
    <nd ref='-189730340' />
    <tag k='type' v='straight' />
  </way>
  <way id='-39466305' action='modify'>
    <nd ref='-189730340' />
    <nd ref='-189730341' />
  </way>
  <way id='-39466306' action='modify'>
    <nd ref='-189730341' />
    <nd ref='-189730342' />
    <tag k='type' v='straight' />
  </way>
  <way id='-39466307' action='modify'>
    <nd ref='-189730342' />
    <nd ref='-189730343' />
  </way>
  <way id='-39466308' action='modify'>
    <nd ref='-189730343' />
    <nd ref='-189730344' />
    <nd ref='-189730345' />
    <tag k='type' v='straight' />
  </way>
  <way id='-39466309' action='modify'>
    <nd ref='-189730345' />
    <nd ref='-189730346' />
  </way>
  <way id='-39466310' action='modify'>
    <nd ref='-189730346' />
    <nd ref='-189730347' />
    <nd ref='-189730348' />
    <nd ref='-189730349' />
    <nd ref='-189730350' />
    <tag k='type' v='straight' />
  </way>
  <way id='-39466311' action='modify'>
    <nd ref='-189730350' />
    <nd ref='-189730351' />
    <nd ref='-189730352' />
  </way>
  <way id='-39466312' action='modify'>
    <nd ref='-189730352' />
    <nd ref='-189730353' />
    <tag k='type' v='straight' />
  </way>
  <way id='-39466313' action='modify'>
    <nd ref='-189730353' />
    <nd ref='-189730354' />
  </way>
  <way id='-39466314' action='modify'>
    <nd ref='-189730354' />
    <nd ref='-189730355' />
    <tag k='type' v='straight' />
  </way>
  <way id='-39466315' action='modify'>
    <nd ref='-189730355' />
    <nd ref='-189730356' />
  </way>
  <way id='-39466316' action='modify'>
    <nd ref='-189730356' />
    <nd ref='-189730357' />
    <tag k='type' v='straight' />
  </way>
  <way id='-39466317' action='modify'>
    <nd ref='-189730357' />
    <nd ref='-189730358' />
  </way>
  <way id='-39466318' action='modify'>
    <nd ref='-189730358' />
    <nd ref='-189730359' />
    <nd ref='-189730360' />
    <tag k='type' v='straight' />
  </way>
  <way id='-39466319' action='modify'>
    <nd ref='-189730360' />
    <nd ref='-189730361' />
  </way>
  <way id='-39466320' action='modify'>
    <nd ref='-189730361' />
    <nd ref='-189730362' />
    <tag k='type' v='straight' />
  </way>
  <way id='-39466321' action='modify'>
    <nd ref='-189730362' />
    <nd ref='-189730363' />
  </way>
  <way id='-39466322' action='modify'>
    <nd ref='-189730363' />
    <nd ref='-189730364' />
    <tag k='type' v='straight' />
  </way>
  <way id='-39466323' action='modify'>
    <nd ref='-189730364' />
    <nd ref='-189730365' />
    <nd ref='-189730366' />
  </way>
  <way id='-39466324' action='modify'>
    <nd ref='-189730366' />
    <nd ref='-189730367' />
    <tag k='type' v='straight' />
  </way>
  <way id='-39466325' action='modify'>
    <nd ref='-189730367' />
    <nd ref='-189730368' />
  </way>
  <way id='-39466326' action='modify'>
    <nd ref='-189730368' />
    <nd ref='-189730369' />
    <tag k='type' v='straight' />
  </way>
  <way id='-39466327' action='modify'>
    <nd ref='-189730369' />
    <nd ref='-189730370' />
  </way>
  <way id='-39466328' action='modify'>
    <nd ref='-189730370' />
    <nd ref='-189730371' />
    <nd ref='-189730372' />
    <tag k='type' v='straight' />
  </way>
  <way id='-39466329' action='modify'>
    <nd ref='-189730372' />
    <nd ref='-189730373' />
  </way>
  <way id='-39466330' action='modify'>
    <nd ref='-189730373' />
    <nd ref='-189730374' />
    <tag k='type' v='straight' />
  </way>
  <way id='-39466331' action='modify'>
    <nd ref='-189730374' />
    <nd ref='-189730375' />
  </way>
  <way id='-39466332' action='modify'>
    <nd ref='-189730375' />
    <nd ref='-189730376' />
    <tag k='type' v='straight' />
  </way>
  <way id='-39466333' action='modify'>
    <nd ref='-189730376' />
    <nd ref='-189730377' />
  </way>
  <way id='-39466334' action='modify'>
    <nd ref='-189730377' />
    <nd ref='-189730378' />
    <nd ref='-189730379' />
    <nd ref='-189730380' />
    <tag k='type' v='straight' />
  </way>
  <way id='-39466335' action='modify'>
    <nd ref='-189730380' />
    <nd ref='-189730381' />
  </way>
  <way id='-39466336' action='modify'>
    <nd ref='-189730381' />
    <nd ref='-189730382' />
    <tag k='type' v='straight' />
  </way>
  <way id='-39466337' action='modify'>
    <nd ref='-189730382' />
    <nd ref='-189730383' />
  </way>
  <way id='-39466338' action='modify'>
    <nd ref='-189730383' />
    <nd ref='-189730384' />
    <nd ref='-189730385' />
    <tag k='type' v='straight' />
  </way>
  <way id='-39466339' action='modify'>
    <nd ref='-189730385' />
    <nd ref='-189730386' />
  </way>
  <way id='-39466340' action='modify'>
    <nd ref='-189730386' />
    <nd ref='-189730387' />
    <tag k='type' v='straight' />
  </way>
  <way id='-39466341' action='modify'>
    <nd ref='-189730387' />
    <nd ref='-189730388' />
  </way>
  <way id='-39466342' action='modify'>
    <nd ref='-189730388' />
    <nd ref='-189730389' />
    <tag k='type' v='straight' />
  </way>
  <way id='-39466343' action='modify'>
    <nd ref='-189730389' />
    <nd ref='-189730390' />
  </way>
  <way id='-39466344' action='modify'>
    <nd ref='-189730390' />
    <nd ref='-189730391' />
    <nd ref='-189730392' />
    <tag k='type' v='straight' />
  </way>
  <way id='-39466345' action='modify'>
    <nd ref='-189730392' />
    <nd ref='-189730393' />
  </way>
  <way id='-39466346' action='modify'>
    <nd ref='-189730393' />
    <nd ref='-189730394' />
    <nd ref='-189730395' />
    <tag k='type' v='straight' />
  </way>
  <way id='-39466347' action='modify'>
    <nd ref='-189730395' />
    <nd ref='-189730396' />
  </way>
  <way id='-39466348' action='modify'>
    <nd ref='-189730396' />
    <nd ref='-189730397' />
    <tag k='type' v='straight' />
  </way>
  <way id='-39466349' action='modify'>
    <nd ref='-189730397' />
    <nd ref='-189730398' />
  </way>
  <way id='-39466350' action='modify'>
    <nd ref='-189730398' />
    <nd ref='-189730399' />
    <tag k='type' v='straight' />
  </way>
  <way id='-39466351' action='modify'>
    <nd ref='-189730399' />
    <nd ref='-189730400' />
  </way>
  <way id='-39466352' action='modify'>
    <nd ref='-189730400' />
    <nd ref='-189730401' />
    <nd ref='-189730402' />
    <tag k='type' v='straight' />
  </way>
  <way id='-39466353' action='modify'>
    <nd ref='-189730404' />
    <nd ref='-189730405' />
  </way>
  <way id='-39466354' action='modify'>
    <nd ref='-189730405' />
    <nd ref='-189730406' />
    <tag k='type' v='straight' />
  </way>
  <way id='-39466355' action='modify'>
    <nd ref='-189730406' />
    <nd ref='-189730407' />
  </way>
  <way id='-39466356' action='modify'>
    <nd ref='-189730407' />
    <nd ref='-189730408' />
    <nd ref='-189730409' />
    <tag k='type' v='straight' />
  </way>
  <way id='-39466357' action='modify'>
    <nd ref='-189730409' />
    <nd ref='-189730410' />
  </way>
  <way id='-39466358' action='modify'>
    <nd ref='-189730410' />
    <nd ref='-189730411' />
    <tag k='type' v='straight' />
  </way>
  <way id='-39466359' action='modify'>
    <nd ref='-189730411' />
    <nd ref='-189730412' />
  </way>
  <way id='-39466360' action='modify'>
    <nd ref='-189730412' />
    <nd ref='-189730413' />
    <tag k='type' v='straight' />
  </way>
  <way id='-39466361' action='modify'>
    <nd ref='-189730413' />
    <nd ref='-189730414' />
  </way>
  <way id='-39466362' action='modify'>
    <nd ref='-189730414' />
    <nd ref='-189730415' />
    <tag k='type' v='straight' />
  </way>
  <way id='-39466363' action='modify'>
    <nd ref='-189730415' />
    <nd ref='-189730416' />
  </way>
  <way id='-39466364' action='modify'>
    <nd ref='-189730416' />
    <nd ref='-189730417' />
    <nd ref='-189730418' />
    <tag k='type' v='straight' />
  </way>
  <way id='-39466365' action='modify'>
    <nd ref='-189730418' />
    <nd ref='-189730419' />
  </way>
  <way id='-39466366' action='modify'>
    <nd ref='-189730419' />
    <nd ref='-189730420' />
    <tag k='type' v='straight' />
  </way>
  <way id='-39466367' action='modify'>
    <nd ref='-189730420' />
    <nd ref='-189730421' />
    <nd ref='-189730422' />
  </way>
  <way id='-39466368' action='modify'>
    <nd ref='-189730422' />
    <nd ref='-189730423' />
    <tag k='type' v='straight' />
  </way>
  <way id='-39466369' action='modify'>
    <nd ref='-189730423' />
    <nd ref='-189730424' />
  </way>
  <way id='-39466370' action='modify'>
    <nd ref='-189730424' />
    <nd ref='-189730425' />
    <tag k='type' v='straight' />
  </way>
  <way id='-39466371' action='modify'>
    <nd ref='-189730425' />
    <nd ref='-189730426' />
  </way>
  <way id='-39466372' action='modify'>
    <nd ref='-189730426' />
    <nd ref='-189730427' />
    <nd ref='-189730428' />
    <tag k='type' v='straight' />
  </way>
  <way id='-39466373' action='modify'>
    <nd ref='-189730428' />
    <nd ref='-189730429' />
  </way>
  <way id='-39466374' action='modify'>
    <nd ref='-189730429' />
    <nd ref='-189730430' />
    <tag k='type' v='straight' />
  </way>
  <way id='-39466375' action='modify'>
    <nd ref='-189730430' />
    <nd ref='-189730431' />
  </way>
  <way id='-39466376' action='modify'>
    <nd ref='-189730431' />
    <nd ref='-189730432' />
    <tag k='type' v='straight' />
  </way>
  <way id='-39466377' action='modify'>
    <nd ref='-189730432' />
    <nd ref='-189730433' />
    <nd ref='-189730434' />
  </way>
  <way id='-39466378' action='modify'>
    <nd ref='-189730434' />
    <nd ref='-189730435' />
    <tag k='type' v='straight' />
  </way>
  <way id='-39466379' action='modify'>
    <nd ref='-189730435' />
    <nd ref='-189730436' />
  </way>
  <way id='-39466380' action='modify'>
    <nd ref='-189730436' />
    <nd ref='-189730437' />
    <tag k='type' v='straight' />
  </way>
  <way id='-39466381' action='modify'>
    <nd ref='-189730437' />
    <nd ref='-189730438' />
  </way>
  <way id='-39466382' action='modify'>
    <nd ref='-189730438' />
    <nd ref='-189730439' />
    <tag k='type' v='straight' />
  </way>
  <way id='-39466383' action='modify'>
    <nd ref='-189730439' />
    <nd ref='-189730440' />
  </way>
  <way id='-39466384' action='modify'>
    <nd ref='-189730440' />
    <nd ref='-189730441' />
    <nd ref='-189730442' />
    <tag k='type' v='straight' />
  </way>
  <way id='-39466385' action='modify'>
    <nd ref='-189730442' />
    <nd ref='-189730443' />
  </way>
  <way id='-39466386' action='modify'>
    <nd ref='-189730443' />
    <nd ref='-189730444' />
    <tag k='type' v='straight' />
  </way>
  <way id='-39466387' action='modify'>
    <nd ref='-189730444' />
    <nd ref='-189730445' />
  </way>
  <way id='-39466388' action='modify'>
    <nd ref='-189730445' />
    <nd ref='-189730446' />
    <tag k='type' v='straight' />
  </way>
  <way id='-39466389' action='modify'>
    <nd ref='-189730446' />
    <nd ref='-189730447' />
  </way>
  <way id='-39466390' action='modify'>
    <nd ref='-189730447' />
    <nd ref='-189730448' />
    <tag k='type' v='straight' />
  </way>
  <way id='-39466391' action='modify'>
    <nd ref='-189730448' />
    <nd ref='-189730449' />
  </way>
  <way id='-39466392' action='modify'>
    <nd ref='-189730449' />
    <nd ref='-189730450' />
    <tag k='type' v='straight' />
  </way>
  <way id='-39466393' action='modify'>
    <nd ref='-189730450' />
    <nd ref='-189730451' />
  </way>
  <way id='-39466394' action='modify'>
    <nd ref='-189730451' />
    <nd ref='-189730452' />
    <tag k='type' v='straight' />
  </way>
  <way id='-39466395' action='modify'>
    <nd ref='-189730452' />
    <nd ref='-189730453' />
    <tag k='type' v='straight' />
  </way>
  <way id='-39466396' action='modify'>
    <nd ref='-189730453' />
    <nd ref='-189730454' />
  </way>
  <way id='-39466397' action='modify'>
    <nd ref='-189730454' />
    <nd ref='-189730455' />
    <nd ref='-189730456' />
    <tag k='type' v='straight' />
  </way>
  <way id='-39466398' action='modify'>
    <nd ref='-189730456' />
    <nd ref='-189730457' />
  </way>
  <way id='-39466399' action='modify'>
    <nd ref='-189730457' />
    <nd ref='-189730458' />
    <tag k='type' v='straight' />
  </way>
  <way id='-39466400' action='modify'>
    <nd ref='-189730458' />
    <nd ref='-189730459' />
  </way>
  <way id='-39466401' action='modify'>
    <nd ref='-189730459' />
    <nd ref='-189730460' />
    <tag k='type' v='straight' />
  </way>
  <way id='-39466402' action='modify'>
    <nd ref='-189730460' />
    <nd ref='-189730461' />
  </way>
  <way id='-39466403' action='modify'>
    <nd ref='-189730461' />
    <nd ref='-189730462' />
    <nd ref='-189730463' />
    <tag k='type' v='straight' />
  </way>
  <way id='-39466404' action='modify'>
    <nd ref='-189730463' />
    <nd ref='-189730464' />
  </way>
  <way id='-39466405' action='modify'>
    <nd ref='-189730464' />
    <nd ref='-189730465' />
    <nd ref='-189730466' />
    <tag k='type' v='straight' />
  </way>
  <way id='-39466406' action='modify'>
    <nd ref='-189730466' />
    <nd ref='-189730467' />
  </way>
  <way id='-39466407' action='modify'>
    <nd ref='-189730467' />
    <nd ref='-189730468' />
    <tag k='type' v='straight' />
  </way>
  <way id='-39466408' action='modify'>
    <nd ref='-189730468' />
    <nd ref='-189730469' />
  </way>
  <way id='-39466409' action='modify'>
    <nd ref='-189730469' />
    <nd ref='-189730470' />
    <nd ref='-189730471' />
    <tag k='type' v='straight' />
  </way>
  <way id='-39466410' action='modify'>
    <nd ref='-189730471' />
    <nd ref='-189730472' />
  </way>
  <way id='-39466411' action='modify'>
    <nd ref='-189730472' />
    <nd ref='-189730473' />
    <tag k='type' v='straight' />
  </way>
  <way id='-39466412' action='modify'>
    <nd ref='-189730473' />
    <nd ref='-189730474' />
  </way>
  <way id='-39466413' action='modify'>
    <nd ref='-189730474' />
    <nd ref='-189730475' />
    <tag k='type' v='straight' />
  </way>
  <way id='-39466414' action='modify'>
    <nd ref='-189730475' />
    <nd ref='-189730476' />
  </way>
  <way id='-39466415' action='modify'>
    <nd ref='-189730476' />
    <nd ref='-189730477' />
    <tag k='type' v='straight' />
  </way>
  <way id='-39466416' action='modify'>
    <nd ref='-189730477' />
    <nd ref='-189730478' />
  </way>
  <way id='-39466417' action='modify'>
    <nd ref='-189730478' />
    <nd ref='-189730479' />
    <tag k='type' v='straight' />
  </way>
  <way id='-39466418' action='modify'>
    <nd ref='-189730479' />
    <nd ref='-189730480' />
  </way>
  <way id='-39466419' action='modify'>
    <nd ref='-189730480' />
    <nd ref='-189730481' />
    <tag k='type' v='straight' />
  </way>
  <way id='-39466420' action='modify'>
    <nd ref='-189730481' />
    <nd ref='-189730482' />
  </way>
  <way id='-39466421' action='modify'>
    <nd ref='-189730482' />
    <nd ref='-189730483' />
    <nd ref='-189730484' />
    <tag k='type' v='straight' />
  </way>
  <way id='-39466422' action='modify'>
    <nd ref='-189730484' />
    <nd ref='-189730485' />
  </way>
  <way id='-39466423' action='modify'>
    <nd ref='-189730485' />
    <nd ref='-189730486' />
    <tag k='type' v='straight' />
  </way>
  <way id='-39466424' action='modify'>
    <nd ref='-189730486' />
    <nd ref='-189730487' />
  </way>
  <way id='-39466425' action='modify'>
    <nd ref='-189730487' />
    <nd ref='-189730488' />
    <tag k='type' v='straight' />
  </way>
  <way id='-39466426' action='modify'>
    <nd ref='-189730488' />
    <nd ref='-189730489' />
  </way>
  <way id='-39466427' action='modify'>
    <nd ref='-189730489' />
    <nd ref='-189730490' />
    <tag k='type' v='straight' />
  </way>
  <way id='-39466428' action='modify'>
    <nd ref='-189730490' />
    <nd ref='-189730491' />
    <nd ref='-189730492' />
  </way>
  <way id='-39466429' action='modify'>
    <nd ref='-189730492' />
    <nd ref='-189730493' />
    <tag k='type' v='straight' />
  </way>
  <way id='-39466430' action='modify'>
    <nd ref='-189730493' />
    <nd ref='-189730494' />
  </way>
  <way id='-39466431' action='modify'>
    <nd ref='-189730494' />
    <nd ref='-189730495' />
    <tag k='type' v='straight' />
  </way>
  <way id='-39466432' action='modify'>
    <nd ref='-189730495' />
    <nd ref='-189730496' />
  </way>
  <way id='-39466433' action='modify'>
    <nd ref='-189730496' />
    <nd ref='-189730497' />
    <tag k='type' v='straight' />
  </way>
  <way id='-39466434' action='modify'>
    <nd ref='-189730497' />
    <nd ref='-189730498' />
  </way>
  <way id='-39466435' action='modify'>
    <nd ref='-189730498' />
    <nd ref='-189730499' />
    <tag k='type' v='straight' />
  </way>
  <way id='-39466466' action='modify'>
    <nd ref='-189730402' />
    <nd ref='-189730403' />
  </way>
  <way id='-39466467' action='modify'>
    <nd ref='-189730403' />
    <nd ref='-189730404' />
    <tag k='type' v='straight' />
  </way>
  <relation id='-14497369' action='modify'>
    <member type='way' ref='-39466286' role='' />
    <member type='way' ref='-39466287' role='' />
    <member type='way' ref='-39466288' role='' />
    <member type='way' ref='-39466289' role='' />
    <member type='way' ref='-39466290' role='' />
    <member type='way' ref='-39466291' role='' />
    <member type='way' ref='-39466292' role='' />
    <member type='way' ref='-39466293' role='' />
    <member type='way' ref='-39466294' role='' />
    <member type='way' ref='-39466295' role='' />
    <member type='way' ref='-39466296' role='' />
    <member type='way' ref='-39466297' role='' />
    <member type='way' ref='-39466298' role='' />
    <member type='way' ref='-39466299' role='' />
    <member type='way' ref='-39466300' role='' />
    <member type='way' ref='-39466301' role='' />
    <member type='way' ref='-39466302' role='' />
    <member type='way' ref='-39466303' role='' />
    <member type='way' ref='-39466304' role='' />
    <member type='way' ref='-39466305' role='' />
    <member type='way' ref='-39466306' role='' />
    <member type='way' ref='-39466307' role='' />
    <member type='way' ref='-39466308' role='' />
    <member type='way' ref='-39466309' role='' />
    <member type='way' ref='-39466310' role='' />
    <member type='way' ref='-39466311' role='' />
    <member type='way' ref='-39466312' role='' />
    <member type='way' ref='-39466313' role='' />
    <member type='way' ref='-39466314' role='' />
    <member type='way' ref='-39466315' role='' />
    <member type='way' ref='-39466316' role='' />
    <member type='way' ref='-39466317' role='' />
    <member type='way' ref='-39466318' role='' />
    <member type='way' ref='-39466319' role='' />
    <member type='way' ref='-39466320' role='' />
    <member type='way' ref='-39466321' role='' />
    <member type='way' ref='-39466322' role='' />
    <member type='way' ref='-39466323' role='' />
    <member type='way' ref='-39466324' role='' />
    <member type='way' ref='-39466325' role='' />
    <member type='way' ref='-39466326' role='' />
    <member type='way' ref='-39466327' role='' />
    <member type='way' ref='-39466328' role='' />
    <member type='way' ref='-39466329' role='' />
    <member type='way' ref='-39466330' role='' />
    <member type='way' ref='-39466331' role='' />
    <member type='way' ref='-39466332' role='' />
    <member type='way' ref='-39466333' role='' />
    <member type='way' ref='-39466334' role='' />
    <member type='way' ref='-39466335' role='' />
    <member type='way' ref='-39466336' role='' />
    <member type='way' ref='-39466337' role='' />
    <member type='way' ref='-39466338' role='' />
    <member type='way' ref='-39466339' role='' />
    <member type='way' ref='-39466340' role='' />
    <member type='way' ref='-39466341' role='' />
    <member type='way' ref='-39466342' role='' />
    <member type='way' ref='-39466343' role='' />
    <member type='way' ref='-39466344' role='' />
    <member type='way' ref='-39466345' role='' />
    <member type='way' ref='-39466346' role='' />
    <member type='way' ref='-39466347' role='' />
    <member type='way' ref='-39466348' role='' />
    <member type='way' ref='-39466349' role='' />
    <member type='way' ref='-39466350' role='' />
    <member type='way' ref='-39466351' role='' />
    <member type='way' ref='-39466352' role='' />
    <member type='way' ref='-39466466' role='' />
    <member type='way' ref='-39466467' role='' />
    <member type='way' ref='-39466353' role='' />
    <member type='way' ref='-39466354' role='' />
    <member type='way' ref='-39466355' role='' />
    <member type='way' ref='-39466356' role='' />
    <member type='way' ref='-39466357' role='' />
    <member type='way' ref='-39466358' role='' />
    <member type='way' ref='-39466359' role='' />
    <member type='way' ref='-39466360' role='' />
    <member type='way' ref='-39466361' role='' />
    <member type='way' ref='-39466362' role='' />
    <member type='way' ref='-39466363' role='' />
    <member type='way' ref='-39466364' role='' />
    <member type='way' ref='-39466365' role='' />
    <member type='way' ref='-39466366' role='' />
    <member type='way' ref='-39466367' role='' />
    <member type='way' ref='-39466368' role='' />
    <member type='way' ref='-39466369' role='' />
    <member type='way' ref='-39466370' role='' />
    <member type='way' ref='-39466371' role='' />
    <member type='way' ref='-39466372' role='' />
    <member type='way' ref='-39466373' role='' />
    <member type='way' ref='-39466374' role='' />
    <member type='way' ref='-39466375' role='' />
    <member type='way' ref='-39466376' role='' />
    <member type='way' ref='-39466377' role='' />
    <member type='way' ref='-39466378' role='' />
    <member type='way' ref='-39466379' role='' />
    <member type='way' ref='-39466380' role='' />
    <member type='way' ref='-39466381' role='' />
    <member type='way' ref='-39466382' role='' />
    <member type='way' ref='-39466383' role='' />
    <member type='way' ref='-39466384' role='' />
    <member type='way' ref='-39466385' role='' />
    <member type='way' ref='-39466386' role='' />
    <member type='way' ref='-39466387' role='' />
    <member type='way' ref='-39466388' role='' />
    <member type='way' ref='-39466389' role='' />
    <member type='way' ref='-39466390' role='' />
    <member type='way' ref='-39466391' role='' />
    <member type='way' ref='-39466392' role='' />
    <member type='way' ref='-39466393' role='' />
    <member type='way' ref='-39466394' role='' />
    <member type='way' ref='-39466395' role='' />
    <member type='way' ref='-39466396' role='' />
    <member type='way' ref='-39466397' role='' />
    <member type='way' ref='-39466398' role='' />
    <member type='way' ref='-39466399' role='' />
    <member type='way' ref='-39466400' role='' />
    <member type='way' ref='-39466401' role='' />
    <member type='way' ref='-39466402' role='' />
    <member type='way' ref='-39466403' role='' />
    <member type='way' ref='-39466404' role='' />
    <member type='way' ref='-39466405' role='' />
    <member type='way' ref='-39466406' role='' />
    <member type='way' ref='-39466407' role='' />
    <member type='way' ref='-39466408' role='' />
    <member type='way' ref='-39466409' role='' />
    <member type='way' ref='-39466410' role='' />
    <member type='way' ref='-39466411' role='' />
    <member type='way' ref='-39466412' role='' />
    <member type='way' ref='-39466413' role='' />
    <member type='way' ref='-39466414' role='' />
    <member type='way' ref='-39466415' role='' />
    <member type='way' ref='-39466416' role='' />
    <member type='way' ref='-39466417' role='' />
    <member type='way' ref='-39466418' role='' />
    <member type='way' ref='-39466419' role='' />
    <member type='way' ref='-39466420' role='' />
    <member type='way' ref='-39466421' role='' />
    <member type='way' ref='-39466422' role='' />
    <member type='way' ref='-39466423' role='' />
    <member type='way' ref='-39466424' role='' />
    <member type='way' ref='-39466425' role='' />
    <member type='way' ref='-39466426' role='' />
    <member type='way' ref='-39466427' role='' />
    <member type='way' ref='-39466428' role='' />
    <member type='way' ref='-39466429' role='' />
    <member type='way' ref='-39466430' role='' />
    <member type='way' ref='-39466431' role='' />
    <member type='way' ref='-39466432' role='' />
    <member type='way' ref='-39466433' role='' />
    <member type='way' ref='-39466434' role='' />
    <member type='way' ref='-39466435' role='' />
    <tag k='key' v='path.dk.usb' />
    <tag k='name' v='DK USB' />
    <tag k='type' v='path' />
  </relation>
</osm>
