<?xml version='1.0' encoding='UTF-8'?>
<osm version='0.6' upload='false' generator='JOSM'>
  <node id='-150617241' action='modify' lat='55.40218277533' lon='10.38531637491'>
    <tag k='name' v='ode' />
  </node>
  <node id='-150617242' action='modify' lat='55.40213142089' lon='10.383664834' />
  <node id='-150617243' action='modify' lat='55.40200340884' lon='10.38159174368' />
  <node id='-150617244' action='modify' lat='55.40183686385' lon='10.37304186971' />
  <node id='-150617245' action='modify' lat='55.3991068764' lon='10.36469038905' />
  <node id='-150617246' action='modify' lat='55.39901307094' lon='10.36459104142' />
  <node id='-150617247' action='modify' lat='55.39858541749' lon='10.35589098662' />
  <node id='-150617248' action='modify' lat='55.39866345434' lon='10.35574634338' />
  <node id='-150617249' action='modify' lat='55.40252251276' lon='10.35467862815' />
  <node id='-150617250' action='modify' lat='55.40418346134' lon='10.3557120183'>
    <tag k='name' v='sna' />
  </node>
  <node id='-150617251' action='modify' lat='55.40639373578' lon='10.35708724916' />
  <node id='-150617252' action='modify' lat='55.40820586101' lon='10.35772025049' />
  <node id='-150617253' action='modify' lat='55.41436951025' lon='10.35905599058' />
  <node id='-150617254' action='modify' lat='55.41738703331' lon='10.36150752962' />
  <node id='-150617255' action='modify' lat='55.41797593315' lon='10.3624399489'>
    <tag k='name' v='nas' />
  </node>
  <node id='-150617256' action='modify' lat='55.41807819938' lon='10.36260187089' />
  <node id='-150617257' action='modify' lat='55.42135422598' lon='10.36466716647' />
  <node id='-150617258' action='modify' lat='55.42309564462' lon='10.36439894557' />
  <node id='-150617259' action='modify' lat='55.43073018914' lon='10.36203860164' />
  <node id='-150617260' action='modify' lat='55.43206334031' lon='10.36152362287' />
  <node id='-150617261' action='modify' lat='55.43364898801' lon='10.36092243202'>
    <tag k='name' v='soh' />
  </node>
  <node id='-150617262' action='modify' lat='55.43991525298' lon='10.35854637086' />
  <node id='-150617263' action='modify' lat='55.44210924858' lon='10.35743593633' />
  <node id='-150617264' action='modify' lat='55.44799357132' lon='10.35408147236'>
    <tag k='name' v='lum' />
  </node>
  <node id='-150617265' action='modify' lat='55.44921379248' lon='10.35338580072' />
  <node id='-150617266' action='modify' lat='55.45423336574' lon='10.34980772853' />
  <node id='-150617267' action='modify' lat='55.46457470864' lon='10.34076331973' />
  <node id='-150617268' action='modify' lat='55.46912707675' lon='10.33989965647'>
    <tag k='name' v='bel' />
  </node>
  <node id='-150617269' action='modify' lat='55.4709530478' lon='10.34162699908' />
  <node id='-150617270' action='modify' lat='55.48997855968' lon='10.36386250377' />
  <node id='-150617271' action='modify' lat='55.49189777141' lon='10.36642133921'>
    <tag k='name' v='lun' />
  </node>
  <node id='-150617272' action='modify' lat='55.4932364583' lon='10.36837398469' />
  <node id='-150617273' action='modify' lat='55.50662993274' lon='10.38931129217' />
  <node id='-150617274' action='modify' lat='55.5093259911' lon='10.39241194457' />
  <node id='-150617275' action='modify' lat='55.51149638234' lon='10.39320319623' />
  <node id='-150617276' action='modify' lat='55.51402202638' lon='10.39264261454'>
    <tag k='name' v='ott' />
  </node>
  <node id='-150617277' action='modify' lat='55.51839709861' lon='10.38716554105' />
  <node id='-150617278' action='modify' lat='55.53017235829' lon='10.36447137574'>
    <tag k='name' v='bra' />
  </node>
  <node id='-150617279' action='modify' lat='55.53282030332' lon='10.35936712146' />
  <node id='-150617280' action='modify' lat='55.53596537257' lon='10.34595340222'>
    <tag k='name' v='kap' />
  </node>
  <node id='-150617281' action='modify' lat='55.53546144909' lon='10.34014373749' />
  <node id='-150617282' action='modify' lat='55.53071700039' lon='10.30704080482'>
    <tag k='name' v='ugg' />
  </node>
  <node id='-150617283' action='modify' lat='55.52662135198' lon='10.27846788786'>
    <tag k='name' v='ska' />
  </node>
  <node id='-150617284' action='modify' lat='55.52438564965' lon='10.26287196994' />
  <node id='-150617285' action='modify' lat='55.52379047979' lon='10.25727151752'>
    <tag k='name' v='ros' />
  </node>
  <node id='-150617286' action='modify' lat='55.52389675775' lon='10.25039970338' />
  <node id='-150617287' action='modify' lat='55.52760195197' lon='10.20979731843'>
    <tag k='name' v='jul' />
  </node>
  <node id='-150617288' action='modify' lat='55.52952625204' lon='10.18870887932' />
  <node id='-150617289' action='modify' lat='55.53072547177' lon='10.18079637408' />
  <node id='-150617290' action='modify' lat='55.53708191156' lon='10.15081023209'>
    <tag k='name' v='gul' />
  </node>
  <node id='-150617291' action='modify' lat='55.53742550143' lon='10.14918922842' />
  <node id='-150617292' action='modify' lat='55.5388157594' lon='10.14523028791' />
  <node id='-150617293' action='modify' lat='55.55176070093' lon='10.1176226329'>
    <tag k='name' v='har' />
  </node>
  <node id='-150617294' action='modify' lat='55.55789799981' lon='10.10453044832' />
  <node id='-150617295' action='modify' lat='55.55910853857' lon='10.10171412349' />
  <node id='-150617297' action='modify' lat='55.5648603714' lon='10.08608871211'>
    <tag k='name' v='bog' />
  </node>
  <node id='-150617298' action='modify' lat='55.565297161' lon='10.08490203738'>
    <tag k='name' v='bog.f' />
  </node>
  <node id='-150617303' action='modify' lat='55.40184326007' lon='10.37623822153' />
  <node id='-150617320' action='modify' lat='55.40192702524' lon='10.38012474239' />
  <way id='-36752205' action='modify'>
    <nd ref='-150617241' />
    <nd ref='-150617242' />
    <tag k='type' v='straight' />
  </way>
  <way id='-36752206' action='modify'>
    <nd ref='-150617242' />
    <nd ref='-150617243' />
    <tag k='type' v='arc' />
  </way>
  <way id='-36752207' action='modify'>
    <nd ref='-150617243' />
    <nd ref='-150617320' />
    <nd ref='-150617303' />
    <nd ref='-150617244' />
    <tag k='type' v='straight' />
  </way>
  <way id='-36752208' action='modify'>
    <nd ref='-150617244' />
    <nd ref='-150617245' />
    <tag k='type' v='arc' />
  </way>
  <way id='-36752209' action='modify'>
    <nd ref='-150617245' />
    <nd ref='-150617246' />
    <tag k='type' v='straight' />
  </way>
  <way id='-36752210' action='modify'>
    <nd ref='-150617246' />
    <nd ref='-150617247' />
  </way>
  <way id='-36752211' action='modify'>
    <nd ref='-150617247' />
    <nd ref='-150617248' />
    <tag k='type' v='straight' />
  </way>
  <way id='-36752212' action='modify'>
    <nd ref='-150617248' />
    <nd ref='-150617249' />
  </way>
  <way id='-36752213' action='modify'>
    <nd ref='-150617249' />
    <nd ref='-150617250' />
    <nd ref='-150617251' />
    <tag k='type' v='straight' />
  </way>
  <way id='-36752214' action='modify'>
    <nd ref='-150617251' />
    <nd ref='-150617252' />
  </way>
  <way id='-36752215' action='modify'>
    <nd ref='-150617252' />
    <nd ref='-150617253' />
    <tag k='type' v='straight' />
  </way>
  <way id='-36752216' action='modify'>
    <nd ref='-150617253' />
    <nd ref='-150617254' />
  </way>
  <way id='-36752217' action='modify'>
    <nd ref='-150617254' />
    <nd ref='-150617255' />
    <nd ref='-150617256' />
    <tag k='type' v='straight' />
  </way>
  <way id='-36752218' action='modify'>
    <nd ref='-150617256' />
    <nd ref='-150617257' />
    <nd ref='-150617258' />
  </way>
  <way id='-36752219' action='modify'>
    <nd ref='-150617258' />
    <nd ref='-150617259' />
    <tag k='type' v='straight' />
  </way>
  <way id='-36752220' action='modify'>
    <nd ref='-150617259' />
    <nd ref='-150617260' />
  </way>
  <way id='-36752221' action='modify'>
    <nd ref='-150617260' />
    <nd ref='-150617261' />
    <nd ref='-150617262' />
    <tag k='type' v='straight' />
  </way>
  <way id='-36752222' action='modify'>
    <nd ref='-150617262' />
    <nd ref='-150617263' />
  </way>
  <way id='-36752223' action='modify'>
    <nd ref='-150617263' />
    <nd ref='-150617264' />
    <nd ref='-150617265' />
    <tag k='type' v='straight' />
  </way>
  <way id='-36752224' action='modify'>
    <nd ref='-150617265' />
    <nd ref='-150617266' />
  </way>
  <way id='-36752225' action='modify'>
    <nd ref='-150617266' />
    <nd ref='-150617267' />
    <tag k='type' v='straight' />
  </way>
  <way id='-36752226' action='modify'>
    <nd ref='-150617267' />
    <nd ref='-150617268' />
    <nd ref='-150617269' />
  </way>
  <way id='-36752227' action='modify'>
    <nd ref='-150617269' />
    <nd ref='-150617270' />
    <tag k='type' v='straight' />
  </way>
  <way id='-36752228' action='modify'>
    <nd ref='-150617270' />
    <nd ref='-150617271' />
    <nd ref='-150617272' />
  </way>
  <way id='-36752229' action='modify'>
    <nd ref='-150617272' />
    <nd ref='-150617273' />
    <tag k='type' v='straight' />
  </way>
  <way id='-36752230' action='modify'>
    <nd ref='-150617273' />
    <nd ref='-150617274' />
    <nd ref='-150617275' />
    <nd ref='-150617276' />
    <nd ref='-150617277' />
  </way>
  <way id='-36752231' action='modify'>
    <nd ref='-150617277' />
    <nd ref='-150617278' />
    <nd ref='-150617279' />
    <tag k='type' v='straight' />
  </way>
  <way id='-36752232' action='modify'>
    <nd ref='-150617279' />
    <nd ref='-150617280' />
    <nd ref='-150617281' />
  </way>
  <way id='-36752233' action='modify'>
    <nd ref='-150617281' />
    <nd ref='-150617282' />
    <nd ref='-150617283' />
    <nd ref='-150617284' />
    <tag k='type' v='straight' />
  </way>
  <way id='-36752234' action='modify'>
    <nd ref='-150617284' />
    <nd ref='-150617285' />
    <nd ref='-150617286' />
  </way>
  <way id='-36752235' action='modify'>
    <nd ref='-150617286' />
    <nd ref='-150617287' />
    <nd ref='-150617288' />
    <tag k='type' v='straight' />
  </way>
  <way id='-36752236' action='modify'>
    <nd ref='-150617288' />
    <nd ref='-150617289' />
  </way>
  <way id='-36752237' action='modify'>
    <nd ref='-150617289' />
    <nd ref='-150617290' />
    <nd ref='-150617291' />
    <tag k='type' v='straight' />
  </way>
  <way id='-36752238' action='modify'>
    <nd ref='-150617291' />
    <nd ref='-150617292' />
  </way>
  <way id='-36752239' action='modify'>
    <nd ref='-150617292' />
    <nd ref='-150617293' />
    <nd ref='-150617294' />
    <tag k='type' v='straight' />
  </way>
  <way id='-36752240' action='modify'>
    <nd ref='-150617294' />
    <nd ref='-150617295' />
  </way>
  <way id='-36752241' action='modify'>
    <nd ref='-150617295' />
    <nd ref='-150617297' />
    <nd ref='-150617298' />
    <tag k='type' v='straight' />
  </way>
  <relation id='-14470449' action='modify'>
    <member type='way' ref='-36752205' role='' />
    <member type='way' ref='-36752206' role='' />
    <member type='way' ref='-36752207' role='' />
    <member type='way' ref='-36752208' role='' />
    <member type='way' ref='-36752209' role='' />
    <member type='way' ref='-36752210' role='' />
    <member type='way' ref='-36752211' role='' />
    <member type='way' ref='-36752212' role='' />
    <member type='way' ref='-36752213' role='' />
    <member type='way' ref='-36752214' role='' />
    <member type='way' ref='-36752215' role='' />
    <member type='way' ref='-36752216' role='' />
    <member type='way' ref='-36752217' role='' />
    <member type='way' ref='-36752218' role='' />
    <member type='way' ref='-36752219' role='' />
    <member type='way' ref='-36752220' role='' />
    <member type='way' ref='-36752221' role='' />
    <member type='way' ref='-36752222' role='' />
    <member type='way' ref='-36752223' role='' />
    <member type='way' ref='-36752224' role='' />
    <member type='way' ref='-36752225' role='' />
    <member type='way' ref='-36752226' role='' />
    <member type='way' ref='-36752227' role='' />
    <member type='way' ref='-36752228' role='' />
    <member type='way' ref='-36752229' role='' />
    <member type='way' ref='-36752230' role='' />
    <member type='way' ref='-36752231' role='' />
    <member type='way' ref='-36752232' role='' />
    <member type='way' ref='-36752233' role='' />
    <member type='way' ref='-36752234' role='' />
    <member type='way' ref='-36752235' role='' />
    <member type='way' ref='-36752236' role='' />
    <member type='way' ref='-36752237' role='' />
    <member type='way' ref='-36752238' role='' />
    <member type='way' ref='-36752239' role='' />
    <member type='way' ref='-36752240' role='' />
    <member type='way' ref='-36752241' role='' />
    <tag k='key' v='path.dk.obo' />
    <tag k='name' v='DK OBO' />
    <tag k='type' v='path' />
  </relation>
</osm>
