<?xml version='1.0' encoding='UTF-8'?>
<osm version='0.6' upload='false' generator='JOSM'>
  <node id='-147422844' action='modify' lat='55.40180103753' lon='10.38794557828' />
  <node id='-147422845' action='modify' lat='55.40173501329' lon='10.38630611003' />
  <node id='-147422846' action='modify' lat='55.40079022117' lon='10.3830884778' />
  <node id='-147422847' action='modify' lat='55.39841295503' lon='10.37662516359'>
    <tag k='name' v='ods' />
  </node>
  <node id='-147422848' action='modify' lat='55.39533644894' lon='10.36826133192' />
  <node id='-147422849' action='modify' lat='55.38758086808' lon='10.36204266355' />
  <node id='-147422850' action='modify' lat='55.38056496593' lon='10.36731183395'>
    <tag k='name' v='osy.ys' />
  </node>
  <way id='-36565370' action='modify'>
    <nd ref='-147422844' />
    <nd ref='-147422845' />
    <tag k='type' v='straight' />
  </way>
  <way id='-36565371' action='modify'>
    <nd ref='-147422845' />
    <nd ref='-147422846' />
  </way>
  <way id='-36565372' action='modify'>
    <nd ref='-147422846' />
    <nd ref='-147422847' />
    <nd ref='-147422848' />
    <tag k='type' v='straight' />
  </way>
  <way id='-36565373' action='modify'>
    <nd ref='-147422848' />
    <nd ref='-147422849' />
  </way>
  <way id='-36565374' action='modify'>
    <nd ref='-147422849' />
    <nd ref='-147422850' />
    <tag k='type' v='straight' />
  </way>
  <relation id='-14469161' action='modify'>
    <member type='way' ref='-36565370' role='' />
    <member type='way' ref='-36565371' role='' />
    <member type='way' ref='-36565372' role='' />
    <member type='way' ref='-36565373' role='' />
    <member type='way' ref='-36565374' role='' />
    <tag k='key' v='path.dk.ods' />
    <tag k='name' v='DK ODS' />
    <tag k='type' v='path' />
  </relation>
</osm>
