<?xml version='1.0' encoding='UTF-8'?>
<osm version='0.6' upload='false' generator='JOSM'>
  <node id='-144596074' action='modify' lat='54.95837385469' lon='11.8515658164'>
    <tag k='name' v='ore.a' />
  </node>
  <node id='-144596075' action='modify' lat='54.95441883125' lon='11.85154417882'>
    <tag k='name' v='ore' />
  </node>
  <node id='-144596076' action='modify' lat='54.95053116022' lon='11.85152291179' />
  <node id='-144596077' action='modify' lat='54.94462747157' lon='11.854706115' />
  <node id='-144596079' action='modify' lat='54.91844979187' lon='11.88166263124' />
  <node id='-144596080' action='modify' lat='54.90979453064' lon='11.88575699882' />
  <node id='-144596081' action='modify' lat='54.90580229205' lon='11.8857340874' />
  <node id='-144596082' action='modify' lat='54.90494934246' lon='11.88574272759' />
  <node id='-144596083' action='modify' lat='54.90379283567' lon='11.88577279766' />
  <node id='-144596084' action='modify' lat='54.90260914065' lon='11.88578406024' />
  <node id='-144596085' action='modify' lat='54.89667692926' lon='11.88574271614'>
    <tag k='name' v='nal' />
  </node>
  <way id='-36397067' action='modify'>
    <nd ref='-144596074' />
    <nd ref='-144596075' />
    <nd ref='-144596076' />
    <tag k='type' v='straight' />
  </way>
  <way id='-36397068' action='modify'>
    <nd ref='-144596076' />
    <nd ref='-144596077' />
  </way>
  <way id='-36397069' action='modify'>
    <nd ref='-144596077' />
    <nd ref='-144596079' />
    <tag k='type' v='straight' />
  </way>
  <way id='-36397071' action='modify'>
    <nd ref='-144596079' />
    <nd ref='-144596080' />
    <tag k='type' v='arc' />
  </way>
  <way id='-36397072' action='modify'>
    <nd ref='-144596080' />
    <nd ref='-144596081' />
    <tag k='type' v='straight' />
  </way>
  <way id='-36397073' action='modify'>
    <nd ref='-144596081' />
    <nd ref='-144596082' />
    <tag k='type' v='arc' />
  </way>
  <way id='-36397074' action='modify'>
    <nd ref='-144596082' />
    <nd ref='-144596083' />
    <tag k='type' v='straight' />
  </way>
  <way id='-36397075' action='modify'>
    <nd ref='-144596083' />
    <nd ref='-144596084' />
    <tag k='type' v='arc' />
  </way>
  <way id='-36397076' action='modify'>
    <nd ref='-144596084' />
    <nd ref='-144596085' />
    <tag k='type' v='straight' />
  </way>
  <relation id='-14467786' action='modify'>
    <member type='way' ref='-36397067' role='' />
    <member type='way' ref='-36397068' role='' />
    <member type='way' ref='-36397069' role='' />
    <member type='way' ref='-36397071' role='' />
    <member type='way' ref='-36397072' role='' />
    <member type='way' ref='-36397073' role='' />
    <member type='way' ref='-36397074' role='' />
    <member type='way' ref='-36397075' role='' />
    <member type='way' ref='-36397076' role='' />
    <tag k='key' v='path.dk.ohn' />
    <tag k='name' v='DK OHN' />
    <tag k='type' v='path' />
  </relation>
</osm>
