<?xml version='1.0' encoding='UTF-8'?>
<osm version='0.6' upload='false' generator='JOSM'>
  <node id='-150239740' action='modify' lat='55.40188426787' lon='10.38542634548'>
    <tag k='name' v='ode' />
  </node>
  <node id='-150239742' action='modify' lat='55.40193506185' lon='10.38770149726' />
  <node id='-150239743' action='modify' lat='55.40213138377' lon='10.39237119598' />
  <node id='-150239744' action='modify' lat='55.40282407697' lon='10.3998024976' />
  <node id='-150239745' action='modify' lat='55.40327096254' lon='10.40464658313' />
  <node id='-150239746' action='modify' lat='55.40428303811' lon='10.40991603792' />
  <node id='-150239747' action='modify' lat='55.40690540309' lon='10.41800558031' />
  <node id='-150239748' action='modify' lat='55.40941186805' lon='10.42269408166' />
  <node id='-150239749' action='modify' lat='55.41602598234' lon='10.43011306643' />
  <node id='-150239750' action='modify' lat='55.41841041545' lon='10.43380263819'>
    <tag k='name' v='bis' />
  </node>
  <node id='-150239751' action='modify' lat='55.42096452434' lon='10.44066488206' />
  <node id='-150239752' action='modify' lat='55.42203151133' lon='10.44511342227'>
    <tag k='name' v='sed' />
  </node>
  <node id='-150239753' action='modify' lat='55.4229099345' lon='10.44877588212' />
  <node id='-150239754' action='modify' lat='55.42342138793' lon='10.45232712686' />
  <node id='-150239755' action='modify' lat='55.42552720778' lon='10.47106054273'>
    <tag k='name' v='bul' />
  </node>
  <node id='-150239756' action='modify' lat='55.42631341068' lon='10.47805487573' />
  <node id='-150239757' action='modify' lat='55.42770759287' lon='10.48391818732' />
  <node id='-150239758' action='modify' lat='55.42965809955' lon='10.48895395224'>
    <tag k='name' v='age' />
  </node>
  <node id='-150239759' action='modify' lat='55.4351596734' lon='10.50315910608' />
  <node id='-150239760' action='modify' lat='55.43647034557' lon='10.50657748103' />
  <node id='-150239761' action='modify' lat='55.43670219446' lon='10.50716209132'>
    <tag k='name' v='vka' />
  </node>
  <node id='-150239762' action='modify' lat='55.43895514984' lon='10.51284312934' />
  <node id='-150239763' action='modify' lat='55.44032758588' lon='10.51801711053'>
    <tag k='name' v='dra' />
  </node>
  <node id='-150239764' action='modify' lat='55.44085555174' lon='10.52495598257' />
  <node id='-150239765' action='modify' lat='55.438877551' lon='10.53081392705' />
  <node id='-150239766' action='modify' lat='55.4328711397' lon='10.54074060127'>
    <tag k='name' v='tre' />
  </node>
  <node id='-150239767' action='modify' lat='55.42187482839' lon='10.55891006917' />
  <node id='-150239768' action='modify' lat='55.41938133423' lon='10.56770502985' />
  <node id='-150239769' action='modify' lat='55.41895899056' lon='10.57145610635'>
    <tag k='name' v='kol' />
  </node>
  <node id='-150239770' action='modify' lat='55.41789246872' lon='10.58092832029' />
  <node id='-150239771' action='modify' lat='55.41816040776' lon='10.58910369337' />
  <node id='-150239772' action='modify' lat='55.41976800383' lon='10.59862553537' />
  <node id='-150239773' action='modify' lat='55.41891245269' lon='10.61320334405'>
    <tag k='name' v='lad' />
  </node>
  <node id='-150239774' action='modify' lat='55.41667149622' lon='10.61736344755' />
  <node id='-150239775' action='modify' lat='55.41334636231' lon='10.62306582391' />
  <node id='-150239776' action='modify' lat='55.41076705778' lon='10.62948971719'>
    <tag k='name' v='ryn' />
  </node>
  <node id='-150239777' action='modify' lat='55.41037421089' lon='10.63875674665' />
  <node id='-150239778' action='modify' lat='55.41307230338' lon='10.64654587626' />
  <node id='-150239779' action='modify' lat='55.41372395875' lon='10.64769386172' />
  <node id='-150239780' action='modify' lat='55.4174570639' lon='10.65152406156' />
  <node id='-150239781' action='modify' lat='55.41846455434' lon='10.65214488517'>
    <tag k='name' v='rev' />
  </node>
  <node id='-150239782' action='modify' lat='55.42784153085' lon='10.65792381227' />
  <node id='-150239783' action='modify' lat='55.43133894094' lon='10.65917371631' />
  <node id='-150239784' action='modify' lat='55.44430007946' lon='10.66133558214' />
  <node id='-150239785' action='modify' lat='55.44679504428' lon='10.66054701269' />
  <node id='-150239786' action='modify' lat='55.44716319037' lon='10.66023051202' />
  <node id='-150239787' action='modify' lat='55.4484684079' lon='10.65971552789' />
  <node id='-150239788' action='modify' lat='55.44906471669' lon='10.6597477144' />
  <node id='-150239789' action='modify' lat='55.45021471534' lon='10.66003202856'>
    <tag k='name' v='ker' />
  </node>
  <node id='-150239790' action='modify' lat='55.4514133555' lon='10.66056310594' />
  <node id='-150239791' action='modify' lat='55.45228949583' lon='10.66101908147' />
  <node id='-150239792' action='modify' lat='55.45592161852' lon='10.65987914532' />
  <node id='-150239793' action='modify' lat='55.45722502544' lon='10.6582349512' />
  <node id='-150239794' action='modify' lat='55.46079130529' lon='10.65663635194' />
  <node id='-150239795' action='modify' lat='55.46671259202' lon='10.65662562311' />
  <node id='-150239796' action='modify' lat='55.46931257099' lon='10.65601943851' />
  <node id='-150239797' action='modify' lat='55.47827585161' lon='10.65185665011' />
  <node id='-150239798' action='modify' lat='55.48016067533' lon='10.65113245904'>
    <tag k='name' v='tar' />
  </node>
  <node id='-150239799' action='modify' lat='55.49200262357' lon='10.64835904956' />
  <node id='-150239800' action='modify' lat='55.49459485075' lon='10.64705550134' />
  <node id='-150239801' action='modify' lat='55.49535151884' lon='10.64652442396' />
  <node id='-150239802' action='modify' lat='55.49622972181' lon='10.64588605821' />
  <node id='-150239803' action='modify' lat='55.49669612584' lon='10.64553366235'>
    <tag k='name' v='mes' />
  </node>
  <node id='-150239804' action='modify' lat='55.49772778758' lon='10.64475416601' />
  <node id='-150239805' action='modify' lat='55.49889307773' lon='10.64419626921' />
  <node id='-150239806' action='modify' lat='55.49973929791' lon='10.64397901028' />
  <node id='-150239807' action='modify' lat='55.50673017513' lon='10.64985572755' />
  <node id='-150239808' action='modify' lat='55.51005048222' lon='10.6573980993' />
  <node id='-150239809' action='modify' lat='55.51215856478' lon='10.65981745183' />
  <node id='-150239810' action='modify' lat='55.51365906197' lon='10.66037535131' />
  <node id='-150239811' action='modify' lat='55.51524454543' lon='10.66126048028'>
    <tag k='name' v='dal' />
  </node>
  <node id='-150239812' action='modify' lat='55.51707597267' lon='10.66342770517' />
  <node id='-150239813' action='modify' lat='55.52082663973' lon='10.67013322771' />
  <node id='-150239814' action='modify' lat='55.52330157897' lon='10.67294418544'>
    <tag k='name' v='her' />
  </node>
  <node id='-150239815' action='modify' lat='55.52758452808' lon='10.67293748125' />
  <node id='-150239816' action='modify' lat='55.53217194836' lon='10.67033431497'>
    <tag k='name' v='kir' />
  </node>
  <node id='-150239817' action='modify' lat='55.53401036083' lon='10.66929100871' />
  <node id='-150239818' action='modify' lat='55.53618090413' lon='10.6675475809' />
  <node id='-150239819' action='modify' lat='55.54293002104' lon='10.66057355567' />
  <node id='-150239820' action='modify' lat='55.54422454874' lon='10.6593024677'>
    <tag k='name' v='mar' />
  </node>
  <node id='-150239821' action='modify' lat='55.54565705517' lon='10.65807401597' />
  <node id='-150239822' action='modify' lat='55.54608194111' lon='10.65774142206'>
    <tag k='name' v='mar.f' />
  </node>
  <way id='-36729242' action='modify'>
    <nd ref='-150239740' />
    <nd ref='-150239742' />
    <tag k='type' v='straight' />
  </way>
  <way id='-36729243' action='modify'>
    <nd ref='-150239742' />
    <nd ref='-150239743' />
    <tag k='type' v='arc' />
  </way>
  <way id='-36729245' action='modify'>
    <nd ref='-150239743' />
    <nd ref='-150239744' />
    <nd ref='-150239745' />
    <tag k='type' v='straight' />
  </way>
  <way id='-36729246' action='modify'>
    <nd ref='-150239745' />
    <nd ref='-150239746' />
  </way>
  <way id='-36729247' action='modify'>
    <nd ref='-150239746' />
    <nd ref='-150239747' />
    <tag k='type' v='straight' />
  </way>
  <way id='-36729248' action='modify'>
    <nd ref='-150239747' />
    <nd ref='-150239748' />
  </way>
  <way id='-36729249' action='modify'>
    <nd ref='-150239748' />
    <nd ref='-150239749' />
    <tag k='type' v='straight' />
  </way>
  <way id='-36729250' action='modify'>
    <nd ref='-150239749' />
    <nd ref='-150239750' />
    <nd ref='-150239751' />
  </way>
  <way id='-36729251' action='modify'>
    <nd ref='-150239751' />
    <nd ref='-150239752' />
    <nd ref='-150239753' />
    <tag k='type' v='straight' />
  </way>
  <way id='-36729252' action='modify'>
    <nd ref='-150239753' />
    <nd ref='-150239754' />
  </way>
  <way id='-36729253' action='modify'>
    <nd ref='-150239754' />
    <nd ref='-150239755' />
    <nd ref='-150239756' />
    <tag k='type' v='straight' />
  </way>
  <way id='-36729254' action='modify'>
    <nd ref='-150239756' />
    <nd ref='-150239757' />
  </way>
  <way id='-36729255' action='modify'>
    <nd ref='-150239757' />
    <nd ref='-150239758' />
    <nd ref='-150239759' />
    <tag k='type' v='straight' />
  </way>
  <way id='-36729256' action='modify'>
    <nd ref='-150239759' />
    <nd ref='-150239760' />
  </way>
  <way id='-36729257' action='modify'>
    <nd ref='-150239760' />
    <nd ref='-150239761' />
    <nd ref='-150239762' />
    <tag k='type' v='straight' />
  </way>
  <way id='-36729258' action='modify'>
    <nd ref='-150239762' />
    <nd ref='-150239763' />
    <nd ref='-150239764' />
    <nd ref='-150239765' />
  </way>
  <way id='-36729259' action='modify'>
    <nd ref='-150239765' />
    <nd ref='-150239766' />
    <nd ref='-150239767' />
    <tag k='type' v='straight' />
  </way>
  <way id='-36729260' action='modify'>
    <nd ref='-150239767' />
    <nd ref='-150239768' />
  </way>
  <way id='-36729261' action='modify'>
    <nd ref='-150239768' />
    <nd ref='-150239769' />
    <nd ref='-150239770' />
    <tag k='type' v='straight' />
  </way>
  <way id='-36729262' action='modify'>
    <nd ref='-150239770' />
    <nd ref='-150239771' />
  </way>
  <way id='-36729263' action='modify'>
    <nd ref='-150239771' />
    <nd ref='-150239772' />
    <tag k='type' v='straight' />
  </way>
  <way id='-36729264' action='modify'>
    <nd ref='-150239772' />
    <nd ref='-150239773' />
    <nd ref='-150239774' />
  </way>
  <way id='-36729265' action='modify'>
    <nd ref='-150239774' />
    <nd ref='-150239775' />
    <tag k='type' v='straight' />
  </way>
  <way id='-36729266' action='modify'>
    <nd ref='-150239775' />
    <nd ref='-150239776' />
    <nd ref='-150239777' />
    <nd ref='-150239778' />
  </way>
  <way id='-36729267' action='modify'>
    <nd ref='-150239778' />
    <nd ref='-150239779' />
    <tag k='type' v='straight' />
  </way>
  <way id='-36729268' action='modify'>
    <nd ref='-150239779' />
    <nd ref='-150239780' />
  </way>
  <way id='-36729269' action='modify'>
    <nd ref='-150239780' />
    <nd ref='-150239781' />
    <nd ref='-150239782' />
    <tag k='type' v='straight' />
  </way>
  <way id='-36729270' action='modify'>
    <nd ref='-150239782' />
    <nd ref='-150239783' />
  </way>
  <way id='-36729271' action='modify'>
    <nd ref='-150239783' />
    <nd ref='-150239784' />
    <tag k='type' v='straight' />
  </way>
  <way id='-36729272' action='modify'>
    <nd ref='-150239784' />
    <nd ref='-150239785' />
  </way>
  <way id='-36729273' action='modify'>
    <nd ref='-150239785' />
    <nd ref='-150239786' />
    <tag k='type' v='straight' />
  </way>
  <way id='-36729274' action='modify'>
    <nd ref='-150239786' />
    <nd ref='-150239787' />
  </way>
  <way id='-36729275' action='modify'>
    <nd ref='-150239787' />
    <nd ref='-150239788' />
    <tag k='type' v='straight' />
  </way>
  <way id='-36729276' action='modify'>
    <nd ref='-150239788' />
    <nd ref='-150239789' />
    <nd ref='-150239790' />
  </way>
  <way id='-36729277' action='modify'>
    <nd ref='-150239790' />
    <nd ref='-150239791' />
    <tag k='type' v='straight' />
  </way>
  <way id='-36729278' action='modify'>
    <nd ref='-150239791' />
    <nd ref='-150239792' />
  </way>
  <way id='-36729279' action='modify'>
    <nd ref='-150239792' />
    <nd ref='-150239793' />
    <tag k='type' v='straight' />
  </way>
  <way id='-36729280' action='modify'>
    <nd ref='-150239793' />
    <nd ref='-150239794' />
  </way>
  <way id='-36729281' action='modify'>
    <nd ref='-150239794' />
    <nd ref='-150239795' />
    <tag k='type' v='straight' />
  </way>
  <way id='-36729282' action='modify'>
    <nd ref='-150239795' />
    <nd ref='-150239796' />
  </way>
  <way id='-36729283' action='modify'>
    <nd ref='-150239796' />
    <nd ref='-150239797' />
    <tag k='type' v='straight' />
  </way>
  <way id='-36729284' action='modify'>
    <nd ref='-150239797' />
    <nd ref='-150239798' />
  </way>
  <way id='-36729285' action='modify'>
    <nd ref='-150239798' />
    <nd ref='-150239799' />
    <tag k='type' v='straight' />
  </way>
  <way id='-36729286' action='modify'>
    <nd ref='-150239799' />
    <nd ref='-150239800' />
  </way>
  <way id='-36729287' action='modify'>
    <nd ref='-150239800' />
    <nd ref='-150239801' />
    <tag k='type' v='straight' />
  </way>
  <way id='-36729288' action='modify'>
    <nd ref='-150239801' />
    <nd ref='-150239802' />
  </way>
  <way id='-36729289' action='modify'>
    <nd ref='-150239802' />
    <nd ref='-150239803' />
    <nd ref='-150239804' />
    <tag k='type' v='straight' />
  </way>
  <way id='-36729290' action='modify'>
    <nd ref='-150239804' />
    <nd ref='-150239805' />
  </way>
  <way id='-36729291' action='modify'>
    <nd ref='-150239805' />
    <nd ref='-150239806' />
    <nd ref='-150239807' />
    <nd ref='-150239808' />
    <tag k='type' v='straight' />
  </way>
  <way id='-36729292' action='modify'>
    <nd ref='-150239808' />
    <nd ref='-150239809' />
  </way>
  <way id='-36729293' action='modify'>
    <nd ref='-150239809' />
    <nd ref='-150239810' />
    <tag k='type' v='straight' />
  </way>
  <way id='-36729294' action='modify'>
    <nd ref='-150239810' />
    <nd ref='-150239811' />
    <nd ref='-150239812' />
  </way>
  <way id='-36729295' action='modify'>
    <nd ref='-150239812' />
    <nd ref='-150239813' />
    <tag k='type' v='straight' />
  </way>
  <way id='-36729296' action='modify'>
    <nd ref='-150239813' />
    <nd ref='-150239814' />
    <nd ref='-150239815' />
  </way>
  <way id='-36729297' action='modify'>
    <nd ref='-150239815' />
    <nd ref='-150239816' />
    <nd ref='-150239817' />
    <tag k='type' v='straight' />
  </way>
  <way id='-36729298' action='modify'>
    <nd ref='-150239817' />
    <nd ref='-150239818' />
  </way>
  <way id='-36729299' action='modify'>
    <nd ref='-150239818' />
    <nd ref='-150239819' />
    <tag k='type' v='straight' />
  </way>
  <way id='-36729300' action='modify'>
    <nd ref='-150239819' />
    <nd ref='-150239820' />
    <nd ref='-150239821' />
  </way>
  <way id='-36729301' action='modify'>
    <nd ref='-150239821' />
    <nd ref='-150239822' />
    <tag k='type' v='straight' />
  </way>
  <relation id='-14470253' action='modify'>
    <member type='way' ref='-36729242' role='' />
    <member type='way' ref='-36729243' role='' />
    <member type='way' ref='-36729245' role='' />
    <member type='way' ref='-36729246' role='' />
    <member type='way' ref='-36729247' role='' />
    <member type='way' ref='-36729248' role='' />
    <member type='way' ref='-36729249' role='' />
    <member type='way' ref='-36729250' role='' />
    <member type='way' ref='-36729251' role='' />
    <member type='way' ref='-36729252' role='' />
    <member type='way' ref='-36729253' role='' />
    <member type='way' ref='-36729254' role='' />
    <member type='way' ref='-36729255' role='' />
    <member type='way' ref='-36729256' role='' />
    <member type='way' ref='-36729257' role='' />
    <member type='way' ref='-36729258' role='' />
    <member type='way' ref='-36729259' role='' />
    <member type='way' ref='-36729260' role='' />
    <member type='way' ref='-36729261' role='' />
    <member type='way' ref='-36729262' role='' />
    <member type='way' ref='-36729263' role='' />
    <member type='way' ref='-36729264' role='' />
    <member type='way' ref='-36729265' role='' />
    <member type='way' ref='-36729266' role='' />
    <member type='way' ref='-36729267' role='' />
    <member type='way' ref='-36729268' role='' />
    <member type='way' ref='-36729269' role='' />
    <member type='way' ref='-36729270' role='' />
    <member type='way' ref='-36729271' role='' />
    <member type='way' ref='-36729272' role='' />
    <member type='way' ref='-36729273' role='' />
    <member type='way' ref='-36729274' role='' />
    <member type='way' ref='-36729275' role='' />
    <member type='way' ref='-36729276' role='' />
    <member type='way' ref='-36729277' role='' />
    <member type='way' ref='-36729278' role='' />
    <member type='way' ref='-36729279' role='' />
    <member type='way' ref='-36729280' role='' />
    <member type='way' ref='-36729281' role='' />
    <member type='way' ref='-36729282' role='' />
    <member type='way' ref='-36729283' role='' />
    <member type='way' ref='-36729284' role='' />
    <member type='way' ref='-36729285' role='' />
    <member type='way' ref='-36729286' role='' />
    <member type='way' ref='-36729287' role='' />
    <member type='way' ref='-36729288' role='' />
    <member type='way' ref='-36729289' role='' />
    <member type='way' ref='-36729290' role='' />
    <member type='way' ref='-36729291' role='' />
    <member type='way' ref='-36729292' role='' />
    <member type='way' ref='-36729293' role='' />
    <member type='way' ref='-36729294' role='' />
    <member type='way' ref='-36729295' role='' />
    <member type='way' ref='-36729296' role='' />
    <member type='way' ref='-36729297' role='' />
    <member type='way' ref='-36729298' role='' />
    <member type='way' ref='-36729299' role='' />
    <member type='way' ref='-36729300' role='' />
    <member type='way' ref='-36729301' role='' />
    <tag k='key' v='path.dk.okm' />
    <tag k='name' v='DK OKM' />
    <tag k='type' v='path' />
  </relation>
</osm>
