<?xml version='1.0' encoding='UTF-8'?>
<osm version='0.6' upload='false' generator='JOSM'>
  <node id='-150810087' action='modify' lat='55.40218582131' lon='10.38538879455'>
    <tag k='name' v='ode' />
  </node>
  <node id='-150810088' action='modify' lat='55.40214360483' lon='10.38362460087' />
  <node id='-150810089' action='modify' lat='55.40183435566' lon='10.37736190006' />
  <node id='-150810090' action='modify' lat='55.40183686385' lon='10.37329399736' />
  <node id='-150810091' action='modify' lat='55.39906879863' lon='10.36482986392' />
  <node id='-150810092' action='modify' lat='55.39897499308' lon='10.36473051629' />
  <node id='-150810093' action='modify' lat='55.39856561679' lon='10.35586148232' />
  <node id='-150810094' action='modify' lat='55.39864365368' lon='10.35571683908' />
  <node id='-150810095' action='modify' lat='55.39953660004' lon='10.35406172141' />
  <node id='-150810096' action='modify' lat='55.40112743991' lon='10.34970849484' />
  <node id='-150810097' action='modify' lat='55.40853893575' lon='10.32015285018'>
    <tag k='name' v='sne' />
  </node>
  <node id='-150810098' action='modify' lat='55.4111979684' lon='10.30954777926' />
  <node id='-150810099' action='modify' lat='55.41310122766' lon='10.30521064728' />
  <node id='-150810100' action='modify' lat='55.41346207528' lon='10.30468493432' />
  <node id='-150810101' action='modify' lat='55.41516501762' lon='10.30154809222'>
    <tag k='name' v='vil' />
  </node>
  <node id='-150810102' action='modify' lat='55.41688767961' lon='10.29312997788' />
  <node id='-150810103' action='modify' lat='55.41766848274' lon='10.27306313769'>
    <tag k='name' v='kor' />
  </node>
  <node id='-150810104' action='modify' lat='55.41789855674' lon='10.26715010136' />
  <node id='-150810105' action='modify' lat='55.41988065489' lon='10.2562951988' />
  <node id='-150810106' action='modify' lat='55.42064461778' lon='10.25409917568'>
    <tag k='name' v='slu' />
  </node>
  <node id='-150810107' action='modify' lat='55.42330874697' lon='10.24644076288' />
  <node id='-150810108' action='modify' lat='55.42460257649' lon='10.24239599168' />
  <node id='-150810109' action='modify' lat='55.42619952586' lon='10.23725333815'>
    <tag k='name' v='brb' />
  </node>
  <node id='-150810110' action='modify' lat='55.42848381072' lon='10.22989689767' />
  <node id='-150810111' action='modify' lat='55.43041058612' lon='10.22582262486' />
  <node id='-150810112' action='modify' lat='55.43260663188' lon='10.22281050414' />
  <node id='-150810113' action='modify' lat='55.43477820926' lon='10.21660923421' />
  <node id='-150810114' action='modify' lat='55.43537472495' lon='10.21173297822' />
  <node id='-150810115' action='modify' lat='55.43550863387' lon='10.21074056357'>
    <tag k='name' v='lan' />
  </node>
  <node id='-150810116' action='modify' lat='55.43662250923' lon='10.20591794908' />
  <node id='-150810117' action='modify' lat='55.44090728578' lon='10.19314526439' />
  <node id='-150810118' action='modify' lat='55.44421488276' lon='10.18889128625'>
    <tag k='name' v='mor' />
  </node>
  <node id='-150810119' action='modify' lat='55.44896735925' lon='10.18909245461' />
  <node id='-150810120' action='modify' lat='55.46010393137' lon='10.19543050647' />
  <node id='-150810121' action='modify' lat='55.46516468868' lon='10.19175588548' />
  <node id='-150810122' action='modify' lat='55.46550225083' lon='10.19062667817'>
    <tag k='name' v='far' />
  </node>
  <node id='-150810123' action='modify' lat='55.46722044009' lon='10.17976640582' />
  <node id='-150810124' action='modify' lat='55.46799283552' lon='10.15976249635' />
  <node id='-150810125' action='modify' lat='55.46823762641' lon='10.15562116832'>
    <tag k='name' v='vef' />
  </node>
  <node id='-150810126' action='modify' lat='55.46906322401' lon='10.15034793735' />
  <node id='-150810127' action='modify' lat='55.47597137642' lon='10.11564015269' />
  <node id='-150810128' action='modify' lat='55.4768682498' lon='10.11178314149' />
  <node id='-150810129' action='modify' lat='55.47764957973' lon='10.10924040735' />
  <node id='-150810130' action='modify' lat='55.47931935224' lon='10.10194212064'>
    <tag k='name' v='gam' />
  </node>
  <node id='-150810131' action='modify' lat='55.47944931886' lon='10.09206889987' />
  <node id='-150810132' action='modify' lat='55.47820896901' lon='10.07837890506' />
  <node id='-150810133' action='modify' lat='55.47805087936' lon='10.07269262731' />
  <node id='-150810134' action='modify' lat='55.47840579106' lon='10.06573630461'>
    <tag k='name' v='nym' />
  </node>
  <node id='-150810135' action='modify' lat='55.47855857833' lon='10.06274163187' />
  <node id='-150810136' action='modify' lat='55.47758269454' lon='10.05626141757' />
  <node id='-150810137' action='modify' lat='55.47541195539' lon='10.05018352926' />
  <node id='-150810138' action='modify' lat='55.4746214599' lon='10.04757105768' />
  <node id='-150810139' action='modify' lat='55.46977476794' lon='10.02926766336' />
  <node id='-150810140' action='modify' lat='55.46936730092' lon='10.02404004067' />
  <node id='-150810141' action='modify' lat='55.46951146317' lon='10.02286763405'>
    <tag k='name' v='har' />
  </node>
  <node id='-150810142' action='modify' lat='55.47013509621' lon='10.01779585809' />
  <node id='-150810143' action='modify' lat='55.47315596094' lon='10.01008450449' />
  <node id='-150810144' action='modify' lat='55.47830625276' lon='10.00237583041' />
  <node id='-150810145' action='modify' lat='55.48032483643' lon='9.99866365314' />
  <node id='-150810146' action='modify' lat='55.48495745978' lon='9.98882531047' />
  <node id='-150810147' action='modify' lat='55.48676294105' lon='9.985649575' />
  <node id='-150810148' action='modify' lat='55.48929777008' lon='9.98177646518' />
  <node id='-150810149' action='modify' lat='55.49075386408' lon='9.97477964814' />
  <node id='-150810150' action='modify' lat='55.49055904206' lon='9.97290372312'>
    <tag k='name' v='bre' />
  </node>
  <node id='-150810151' action='modify' lat='55.49046267691' lon='9.97197583458' />
  <node id='-150810152' action='modify' lat='55.48822793408' lon='9.96093033671' />
  <node id='-150810153' action='modify' lat='55.48131128583' lon='9.93690848082' />
  <node id='-150810154' action='modify' lat='55.48118513053' lon='9.92635935277' />
  <node id='-150810155' action='modify' lat='55.48408812143' lon='9.91527378023' />
  <node id='-150810156' action='modify' lat='55.48482827199' lon='9.90767508477' />
  <node id='-150810157' action='modify' lat='55.48472948453' lon='9.90626692504' />
  <node id='-150810158' action='modify' lat='55.48469756852' lon='9.90402191609'>
    <tag k='name' v='asp' />
  </node>
  <node id='-150810159' action='modify' lat='55.48533132581' lon='9.89835977018' />
  <node id='-150810160' action='modify' lat='55.4908928497' lon='9.8723341455'>
    <tag k='name' v='bla' />
  </node>
  <node id='-150810161' action='modify' lat='55.49167528998' lon='9.86867235478' />
  <node id='-150810162' action='modify' lat='55.49229740794' lon='9.86527740419' />
  <node id='-150810163' action='modify' lat='55.49537279042' lon='9.84578310907' />
  <node id='-150810164' action='modify' lat='55.49753939299' lon='9.83738779485' />
  <node id='-150810165' action='modify' lat='55.49832032056' lon='9.83506601605'>
    <tag k='name' v='kus' />
  </node>
  <node id='-150810166' action='modify' lat='55.49870317096' lon='9.83392774522' />
  <node id='-150810167' action='modify' lat='55.50120988962' lon='9.83012436748' />
  <node id='-150810168' action='modify' lat='55.50784507921' lon='9.8240625751' />
  <node id='-150810169' action='modify' lat='55.51260811245' lon='9.81581210554' />
  <node id='-150810170' action='modify' lat='55.51407064972' lon='9.80977023759'>
    <tag k='name' v='roj' />
  </node>
  <node id='-150810171' action='modify' lat='55.51525061996' lon='9.80489551485' />
  <node id='-150810172' action='modify' lat='55.51577302572' lon='9.80204164445' />
  <node id='-150810173' action='modify' lat='55.51706686131' lon='9.79179560602' />
  <node id='-150810174' action='modify' lat='55.51721871715' lon='9.78941916883' />
  <node id='-150810175' action='modify' lat='55.51743131739' lon='9.76954935908' />
  <node id='-150810176' action='modify' lat='55.51491651961' lon='9.76198017061' />
  <node id='-150810177' action='modify' lat='55.51455620054' lon='9.76164372376'>
    <tag k='name' v='sta' />
  </node>
  <node id='-150810178' action='modify' lat='55.5129574196' lon='9.76015090406' />
  <node id='-150810179' action='modify' lat='55.51129590791' lon='9.75839136958' />
  <node id='-150810180' action='modify' lat='55.51015376571' lon='9.75625633121' />
  <node id='-150810181' action='modify' lat='55.50888849673' lon='9.7541252266' />
  <node id='-150810182' action='modify' lat='55.50873059344' lon='9.75396036834' />
  <node id='-150810183' action='modify' lat='55.50656916805' lon='9.75220083117' />
  <node id='-150810184' action='modify' lat='55.50251028044' lon='9.7499477756' />
  <node id='-150810185' action='modify' lat='55.50582267552' lon='9.7517864418'>
    <tag k='name' v='mig' />
  </node>
  <node id='-150810186' action='modify' lat='55.50055058861' lon='9.74272645602' />
  <node id='-150810187' action='modify' lat='55.50061945902' lon='9.74246246295' />
  <node id='-150810188' action='modify' lat='55.50126758761' lon='9.73901773241' />
  <node id='-150810189' action='modify' lat='55.50170050225' lon='9.73435874436'>
    <tag k='name' v='mid' />
  </node>
  <way id='-36767235' action='modify'>
    <nd ref='-150810087' />
    <nd ref='-150810088' />
    <tag k='type' v='straight' />
  </way>
  <way id='-36767236' action='modify'>
    <nd ref='-150810088' />
    <nd ref='-150810089' />
    <tag k='type' v='arc' />
  </way>
  <way id='-36767237' action='modify'>
    <nd ref='-150810089' />
    <nd ref='-150810090' />
    <tag k='type' v='straight' />
  </way>
  <way id='-36767238' action='modify'>
    <nd ref='-150810090' />
    <nd ref='-150810091' />
    <tag k='type' v='arc' />
  </way>
  <way id='-36767239' action='modify'>
    <nd ref='-150810091' />
    <nd ref='-150810092' />
    <tag k='type' v='straight' />
  </way>
  <way id='-36767240' action='modify'>
    <nd ref='-150810092' />
    <nd ref='-150810093' />
  </way>
  <way id='-36767241' action='modify'>
    <nd ref='-150810093' />
    <nd ref='-150810094' />
    <tag k='type' v='straight' />
  </way>
  <way id='-36767242' action='modify'>
    <nd ref='-150810094' />
    <nd ref='-150810095' />
    <tag k='type' v='straight' />
  </way>
  <way id='-36767243' action='modify'>
    <nd ref='-150810095' />
    <nd ref='-150810096' />
  </way>
  <way id='-36767244' action='modify'>
    <nd ref='-150810096' />
    <nd ref='-150810097' />
    <nd ref='-150810098' />
    <tag k='type' v='straight' />
  </way>
  <way id='-36767245' action='modify'>
    <nd ref='-150810098' />
    <nd ref='-150810099' />
  </way>
  <way id='-36767246' action='modify'>
    <nd ref='-150810099' />
    <nd ref='-150810100' />
    <tag k='type' v='straight' />
  </way>
  <way id='-36767247' action='modify'>
    <nd ref='-150810100' />
    <nd ref='-150810101' />
    <nd ref='-150810102' />
  </way>
  <way id='-36767248' action='modify'>
    <nd ref='-150810102' />
    <nd ref='-150810103' />
    <nd ref='-150810104' />
    <tag k='type' v='straight' />
  </way>
  <way id='-36767249' action='modify'>
    <nd ref='-150810104' />
    <nd ref='-150810105' />
  </way>
  <way id='-36767250' action='modify'>
    <nd ref='-150810105' />
    <nd ref='-150810106' />
    <nd ref='-150810107' />
    <tag k='type' v='straight' />
  </way>
  <way id='-36767251' action='modify'>
    <nd ref='-150810107' />
    <nd ref='-150810108' />
  </way>
  <way id='-36767252' action='modify'>
    <nd ref='-150810108' />
    <nd ref='-150810109' />
    <nd ref='-150810110' />
    <tag k='type' v='straight' />
  </way>
  <way id='-36767253' action='modify'>
    <nd ref='-150810110' />
    <nd ref='-150810111' />
  </way>
  <way id='-36767254' action='modify'>
    <nd ref='-150810111' />
    <nd ref='-150810112' />
    <tag k='type' v='straight' />
  </way>
  <way id='-36767255' action='modify'>
    <nd ref='-150810112' />
    <nd ref='-150810113' />
  </way>
  <way id='-36767256' action='modify'>
    <nd ref='-150810113' />
    <nd ref='-150810114' />
    <tag k='type' v='straight' />
  </way>
  <way id='-36767257' action='modify'>
    <nd ref='-150810114' />
    <nd ref='-150810115' />
    <nd ref='-150810116' />
  </way>
  <way id='-36767258' action='modify'>
    <nd ref='-150810116' />
    <nd ref='-150810117' />
    <tag k='type' v='straight' />
  </way>
  <way id='-36767259' action='modify'>
    <nd ref='-150810117' />
    <nd ref='-150810118' />
    <nd ref='-150810119' />
  </way>
  <way id='-36767260' action='modify'>
    <nd ref='-150810119' />
    <nd ref='-150810120' />
    <tag k='type' v='straight' />
  </way>
  <way id='-36767261' action='modify'>
    <nd ref='-150810120' />
    <nd ref='-150810121' />
  </way>
  <way id='-36767262' action='modify'>
    <nd ref='-150810121' />
    <nd ref='-150810122' />
    <tag k='type' v='straight' />
  </way>
  <way id='-36767263' action='modify'>
    <nd ref='-150810122' />
    <nd ref='-150810123' />
  </way>
  <way id='-36767264' action='modify'>
    <nd ref='-150810123' />
    <nd ref='-150810124' />
    <tag k='type' v='straight' />
  </way>
  <way id='-36767265' action='modify'>
    <nd ref='-150810124' />
    <nd ref='-150810125' />
    <nd ref='-150810126' />
  </way>
  <way id='-36767266' action='modify'>
    <nd ref='-150810126' />
    <nd ref='-150810127' />
    <tag k='type' v='straight' />
  </way>
  <way id='-36767267' action='modify'>
    <nd ref='-150810127' />
    <nd ref='-150810128' />
  </way>
  <way id='-36767268' action='modify'>
    <nd ref='-150810128' />
    <nd ref='-150810129' />
    <tag k='type' v='straight' />
  </way>
  <way id='-36767269' action='modify'>
    <nd ref='-150810129' />
    <nd ref='-150810130' />
    <nd ref='-150810131' />
  </way>
  <way id='-36767270' action='modify'>
    <nd ref='-150810131' />
    <nd ref='-150810132' />
    <tag k='type' v='straight' />
  </way>
  <way id='-36767271' action='modify'>
    <nd ref='-150810132' />
    <nd ref='-150810133' />
  </way>
  <way id='-36767272' action='modify'>
    <nd ref='-150810133' />
    <nd ref='-150810134' />
    <nd ref='-150810135' />
    <tag k='type' v='straight' />
  </way>
  <way id='-36767273' action='modify'>
    <nd ref='-150810135' />
    <nd ref='-150810136' />
  </way>
  <way id='-36767274' action='modify'>
    <nd ref='-150810136' />
    <nd ref='-150810137' />
    <tag k='type' v='straight' />
  </way>
  <way id='-36767275' action='modify'>
    <nd ref='-150810137' />
    <nd ref='-150810138' />
  </way>
  <way id='-36767276' action='modify'>
    <nd ref='-150810138' />
    <nd ref='-150810139' />
    <tag k='type' v='straight' />
  </way>
  <way id='-36767277' action='modify'>
    <nd ref='-150810139' />
    <nd ref='-150810140' />
  </way>
  <way id='-36767278' action='modify'>
    <nd ref='-150810140' />
    <nd ref='-150810141' />
    <nd ref='-150810142' />
    <tag k='type' v='straight' />
  </way>
  <way id='-36767279' action='modify'>
    <nd ref='-150810142' />
    <nd ref='-150810143' />
  </way>
  <way id='-36767280' action='modify'>
    <nd ref='-150810143' />
    <nd ref='-150810144' />
    <tag k='type' v='straight' />
  </way>
  <way id='-36767281' action='modify'>
    <nd ref='-150810144' />
    <nd ref='-150810145' />
  </way>
  <way id='-36767282' action='modify'>
    <nd ref='-150810145' />
    <nd ref='-150810146' />
    <tag k='type' v='straight' />
  </way>
  <way id='-36767283' action='modify'>
    <nd ref='-150810146' />
    <nd ref='-150810147' />
  </way>
  <way id='-36767284' action='modify'>
    <nd ref='-150810147' />
    <nd ref='-150810148' />
    <tag k='type' v='straight' />
  </way>
  <way id='-36767285' action='modify'>
    <nd ref='-150810148' />
    <nd ref='-150810149' />
  </way>
  <way id='-36767286' action='modify'>
    <nd ref='-150810149' />
    <nd ref='-150810150' />
    <nd ref='-150810151' />
    <tag k='type' v='straight' />
  </way>
  <way id='-36767287' action='modify'>
    <nd ref='-150810151' />
    <nd ref='-150810152' />
  </way>
  <way id='-36767288' action='modify'>
    <nd ref='-150810152' />
    <nd ref='-150810153' />
    <tag k='type' v='straight' />
  </way>
  <way id='-36767289' action='modify'>
    <nd ref='-150810153' />
    <nd ref='-150810154' />
  </way>
  <way id='-36767290' action='modify'>
    <nd ref='-150810154' />
    <nd ref='-150810155' />
    <tag k='type' v='straight' />
  </way>
  <way id='-36767291' action='modify'>
    <nd ref='-150810155' />
    <nd ref='-150810156' />
  </way>
  <way id='-36767292' action='modify'>
    <nd ref='-150810156' />
    <nd ref='-150810157' />
    <tag k='type' v='straight' />
  </way>
  <way id='-36767293' action='modify'>
    <nd ref='-150810157' />
    <nd ref='-150810158' />
    <nd ref='-150810159' />
  </way>
  <way id='-36767294' action='modify'>
    <nd ref='-150810159' />
    <nd ref='-150810160' />
    <nd ref='-150810161' />
    <tag k='type' v='straight' />
  </way>
  <way id='-36767295' action='modify'>
    <nd ref='-150810161' />
    <nd ref='-150810162' />
  </way>
  <way id='-36767296' action='modify'>
    <nd ref='-150810162' />
    <nd ref='-150810163' />
    <tag k='type' v='straight' />
  </way>
  <way id='-36767297' action='modify'>
    <nd ref='-150810163' />
    <nd ref='-150810164' />
  </way>
  <way id='-36767298' action='modify'>
    <nd ref='-150810164' />
    <nd ref='-150810165' />
    <nd ref='-150810166' />
    <tag k='type' v='straight' />
  </way>
  <way id='-36767299' action='modify'>
    <nd ref='-150810166' />
    <nd ref='-150810167' />
  </way>
  <way id='-36767300' action='modify'>
    <nd ref='-150810167' />
    <nd ref='-150810168' />
    <tag k='type' v='straight' />
  </way>
  <way id='-36767301' action='modify'>
    <nd ref='-150810168' />
    <nd ref='-150810169' />
  </way>
  <way id='-36767302' action='modify'>
    <nd ref='-150810169' />
    <nd ref='-150810170' />
    <nd ref='-150810171' />
    <tag k='type' v='straight' />
  </way>
  <way id='-36767303' action='modify'>
    <nd ref='-150810171' />
    <nd ref='-150810172' />
  </way>
  <way id='-36767304' action='modify'>
    <nd ref='-150810172' />
    <nd ref='-150810173' />
    <tag k='type' v='straight' />
  </way>
  <way id='-36767305' action='modify'>
    <nd ref='-150810173' />
    <nd ref='-150810174' />
  </way>
  <way id='-36767306' action='modify'>
    <nd ref='-150810174' />
    <nd ref='-150810175' />
    <tag k='type' v='straight' />
  </way>
  <way id='-36767307' action='modify'>
    <nd ref='-150810175' />
    <nd ref='-150810176' />
  </way>
  <way id='-36767308' action='modify'>
    <nd ref='-150810176' />
    <nd ref='-150810177' />
    <nd ref='-150810178' />
    <tag k='type' v='straight' />
  </way>
  <way id='-36767309' action='modify'>
    <nd ref='-150810178' />
    <nd ref='-150810179' />
  </way>
  <way id='-36767310' action='modify'>
    <nd ref='-150810179' />
    <nd ref='-150810180' />
    <tag k='type' v='straight' />
  </way>
  <way id='-36767311' action='modify'>
    <nd ref='-150810180' />
    <nd ref='-150810181' />
  </way>
  <way id='-36767312' action='modify'>
    <nd ref='-150810181' />
    <nd ref='-150810182' />
    <tag k='type' v='straight' />
  </way>
  <way id='-36767313' action='modify'>
    <nd ref='-150810182' />
    <nd ref='-150810183' />
  </way>
  <way id='-36767314' action='modify'>
    <nd ref='-150810183' />
    <nd ref='-150810185' />
    <nd ref='-150810184' />
    <tag k='type' v='straight' />
  </way>
  <way id='-36767315' action='modify'>
    <nd ref='-150810184' />
    <nd ref='-150810186' />
  </way>
  <way id='-36767316' action='modify'>
    <nd ref='-150810186' />
    <nd ref='-150810187' />
    <tag k='type' v='straight' />
  </way>
  <way id='-36767317' action='modify'>
    <nd ref='-150810187' />
    <nd ref='-150810188' />
    <tag k='type' v='arc' />
  </way>
  <way id='-36767318' action='modify'>
    <nd ref='-150810188' />
    <nd ref='-150810189' />
    <tag k='type' v='straight' />
  </way>
  <relation id='-14470664' action='modify'>
    <member type='way' ref='-36767235' role='' />
    <member type='way' ref='-36767236' role='' />
    <member type='way' ref='-36767237' role='' />
    <member type='way' ref='-36767238' role='' />
    <member type='way' ref='-36767239' role='' />
    <member type='way' ref='-36767240' role='' />
    <member type='way' ref='-36767241' role='' />
    <member type='way' ref='-36767242' role='' />
    <member type='way' ref='-36767243' role='' />
    <member type='way' ref='-36767244' role='' />
    <member type='way' ref='-36767245' role='' />
    <member type='way' ref='-36767246' role='' />
    <member type='way' ref='-36767247' role='' />
    <member type='way' ref='-36767248' role='' />
    <member type='way' ref='-36767249' role='' />
    <member type='way' ref='-36767250' role='' />
    <member type='way' ref='-36767251' role='' />
    <member type='way' ref='-36767252' role='' />
    <member type='way' ref='-36767253' role='' />
    <member type='way' ref='-36767254' role='' />
    <member type='way' ref='-36767255' role='' />
    <member type='way' ref='-36767256' role='' />
    <member type='way' ref='-36767257' role='' />
    <member type='way' ref='-36767258' role='' />
    <member type='way' ref='-36767259' role='' />
    <member type='way' ref='-36767260' role='' />
    <member type='way' ref='-36767261' role='' />
    <member type='way' ref='-36767262' role='' />
    <member type='way' ref='-36767263' role='' />
    <member type='way' ref='-36767264' role='' />
    <member type='way' ref='-36767265' role='' />
    <member type='way' ref='-36767266' role='' />
    <member type='way' ref='-36767267' role='' />
    <member type='way' ref='-36767268' role='' />
    <member type='way' ref='-36767269' role='' />
    <member type='way' ref='-36767270' role='' />
    <member type='way' ref='-36767271' role='' />
    <member type='way' ref='-36767272' role='' />
    <member type='way' ref='-36767273' role='' />
    <member type='way' ref='-36767274' role='' />
    <member type='way' ref='-36767275' role='' />
    <member type='way' ref='-36767276' role='' />
    <member type='way' ref='-36767277' role='' />
    <member type='way' ref='-36767278' role='' />
    <member type='way' ref='-36767279' role='' />
    <member type='way' ref='-36767280' role='' />
    <member type='way' ref='-36767281' role='' />
    <member type='way' ref='-36767282' role='' />
    <member type='way' ref='-36767283' role='' />
    <member type='way' ref='-36767284' role='' />
    <member type='way' ref='-36767285' role='' />
    <member type='way' ref='-36767286' role='' />
    <member type='way' ref='-36767287' role='' />
    <member type='way' ref='-36767288' role='' />
    <member type='way' ref='-36767289' role='' />
    <member type='way' ref='-36767290' role='' />
    <member type='way' ref='-36767291' role='' />
    <member type='way' ref='-36767292' role='' />
    <member type='way' ref='-36767293' role='' />
    <member type='way' ref='-36767294' role='' />
    <member type='way' ref='-36767295' role='' />
    <member type='way' ref='-36767296' role='' />
    <member type='way' ref='-36767297' role='' />
    <member type='way' ref='-36767298' role='' />
    <member type='way' ref='-36767299' role='' />
    <member type='way' ref='-36767300' role='' />
    <member type='way' ref='-36767301' role='' />
    <member type='way' ref='-36767302' role='' />
    <member type='way' ref='-36767303' role='' />
    <member type='way' ref='-36767304' role='' />
    <member type='way' ref='-36767305' role='' />
    <member type='way' ref='-36767306' role='' />
    <member type='way' ref='-36767307' role='' />
    <member type='way' ref='-36767308' role='' />
    <member type='way' ref='-36767309' role='' />
    <member type='way' ref='-36767310' role='' />
    <member type='way' ref='-36767311' role='' />
    <member type='way' ref='-36767312' role='' />
    <member type='way' ref='-36767313' role='' />
    <member type='way' ref='-36767314' role='' />
    <member type='way' ref='-36767315' role='' />
    <member type='way' ref='-36767316' role='' />
    <member type='way' ref='-36767317' role='' />
    <member type='way' ref='-36767318' role='' />
    <tag k='key' v='path.dk.omf' />
    <tag k='name' v='DK OMF' />
    <tag k='type' v='path' />
  </relation>
</osm>
