<?xml version='1.0' encoding='UTF-8'?>
<osm version='0.6' upload='false' generator='JOSM'>
  <node id='-149300307' action='modify' lat='55.36969864399' lon='10.37741766365'>
    <tag k='name' v='fru' />
  </node>
  <node id='-149300308' action='modify' lat='55.36605854649' lon='10.38130871348' />
  <node id='-149300309' action='modify' lat='55.35996283225' lon='10.38186549604' />
  <node id='-149300310' action='modify' lat='55.35694304082' lon='10.37872556751'>
    <tag k='name' v='dal' />
  </node>
  <node id='-149300311' action='modify' lat='55.35570129398' lon='10.37743448943' />
  <node id='-149300312' action='modify' lat='55.35338508671' lon='10.37397979617' />
  <node id='-149300313' action='modify' lat='55.34241668999' lon='10.35230218828' />
  <node id='-149300314' action='modify' lat='55.34168759134' lon='10.35062312812'>
    <tag k='name' v='skl' />
  </node>
  <node id='-149300315' action='modify' lat='55.34024918675' lon='10.346066055' />
  <node id='-149300316' action='modify' lat='55.33985868826' lon='10.34420460194' />
  <node id='-149300317' action='modify' lat='55.33598247694' lon='10.33656030625' />
  <node id='-149300318' action='modify' lat='55.32923648155' lon='10.33126699303'>
    <tag k='name' v='bel' />
  </node>
  <node id='-149300319' action='modify' lat='55.32145666143' lon='10.32516359746' />
  <node id='-149300320' action='modify' lat='55.31680941073' lon='10.32285153598' />
  <node id='-149300321' action='modify' lat='55.31578679018' lon='10.32269865006' />
  <node id='-149300322' action='modify' lat='55.31226541737' lon='10.32343089044' />
  <node id='-149300323' action='modify' lat='55.31142585847' lon='10.32402634084'>
    <tag k='name' v='fan' />
  </node>
  <node id='-149300324' action='modify' lat='55.30857275032' lon='10.32668441266' />
  <node id='-149300325' action='modify' lat='55.30475454969' lon='10.33120393217' />
  <node id='-149300326' action='modify' lat='55.30205517809' lon='10.33407925487' />
  <node id='-149300327' action='modify' lat='55.29780703095' lon='10.33777944035'>
    <tag k='name' v='tue' />
  </node>
  <node id='-149300328' action='modify' lat='55.29506465103' lon='10.34016787469' />
  <node id='-149300329' action='modify' lat='55.292721985' lon='10.34340261877' />
  <node id='-149300330' action='modify' lat='55.29060827454' lon='10.347281093' />
  <node id='-149300331' action='modify' lat='55.28927340228' lon='10.35003840387' />
  <node id='-149300332' action='modify' lat='55.28801485459' lon='10.35297810495' />
  <node id='-149300333' action='modify' lat='55.2849645422' lon='10.35686194628' />
  <node id='-149300334' action='modify' lat='55.28472472315' lon='10.35690486163'>
    <tag k='name' v='nso' />
  </node>
  <node id='-149300335' action='modify' lat='55.28221035615' lon='10.35687803686' />
  <node id='-149300336' action='modify' lat='55.28181623048' lon='10.35681902826' />
  <node id='-149300337' action='modify' lat='55.27943153247' lon='10.35479128093' />
  <node id='-149300338' action='modify' lat='55.27177234709' lon='10.33738373637' />
  <node id='-149300339' action='modify' lat='55.2707821824' lon='10.33444939971' />
  <node id='-149300340' action='modify' lat='55.26803967566' lon='10.3243975128'>
    <tag k='name' v='all' />
  </node>
  <node id='-149300341' action='modify' lat='55.26013635276' lon='10.29543398738' />
  <node id='-149300342' action='modify' lat='55.25840685666' lon='10.29161587223' />
  <node id='-149300343' action='modify' lat='55.25045304736' lon='10.27929166908'>
    <tag k='name' v='sta' />
  </node>
  <node id='-149300344' action='modify' lat='55.24980261289' lon='10.2782839483' />
  <node id='-149300345' action='modify' lat='55.24699552887' lon='10.27585386962' />
  <node id='-149300346' action='modify' lat='55.24474176907' lon='10.27515649527' />
  <node id='-149300347' action='modify' lat='55.24220652345' lon='10.2734827888' />
  <node id='-149300348' action='modify' lat='55.23855474505' lon='10.26960967898' />
  <node id='-149300349' action='modify' lat='55.23608332997' lon='10.26010125607' />
  <node id='-149300350' action='modify' lat='55.23628218845' lon='10.25677673091'>
    <tag k='name' v='bro' />
  </node>
  <node id='-149300351' action='modify' lat='55.23634179531' lon='10.25578021735' />
  <node id='-149300352' action='modify' lat='55.23801336942' lon='10.25171935022' />
  <node id='-149300353' action='modify' lat='55.24585185042' lon='10.24422525287' />
  <node id='-149300354' action='modify' lat='55.24876909141' lon='10.23956357896' />
  <node id='-149300355' action='modify' lat='55.25007474869' lon='10.23659169137' />
  <node id='-149300356' action='modify' lat='55.2502780826' lon='10.22979765996' />
  <node id='-149300357' action='modify' lat='55.25007588608' lon='10.22912043987'>
    <tag k='name' v='nbr' />
  </node>
  <node id='-149300358' action='modify' lat='55.24984924074' lon='10.22836133704' />
  <node id='-149300359' action='modify' lat='55.24787620354' lon='10.22325038642' />
  <node id='-149300360' action='modify' lat='55.24552922341' lon='10.21791547269' />
  <node id='-149300361' action='modify' lat='55.24394971188' lon='10.21481483907' />
  <node id='-149300362' action='modify' lat='55.23924291684' lon='10.20767747819' />
  <node id='-149300363' action='modify' lat='55.23770444577' lon='10.20462244481' />
  <node id='-149300364' action='modify' lat='55.23564592478' lon='10.19876181543' />
  <node id='-149300365' action='modify' lat='55.23296479026' lon='10.19477337331'>
    <tag k='name' v='ern' />
  </node>
  <node id='-149300366' action='modify' lat='55.23032477592' lon='10.19314795464' />
  <node id='-149300367' action='modify' lat='55.22762033854' lon='10.1894760105' />
  <node id='-149300368' action='modify' lat='55.22718895766' lon='10.18833875388' />
  <node id='-149300369' action='modify' lat='55.22568520687' lon='10.18583088845' />
  <node id='-149300370' action='modify' lat='55.22505798984' lon='10.18509328097' />
  <node id='-149300371' action='modify' lat='55.22264999807' lon='10.17859160364' />
  <node id='-149300372' action='modify' lat='55.22135261979' lon='10.16898929536' />
  <node id='-149300373' action='modify' lat='55.21952734347' lon='10.16365438432' />
  <node id='-149300374' action='modify' lat='55.2191723767' lon='10.16313671798' />
  <node id='-149300375' action='modify' lat='55.21878680577' lon='10.16262978047'>
    <tag k='name' v='tru' />
  </node>
  <node id='-149300376' action='modify' lat='55.21719246088' lon='10.16096949309' />
  <node id='-149300377' action='modify' lat='55.21301044475' lon='10.15720367163' />
  <node id='-149300378' action='modify' lat='55.2105252055' lon='10.15438734949' />
  <node id='-149300379' action='modify' lat='55.2087009645' lon='10.15148519933' />
  <node id='-149300380' action='modify' lat='55.20368387376' lon='10.14895318866' />
  <node id='-149300381' action='modify' lat='55.20051840207' lon='10.14974712253' />
  <node id='-149300382' action='modify' lat='55.19793440386' lon='10.15071808755' />
  <node id='-149300383' action='modify' lat='55.19678766244' lon='10.15135313702'>
    <tag k='name' v='jor' />
  </node>
  <node id='-149300384' action='modify' lat='55.19595343149' lon='10.15181511104' />
  <node id='-149300385' action='modify' lat='55.19339975914' lon='10.1541593644' />
  <node id='-149300386' action='modify' lat='55.18639316595' lon='10.16416668355' />
  <node id='-149300387' action='modify' lat='55.18372249606' lon='10.17166613996' />
  <node id='-149300388' action='modify' lat='55.18341315232' lon='10.17373680532' />
  <node id='-149300389' action='modify' lat='55.18181279455' lon='10.17892956465' />
  <node id='-149300390' action='modify' lat='55.178800275' lon='10.18380313843' />
  <node id='-149300391' action='modify' lat='55.17276633695' lon='10.18652168128'>
    <tag k='name' v='has' />
  </node>
  <node id='-149300392' action='modify' lat='55.17068662962' lon='10.18543391883' />
  <node id='-149300393' action='modify' lat='55.16938066143' lon='10.18445759878' />
  <node id='-149300394' action='modify' lat='55.16347379186' lon='10.18571018904' />
  <node id='-149300395' action='modify' lat='55.16199674601' lon='10.18781840533' />
  <node id='-149300396' action='modify' lat='55.15380918297' lon='10.18493234575' />
  <node id='-149300397' action='modify' lat='55.15315324696' lon='10.18260418832' />
  <node id='-149300398' action='modify' lat='55.15041904233' lon='10.17785667837' />
  <node id='-149300399' action='modify' lat='55.14936148019' lon='10.17672478616' />
  <node id='-149300400' action='modify' lat='55.14808317202' lon='10.17570554674' />
  <node id='-149300401' action='modify' lat='55.14601694703' lon='10.17445027292' />
  <node id='-149300402' action='modify' lat='55.14399506836' lon='10.17394065589' />
  <node id='-149300403' action='modify' lat='55.14092143646' lon='10.17362951696' />
  <node id='-149300404' action='modify' lat='55.13763626122' lon='10.17556390863'>
    <tag k='name' v='ste' />
  </node>
  <node id='-149300405' action='modify' lat='55.13437174123' lon='10.18424033046' />
  <node id='-149300406' action='modify' lat='55.13341495376' lon='10.18914340854' />
  <node id='-149300407' action='modify' lat='55.1330101491' lon='10.1928931421' />
  <node id='-149300408' action='modify' lat='55.13299021404' lon='10.19886374205' />
  <node id='-149300409' action='modify' lat='55.13217906628' lon='10.20487725198' />
  <node id='-149300410' action='modify' lat='55.13110875179' lon='10.20836144418' />
  <node id='-149300411' action='modify' lat='55.1296090402' lon='10.21135210454'>
    <tag k='name' v='mil' />
  </node>
  <node id='-149300412' action='modify' lat='55.1282227522' lon='10.21353542268' />
  <node id='-149300413' action='modify' lat='55.12404819379' lon='10.21916820809' />
  <node id='-149300414' action='modify' lat='55.1220544124' lon='10.22183954448' />
  <node id='-149300415' action='modify' lat='55.12023379295' lon='10.22431253314' />
  <node id='-149300416' action='modify' lat='55.11407495606' lon='10.22760092676' />
  <node id='-149300417' action='modify' lat='55.11362086746' lon='10.22757946908' />
  <node id='-149300418' action='modify' lat='55.11055256601' lon='10.22838413179' />
  <node id='-149300419' action='modify' lat='55.10029812583' lon='10.23488044471' />
  <node id='-149300420' action='modify' lat='55.09822328745' lon='10.23600160941' />
  <node id='-149300421' action='modify' lat='55.09789102719' lon='10.23607537016' />
  <node id='-149300422' action='modify' lat='55.0962212456' lon='10.23780002654' />
  <node id='-149300423' action='modify' lat='55.09601788939' lon='10.23826002538' />
  <node id='-149300424' action='modify' lat='55.09567716798' lon='10.23887693614' />
  <node id='-149300425' action='modify' lat='55.09468261766' lon='10.24033337563' />
  <node id='-149300426' action='modify' lat='55.09390599325' lon='10.24242817819' />
  <node id='-149300427' action='modify' lat='55.09372181097' lon='10.24408578336' />
  <node id='-149300428' action='modify' lat='55.09369571688' lon='10.24692356318' />
  <node id='-149300429' action='modify' lat='55.09366962584' lon='10.24612426221'>
    <tag k='name' v='faa' />
  </node>
  <node id='-149300430' action='modify' lat='55.09403184912' lon='10.25189369649' />
  <way id='-36672283' action='modify'>
    <nd ref='-149300307' />
    <nd ref='-149300308' />
    <tag k='type' v='straight' />
  </way>
  <way id='-36672284' action='modify'>
    <nd ref='-149300308' />
    <nd ref='-149300309' />
  </way>
  <way id='-36672285' action='modify'>
    <nd ref='-149300309' />
    <nd ref='-149300310' />
    <nd ref='-149300311' />
    <tag k='type' v='straight' />
  </way>
  <way id='-36672286' action='modify'>
    <nd ref='-149300311' />
    <nd ref='-149300312' />
  </way>
  <way id='-36672287' action='modify'>
    <nd ref='-149300312' />
    <nd ref='-149300313' />
    <tag k='type' v='straight' />
  </way>
  <way id='-36672288' action='modify'>
    <nd ref='-149300313' />
    <nd ref='-149300314' />
    <nd ref='-149300315' />
  </way>
  <way id='-36672289' action='modify'>
    <nd ref='-149300315' />
    <nd ref='-149300316' />
    <tag k='type' v='straight' />
  </way>
  <way id='-36672290' action='modify'>
    <nd ref='-149300316' />
    <nd ref='-149300317' />
  </way>
  <way id='-36672291' action='modify'>
    <nd ref='-149300317' />
    <nd ref='-149300318' />
    <nd ref='-149300319' />
    <tag k='type' v='straight' />
  </way>
  <way id='-36672292' action='modify'>
    <nd ref='-149300319' />
    <nd ref='-149300320' />
  </way>
  <way id='-36672293' action='modify'>
    <nd ref='-149300320' />
    <nd ref='-149300321' />
    <tag k='type' v='straight' />
  </way>
  <way id='-36672294' action='modify'>
    <nd ref='-149300321' />
    <nd ref='-149300322' />
  </way>
  <way id='-36672295' action='modify'>
    <nd ref='-149300322' />
    <nd ref='-149300323' />
    <tag k='type' v='straight' />
  </way>
  <way id='-36672296' action='modify'>
    <nd ref='-149300323' />
    <nd ref='-149300324' />
  </way>
  <way id='-36672297' action='modify'>
    <nd ref='-149300324' />
    <nd ref='-149300325' />
    <tag k='type' v='straight' />
  </way>
  <way id='-36672298' action='modify'>
    <nd ref='-149300325' />
    <nd ref='-149300326' />
  </way>
  <way id='-36672299' action='modify'>
    <nd ref='-149300326' />
    <nd ref='-149300327' />
    <nd ref='-149300328' />
    <tag k='type' v='straight' />
  </way>
  <way id='-36672300' action='modify'>
    <nd ref='-149300328' />
    <nd ref='-149300329' />
  </way>
  <way id='-36672301' action='modify'>
    <nd ref='-149300329' />
    <nd ref='-149300330' />
    <tag k='type' v='straight' />
  </way>
  <way id='-36672302' action='modify'>
    <nd ref='-149300330' />
    <nd ref='-149300331' />
  </way>
  <way id='-36672303' action='modify'>
    <nd ref='-149300331' />
    <nd ref='-149300332' />
    <tag k='type' v='straight' />
  </way>
  <way id='-36672304' action='modify'>
    <nd ref='-149300332' />
    <nd ref='-149300333' />
  </way>
  <way id='-36672305' action='modify'>
    <nd ref='-149300333' />
    <nd ref='-149300334' />
    <tag k='type' v='straight' />
  </way>
  <way id='-36672306' action='modify'>
    <nd ref='-149300334' />
    <nd ref='-149300335' />
  </way>
  <way id='-36672307' action='modify'>
    <nd ref='-149300335' />
    <nd ref='-149300336' />
    <tag k='type' v='straight' />
  </way>
  <way id='-36672308' action='modify'>
    <nd ref='-149300336' />
    <nd ref='-149300337' />
  </way>
  <way id='-36672309' action='modify'>
    <nd ref='-149300337' />
    <nd ref='-149300338' />
    <tag k='type' v='straight' />
  </way>
  <way id='-36672310' action='modify'>
    <nd ref='-149300338' />
    <nd ref='-149300339' />
  </way>
  <way id='-36672311' action='modify'>
    <nd ref='-149300339' />
    <nd ref='-149300340' />
    <nd ref='-149300341' />
    <tag k='type' v='straight' />
  </way>
  <way id='-36672312' action='modify'>
    <nd ref='-149300341' />
    <nd ref='-149300342' />
  </way>
  <way id='-36672313' action='modify'>
    <nd ref='-149300342' />
    <nd ref='-149300343' />
    <nd ref='-149300344' />
    <tag k='type' v='straight' />
  </way>
  <way id='-36672314' action='modify'>
    <nd ref='-149300344' />
    <nd ref='-149300345' />
  </way>
  <way id='-36672315' action='modify'>
    <nd ref='-149300345' />
    <nd ref='-149300346' />
    <tag k='type' v='straight' />
  </way>
  <way id='-36672316' action='modify'>
    <nd ref='-149300346' />
    <nd ref='-149300347' />
  </way>
  <way id='-36672317' action='modify'>
    <nd ref='-149300347' />
    <nd ref='-149300348' />
    <tag k='type' v='straight' />
  </way>
  <way id='-36672318' action='modify'>
    <nd ref='-149300348' />
    <nd ref='-149300349' />
  </way>
  <way id='-36672319' action='modify'>
    <nd ref='-149300349' />
    <nd ref='-149300350' />
    <nd ref='-149300351' />
    <tag k='type' v='straight' />
  </way>
  <way id='-36672320' action='modify'>
    <nd ref='-149300351' />
    <nd ref='-149300352' />
  </way>
  <way id='-36672321' action='modify'>
    <nd ref='-149300352' />
    <nd ref='-149300353' />
    <tag k='type' v='straight' />
  </way>
  <way id='-36672322' action='modify'>
    <nd ref='-149300353' />
    <nd ref='-149300354' />
  </way>
  <way id='-36672323' action='modify'>
    <nd ref='-149300354' />
    <nd ref='-149300355' />
    <tag k='type' v='straight' />
  </way>
  <way id='-36672324' action='modify'>
    <nd ref='-149300355' />
    <nd ref='-149300356' />
  </way>
  <way id='-36672325' action='modify'>
    <nd ref='-149300356' />
    <nd ref='-149300357' />
    <nd ref='-149300358' />
    <tag k='type' v='straight' />
  </way>
  <way id='-36672326' action='modify'>
    <nd ref='-149300358' />
    <nd ref='-149300359' />
  </way>
  <way id='-36672327' action='modify'>
    <nd ref='-149300359' />
    <nd ref='-149300360' />
    <tag k='type' v='straight' />
  </way>
  <way id='-36672328' action='modify'>
    <nd ref='-149300360' />
    <nd ref='-149300361' />
  </way>
  <way id='-36672329' action='modify'>
    <nd ref='-149300361' />
    <nd ref='-149300362' />
    <tag k='type' v='straight' />
  </way>
  <way id='-36672330' action='modify'>
    <nd ref='-149300362' />
    <nd ref='-149300363' />
  </way>
  <way id='-36672331' action='modify'>
    <nd ref='-149300363' />
    <nd ref='-149300364' />
    <tag k='type' v='straight' />
  </way>
  <way id='-36672332' action='modify'>
    <nd ref='-149300364' />
    <nd ref='-149300365' />
  </way>
  <way id='-36672333' action='modify'>
    <nd ref='-149300365' />
    <nd ref='-149300366' />
    <tag k='type' v='straight' />
  </way>
  <way id='-36672334' action='modify'>
    <nd ref='-149300366' />
    <nd ref='-149300367' />
  </way>
  <way id='-36672335' action='modify'>
    <nd ref='-149300367' />
    <nd ref='-149300368' />
    <tag k='type' v='straight' />
  </way>
  <way id='-36672336' action='modify'>
    <nd ref='-149300368' />
    <nd ref='-149300369' />
  </way>
  <way id='-36672337' action='modify'>
    <nd ref='-149300369' />
    <nd ref='-149300370' />
    <tag k='type' v='straight' />
  </way>
  <way id='-36672338' action='modify'>
    <nd ref='-149300370' />
    <nd ref='-149300371' />
  </way>
  <way id='-36672339' action='modify'>
    <nd ref='-149300371' />
    <nd ref='-149300372' />
    <tag k='type' v='straight' />
  </way>
  <way id='-36672340' action='modify'>
    <nd ref='-149300372' />
    <nd ref='-149300373' />
  </way>
  <way id='-36672341' action='modify'>
    <nd ref='-149300373' />
    <nd ref='-149300374' />
    <tag k='type' v='straight' />
  </way>
  <way id='-36672342' action='modify'>
    <nd ref='-149300374' />
    <nd ref='-149300375' />
    <nd ref='-149300376' />
  </way>
  <way id='-36672343' action='modify'>
    <nd ref='-149300376' />
    <nd ref='-149300377' />
    <tag k='type' v='straight' />
  </way>
  <way id='-36672344' action='modify'>
    <nd ref='-149300377' />
    <nd ref='-149300378' />
  </way>
  <way id='-36672345' action='modify'>
    <nd ref='-149300378' />
    <nd ref='-149300379' />
    <tag k='type' v='straight' />
  </way>
  <way id='-36672346' action='modify'>
    <nd ref='-149300379' />
    <nd ref='-149300380' />
  </way>
  <way id='-36672347' action='modify'>
    <nd ref='-149300380' />
    <nd ref='-149300381' />
    <tag k='type' v='straight' />
  </way>
  <way id='-36672348' action='modify'>
    <nd ref='-149300381' />
    <nd ref='-149300382' />
  </way>
  <way id='-36672349' action='modify'>
    <nd ref='-149300382' />
    <nd ref='-149300383' />
    <nd ref='-149300384' />
    <tag k='type' v='straight' />
  </way>
  <way id='-36672350' action='modify'>
    <nd ref='-149300384' />
    <nd ref='-149300385' />
  </way>
  <way id='-36672351' action='modify'>
    <nd ref='-149300385' />
    <nd ref='-149300386' />
    <tag k='type' v='straight' />
  </way>
  <way id='-36672352' action='modify'>
    <nd ref='-149300386' />
    <nd ref='-149300387' />
  </way>
  <way id='-36672353' action='modify'>
    <nd ref='-149300387' />
    <nd ref='-149300388' />
    <tag k='type' v='straight' />
  </way>
  <way id='-36672354' action='modify'>
    <nd ref='-149300388' />
    <nd ref='-149300389' />
  </way>
  <way id='-36672355' action='modify'>
    <nd ref='-149300389' />
    <nd ref='-149300390' />
    <tag k='type' v='straight' />
  </way>
  <way id='-36672356' action='modify'>
    <nd ref='-149300390' />
    <nd ref='-149300391' />
    <nd ref='-149300392' />
  </way>
  <way id='-36672357' action='modify'>
    <nd ref='-149300392' />
    <nd ref='-149300393' />
    <tag k='type' v='straight' />
  </way>
  <way id='-36672358' action='modify'>
    <nd ref='-149300393' />
    <nd ref='-149300394' />
  </way>
  <way id='-36672359' action='modify'>
    <nd ref='-149300394' />
    <nd ref='-149300395' />
    <tag k='type' v='straight' />
  </way>
  <way id='-36672360' action='modify'>
    <nd ref='-149300395' />
    <nd ref='-149300396' />
  </way>
  <way id='-36672361' action='modify'>
    <nd ref='-149300396' />
    <nd ref='-149300397' />
    <tag k='type' v='straight' />
  </way>
  <way id='-36672362' action='modify'>
    <nd ref='-149300397' />
    <nd ref='-149300398' />
  </way>
  <way id='-36672363' action='modify'>
    <nd ref='-149300398' />
    <nd ref='-149300399' />
    <tag k='type' v='straight' />
  </way>
  <way id='-36672364' action='modify'>
    <nd ref='-149300399' />
    <nd ref='-149300400' />
  </way>
  <way id='-36672365' action='modify'>
    <nd ref='-149300400' />
    <nd ref='-149300401' />
    <tag k='type' v='straight' />
  </way>
  <way id='-36672366' action='modify'>
    <nd ref='-149300401' />
    <nd ref='-149300402' />
  </way>
  <way id='-36672367' action='modify'>
    <nd ref='-149300402' />
    <nd ref='-149300403' />
    <tag k='type' v='straight' />
  </way>
  <way id='-36672368' action='modify'>
    <nd ref='-149300403' />
    <nd ref='-149300404' />
    <nd ref='-149300405' />
  </way>
  <way id='-36672369' action='modify'>
    <nd ref='-149300405' />
    <nd ref='-149300406' />
    <tag k='type' v='straight' />
  </way>
  <way id='-36672370' action='modify'>
    <nd ref='-149300406' />
    <nd ref='-149300407' />
  </way>
  <way id='-36672371' action='modify'>
    <nd ref='-149300407' />
    <nd ref='-149300408' />
    <tag k='type' v='straight' />
  </way>
  <way id='-36672372' action='modify'>
    <nd ref='-149300408' />
    <nd ref='-149300409' />
    <nd ref='-149300410' />
    <nd ref='-149300411' />
    <nd ref='-149300412' />
  </way>
  <way id='-36672373' action='modify'>
    <nd ref='-149300412' />
    <nd ref='-149300413' />
    <tag k='type' v='straight' />
  </way>
  <way id='-36672374' action='modify'>
    <nd ref='-149300413' />
    <nd ref='-149300414' />
  </way>
  <way id='-36672375' action='modify'>
    <nd ref='-149300414' />
    <nd ref='-149300415' />
    <tag k='type' v='straight' />
  </way>
  <way id='-36672376' action='modify'>
    <nd ref='-149300415' />
    <nd ref='-149300416' />
  </way>
  <way id='-36672377' action='modify'>
    <nd ref='-149300416' />
    <nd ref='-149300417' />
    <tag k='type' v='straight' />
  </way>
  <way id='-36672378' action='modify'>
    <nd ref='-149300417' />
    <nd ref='-149300418' />
  </way>
  <way id='-36672379' action='modify'>
    <nd ref='-149300418' />
    <nd ref='-149300419' />
    <tag k='type' v='straight' />
  </way>
  <way id='-36672380' action='modify'>
    <nd ref='-149300419' />
    <nd ref='-149300420' />
  </way>
  <way id='-36672381' action='modify'>
    <nd ref='-149300420' />
    <nd ref='-149300421' />
    <tag k='type' v='straight' />
  </way>
  <way id='-36672382' action='modify'>
    <nd ref='-149300421' />
    <nd ref='-149300422' />
  </way>
  <way id='-36672383' action='modify'>
    <nd ref='-149300422' />
    <nd ref='-149300423' />
    <tag k='type' v='straight' />
  </way>
  <way id='-36672384' action='modify'>
    <nd ref='-149300423' />
    <nd ref='-149300424' />
  </way>
  <way id='-36672385' action='modify'>
    <nd ref='-149300424' />
    <nd ref='-149300425' />
    <tag k='type' v='straight' />
  </way>
  <way id='-36672386' action='modify'>
    <nd ref='-149300425' />
    <nd ref='-149300426' />
  </way>
  <way id='-36672387' action='modify'>
    <nd ref='-149300426' />
    <nd ref='-149300427' />
    <tag k='type' v='straight' />
  </way>
  <way id='-36672388' action='modify'>
    <nd ref='-149300427' />
    <nd ref='-149300429' />
    <nd ref='-149300428' />
  </way>
  <way id='-36672389' action='modify'>
    <nd ref='-149300428' />
    <nd ref='-149300430' />
    <tag k='type' v='straight' />
  </way>
  <relation id='-14469904' action='modify'>
    <member type='way' ref='-36672283' role='' />
    <member type='way' ref='-36672284' role='' />
    <member type='way' ref='-36672285' role='' />
    <member type='way' ref='-36672286' role='' />
    <member type='way' ref='-36672287' role='' />
    <member type='way' ref='-36672288' role='' />
    <member type='way' ref='-36672289' role='' />
    <member type='way' ref='-36672290' role='' />
    <member type='way' ref='-36672291' role='' />
    <member type='way' ref='-36672292' role='' />
    <member type='way' ref='-36672293' role='' />
    <member type='way' ref='-36672294' role='' />
    <member type='way' ref='-36672295' role='' />
    <member type='way' ref='-36672296' role='' />
    <member type='way' ref='-36672297' role='' />
    <member type='way' ref='-36672298' role='' />
    <member type='way' ref='-36672299' role='' />
    <member type='way' ref='-36672300' role='' />
    <member type='way' ref='-36672301' role='' />
    <member type='way' ref='-36672302' role='' />
    <member type='way' ref='-36672303' role='' />
    <member type='way' ref='-36672304' role='' />
    <member type='way' ref='-36672305' role='' />
    <member type='way' ref='-36672306' role='' />
    <member type='way' ref='-36672307' role='' />
    <member type='way' ref='-36672308' role='' />
    <member type='way' ref='-36672309' role='' />
    <member type='way' ref='-36672310' role='' />
    <member type='way' ref='-36672311' role='' />
    <member type='way' ref='-36672312' role='' />
    <member type='way' ref='-36672313' role='' />
    <member type='way' ref='-36672314' role='' />
    <member type='way' ref='-36672315' role='' />
    <member type='way' ref='-36672316' role='' />
    <member type='way' ref='-36672317' role='' />
    <member type='way' ref='-36672318' role='' />
    <member type='way' ref='-36672319' role='' />
    <member type='way' ref='-36672320' role='' />
    <member type='way' ref='-36672321' role='' />
    <member type='way' ref='-36672322' role='' />
    <member type='way' ref='-36672323' role='' />
    <member type='way' ref='-36672324' role='' />
    <member type='way' ref='-36672325' role='' />
    <member type='way' ref='-36672326' role='' />
    <member type='way' ref='-36672327' role='' />
    <member type='way' ref='-36672328' role='' />
    <member type='way' ref='-36672329' role='' />
    <member type='way' ref='-36672330' role='' />
    <member type='way' ref='-36672331' role='' />
    <member type='way' ref='-36672332' role='' />
    <member type='way' ref='-36672333' role='' />
    <member type='way' ref='-36672334' role='' />
    <member type='way' ref='-36672335' role='' />
    <member type='way' ref='-36672336' role='' />
    <member type='way' ref='-36672337' role='' />
    <member type='way' ref='-36672338' role='' />
    <member type='way' ref='-36672339' role='' />
    <member type='way' ref='-36672340' role='' />
    <member type='way' ref='-36672341' role='' />
    <member type='way' ref='-36672342' role='' />
    <member type='way' ref='-36672343' role='' />
    <member type='way' ref='-36672344' role='' />
    <member type='way' ref='-36672345' role='' />
    <member type='way' ref='-36672346' role='' />
    <member type='way' ref='-36672347' role='' />
    <member type='way' ref='-36672348' role='' />
    <member type='way' ref='-36672349' role='' />
    <member type='way' ref='-36672350' role='' />
    <member type='way' ref='-36672351' role='' />
    <member type='way' ref='-36672352' role='' />
    <member type='way' ref='-36672353' role='' />
    <member type='way' ref='-36672354' role='' />
    <member type='way' ref='-36672355' role='' />
    <member type='way' ref='-36672356' role='' />
    <member type='way' ref='-36672357' role='' />
    <member type='way' ref='-36672358' role='' />
    <member type='way' ref='-36672359' role='' />
    <member type='way' ref='-36672360' role='' />
    <member type='way' ref='-36672361' role='' />
    <member type='way' ref='-36672362' role='' />
    <member type='way' ref='-36672363' role='' />
    <member type='way' ref='-36672364' role='' />
    <member type='way' ref='-36672365' role='' />
    <member type='way' ref='-36672366' role='' />
    <member type='way' ref='-36672367' role='' />
    <member type='way' ref='-36672368' role='' />
    <member type='way' ref='-36672369' role='' />
    <member type='way' ref='-36672370' role='' />
    <member type='way' ref='-36672371' role='' />
    <member type='way' ref='-36672372' role='' />
    <member type='way' ref='-36672373' role='' />
    <member type='way' ref='-36672374' role='' />
    <member type='way' ref='-36672375' role='' />
    <member type='way' ref='-36672376' role='' />
    <member type='way' ref='-36672377' role='' />
    <member type='way' ref='-36672378' role='' />
    <member type='way' ref='-36672379' role='' />
    <member type='way' ref='-36672380' role='' />
    <member type='way' ref='-36672381' role='' />
    <member type='way' ref='-36672382' role='' />
    <member type='way' ref='-36672383' role='' />
    <member type='way' ref='-36672384' role='' />
    <member type='way' ref='-36672385' role='' />
    <member type='way' ref='-36672386' role='' />
    <member type='way' ref='-36672387' role='' />
    <member type='way' ref='-36672388' role='' />
    <member type='way' ref='-36672389' role='' />
    <tag k='key' v='path.dk.onf' />
    <tag k='name' v='DK ONF' />
    <tag k='type' v='path' />
  </relation>
</osm>
