<?xml version='1.0' encoding='UTF-8'?>
<osm version='0.6' upload='false' generator='JOSM'>
  <node id='-179240469' action='modify' lat='57.17599477361' lon='10.3341836164'>
    <tag k='name' v='ors' />
  </node>
  <node id='-179240470' action='modify' lat='57.17589707359' lon='10.33675831218' />
  <node id='-179240471' action='modify' lat='57.17297493066' lon='10.34458278537' />
  <node id='-179240472' action='modify' lat='57.16939782432' lon='10.34775852084' />
  <node id='-179240473' action='modify' lat='57.16437765887' lon='10.35762905002' />
  <node id='-179240474' action='modify' lat='57.16373292618' lon='10.36134140753'>
    <tag k='name' v='kov' />
  </node>
  <node id='-179240475' action='modify' lat='57.15961251932' lon='10.38506509659'>
    <tag k='name' v='hed' />
  </node>
  <node id='-179240476' action='modify' lat='57.15818731609' lon='10.39327024341' />
  <node id='-179240477' action='modify' lat='57.15665702173' lon='10.39668738306' />
  <node id='-179240478' action='modify' lat='57.15000952787' lon='10.40253523648'>
    <tag k='name' v='asa' />
  </node>
  <node id='-179240479' action='modify' lat='57.14982045567' lon='10.40270154943'>
    <tag k='name' v='asa.f' />
  </node>
  <way id='-38646294' action='modify'>
    <nd ref='-179240469' />
    <nd ref='-179240470' />
    <tag k='type' v='straight' />
  </way>
  <way id='-38646295' action='modify'>
    <nd ref='-179240470' />
    <nd ref='-179240471' />
  </way>
  <way id='-38646296' action='modify'>
    <nd ref='-179240471' />
    <nd ref='-179240472' />
    <tag k='type' v='straight' />
  </way>
  <way id='-38646297' action='modify'>
    <nd ref='-179240472' />
    <nd ref='-179240473' />
  </way>
  <way id='-38646298' action='modify'>
    <nd ref='-179240473' />
    <nd ref='-179240474' />
    <nd ref='-179240475' />
    <nd ref='-179240476' />
    <tag k='type' v='straight' />
  </way>
  <way id='-38646299' action='modify'>
    <nd ref='-179240476' />
    <nd ref='-179240477' />
  </way>
  <way id='-38646300' action='modify'>
    <nd ref='-179240477' />
    <nd ref='-179240478' />
    <nd ref='-179240479' />
    <tag k='type' v='straight' />
  </way>
  <relation id='-14489255' action='modify'>
    <member type='way' ref='-38646294' role='' />
    <member type='way' ref='-38646295' role='' />
    <member type='way' ref='-38646296' role='' />
    <member type='way' ref='-38646297' role='' />
    <member type='way' ref='-38646298' role='' />
    <member type='way' ref='-38646299' role='' />
    <member type='way' ref='-38646300' role='' />
    <tag k='key' v='path.dk.ora' />
    <tag k='name' v='DK ORA' />
    <tag k='type' v='path' />
  </relation>
</osm>
