<?xml version='1.0' encoding='UTF-8'?>
<osm version='0.6' upload='false' generator='JOSM'>
  <node id='-147422717' action='modify' lat='55.4019071129' lon='10.38542634548'>
    <tag k='name' v='ode' />
  </node>
  <node id='-147422718' action='modify' lat='55.40181311397' lon='10.38121865938' />
  <node id='-147422719' action='modify' lat='55.40175972835' lon='10.37924212858' />
  <node id='-147422720' action='modify' lat='55.40172416134' lon='10.37502938659' />
  <node id='-147422721' action='modify' lat='55.39849934434' lon='10.36445092066' />
  <node id='-147422722' action='modify' lat='55.3942873108' lon='10.36024257592' />
  <node id='-147422723' action='modify' lat='55.39353515584' lon='10.35911835663' />
  <node id='-147422724' action='modify' lat='55.39288735669' lon='10.35807967119' />
  <node id='-147422725' action='modify' lat='55.38457165932' lon='10.36031797394' />
  <node id='-147422726' action='modify' lat='55.38413055438' lon='10.36161213979' />
  <node id='-147422727' action='modify' lat='55.38152415851' lon='10.36644862153'>
    <tag k='name' v='osy' />
  </node>
  <node id='-147422728' action='modify' lat='55.38056496593' lon='10.36731183395'>
    <tag k='name' v='osy.ys' />
  </node>
  <node id='-147422729' action='modify' lat='55.3774074757' lon='10.36968290672' />
  <node id='-147422730' action='modify' lat='55.3748316875' lon='10.3720112712' />
  <node id='-147422731' action='modify' lat='55.37350081953' lon='10.37338402155' />
  <node id='-147422732' action='modify' lat='55.37081148346' lon='10.37634213946' />
  <node id='-147422733' action='modify' lat='55.3697276046' lon='10.37750081213'>
    <tag k='name' v='fru' />
  </node>
  <node id='-147422734' action='modify' lat='55.3641964678' lon='10.38341313466' />
  <node id='-147422735' action='modify' lat='55.36215478845' lon='10.3860960149' />
  <node id='-147422736' action='modify' lat='55.35823390767' lon='10.39268505877'>
    <tag k='name' v='hja' />
  </node>
  <node id='-147422737' action='modify' lat='55.3419276107' lon='10.42008080767'>
    <tag k='name' v='lin' />
  </node>
  <node id='-147422738' action='modify' lat='55.33720746706' lon='10.42800888285' />
  <node id='-147422739' action='modify' lat='55.33429023275' lon='10.43119467728' />
  <node id='-147422740' action='modify' lat='55.33023786682' lon='10.43396346541'>
    <tag k='name' v='hoj' />
  </node>
  <node id='-147422741' action='modify' lat='55.3126393943' lon='10.44598437779' />
  <node id='-147422742' action='modify' lat='55.30686712232' lon='10.45359983973' />
  <node id='-147422743' action='modify' lat='55.30129188904' lon='10.46596731375'>
    <tag k='name' v='ars' />
  </node>
  <node id='-147422744' action='modify' lat='55.29677269191' lon='10.47599091992' />
  <node id='-147422745' action='modify' lat='55.29345236224' lon='10.48055067591' />
  <node id='-147422746' action='modify' lat='55.28829398108' lon='10.48439629309' />
  <node id='-147422747' action='modify' lat='55.28384650634' lon='10.48596232302'>
    <tag k='name' v='ped' />
  </node>
  <node id='-147422748' action='modify' lat='55.28153113331' lon='10.48558082398' />
  <node id='-147422749' action='modify' lat='55.27309787081' lon='10.48320874438' />
  <node id='-147422750' action='modify' lat='55.27075237966' lon='10.48220828108' />
  <node id='-147422751' action='modify' lat='55.26638229217' lon='10.47958977453' />
  <node id='-147422752' action='modify' lat='55.26178437524' lon='10.47856718268' />
  <node id='-147422753' action='modify' lat='55.24116981628' lon='10.4816425345' />
  <node id='-147422754' action='modify' lat='55.24064063821' lon='10.48172145814' />
  <node id='-147422755' action='modify' lat='55.23990508119' lon='10.48177510232' />
  <node id='-147422756' action='modify' lat='55.2395484395' lon='10.48174986358'>
    <tag k='name' v='rin' />
  </node>
  <node id='-147422757' action='modify' lat='55.23920391829' lon='10.48172548279' />
  <node id='-147422758' action='modify' lat='55.23390886564' lon='10.47862753138' />
  <node id='-147422759' action='modify' lat='55.23282866326' lon='10.47728508577' />
  <node id='-147422760' action='modify' lat='55.23172472347' lon='10.47615788743' />
  <node id='-147422761' action='modify' lat='55.23167768968' lon='10.47611832485' />
  <node id='-147422762' action='modify' lat='55.22534444491' lon='10.47543771431' />
  <node id='-147422763' action='modify' lat='55.22008044194' lon='10.47855108842' />
  <node id='-147422764' action='modify' lat='55.21806882218' lon='10.47938994929' />
  <node id='-147422765' action='modify' lat='55.21499620455' lon='10.48011117732' />
  <node id='-147422766' action='modify' lat='55.21235127309' lon='10.48098854654' />
  <node id='-147422767' action='modify' lat='55.20068371771' lon='10.4860116528' />
  <node id='-147422768' action='modify' lat='55.19826086619' lon='10.48751447733'>
    <tag k='name' v='rud' />
  </node>
  <node id='-147422769' action='modify' lat='55.19547654168' lon='10.49084901743' />
  <node id='-147422770' action='modify' lat='55.17896568539' lon='10.51749542221' />
  <node id='-147422771' action='modify' lat='55.17811471224' lon='10.51877589142'>
    <tag k='name' v='kva' />
  </node>
  <node id='-147422772' action='modify' lat='55.1747516985' lon='10.5222449445' />
  <node id='-147422773' action='modify' lat='55.17211548078' lon='10.52414126627' />
  <node id='-147422774' action='modify' lat='55.16544354674' lon='10.52514139529' />
  <node id='-147422775' action='modify' lat='55.15269040481' lon='10.52017494902' />
  <node id='-147422776' action='modify' lat='55.14960977723' lon='10.51826722853' />
  <node id='-147422777' action='modify' lat='55.14113950859' lon='10.51097765498' />
  <node id='-147422778' action='modify' lat='55.13219250597' lon='10.50897376165'>
    <tag k='name' v='ste' />
  </node>
  <node id='-147422779' action='modify' lat='55.13089771294' lon='10.5095383149' />
  <node id='-147422780' action='modify' lat='55.12009156339' lon='10.51523702363'>
    <tag k='name' v='sts' />
  </node>
  <node id='-147422781' action='modify' lat='55.11020161133' lon='10.52045121722' />
  <node id='-147422782' action='modify' lat='55.1067252939' lon='10.52399642732' />
  <node id='-147422783' action='modify' lat='55.10460360618' lon='10.52756443553' />
  <node id='-147422784' action='modify' lat='55.10182924567' lon='10.53504276987' />
  <node id='-147422785' action='modify' lat='55.10135008144' lon='10.53734041683' />
  <node id='-147422786' action='modify' lat='55.09992301245' lon='10.54130383764'>
    <tag k='name' v='kir' />
  </node>
  <node id='-147422787' action='modify' lat='55.09741028046' lon='10.54375156693' />
  <node id='-147422788' action='modify' lat='55.09657884075' lon='10.54411366448' />
  <node id='-147422789' action='modify' lat='55.0958248892' lon='10.54449051552' />
  <node id='-147422790' action='modify' lat='55.09293441986' lon='10.54620042309' />
  <node id='-147422791' action='modify' lat='55.09157487101' lon='10.54727397792' />
  <node id='-147422792' action='modify' lat='55.09034575068' lon='10.54848834738' />
  <node id='-147422793' action='modify' lat='55.08779068536' lon='10.55172242157' />
  <node id='-147422794' action='modify' lat='55.08405258259' lon='10.55758505926' />
  <node id='-147422795' action='modify' lat='55.08261903826' lon='10.55960141055' />
  <node id='-147422796' action='modify' lat='55.07680872546' lon='10.56687891349' />
  <node id='-147422797' action='modify' lat='55.07539142877' lon='10.56893818013' />
  <node id='-147422798' action='modify' lat='55.07469596117' lon='10.57008806851'>
    <tag k='name' v='sor' />
  </node>
  <node id='-147422799' action='modify' lat='55.07127361445' lon='10.5757462965' />
  <node id='-147422800' action='modify' lat='55.06625572629' lon='10.57990103893' />
  <node id='-147422801' action='modify' lat='55.05622766522' lon='10.5817866312' />
  <node id='-147422802' action='modify' lat='55.0558742815' lon='10.58187299136'>
    <tag k='name' v='svv' />
  </node>
  <node id='-147422803' action='modify' lat='55.05112799696' lon='10.59282304655' />
  <node id='-147422804' action='modify' lat='55.05113678126' lon='10.59295508002' />
  <node id='-147422805' action='modify' lat='55.05228437738' lon='10.59802539613' />
  <node id='-147422806' action='modify' lat='55.05606251317' lon='10.60902982816' />
  <node id='-147422807' action='modify' lat='55.05852896836' lon='10.61193097349' />
  <node id='-147422808' action='modify' lat='55.0588920016' lon='10.61205485336'>
    <tag k='name' v='sve' />
  </node>
  <node id='-147422809' action='modify' lat='55.05907623843' lon='10.61211772196' />
  <node id='-147422810' action='modify' lat='55.05943493618' lon='10.61225384407' />
  <node id='-147422811' action='modify' lat='55.06439531459' lon='10.61419307649' />
  <way id='-36565280' action='modify'>
    <nd ref='-147422717' />
    <nd ref='-147422718' />
    <tag k='type' v='straight' />
  </way>
  <way id='-36565281' action='modify'>
    <nd ref='-147422718' />
    <nd ref='-147422719' />
    <tag k='type' v='arc' />
  </way>
  <way id='-36565282' action='modify'>
    <nd ref='-147422719' />
    <nd ref='-147422720' />
    <tag k='type' v='straight' />
  </way>
  <way id='-36565283' action='modify'>
    <nd ref='-147422720' />
    <nd ref='-147422721' />
  </way>
  <way id='-36565284' action='modify'>
    <nd ref='-147422721' />
    <nd ref='-147422722' />
    <tag k='type' v='straight' />
  </way>
  <way id='-36565285' action='modify'>
    <nd ref='-147422722' />
    <nd ref='-147422723' />
  </way>
  <way id='-36565286' action='modify'>
    <nd ref='-147422723' />
    <nd ref='-147422724' />
    <tag k='type' v='straight' />
  </way>
  <way id='-36565287' action='modify'>
    <nd ref='-147422724' />
    <nd ref='-147422725' />
  </way>
  <way id='-36565288' action='modify'>
    <nd ref='-147422725' />
    <nd ref='-147422726' />
    <tag k='type' v='straight' />
  </way>
  <way id='-36565289' action='modify'>
    <nd ref='-147422726' />
    <nd ref='-147422727' />
    <nd ref='-147422728' />
  </way>
  <way id='-36565290' action='modify'>
    <nd ref='-147422728' />
    <nd ref='-147422729' />
    <tag k='type' v='straight' />
  </way>
  <way id='-36565291' action='modify'>
    <nd ref='-147422729' />
    <nd ref='-147422730' />
  </way>
  <way id='-36565292' action='modify'>
    <nd ref='-147422730' />
    <nd ref='-147422731' />
    <tag k='type' v='straight' />
  </way>
  <way id='-36565293' action='modify'>
    <nd ref='-147422731' />
    <nd ref='-147422732' />
  </way>
  <way id='-36565294' action='modify'>
    <nd ref='-147422732' />
    <nd ref='-147422733' />
    <nd ref='-147422734' />
    <tag k='type' v='straight' />
  </way>
  <way id='-36565295' action='modify'>
    <nd ref='-147422734' />
    <nd ref='-147422735' />
  </way>
  <way id='-36565296' action='modify'>
    <nd ref='-147422735' />
    <nd ref='-147422736' />
    <nd ref='-147422737' />
    <nd ref='-147422738' />
    <tag k='type' v='straight' />
  </way>
  <way id='-36565297' action='modify'>
    <nd ref='-147422738' />
    <nd ref='-147422739' />
  </way>
  <way id='-36565298' action='modify'>
    <nd ref='-147422739' />
    <nd ref='-147422740' />
    <nd ref='-147422741' />
    <tag k='type' v='straight' />
  </way>
  <way id='-36565299' action='modify'>
    <nd ref='-147422741' />
    <nd ref='-147422742' />
  </way>
  <way id='-36565300' action='modify'>
    <nd ref='-147422742' />
    <nd ref='-147422743' />
    <nd ref='-147422744' />
    <tag k='type' v='straight' />
  </way>
  <way id='-36565301' action='modify'>
    <nd ref='-147422744' />
    <nd ref='-147422745' />
  </way>
  <way id='-36565302' action='modify'>
    <nd ref='-147422745' />
    <nd ref='-147422746' />
    <tag k='type' v='straight' />
  </way>
  <way id='-36565303' action='modify'>
    <nd ref='-147422746' />
    <nd ref='-147422747' />
    <nd ref='-147422748' />
  </way>
  <way id='-36565304' action='modify'>
    <nd ref='-147422748' />
    <nd ref='-147422749' />
    <tag k='type' v='straight' />
  </way>
  <way id='-36565305' action='modify'>
    <nd ref='-147422749' />
    <nd ref='-147422750' />
  </way>
  <way id='-36565306' action='modify'>
    <nd ref='-147422750' />
    <nd ref='-147422751' />
    <tag k='type' v='straight' />
  </way>
  <way id='-36565307' action='modify'>
    <nd ref='-147422751' />
    <nd ref='-147422752' />
  </way>
  <way id='-36565308' action='modify'>
    <nd ref='-147422752' />
    <nd ref='-147422753' />
    <nd ref='-147422754' />
    <tag k='type' v='straight' />
  </way>
  <way id='-36565309' action='modify'>
    <nd ref='-147422754' />
    <nd ref='-147422755' />
  </way>
  <way id='-36565310' action='modify'>
    <nd ref='-147422755' />
    <nd ref='-147422756' />
    <nd ref='-147422757' />
    <tag k='type' v='straight' />
  </way>
  <way id='-36565311' action='modify'>
    <nd ref='-147422757' />
    <nd ref='-147422758' />
  </way>
  <way id='-36565312' action='modify'>
    <nd ref='-147422758' />
    <nd ref='-147422759' />
    <tag k='type' v='straight' />
  </way>
  <way id='-36565313' action='modify'>
    <nd ref='-147422759' />
    <nd ref='-147422760' />
  </way>
  <way id='-36565314' action='modify'>
    <nd ref='-147422760' />
    <nd ref='-147422761' />
    <tag k='type' v='straight' />
  </way>
  <way id='-36565315' action='modify'>
    <nd ref='-147422761' />
    <nd ref='-147422762' />
  </way>
  <way id='-36565316' action='modify'>
    <nd ref='-147422762' />
    <nd ref='-147422763' />
    <tag k='type' v='straight' />
  </way>
  <way id='-36565317' action='modify'>
    <nd ref='-147422763' />
    <nd ref='-147422764' />
  </way>
  <way id='-36565318' action='modify'>
    <nd ref='-147422764' />
    <nd ref='-147422765' />
    <tag k='type' v='straight' />
  </way>
  <way id='-36565319' action='modify'>
    <nd ref='-147422765' />
    <nd ref='-147422766' />
  </way>
  <way id='-36565320' action='modify'>
    <nd ref='-147422766' />
    <nd ref='-147422767' />
    <tag k='type' v='straight' />
  </way>
  <way id='-36565321' action='modify'>
    <nd ref='-147422767' />
    <nd ref='-147422768' />
    <nd ref='-147422769' />
  </way>
  <way id='-36565322' action='modify'>
    <nd ref='-147422769' />
    <nd ref='-147422770' />
    <tag k='type' v='straight' />
  </way>
  <way id='-36565323' action='modify'>
    <nd ref='-147422770' />
    <nd ref='-147422771' />
    <nd ref='-147422772' />
  </way>
  <way id='-36565324' action='modify'>
    <nd ref='-147422772' />
    <nd ref='-147422773' />
    <tag k='type' v='straight' />
  </way>
  <way id='-36565325' action='modify'>
    <nd ref='-147422773' />
    <nd ref='-147422774' />
  </way>
  <way id='-36565326' action='modify'>
    <nd ref='-147422774' />
    <nd ref='-147422775' />
    <tag k='type' v='straight' />
  </way>
  <way id='-36565327' action='modify'>
    <nd ref='-147422775' />
    <nd ref='-147422776' />
  </way>
  <way id='-36565328' action='modify'>
    <nd ref='-147422776' />
    <nd ref='-147422777' />
    <tag k='type' v='straight' />
  </way>
  <way id='-36565329' action='modify'>
    <nd ref='-147422777' />
    <nd ref='-147422778' />
    <nd ref='-147422779' />
  </way>
  <way id='-36565330' action='modify'>
    <nd ref='-147422779' />
    <nd ref='-147422780' />
    <nd ref='-147422781' />
    <tag k='type' v='straight' />
  </way>
  <way id='-36565331' action='modify'>
    <nd ref='-147422781' />
    <nd ref='-147422782' />
  </way>
  <way id='-36565332' action='modify'>
    <nd ref='-147422782' />
    <nd ref='-147422783' />
    <tag k='type' v='straight' />
  </way>
  <way id='-36565333' action='modify'>
    <nd ref='-147422783' />
    <nd ref='-147422784' />
  </way>
  <way id='-36565334' action='modify'>
    <nd ref='-147422784' />
    <nd ref='-147422785' />
    <tag k='type' v='straight' />
  </way>
  <way id='-36565335' action='modify'>
    <nd ref='-147422785' />
    <nd ref='-147422786' />
    <nd ref='-147422787' />
  </way>
  <way id='-36565336' action='modify'>
    <nd ref='-147422787' />
    <nd ref='-147422788' />
    <tag k='type' v='straight' />
  </way>
  <way id='-36565337' action='modify'>
    <nd ref='-147422788' />
    <nd ref='-147422789' />
  </way>
  <way id='-36565338' action='modify'>
    <nd ref='-147422789' />
    <nd ref='-147422790' />
    <tag k='type' v='straight' />
  </way>
  <way id='-36565339' action='modify'>
    <nd ref='-147422790' />
    <nd ref='-147422791' />
  </way>
  <way id='-36565340' action='modify'>
    <nd ref='-147422791' />
    <nd ref='-147422792' />
    <tag k='type' v='straight' />
  </way>
  <way id='-36565341' action='modify'>
    <nd ref='-147422792' />
    <nd ref='-147422793' />
  </way>
  <way id='-36565342' action='modify'>
    <nd ref='-147422793' />
    <nd ref='-147422794' />
    <tag k='type' v='straight' />
  </way>
  <way id='-36565343' action='modify'>
    <nd ref='-147422794' />
    <nd ref='-147422795' />
  </way>
  <way id='-36565344' action='modify'>
    <nd ref='-147422795' />
    <nd ref='-147422796' />
    <tag k='type' v='straight' />
  </way>
  <way id='-36565345' action='modify'>
    <nd ref='-147422796' />
    <nd ref='-147422797' />
  </way>
  <way id='-36565346' action='modify'>
    <nd ref='-147422797' />
    <nd ref='-147422798' />
    <nd ref='-147422799' />
    <tag k='type' v='straight' />
  </way>
  <way id='-36565347' action='modify'>
    <nd ref='-147422799' />
    <nd ref='-147422800' />
  </way>
  <way id='-36565348' action='modify'>
    <nd ref='-147422800' />
    <nd ref='-147422801' />
    <tag k='type' v='straight' />
  </way>
  <way id='-36565349' action='modify'>
    <nd ref='-147422801' />
    <nd ref='-147422802' />
    <nd ref='-147422803' />
  </way>
  <way id='-36565350' action='modify'>
    <nd ref='-147422803' />
    <nd ref='-147422804' />
    <tag k='type' v='straight' />
  </way>
  <way id='-36565351' action='modify'>
    <nd ref='-147422804' />
    <nd ref='-147422805' />
  </way>
  <way id='-36565352' action='modify'>
    <nd ref='-147422805' />
    <nd ref='-147422806' />
    <tag k='type' v='straight' />
  </way>
  <way id='-36565353' action='modify'>
    <nd ref='-147422806' />
    <nd ref='-147422807' />
  </way>
  <way id='-36565354' action='modify'>
    <nd ref='-147422807' />
    <nd ref='-147422808' />
    <nd ref='-147422809' />
    <tag k='type' v='straight' />
  </way>
  <way id='-36565355' action='modify'>
    <nd ref='-147422809' />
    <nd ref='-147422810' />
  </way>
  <way id='-36565356' action='modify'>
    <nd ref='-147422810' />
    <nd ref='-147422811' />
    <tag k='type' v='straight' />
  </way>
  <relation id='-14469158' action='modify'>
    <member type='way' ref='-36565280' role='' />
    <member type='way' ref='-36565281' role='' />
    <member type='way' ref='-36565282' role='' />
    <member type='way' ref='-36565283' role='' />
    <member type='way' ref='-36565284' role='' />
    <member type='way' ref='-36565285' role='' />
    <member type='way' ref='-36565286' role='' />
    <member type='way' ref='-36565287' role='' />
    <member type='way' ref='-36565288' role='' />
    <member type='way' ref='-36565289' role='' />
    <member type='way' ref='-36565290' role='' />
    <member type='way' ref='-36565291' role='' />
    <member type='way' ref='-36565292' role='' />
    <member type='way' ref='-36565293' role='' />
    <member type='way' ref='-36565294' role='' />
    <member type='way' ref='-36565295' role='' />
    <member type='way' ref='-36565296' role='' />
    <member type='way' ref='-36565297' role='' />
    <member type='way' ref='-36565298' role='' />
    <member type='way' ref='-36565299' role='' />
    <member type='way' ref='-36565300' role='' />
    <member type='way' ref='-36565301' role='' />
    <member type='way' ref='-36565302' role='' />
    <member type='way' ref='-36565303' role='' />
    <member type='way' ref='-36565304' role='' />
    <member type='way' ref='-36565305' role='' />
    <member type='way' ref='-36565306' role='' />
    <member type='way' ref='-36565307' role='' />
    <member type='way' ref='-36565308' role='' />
    <member type='way' ref='-36565309' role='' />
    <member type='way' ref='-36565310' role='' />
    <member type='way' ref='-36565311' role='' />
    <member type='way' ref='-36565312' role='' />
    <member type='way' ref='-36565313' role='' />
    <member type='way' ref='-36565314' role='' />
    <member type='way' ref='-36565315' role='' />
    <member type='way' ref='-36565316' role='' />
    <member type='way' ref='-36565317' role='' />
    <member type='way' ref='-36565318' role='' />
    <member type='way' ref='-36565319' role='' />
    <member type='way' ref='-36565320' role='' />
    <member type='way' ref='-36565321' role='' />
    <member type='way' ref='-36565322' role='' />
    <member type='way' ref='-36565323' role='' />
    <member type='way' ref='-36565324' role='' />
    <member type='way' ref='-36565325' role='' />
    <member type='way' ref='-36565326' role='' />
    <member type='way' ref='-36565327' role='' />
    <member type='way' ref='-36565328' role='' />
    <member type='way' ref='-36565329' role='' />
    <member type='way' ref='-36565330' role='' />
    <member type='way' ref='-36565331' role='' />
    <member type='way' ref='-36565332' role='' />
    <member type='way' ref='-36565333' role='' />
    <member type='way' ref='-36565334' role='' />
    <member type='way' ref='-36565335' role='' />
    <member type='way' ref='-36565336' role='' />
    <member type='way' ref='-36565337' role='' />
    <member type='way' ref='-36565338' role='' />
    <member type='way' ref='-36565339' role='' />
    <member type='way' ref='-36565340' role='' />
    <member type='way' ref='-36565341' role='' />
    <member type='way' ref='-36565342' role='' />
    <member type='way' ref='-36565343' role='' />
    <member type='way' ref='-36565344' role='' />
    <member type='way' ref='-36565345' role='' />
    <member type='way' ref='-36565346' role='' />
    <member type='way' ref='-36565347' role='' />
    <member type='way' ref='-36565348' role='' />
    <member type='way' ref='-36565349' role='' />
    <member type='way' ref='-36565350' role='' />
    <member type='way' ref='-36565351' role='' />
    <member type='way' ref='-36565352' role='' />
    <member type='way' ref='-36565353' role='' />
    <member type='way' ref='-36565354' role='' />
    <member type='way' ref='-36565355' role='' />
    <member type='way' ref='-36565356' role='' />
    <tag k='key' v='path.dk.osb' />
    <tag k='name' v='DK OSB' />
    <tag k='type' v='path' />
  </relation>
</osm>
