<?xml version='1.0' encoding='UTF-8'?>
<osm version='0.6' upload='false' generator='JOSM'>
  <node id='-188384895' action='modify' lat='55.29521125395' lon='9.05062078893' />
  <node id='-188384896' action='modify' lat='55.29533342264' lon='9.04934405744' />
  <node id='-188384897' action='modify' lat='55.29607559851' lon='9.05385015249' />
  <node id='-188384898' action='modify' lat='55.29532426' lon='9.05268608987'>
    <tag k='name' v='gra' />
  </node>
  <node id='-188384900' action='modify' lat='55.30782278076' lon='9.06142905528' />
  <node id='-188384901' action='modify' lat='55.30920628442' lon='9.06164466798' />
  <node id='-188384902' action='modify' lat='55.31161235212' lon='9.06126548943'>
    <tag k='name' v='las' />
  </node>
  <node id='-188384903' action='modify' lat='55.31512894275' lon='9.06071125925' />
  <node id='-188384904' action='modify' lat='55.31635305202' lon='9.06073808134' />
  <node id='-188384905' action='modify' lat='55.31926512017' lon='9.06147300661' />
  <node id='-188384906' action='modify' lat='55.32023271278' lon='9.06128524661' />
  <node id='-188384907' action='modify' lat='55.32937023297' lon='9.05562042117' />
  <node id='-188384908' action='modify' lat='55.33007209296' lon='9.05536292911' />
  <node id='-188384909' action='modify' lat='55.33056318451' lon='9.05535530602'>
    <tag k='name' v='bra' />
  </node>
  <node id='-188384910' action='modify' lat='55.33851783385' lon='9.05523181493' />
  <node id='-188384911' action='modify' lat='55.33882445881' lon='9.05518591136' />
  <node id='-188384912' action='modify' lat='55.34048409414' lon='9.05480235547' />
  <node id='-188384913' action='modify' lat='55.34098288639' lon='9.05471652478' />
  <node id='-188384914' action='modify' lat='55.34640360717' lon='9.05421494901' />
  <node id='-188384915' action='modify' lat='55.34702281231' lon='9.05412911296' />
  <node id='-188384916' action='modify' lat='55.3527381391' lon='9.05219114173' />
  <node id='-188384917' action='modify' lat='55.35403943728' lon='9.05162006171' />
  <node id='-188384918' action='modify' lat='55.35941091972' lon='9.04911874652' />
  <node id='-188384919' action='modify' lat='55.36088674304' lon='9.04924749255' />
  <node id='-188384920' action='modify' lat='55.36605778887' lon='9.0525948894' />
  <node id='-188384921' action='modify' lat='55.3665211941' lon='9.05320107669' />
  <node id='-188384922' action='modify' lat='55.3674068405' lon='9.05471652478' />
  <node id='-188384923' action='modify' lat='55.36807449197' lon='9.05623197287' />
  <node id='-188384924' action='modify' lat='55.36834962965' lon='9.0571478432'>
    <tag k='name' v='rod' />
  </node>
  <node id='-188384925' action='modify' lat='55.36849397887' lon='9.05762835125'>
    <tag k='name' v='rod.f' />
  </node>
  <way id='-39363987' action='modify'>
    <nd ref='-188384896' />
    <nd ref='-188384895' />
    <tag k='type' v='straight' />
  </way>
  <way id='-39363988' action='modify'>
    <nd ref='-188384895' />
    <nd ref='-188384898' />
    <nd ref='-188384897' />
  </way>
  <way id='-39363990' action='modify'>
    <nd ref='-188384897' />
    <nd ref='-188384900' />
    <tag k='type' v='straight' />
  </way>
  <way id='-39363991' action='modify'>
    <nd ref='-188384900' />
    <nd ref='-188384901' />
  </way>
  <way id='-39363992' action='modify'>
    <nd ref='-188384901' />
    <nd ref='-188384902' />
    <nd ref='-188384903' />
    <tag k='type' v='straight' />
  </way>
  <way id='-39363993' action='modify'>
    <nd ref='-188384903' />
    <nd ref='-188384904' />
  </way>
  <way id='-39363994' action='modify'>
    <nd ref='-188384904' />
    <nd ref='-188384905' />
    <tag k='type' v='straight' />
  </way>
  <way id='-39363995' action='modify'>
    <nd ref='-188384905' />
    <nd ref='-188384906' />
  </way>
  <way id='-39363996' action='modify'>
    <nd ref='-188384906' />
    <nd ref='-188384907' />
    <tag k='type' v='straight' />
  </way>
  <way id='-39363997' action='modify'>
    <nd ref='-188384907' />
    <nd ref='-188384908' />
  </way>
  <way id='-39363998' action='modify'>
    <nd ref='-188384908' />
    <nd ref='-188384909' />
    <nd ref='-188384910' />
    <tag k='type' v='straight' />
  </way>
  <way id='-39363999' action='modify'>
    <nd ref='-188384910' />
    <nd ref='-188384911' />
  </way>
  <way id='-39364000' action='modify'>
    <nd ref='-188384911' />
    <nd ref='-188384912' />
    <tag k='type' v='straight' />
  </way>
  <way id='-39364001' action='modify'>
    <nd ref='-188384912' />
    <nd ref='-188384913' />
  </way>
  <way id='-39364002' action='modify'>
    <nd ref='-188384913' />
    <nd ref='-188384914' />
    <tag k='type' v='straight' />
  </way>
  <way id='-39364003' action='modify'>
    <nd ref='-188384914' />
    <nd ref='-188384915' />
  </way>
  <way id='-39364004' action='modify'>
    <nd ref='-188384915' />
    <nd ref='-188384916' />
    <tag k='type' v='straight' />
  </way>
  <way id='-39364005' action='modify'>
    <nd ref='-188384916' />
    <nd ref='-188384917' />
  </way>
  <way id='-39364006' action='modify'>
    <nd ref='-188384917' />
    <nd ref='-188384918' />
    <tag k='type' v='straight' />
  </way>
  <way id='-39364007' action='modify'>
    <nd ref='-188384918' />
    <nd ref='-188384919' />
  </way>
  <way id='-39364008' action='modify'>
    <nd ref='-188384919' />
    <nd ref='-188384920' />
    <tag k='type' v='straight' />
  </way>
  <way id='-39364009' action='modify'>
    <nd ref='-188384920' />
    <nd ref='-188384921' />
  </way>
  <way id='-39364010' action='modify'>
    <nd ref='-188384921' />
    <nd ref='-188384922' />
    <tag k='type' v='straight' />
  </way>
  <way id='-39364011' action='modify'>
    <nd ref='-188384922' />
    <nd ref='-188384923' />
  </way>
  <way id='-39364012' action='modify'>
    <nd ref='-188384923' />
    <nd ref='-188384924' />
    <nd ref='-188384925' />
    <tag k='type' v='straight' />
  </way>
  <relation id='-14496443' action='modify'>
    <member type='way' ref='-39363987' role='' />
    <member type='way' ref='-39363988' role='' />
    <member type='way' ref='-39363990' role='' />
    <member type='way' ref='-39363991' role='' />
    <member type='way' ref='-39363992' role='' />
    <member type='way' ref='-39363993' role='' />
    <member type='way' ref='-39363994' role='' />
    <member type='way' ref='-39363995' role='' />
    <member type='way' ref='-39363996' role='' />
    <member type='way' ref='-39363997' role='' />
    <member type='way' ref='-39363998' role='' />
    <member type='way' ref='-39363999' role='' />
    <member type='way' ref='-39364000' role='' />
    <member type='way' ref='-39364001' role='' />
    <member type='way' ref='-39364002' role='' />
    <member type='way' ref='-39364003' role='' />
    <member type='way' ref='-39364004' role='' />
    <member type='way' ref='-39364005' role='' />
    <member type='way' ref='-39364006' role='' />
    <member type='way' ref='-39364007' role='' />
    <member type='way' ref='-39364008' role='' />
    <member type='way' ref='-39364009' role='' />
    <member type='way' ref='-39364010' role='' />
    <member type='way' ref='-39364011' role='' />
    <member type='way' ref='-39364012' role='' />
    <tag k='key' v='path.dk.grd' />
    <tag k='name' v='DK GRD' />
    <tag k='type' v='path' />
  </relation>
</osm>
