<?xml version='1.0' encoding='UTF-8'?>
<osm version='0.6' upload='false' generator='JOSM'>
  <node id='-159989160' action='modify' lat='55.52740184164' lon='9.20413588574'>
    <tag k='name' v='ges' />
  </node>
  <node id='-159989161' action='modify' lat='55.52729154324' lon='9.20533142852' />
  <node id='-159989162' action='modify' lat='55.52356576742' lon='9.21093105733' />
  <node id='-159989163' action='modify' lat='55.5153903338' lon='9.21134948194' />
  <node id='-159989164' action='modify' lat='55.51196416724' lon='9.21226142764' />
  <node id='-159989165' action='modify' lat='55.5036465681' lon='9.21595214725' />
  <node id='-159989166' action='modify' lat='55.50318054495' lon='9.21605319901'>
    <tag k='name' v='fal' />
  </node>
  <node id='-159989167' action='modify' lat='55.49237946178' lon='9.20551299512' />
  <node id='-159989168' action='modify' lat='55.49141982688' lon='9.2024072907'>
    <tag k='name' v='gam' />
  </node>
  <node id='-159989169' action='modify' lat='55.48431305922' lon='9.17940973163' />
  <node id='-159989170' action='modify' lat='55.4823311575' lon='9.17401312709' />
  <node id='-159989171' action='modify' lat='55.48195284416' lon='9.17309607707'>
    <tag k='name' v='ves' />
  </node>
  <node id='-159989172' action='modify' lat='55.47639258315' lon='9.15961874802' />
  <node id='-159989173' action='modify' lat='55.47399127362' lon='9.14384433659' />
  <node id='-159989174' action='modify' lat='55.47455937243' lon='9.14119770805' />
  <node id='-159989175' action='modify' lat='55.47582414489' lon='9.13614334818'>
    <tag k='name' v='vej' />
  </node>
  <node id='-159989176' action='modify' lat='55.47664936681' lon='9.13332910869' />
  <node id='-159989177' action='modify' lat='55.47983206325' lon='9.12320555613' />
  <way id='-37296559' action='modify'>
    <nd ref='-159989160' />
    <nd ref='-159989161' />
    <tag k='type' v='straight' />
  </way>
  <way id='-37296560' action='modify'>
    <nd ref='-159989161' />
    <nd ref='-159989162' />
  </way>
  <way id='-37296561' action='modify'>
    <nd ref='-159989162' />
    <nd ref='-159989163' />
    <tag k='type' v='straight' />
  </way>
  <way id='-37296562' action='modify'>
    <nd ref='-159989163' />
    <nd ref='-159989164' />
  </way>
  <way id='-37296563' action='modify'>
    <nd ref='-159989164' />
    <nd ref='-159989165' />
    <tag k='type' v='straight' />
  </way>
  <way id='-37296564' action='modify'>
    <nd ref='-159989165' />
    <nd ref='-159989166' />
    <nd ref='-159989167' />
  </way>
  <way id='-37296565' action='modify'>
    <nd ref='-159989167' />
    <nd ref='-159989168' />
    <nd ref='-159989169' />
    <tag k='type' v='straight' />
  </way>
  <way id='-37296566' action='modify'>
    <nd ref='-159989169' />
    <nd ref='-159989170' />
  </way>
  <way id='-37296567' action='modify'>
    <nd ref='-159989170' />
    <nd ref='-159989171' />
    <nd ref='-159989172' />
    <tag k='type' v='straight' />
  </way>
  <way id='-37296568' action='modify'>
    <nd ref='-159989172' />
    <nd ref='-159989173' />
  </way>
  <way id='-37296569' action='modify'>
    <nd ref='-159989173' />
    <nd ref='-159989174' />
    <tag k='type' v='straight' />
  </way>
  <way id='-37296570' action='modify'>
    <nd ref='-159989174' />
    <nd ref='-159989175' />
    <nd ref='-159989176' />
    <tag k='type' v='arc' />
  </way>
  <way id='-37296571' action='modify'>
    <nd ref='-159989176' />
    <nd ref='-159989177' />
    <tag k='type' v='straight' />
  </way>
  <relation id='-14477034' action='modify'>
    <member type='way' ref='-37296559' role='' />
    <member type='way' ref='-37296560' role='' />
    <member type='way' ref='-37296561' role='' />
    <member type='way' ref='-37296562' role='' />
    <member type='way' ref='-37296563' role='' />
    <member type='way' ref='-37296564' role='' />
    <member type='way' ref='-37296565' role='' />
    <member type='way' ref='-37296566' role='' />
    <member type='way' ref='-37296567' role='' />
    <member type='way' ref='-37296568' role='' />
    <member type='way' ref='-37296569' role='' />
    <member type='way' ref='-37296570' role='' />
    <member type='way' ref='-37296571' role='' />
    <tag k='key' v='path.dk.gtv' />
    <tag k='name' v='DK GTV' />
    <tag k='type' v='path' />
  </relation>
</osm>
