<?xml version='1.0' encoding='UTF-8'?>
<osm version='0.6' upload='false' generator='JOSM'>
  <node id='-70928732' action='modify' lat='55.67256210485' lon='12.56524542302'>
    <tag k='name' v='kob' />
  </node>
  <node id='-70928733' action='modify' lat='55.67203360602' lon='12.56581696229' />
  <node id='-70928734' action='modify' lat='55.6666534322' lon='12.56413985401' />
  <node id='-70928735' action='modify' lat='55.6650948984' lon='12.5606881795'>
    <tag k='name' v='dyb' />
  </node>
  <node id='-70928736' action='modify' lat='55.66478530231' lon='12.56000253545' />
  <node id='-70928737' action='modify' lat='55.66392802809' lon='12.55671330256' />
  <node id='-70928738' action='modify' lat='55.66363400053' lon='12.55442665216'>
    <tag k='name' v='ske' />
  </node>
  <node id='-70928739' action='modify' lat='55.66262303621' lon='12.54656452022' />
  <node id='-70928740' action='modify' lat='55.66278248254' lon='12.54117885' />
  <node id='-70928741' action='modify' lat='55.66296757903' lon='12.53995620105' />
  <node id='-70928742' action='modify' lat='55.6633428871' lon='12.53587415589'>
    <tag k='name' v='car' />
  </node>
  <node id='-70928743' action='modify' lat='55.66344830564' lon='12.53241401001' />
  <node id='-70928744' action='modify' lat='55.6635638428' lon='12.5273882972' />
  <node id='-70928745' action='modify' lat='55.66376069002' lon='12.51454393816'>
    <tag k='name' v='val' />
  </node>
  <node id='-70928749' action='modify' lat='55.66458293727' lon='12.46089128228'>
    <tag k='name' v='hvf' />
  </node>
  <node id='-70928752' action='modify' lat='55.66513435235' lon='12.42491013098' />
  <node id='-70928753' action='modify' lat='55.66463304995' lon='12.41422713805' />
  <node id='-70928754' action='modify' lat='55.66295036447' lon='12.39897637333'>
    <tag k='name' v='glo' />
  </node>
  <node id='-70928756' action='modify' lat='55.65310072267' lon='12.30971878801' />
  <node id='-70928757' action='modify' lat='55.6529359606' lon='12.30812545415' />
  <node id='-70928759' action='modify' lat='55.65211973474' lon='12.29966549725' />
  <node id='-70928760' action='modify' lat='55.65147869084' lon='12.29354869226' />
  <node id='-70928761' action='modify' lat='55.64878438791' lon='12.26974047511'>
    <tag k='name' v='hoj' />
  </node>
  <node id='-70928762' action='modify' lat='55.64489360108' lon='12.23536241429' />
  <node id='-70928763' action='modify' lat='55.64541358871' lon='12.21634911021' />
  <node id='-70928764' action='modify' lat='55.64870445985' lon='12.19714206827'>
    <tag k='name' v='hed' />
  </node>
  <node id='-70928765' action='modify' lat='55.64931449485' lon='12.19358144531' />
  <node id='-70928766' action='modify' lat='55.65017920788' lon='12.17890741962' />
  <node id='-70928767' action='modify' lat='55.64790400837' lon='12.1324998842'>
    <tag k='name' v='tre' />
  </node>
  <node id='-70928768' action='modify' lat='55.64731397041' lon='12.12046524472' />
  <node id='-70928769' action='modify' lat='55.643993727' lon='12.10294363679' />
  <node id='-70928770' action='modify' lat='55.6390493317' lon='12.08900936604'>
    <tag k='name' v='ros' />
  </node>
  <node id='-70928771' action='modify' lat='55.63681798075' lon='12.08272155962' />
  <node id='-70928772' action='modify' lat='55.63382476685' lon='12.07656448961' />
  <node id='-70928775' action='modify' lat='55.62030770562' lon='12.05598221962' />
  <node id='-70928776' action='modify' lat='55.61055167804' lon='12.04747361582' />
  <node id='-70928778' action='modify' lat='55.5908447353' lon='12.0402135738'>
    <tag k='name' v='god' />
  </node>
  <node id='-70928779' action='modify' lat='55.58085135714' lon='12.03653340413' />
  <node id='-70928780' action='modify' lat='55.57540689289' lon='12.03553459061' />
  <node id='-70928781' action='modify' lat='55.56526686212' lon='12.0355084081' />
  <node id='-70928782' action='modify' lat='55.54974617522' lon='12.02441549153'>
    <tag k='name' v='vib' />
  </node>
  <node id='-70928783' action='modify' lat='55.54921369053' lon='12.02356541261' />
  <node id='-70928784' action='modify' lat='55.54599296398' lon='12.01836031817' />
  <node id='-70928785' action='modify' lat='55.52511003066' lon='11.98547794126' />
  <node id='-70928786' action='modify' lat='55.51158821635' lon='11.97510021092' />
  <node id='-70928787' action='modify' lat='55.49715712653' lon='11.97275257943' />
  <node id='-70928788' action='modify' lat='55.49466170402' lon='11.97218477458'>
    <tag k='name' v='bor' />
  </node>
  <node id='-70928789' action='modify' lat='55.49175053146' lon='11.97138008145' />
  <node id='-70928790' action='modify' lat='55.49133749039' lon='11.97123700272' />
  <node id='-70928791' action='modify' lat='55.48001373439' lon='11.96016581843' />
  <node id='-70928792' action='modify' lat='55.45822710721' lon='11.91913639177' />
  <node id='-70928793' action='modify' lat='55.45210842646' lon='11.90293800206' />
  <node id='-70928794' action='modify' lat='55.45192873322' lon='11.90222113028' />
  <node id='-70928795' action='modify' lat='55.45125381835' lon='11.89925656471'>
    <tag k='name' v='kva' />
  </node>
  <node id='-70928796' action='modify' lat='55.4501843782' lon='11.89337387314' />
  <node id='-70928797' action='modify' lat='55.44022431424' lon='11.82565536175' />
  <node id='-70928798' action='modify' lat='55.43955653211' lon='11.81873911004' />
  <node id='-70928799' action='modify' lat='55.43803453672' lon='11.78666554267'>
    <tag k='name' v='rin' />
  </node>
  <node id='-70928802' action='modify' lat='55.43644532964' lon='11.75317691895' />
  <node id='-70928803' action='modify' lat='55.43651697485' lon='11.74477058424' />
  <node id='-70928804' action='modify' lat='55.43751967404' lon='11.7292647928'>
    <tag k='name' v='bri' />
  </node>
  <node id='-70928805' action='modify' lat='55.43814660128' lon='11.71956975785' />
  <node id='-70928806' action='modify' lat='55.43944792496' lon='11.71028405164' />
  <node id='-70928807' action='modify' lat='55.44293128906' lon='11.69449305468' />
  <node id='-70928808' action='modify' lat='55.44298932469' lon='11.67314244765' />
  <node id='-70928809' action='modify' lat='55.44214088238' lon='11.66918420712'>
    <tag k='name' v='fje' />
  </node>
  <node id='-70928810' action='modify' lat='55.42847244175' lon='11.60542851393' />
  <node id='-70928811' action='modify' lat='55.42732074945' lon='11.60107211111' />
  <node id='-70928812' action='modify' lat='55.42217715776' lon='11.58489433274' />
  <node id='-70928813' action='modify' lat='55.42031764326' lon='11.57714979176' />
  <node id='-70928814' action='modify' lat='55.42014540295' lon='11.57613043356' />
  <node id='-70928815' action='modify' lat='55.41968790853' lon='11.57321195557' />
  <node id='-70928817' action='modify' lat='55.41912085173' lon='11.56929257302'>
    <tag k='name' v='sor' />
  </node>
  <node id='-70928818' action='modify' lat='55.41875725112' lon='11.5667794683' />
  <node id='-70928819' action='modify' lat='55.4181142264' lon='11.55038287326' />
  <node id='-70928820' action='modify' lat='55.41834210143' lon='11.54680122873' />
  <node id='-70928821' action='modify' lat='55.41360388701' lon='11.51837816436' />
  <node id='-70928822' action='modify' lat='55.41233758195' lon='11.51563493983' />
  <node id='-70928823' action='modify' lat='55.40726224328' lon='11.49242674884' />
  <node id='-70928824' action='modify' lat='55.40683681196' lon='11.47820528229' />
  <node id='-70928825' action='modify' lat='55.4069166214' lon='11.47299253239' />
  <node id='-70928826' action='modify' lat='55.40813096275' lon='11.45299746628'>
    <tag k='name' v='frl' />
  </node>
  <node id='-70928827' action='modify' lat='55.40977252802' lon='11.42596685216' />
  <node id='-70928828' action='modify' lat='55.41002389079' lon='11.42300087424' />
  <node id='-70928829' action='modify' lat='55.41469533933' lon='11.38016739044' />
  <node id='-70928830' action='modify' lat='55.41192028837' lon='11.36288339599' />
  <node id='-70928831' action='modify' lat='55.41005671595' lon='11.35929621062' />
  <node id='-70928832' action='modify' lat='55.40788043114' lon='11.35179909348' />
  <node id='-70928833' action='modify' lat='55.40772419125' lon='11.35047016312' />
  <node id='-70928834' action='modify' lat='55.40757543207' lon='11.34884744614'>
    <tag k='name' v='sla' />
  </node>
  <node id='-70928835' action='modify' lat='55.40748612706' lon='11.34740028733' />
  <node id='-70928837' action='modify' lat='55.40678444431' lon='11.32906539009' />
  <node id='-70928838' action='modify' lat='55.40484368074' lon='11.31924830895' />
  <node id='-70928839' action='modify' lat='55.40094520275' lon='11.30927334487' />
  <node id='-70928840' action='modify' lat='55.39580825611' lon='11.30008204444' />
  <node id='-70928841' action='modify' lat='55.39210390078' lon='11.29543775209' />
  <node id='-70928842' action='modify' lat='55.38701977691' lon='11.28664049343' />
  <node id='-70928843' action='modify' lat='55.37493197651' lon='11.25782790412'>
    <tag k='name' v='for' />
  </node>
  <node id='-70928844' action='modify' lat='55.36638066643' lon='11.2374502411' />
  <node id='-70928845' action='modify' lat='55.36272290809' lon='11.21797438967' />
  <node id='-70928846' action='modify' lat='55.36266289959' lon='11.17017743443'>
    <tag k='name' v='sve' />
  </node>
  <node id='-70928847' action='modify' lat='55.36265832648' lon='11.16653494318' />
  <node id='-70928848' action='modify' lat='55.36180537169' lon='11.15822699499' />
  <node id='-70928850' action='modify' lat='55.36002384731' lon='11.14977724684' />
  <node id='-70928851' action='modify' lat='55.35968700421' lon='11.14809296932' />
  <node id='-70928852' action='modify' lat='55.35722445615' lon='11.13508615942'>
    <tag k='name' v='kor' />
  </node>
  <node id='-70928853' action='modify' lat='55.3562324155' lon='11.129846578' />
  <node id='-70928854' action='modify' lat='55.35509471181' lon='11.12457496003' />
  <node id='-70928855' action='modify' lat='55.35323227102' lon='11.11691523065' />
  <node id='-70928857' action='modify' lat='55.35073415234' lon='11.08185676822' />
  <node id='-70928858' action='modify' lat='55.35357850455' lon='11.04974674064' />
  <node id='-70928859' action='modify' lat='55.34904522005' lon='11.01065831505' />
  <node id='-70928861' action='modify' lat='55.33321376673' lon='10.96594805212' />
  <node id='-70928862' action='modify' lat='55.3310692485' lon='10.96008351922'>
    <tag k='name' v='spr' />
  </node>
  <node id='-70928863' action='modify' lat='55.32724734143' lon='10.95023649484' />
  <node id='-70928864' action='modify' lat='55.32553103539' lon='10.94601388169' />
  <node id='-70928865' action='modify' lat='55.30019163562' lon='10.85484808916' />
  <node id='-70928866' action='modify' lat='55.29961166833' lon='10.85141218912' />
  <node id='-70928867' action='modify' lat='55.30103683499' lon='10.83200739054' />
  <node id='-70928868' action='modify' lat='55.30633011694' lon='10.8166634429' />
  <node id='-70928869' action='modify' lat='55.30882111043' lon='10.81135753393' />
  <node id='-70928870' action='modify' lat='55.31389647067' lon='10.80327591222'>
    <tag k='name' v='nyb' />
  </node>
  <node id='-70928871' action='modify' lat='55.31672000541' lon='10.79877948017' />
  <node id='-70928872' action='modify' lat='55.31861692698' lon='10.79485360171' />
  <node id='-70928873' action='modify' lat='55.32009367628' lon='10.79083498199' />
  <node id='-70928874' action='modify' lat='55.32126419334' lon='10.78780224513' />
  <node id='-70928875' action='modify' lat='55.33306413651' lon='10.75866415854' />
  <node id='-70928876' action='modify' lat='55.33543660056' lon='10.7501463663' />
  <node id='-70928877' action='modify' lat='55.33746710168' lon='10.73827397364' />
  <node id='-70928878' action='modify' lat='55.33775996163' lon='10.73661575847'>
    <tag k='name' v='hju' />
  </node>
  <node id='-70928879' action='modify' lat='55.33798279797' lon='10.73534221101' />
  <node id='-70928880' action='modify' lat='55.33883328438' lon='10.73063815423' />
  <node id='-70928881' action='modify' lat='55.33956498991' lon='10.72728995214' />
  <node id='-70928882' action='modify' lat='55.35314950495' lon='10.67463423735' />
  <node id='-70928883' action='modify' lat='55.35411891926' lon='10.66889493402' />
  <node id='-70928884' action='modify' lat='55.35441206891' lon='10.66552117333'>
    <tag k='name' v='ull' />
  </node>
  <node id='-70928885' action='modify' lat='55.35455176734' lon='10.66391342243' />
  <node id='-70928886' action='modify' lat='55.35483540497' lon='10.66110937815' />
  <node id='-70928887' action='modify' lat='55.355413786' lon='10.65610342559' />
  <node id='-70928888' action='modify' lat='55.35562039395' lon='10.65418407135' />
  <node id='-70928889' action='modify' lat='55.35802196665' lon='10.63011731537' />
  <node id='-70928890' action='modify' lat='55.35829068261' lon='10.62668158319' />
  <node id='-70928891' action='modify' lat='55.35984942836' lon='10.59926648157' />
  <node id='-70928892' action='modify' lat='55.36056486166' lon='10.59316646996' />
  <node id='-70928893' action='modify' lat='55.36169919937' lon='10.58687726108'>
    <tag k='name' v='lan' />
  </node>
  <node id='-70928894' action='modify' lat='55.3635970068' lon='10.57635467648' />
  <node id='-70928895' action='modify' lat='55.36544735412' lon='10.5685607239' />
  <node id='-70928896' action='modify' lat='55.37705942932' lon='10.52969884379' />
  <node id='-70928897' action='modify' lat='55.37840014819' lon='10.52451192141' />
  <node id='-70928898' action='modify' lat='55.37854372407' lon='10.52386003121'>
    <tag k='name' v='mar' />
  </node>
  <node id='-70928899' action='modify' lat='55.38109337008' lon='10.51228325514' />
  <node id='-70928900' action='modify' lat='55.38230486388' lon='10.50512704463' />
  <node id='-70928901' action='modify' lat='55.38682107017' lon='10.46772072361' />
  <node id='-70928902' action='modify' lat='55.38806523609' lon='10.46124374951' />
  <node id='-70928903' action='modify' lat='55.38896425725' lon='10.45790589303' />
  <node id='-70928904' action='modify' lat='55.38938036639' lon='10.45641117392' />
  <node id='-70928905' action='modify' lat='55.39095397481' lon='10.45093859902' />
  <node id='-70928906' action='modify' lat='55.40148089904' lon='10.41432326454' />
  <node id='-70928907' action='modify' lat='55.40275706637' lon='10.39982395527' />
  <node id='-70928908' action='modify' lat='55.40205218803' lon='10.39218344135' />
  <node id='-70928909' action='modify' lat='55.40180103753' lon='10.38794557828' />
  <node id='-70928910' action='modify' lat='55.40173501329' lon='10.38546926082'>
    <tag k='name' v='ode' />
  </node>
  <node id='-70928911' action='modify' lat='55.40169584235' lon='10.38400011013' />
  <node id='-70928912' action='modify' lat='55.40166682476' lon='10.38235617325' />
  <node id='-70928913' action='modify' lat='55.40159318233' lon='10.373841168' />
  <node id='-70928916' action='modify' lat='55.39847345106' lon='10.36456893786' />
  <node id='-70928918' action='modify' lat='55.39342071179' lon='10.35952068065' />
  <node id='-70928919' action='modify' lat='55.39051787475' lon='10.35475326711' />
  <node id='-70928920' action='modify' lat='55.38441189489' lon='10.33854591671' />
  <node id='-70928921' action='modify' lat='55.38299803902' lon='10.33454538825' />
  <node id='-70928922' action='modify' lat='55.37883710891' lon='10.32197125749' />
  <node id='-70928923' action='modify' lat='55.37715810765' lon='10.31480377275' />
  <node id='-70928924' action='modify' lat='55.37631267247' lon='10.30908848409' />
  <node id='-70928925' action='modify' lat='55.37251978969' lon='10.29907080598' />
  <node id='-70928926' action='modify' lat='55.37081048165' lon='10.29678442169' />
  <node id='-70928927' action='modify' lat='55.36761740024' lon='10.29018276739' />
  <node id='-70928928' action='modify' lat='55.36292685234' lon='10.27468810385' />
  <node id='-70928929' action='modify' lat='55.36237731501' lon='10.27301107847'>
    <tag k='name' v='hol' />
  </node>
  <node id='-70928930' action='modify' lat='55.36096898962' lon='10.26968833859' />
  <node id='-70928931' action='modify' lat='55.35747499085' lon='10.26263932872' />
  <node id='-70928932' action='modify' lat='55.35440672137' lon='10.25345314618' />
  <node id='-70928933' action='modify' lat='55.35249350271' lon='10.24409743296' />
  <node id='-70928934' action='modify' lat='55.35135532417' lon='10.23976137532' />
  <node id='-70928935' action='modify' lat='55.34618368357' lon='10.22386756456' />
  <node id='-70928936' action='modify' lat='55.34537189708' lon='10.22065842466'>
    <tag k='name' v='ren' />
  </node>
  <node id='-70928937' action='modify' lat='55.34486577219' lon='10.21694757216' />
  <node id='-70928938' action='modify' lat='55.34384138078' lon='10.20279242365' />
  <node id='-70928939' action='modify' lat='55.34651463951' lon='10.18849962406' />
  <node id='-70928941' action='modify' lat='55.34933088256' lon='10.18331056078' />
  <node id='-70928942' action='modify' lat='55.34971916716' lon='10.18262910065'>
    <tag k='name' v='tom' />
  </node>
  <node id='-70928943' action='modify' lat='55.35193011033' lon='10.17925299211' />
  <node id='-70928944' action='modify' lat='55.35350361057' lon='10.17717885548' />
  <node id='-70928945' action='modify' lat='55.35555534816' lon='10.17363578501' />
  <node id='-70928946' action='modify' lat='55.35854339004' lon='10.16688497295' />
  <node id='-70928947' action='modify' lat='55.36056603466' lon='10.159410965' />
  <node id='-70928948' action='modify' lat='55.36084217338' lon='10.15730879558' />
  <node id='-70928949' action='modify' lat='55.36227151379' lon='10.15123828405' />
  <node id='-70928950' action='modify' lat='55.36408498358' lon='10.14613028664' />
  <node id='-70928951' action='modify' lat='55.3648442746' lon='10.14419495852' />
  <node id='-70928952' action='modify' lat='55.36550295664' lon='10.142670531' />
  <node id='-70928953' action='modify' lat='55.3660545678' lon='10.1412101764'>
    <tag k='name' v='ska' />
  </node>
  <node id='-70928954' action='modify' lat='55.36714595847' lon='10.13710967777' />
  <node id='-70928955' action='modify' lat='55.36943497312' lon='10.12448383062' />
  <node id='-70928956' action='modify' lat='55.37001486965' lon='10.12146165937' />
  <node id='-70928957' action='modify' lat='55.37268738604' lon='10.10826954028' />
  <node id='-70928958' action='modify' lat='55.37334355621' lon='10.10553789174'>
    <tag k='name' v='bre' />
  </node>
  <node id='-70928959' action='modify' lat='55.37412659909' lon='10.10296293787' />
  <node id='-70928960' action='modify' lat='55.37988960351' lon='10.08635140093' />
  <node id='-70928961' action='modify' lat='55.38094913757' lon='10.0821239314' />
  <node id='-70928962' action='modify' lat='55.38229994392' lon='10.07394060253' />
  <node id='-70928963' action='modify' lat='55.38270660482' lon='10.070471414' />
  <node id='-70928964' action='modify' lat='55.3830100187' lon='10.066193087' />
  <node id='-70928965' action='modify' lat='55.38318778446' lon='10.05902232787' />
  <node id='-70928966' action='modify' lat='55.3830223514' lon='10.05114920854'>
    <tag k='name' v='aar' />
  </node>
  <node id='-70928967' action='modify' lat='55.38301572298' lon='10.04941349502' />
  <node id='-70928968' action='modify' lat='55.38309356279' lon='10.04359090737' />
  <node id='-70928969' action='modify' lat='55.38354826177' lon='10.03872318204' />
  <node id='-70928970' action='modify' lat='55.38392689086' lon='10.03658690218' />
  <node id='-70928971' action='modify' lat='55.38459010667' lon='10.03019367687' />
  <node id='-70928972' action='modify' lat='55.38462566869' lon='10.02913071969' />
  <node id='-70928973' action='modify' lat='55.38442286576' lon='10.02386397731' />
  <node id='-70928974' action='modify' lat='55.38422052155' lon='10.02205280837' />
  <node id='-70928975' action='modify' lat='55.38401298221' lon='10.01896227641' />
  <node id='-70928976' action='modify' lat='55.38390131658' lon='10.01418786132' />
  <node id='-70928977' action='modify' lat='55.38435755837' lon='10.00750544883' />
  <node id='-70928978' action='modify' lat='55.38450233228' lon='10.00662043557' />
  <node id='-70928979' action='modify' lat='55.3861031793' lon='10.00049703219' />
  <node id='-70928980' action='modify' lat='55.38683342809' lon='9.99854449276' />
  <node id='-70928981' action='modify' lat='55.38823679486' lon='9.99275334143' />
  <node id='-70928982' action='modify' lat='55.38854150724' lon='9.99040111894' />
  <node id='-70928983' action='modify' lat='55.39214739159' lon='9.98020673312' />
  <node id='-70928984' action='modify' lat='55.39589684144' lon='9.97485619928' />
  <node id='-70928985' action='modify' lat='55.39649002385' lon='9.97402524622'>
    <tag k='name' v='gel' />
  </node>
  <node id='-70928986' action='modify' lat='55.39761635183' lon='9.97248459877' />
  <node id='-70928987' action='modify' lat='55.3993565352' lon='9.97016557214' />
  <node id='-70928988' action='modify' lat='55.40182227104' lon='9.96584142878' />
  <node id='-70928989' action='modify' lat='55.40306435885' lon='9.96297604026' />
  <node id='-70928990' action='modify' lat='55.40478617735' lon='9.95984289645' />
  <node id='-70928991' action='modify' lat='55.40764936491' lon='9.95572565414' />
  <node id='-70928992' action='modify' lat='55.40823865901' lon='9.9548724245' />
  <node id='-70928993' action='modify' lat='55.41161935936' lon='9.94994390673' />
  <node id='-70928994' action='modify' lat='55.41399497088' lon='9.94685144118' />
  <node id='-70928995' action='modify' lat='55.42671968252' lon='9.93211634833' />
  <node id='-70928996' action='modify' lat='55.4287502757' lon='9.92991990021'>
    <tag k='name' v='ejb' />
  </node>
  <node id='-70928997' action='modify' lat='55.43174791094' lon='9.9273469804' />
  <node id='-70928998' action='modify' lat='55.4357146363' lon='9.92434089677' />
  <node id='-70928999' action='modify' lat='55.44372400534' lon='9.91402291083' />
  <node id='-70929000' action='modify' lat='55.44807281892' lon='9.90518693245' />
  <node id='-70929001' action='modify' lat='55.4514107652' lon='9.89667867827' />
  <node id='-70929002' action='modify' lat='55.45444515107' lon='9.88678198759' />
  <node id='-70929003' action='modify' lat='55.45551687151' lon='9.88356156925' />
  <node id='-70929004' action='modify' lat='55.4602647333' lon='9.87037537572'>
    <tag k='name' v='nor' />
  </node>
  <node id='-70929005' action='modify' lat='55.46102629365' lon='9.86826015331' />
  <node id='-70929006' action='modify' lat='55.46238094693' lon='9.86360304371' />
  <node id='-70929007' action='modify' lat='55.47076278669' lon='9.82682995332' />
  <node id='-70929008' action='modify' lat='55.47196316728' lon='9.82253892796' />
  <node id='-70929009' action='modify' lat='55.47601759691' lon='9.81045822279'>
    <tag k='name' v='kau' />
  </node>
  <node id='-70929010' action='modify' lat='55.47763413287' lon='9.80398795024' />
  <node id='-70929011' action='modify' lat='55.48017678809' lon='9.78927917787' />
  <node id='-70929012' action='modify' lat='55.48077112655' lon='9.78306311506' />
  <node id='-70929013' action='modify' lat='55.48101028937' lon='9.77202740524' />
  <node id='-70929014' action='modify' lat='55.48560525214' lon='9.75883242729' />
  <node id='-70929015' action='modify' lat='55.49032240851' lon='9.75420861926' />
  <node id='-70929016' action='modify' lat='55.49243106919' lon='9.75260209735' />
  <node id='-70929017' action='modify' lat='55.49587364065' lon='9.75066900486' />
  <node id='-70929018' action='modify' lat='55.50008544585' lon='9.74410016553' />
  <node id='-70929020' action='modify' lat='55.50053438395' lon='9.74237931447' />
  <node id='-70929021' action='modify' lat='55.50112478528' lon='9.73897481707' />
  <node id='-70929022' action='modify' lat='55.50155770149' lon='9.73431582902'>
    <tag k='name' v='mid' />
  </node>
  <node id='-70929023' action='modify' lat='55.5016253476' lon='9.73358782573' />
  <node id='-70929024' action='modify' lat='55.50174798075' lon='9.73126665055' />
  <node id='-70929025' action='modify' lat='55.5019386688' lon='9.71689319026' />
  <node id='-70929026' action='modify' lat='55.51258393703' lon='9.70414977195'>
    <tag k='name' v='bro' />
  </node>
  <node id='-70929027' action='modify' lat='55.5135733666' lon='9.70521002137' />
  <node id='-70929028' action='modify' lat='55.52040442694' lon='9.71313154069' />
  <node id='-70929029' action='modify' lat='55.52459114779' lon='9.71594648926' />
  <node id='-70929030' action='modify' lat='55.52907487763' lon='9.71435886599' />
  <node id='-70929031' action='modify' lat='55.53173449035' lon='9.71200652609' />
  <node id='-70929032' action='modify' lat='55.53276348592' lon='9.71099609626' />
  <node id='-70929033' action='modify' lat='55.53462690476' lon='9.70952130651' />
  <node id='-70929035' action='modify' lat='55.53676599953' lon='9.70824336213'>
    <tag k='name' v='sno' />
  </node>
  <node id='-70929036' action='modify' lat='55.54316558516' lon='9.70797729195' />
  <node id='-70929037' action='modify' lat='55.55088719985' lon='9.71180300439' />
  <node id='-70929038' action='modify' lat='55.5565990034' lon='9.72076247178' />
  <node id='-70929039' action='modify' lat='55.55771648495' lon='9.7254950807' />
  <node id='-70929040' action='modify' lat='55.55804006231' lon='9.72675906145' />
  <node id='-70929041' action='modify' lat='55.55815876076' lon='9.72718775089' />
  <node id='-70929042' action='modify' lat='55.56051143244' lon='9.73315022628' />
  <node id='-70929043' action='modify' lat='55.56065259677' lon='9.73339387521' />
  <node id='-70929044' action='modify' lat='55.56358624514' lon='9.73653371627' />
  <node id='-70929045' action='modify' lat='55.56487263981' lon='9.73752709633' />
  <node id='-70929046' action='modify' lat='55.5669208276' lon='9.73896899668' />
  <node id='-70929047' action='modify' lat='55.56835482217' lon='9.73967254876'>
    <tag k='name' v='fre' />
  </node>
  <way id='-22162136' action='modify'>
    <nd ref='-70928732' />
    <nd ref='-70928733' />
    <tag k='type' v='straight' />
  </way>
  <way id='-22162137' action='modify'>
    <nd ref='-70928733' />
    <nd ref='-70928734' />
    <tag k='type' v='arc' />
  </way>
  <way id='-22162138' action='modify'>
    <nd ref='-70928734' />
    <nd ref='-70928735' />
    <nd ref='-70928736' />
    <tag k='type' v='straight' />
  </way>
  <way id='-22162139' action='modify'>
    <nd ref='-70928736' />
    <nd ref='-70928737' />
  </way>
  <way id='-22162140' action='modify'>
    <nd ref='-70928737' />
    <nd ref='-70928738' />
    <nd ref='-70928739' />
    <tag k='type' v='straight' />
  </way>
  <way id='-22162141' action='modify'>
    <nd ref='-70928739' />
    <nd ref='-70928740' />
  </way>
  <way id='-22162142' action='modify'>
    <nd ref='-70928740' />
    <nd ref='-70928741' />
    <tag k='type' v='straight' />
  </way>
  <way id='-22162143' action='modify'>
    <nd ref='-70928741' />
    <nd ref='-70928742' />
    <tag k='type' v='arc' />
  </way>
  <way id='-22162144' action='modify'>
    <nd ref='-70928742' />
    <nd ref='-70928743' />
    <tag k='type' v='straight' />
  </way>
  <way id='-22162145' action='modify'>
    <nd ref='-70928743' />
    <nd ref='-70928744' />
    <tag k='type' v='arc' />
  </way>
  <way id='-22162148' action='modify'>
    <nd ref='-70928744' />
    <nd ref='-70928745' />
    <nd ref='-70928749' />
    <nd ref='-70928752' />
    <tag k='type' v='straight' />
  </way>
  <way id='-22162149' action='modify'>
    <nd ref='-70928752' />
    <nd ref='-70928753' />
    <tag k='type' v='arc' />
  </way>
  <way id='-22162150' action='modify'>
    <nd ref='-70928753' />
    <nd ref='-70928754' />
    <nd ref='-70928756' />
    <tag k='type' v='straight' />
  </way>
  <way id='-22162151' action='modify'>
    <nd ref='-70928756' />
    <nd ref='-70928757' />
    <tag k='type' v='arc' />
  </way>
  <way id='-22162152' action='modify'>
    <nd ref='-70928757' />
    <nd ref='-70928759' />
    <tag k='type' v='straight' />
  </way>
  <way id='-22162153' action='modify'>
    <nd ref='-70928759' />
    <nd ref='-70928760' />
    <tag k='type' v='arc' />
  </way>
  <way id='-22162154' action='modify'>
    <nd ref='-70928760' />
    <nd ref='-70928761' />
    <nd ref='-70928762' />
    <tag k='type' v='straight' />
  </way>
  <way id='-22162155' action='modify'>
    <nd ref='-70928762' />
    <nd ref='-70928763' />
    <tag k='type' v='arc' />
  </way>
  <way id='-22162156' action='modify'>
    <nd ref='-70928763' />
    <nd ref='-70928764' />
    <nd ref='-70928765' />
    <tag k='type' v='straight' />
  </way>
  <way id='-22162157' action='modify'>
    <nd ref='-70928765' />
    <nd ref='-70928766' />
    <tag k='type' v='arc' />
  </way>
  <way id='-22162158' action='modify'>
    <nd ref='-70928766' />
    <nd ref='-70928767' />
    <nd ref='-70928768' />
    <tag k='type' v='straight' />
  </way>
  <way id='-22162159' action='modify'>
    <nd ref='-70928768' />
    <nd ref='-70928769' />
    <tag k='type' v='arc' />
  </way>
  <way id='-22162160' action='modify'>
    <nd ref='-70928769' />
    <nd ref='-70928770' />
    <nd ref='-70928771' />
    <tag k='type' v='straight' />
  </way>
  <way id='-22162161' action='modify'>
    <nd ref='-70928771' />
    <nd ref='-70928772' />
    <tag k='type' v='arc' />
  </way>
  <way id='-22162162' action='modify'>
    <nd ref='-70928772' />
    <nd ref='-70928775' />
    <tag k='type' v='straight' />
  </way>
  <way id='-22162163' action='modify'>
    <nd ref='-70928775' />
    <nd ref='-70928776' />
    <tag k='type' v='arc' />
  </way>
  <way id='-22162164' action='modify'>
    <nd ref='-70928776' />
    <nd ref='-70928778' />
    <nd ref='-70928779' />
    <tag k='type' v='straight' />
  </way>
  <way id='-22162165' action='modify'>
    <nd ref='-70928779' />
    <nd ref='-70928780' />
    <tag k='type' v='arc' />
  </way>
  <way id='-22162166' action='modify'>
    <nd ref='-70928780' />
    <nd ref='-70928781' />
    <tag k='type' v='straight' />
  </way>
  <way id='-22162167' action='modify'>
    <nd ref='-70928781' />
    <nd ref='-70928782' />
    <tag k='type' v='curved' />
  </way>
  <way id='-22162168' action='modify'>
    <nd ref='-70928782' />
    <nd ref='-70928783' />
    <tag k='type' v='straight' />
  </way>
  <way id='-22162169' action='modify'>
    <nd ref='-70928783' />
    <nd ref='-70928784' />
    <tag k='type' v='curved' />
  </way>
  <way id='-22162170' action='modify'>
    <nd ref='-70928784' />
    <nd ref='-70928785' />
    <tag k='type' v='straight' />
  </way>
  <way id='-22162171' action='modify'>
    <nd ref='-70928785' />
    <nd ref='-70928786' />
    <tag k='type' v='arc' />
  </way>
  <way id='-22162172' action='modify'>
    <nd ref='-70928786' />
    <nd ref='-70928787' />
    <tag k='type' v='straight' />
  </way>
  <way id='-22162173' action='modify'>
    <nd ref='-70928787' />
    <nd ref='-70928788' />
    <nd ref='-70928789' />
    <tag k='type' v='arc' />
  </way>
  <way id='-22162174' action='modify'>
    <nd ref='-70928789' />
    <nd ref='-70928790' />
    <tag k='type' v='straight' />
  </way>
  <way id='-22162175' action='modify'>
    <nd ref='-70928790' />
    <nd ref='-70928791' />
    <tag k='type' v='arc' />
  </way>
  <way id='-22162176' action='modify'>
    <nd ref='-70928791' />
    <nd ref='-70928792' />
    <tag k='type' v='straight' />
  </way>
  <way id='-22162177' action='modify'>
    <nd ref='-70928792' />
    <nd ref='-70928793' />
    <tag k='type' v='arc' />
  </way>
  <way id='-22162178' action='modify'>
    <nd ref='-70928793' />
    <nd ref='-70928794' />
    <tag k='type' v='straight' />
  </way>
  <way id='-22162179' action='modify'>
    <nd ref='-70928794' />
    <nd ref='-70928795' />
    <nd ref='-70928796' />
    <tag k='type' v='arc' />
  </way>
  <way id='-22162180' action='modify'>
    <nd ref='-70928796' />
    <nd ref='-70928797' />
    <tag k='type' v='straight' />
  </way>
  <way id='-22162181' action='modify'>
    <nd ref='-70928797' />
    <nd ref='-70928798' />
    <tag k='type' v='arc' />
  </way>
  <way id='-22162182' action='modify'>
    <nd ref='-70928798' />
    <nd ref='-70928799' />
    <tag k='type' v='straight' />
  </way>
  <way id='-22162184' action='modify'>
    <nd ref='-70928799' />
    <nd ref='-70928802' />
    <tag k='type' v='straight' />
  </way>
  <way id='-22162185' action='modify'>
    <nd ref='-70928802' />
    <nd ref='-70928803' />
    <tag k='type' v='arc' />
  </way>
  <way id='-22162186' action='modify'>
    <nd ref='-70928803' />
    <nd ref='-70928804' />
    <nd ref='-70928805' />
    <tag k='type' v='straight' />
  </way>
  <way id='-22162187' action='modify'>
    <nd ref='-70928805' />
    <nd ref='-70928806' />
    <tag k='type' v='arc' />
  </way>
  <way id='-22162188' action='modify'>
    <nd ref='-70928806' />
    <nd ref='-70928807' />
    <tag k='type' v='straight' />
  </way>
  <way id='-22162189' action='modify'>
    <nd ref='-70928807' />
    <nd ref='-70928808' />
    <tag k='type' v='arc' />
  </way>
  <way id='-22162190' action='modify'>
    <nd ref='-70928808' />
    <nd ref='-70928809' />
    <nd ref='-70928810' />
    <tag k='type' v='straight' />
  </way>
  <way id='-22162191' action='modify'>
    <nd ref='-70928810' />
    <nd ref='-70928811' />
    <tag k='type' v='arc' />
  </way>
  <way id='-22162192' action='modify'>
    <nd ref='-70928811' />
    <nd ref='-70928812' />
    <tag k='type' v='straight' />
  </way>
  <way id='-22162193' action='modify'>
    <nd ref='-70928812' />
    <nd ref='-70928813' />
    <tag k='type' v='arc' />
  </way>
  <way id='-22162194' action='modify'>
    <nd ref='-70928813' />
    <nd ref='-70928814' />
    <tag k='type' v='straight' />
  </way>
  <way id='-22162195' action='modify'>
    <nd ref='-70928814' />
    <nd ref='-70928815' />
    <tag k='type' v='arc' />
  </way>
  <way id='-22162196' action='modify'>
    <nd ref='-70928815' />
    <nd ref='-70928817' />
    <nd ref='-70928818' />
    <tag k='type' v='straight' />
  </way>
  <way id='-22162197' action='modify'>
    <nd ref='-70928818' />
    <nd ref='-70928819' />
    <tag k='type' v='arc' />
  </way>
  <way id='-22162198' action='modify'>
    <nd ref='-70928819' />
    <nd ref='-70928820' />
    <tag k='type' v='straight' />
  </way>
  <way id='-22162199' action='modify'>
    <nd ref='-70928820' />
    <nd ref='-70928821' />
    <tag k='type' v='arc' />
  </way>
  <way id='-22162200' action='modify'>
    <nd ref='-70928821' />
    <nd ref='-70928822' />
    <tag k='type' v='straight' />
  </way>
  <way id='-22162201' action='modify'>
    <nd ref='-70928822' />
    <nd ref='-70928823' />
    <tag k='type' v='arc' />
  </way>
  <way id='-22162202' action='modify'>
    <nd ref='-70928823' />
    <nd ref='-70928824' />
    <tag k='type' v='straight' />
  </way>
  <way id='-22162203' action='modify'>
    <nd ref='-70928824' />
    <nd ref='-70928825' />
    <tag k='type' v='arc' />
  </way>
  <way id='-22162204' action='modify'>
    <nd ref='-70928825' />
    <nd ref='-70928826' />
    <nd ref='-70928827' />
    <tag k='type' v='straight' />
  </way>
  <way id='-22162205' action='modify'>
    <nd ref='-70928827' />
    <nd ref='-70928828' />
    <tag k='type' v='arc' />
  </way>
  <way id='-22162206' action='modify'>
    <nd ref='-70928828' />
    <nd ref='-70928829' />
    <tag k='type' v='straight' />
  </way>
  <way id='-22162207' action='modify'>
    <nd ref='-70928829' />
    <nd ref='-70928830' />
    <tag k='type' v='arc' />
  </way>
  <way id='-22162208' action='modify'>
    <nd ref='-70928830' />
    <nd ref='-70928831' />
    <tag k='type' v='straight' />
  </way>
  <way id='-22162209' action='modify'>
    <nd ref='-70928831' />
    <nd ref='-70928832' />
    <tag k='type' v='arc' />
  </way>
  <way id='-22162210' action='modify'>
    <nd ref='-70928832' />
    <nd ref='-70928833' />
    <tag k='type' v='straight' />
  </way>
  <way id='-22162211' action='modify'>
    <nd ref='-70928833' />
    <nd ref='-70928834' />
    <nd ref='-70928835' />
    <tag k='type' v='arc' />
  </way>
  <way id='-22162212' action='modify'>
    <nd ref='-70928835' />
    <nd ref='-70928837' />
    <tag k='type' v='straight' />
  </way>
  <way id='-22162213' action='modify'>
    <nd ref='-70928837' />
    <nd ref='-70928838' />
    <tag k='type' v='arc' />
  </way>
  <way id='-22162214' action='modify'>
    <nd ref='-70928838' />
    <nd ref='-70928839' />
    <tag k='type' v='straight' />
  </way>
  <way id='-22162215' action='modify'>
    <nd ref='-70928839' />
    <nd ref='-70928840' />
    <tag k='type' v='arc' />
  </way>
  <way id='-22162216' action='modify'>
    <nd ref='-70928840' />
    <nd ref='-70928841' />
    <tag k='type' v='straight' />
  </way>
  <way id='-22162217' action='modify'>
    <nd ref='-70928841' />
    <nd ref='-70928842' />
    <tag k='type' v='arc' />
  </way>
  <way id='-22162218' action='modify'>
    <nd ref='-70928842' />
    <nd ref='-70928843' />
    <nd ref='-70928844' />
    <tag k='type' v='straight' />
  </way>
  <way id='-22162219' action='modify'>
    <nd ref='-70928844' />
    <nd ref='-70928845' />
    <tag k='type' v='arc' />
  </way>
  <way id='-22162220' action='modify'>
    <nd ref='-70928845' />
    <nd ref='-70928846' />
    <nd ref='-70928847' />
    <tag k='type' v='straight' />
  </way>
  <way id='-22162221' action='modify'>
    <nd ref='-70928847' />
    <nd ref='-70928848' />
    <tag k='type' v='arc' />
  </way>
  <way id='-22162223' action='modify'>
    <nd ref='-70928848' />
    <nd ref='-70928850' />
    <tag k='type' v='straight' />
  </way>
  <way id='-22162224' action='modify'>
    <nd ref='-70928850' />
    <nd ref='-70928851' />
    <tag k='type' v='arc' />
  </way>
  <way id='-22162225' action='modify'>
    <nd ref='-70928851' />
    <nd ref='-70928852' />
    <nd ref='-70928853' />
    <tag k='type' v='straight' />
  </way>
  <way id='-22162226' action='modify'>
    <nd ref='-70928853' />
    <nd ref='-70928854' />
    <tag k='type' v='arc' />
  </way>
  <way id='-22162227' action='modify'>
    <nd ref='-70928854' />
    <nd ref='-70928855' />
    <tag k='type' v='straight' />
  </way>
  <way id='-22162228' action='modify'>
    <nd ref='-70928855' />
    <nd ref='-70928857' />
    <tag k='type' v='arc' />
  </way>
  <way id='-22162229' action='modify'>
    <nd ref='-70928857' />
    <nd ref='-70928858' />
    <tag k='type' v='straight' />
  </way>
  <way id='-22162230' action='modify'>
    <nd ref='-70928858' />
    <nd ref='-70928859' />
    <tag k='type' v='arc' />
  </way>
  <way id='-22162231' action='modify'>
    <nd ref='-70928859' />
    <nd ref='-70928861' />
    <tag k='type' v='straight' />
  </way>
  <way id='-22162232' action='modify'>
    <nd ref='-70928861' />
    <nd ref='-70928862' />
    <nd ref='-70928863' />
    <tag k='type' v='arc' />
  </way>
  <way id='-22162233' action='modify'>
    <nd ref='-70928863' />
    <nd ref='-70928864' />
    <tag k='type' v='straight' />
  </way>
  <way id='-22162234' action='modify'>
    <nd ref='-70928864' />
    <nd ref='-70928865' />
    <tag k='type' v='arc' />
  </way>
  <way id='-22162235' action='modify'>
    <nd ref='-70928865' />
    <nd ref='-70928866' />
    <tag k='type' v='straight' />
  </way>
  <way id='-22162236' action='modify'>
    <nd ref='-70928866' />
    <nd ref='-70928867' />
    <tag k='type' v='arc' />
  </way>
  <way id='-22162237' action='modify'>
    <nd ref='-70928867' />
    <nd ref='-70928868' />
    <tag k='type' v='straight' />
  </way>
  <way id='-22162238' action='modify'>
    <nd ref='-70928868' />
    <nd ref='-70928869' />
    <tag k='type' v='arc' />
  </way>
  <way id='-22162239' action='modify'>
    <nd ref='-70928869' />
    <nd ref='-70928870' />
    <nd ref='-70928871' />
    <tag k='type' v='straight' />
  </way>
  <way id='-22162240' action='modify'>
    <nd ref='-70928871' />
    <nd ref='-70928872' />
    <tag k='type' v='arc' />
  </way>
  <way id='-22162241' action='modify'>
    <nd ref='-70928872' />
    <nd ref='-70928873' />
    <tag k='type' v='straight' />
  </way>
  <way id='-22162242' action='modify'>
    <nd ref='-70928873' />
    <nd ref='-70928874' />
    <tag k='type' v='arc' />
  </way>
  <way id='-22162243' action='modify'>
    <nd ref='-70928874' />
    <nd ref='-70928875' />
    <tag k='type' v='straight' />
  </way>
  <way id='-22162244' action='modify'>
    <nd ref='-70928875' />
    <nd ref='-70928876' />
    <tag k='type' v='arc' />
  </way>
  <way id='-22162245' action='modify'>
    <nd ref='-70928876' />
    <nd ref='-70928877' />
    <tag k='type' v='straight' />
  </way>
  <way id='-22162246' action='modify'>
    <nd ref='-70928877' />
    <nd ref='-70928878' />
    <nd ref='-70928879' />
    <tag k='type' v='arc' />
  </way>
  <way id='-22162247' action='modify'>
    <nd ref='-70928879' />
    <nd ref='-70928880' />
    <tag k='type' v='straight' />
  </way>
  <way id='-22162248' action='modify'>
    <nd ref='-70928880' />
    <nd ref='-70928881' />
    <tag k='type' v='arc' />
  </way>
  <way id='-22162249' action='modify'>
    <nd ref='-70928881' />
    <nd ref='-70928882' />
    <tag k='type' v='straight' />
  </way>
  <way id='-22162250' action='modify'>
    <nd ref='-70928882' />
    <nd ref='-70928883' />
    <tag k='type' v='arc' />
  </way>
  <way id='-22162251' action='modify'>
    <nd ref='-70928883' />
    <nd ref='-70928884' />
    <nd ref='-70928885' />
    <tag k='type' v='straight' />
  </way>
  <way id='-22162252' action='modify'>
    <nd ref='-70928885' />
    <nd ref='-70928886' />
    <tag k='type' v='arc' />
  </way>
  <way id='-22162253' action='modify'>
    <nd ref='-70928886' />
    <nd ref='-70928887' />
    <tag k='type' v='straight' />
  </way>
  <way id='-22162254' action='modify'>
    <nd ref='-70928887' />
    <nd ref='-70928888' />
    <tag k='type' v='arc' />
  </way>
  <way id='-22162255' action='modify'>
    <nd ref='-70928888' />
    <nd ref='-70928889' />
    <tag k='type' v='straight' />
  </way>
  <way id='-22162256' action='modify'>
    <nd ref='-70928889' />
    <nd ref='-70928890' />
    <tag k='type' v='arc' />
  </way>
  <way id='-22162257' action='modify'>
    <nd ref='-70928890' />
    <nd ref='-70928891' />
    <tag k='type' v='straight' />
  </way>
  <way id='-22162258' action='modify'>
    <nd ref='-70928891' />
    <nd ref='-70928892' />
    <tag k='type' v='arc' />
  </way>
  <way id='-22162259' action='modify'>
    <nd ref='-70928892' />
    <nd ref='-70928893' />
    <nd ref='-70928894' />
    <tag k='type' v='straight' />
  </way>
  <way id='-22162260' action='modify'>
    <nd ref='-70928894' />
    <nd ref='-70928895' />
    <tag k='type' v='arc' />
  </way>
  <way id='-22162261' action='modify'>
    <nd ref='-70928895' />
    <nd ref='-70928896' />
    <tag k='type' v='straight' />
  </way>
  <way id='-22162262' action='modify'>
    <nd ref='-70928896' />
    <nd ref='-70928897' />
    <tag k='type' v='arc' />
  </way>
  <way id='-22162263' action='modify'>
    <nd ref='-70928897' />
    <nd ref='-70928898' />
    <nd ref='-70928899' />
    <tag k='type' v='straight' />
  </way>
  <way id='-22162264' action='modify'>
    <nd ref='-70928899' />
    <nd ref='-70928900' />
    <tag k='type' v='arc' />
  </way>
  <way id='-22162265' action='modify'>
    <nd ref='-70928900' />
    <nd ref='-70928901' />
    <tag k='type' v='straight' />
  </way>
  <way id='-22162266' action='modify'>
    <nd ref='-70928901' />
    <nd ref='-70928902' />
    <tag k='type' v='arc' />
  </way>
  <way id='-22162267' action='modify'>
    <nd ref='-70928902' />
    <nd ref='-70928903' />
    <tag k='type' v='straight' />
  </way>
  <way id='-22162268' action='modify'>
    <nd ref='-70928903' />
    <nd ref='-70928904' />
    <tag k='type' v='arc' />
  </way>
  <way id='-22162269' action='modify'>
    <nd ref='-70928904' />
    <nd ref='-70928905' />
    <nd ref='-70928906' />
    <tag k='type' v='straight' />
  </way>
  <way id='-22162270' action='modify'>
    <nd ref='-70928906' />
    <nd ref='-70928907' />
    <tag k='type' v='arc' />
  </way>
  <way id='-22162271' action='modify'>
    <nd ref='-70928907' />
    <nd ref='-70928908' />
    <tag k='type' v='straight' />
  </way>
  <way id='-22162272' action='modify'>
    <nd ref='-70928908' />
    <nd ref='-70928909' />
    <tag k='type' v='arc' />
  </way>
  <way id='-22162273' action='modify'>
    <nd ref='-70928909' />
    <nd ref='-70928910' />
    <nd ref='-70928911' />
    <tag k='type' v='straight' />
  </way>
  <way id='-22162274' action='modify'>
    <nd ref='-70928911' />
    <nd ref='-70928912' />
    <tag k='type' v='arc' />
  </way>
  <way id='-22162275' action='modify'>
    <nd ref='-70928912' />
    <nd ref='-70928913' />
    <tag k='type' v='straight' />
  </way>
  <way id='-22162276' action='modify'>
    <nd ref='-70928913' />
    <nd ref='-70928916' />
  </way>
  <way id='-22162279' action='modify'>
    <nd ref='-70928916' />
    <nd ref='-70928918' />
    <tag k='type' v='straight' />
  </way>
  <way id='-22162280' action='modify'>
    <nd ref='-70928918' />
    <nd ref='-70928919' />
    <tag k='type' v='arc' />
  </way>
  <way id='-22162281' action='modify'>
    <nd ref='-70928919' />
    <nd ref='-70928920' />
    <tag k='type' v='straight' />
  </way>
  <way id='-22162282' action='modify'>
    <nd ref='-70928920' />
    <nd ref='-70928921' />
    <tag k='type' v='arc' />
  </way>
  <way id='-22162283' action='modify'>
    <nd ref='-70928921' />
    <nd ref='-70928922' />
    <tag k='type' v='straight' />
  </way>
  <way id='-22162284' action='modify'>
    <nd ref='-70928922' />
    <nd ref='-70928923' />
    <tag k='type' v='arc' />
  </way>
  <way id='-22162285' action='modify'>
    <nd ref='-70928923' />
    <nd ref='-70928924' />
    <tag k='type' v='straight' />
  </way>
  <way id='-22162286' action='modify'>
    <nd ref='-70928924' />
    <nd ref='-70928925' />
    <tag k='type' v='arc' />
  </way>
  <way id='-22162287' action='modify'>
    <nd ref='-70928925' />
    <nd ref='-70928926' />
    <tag k='type' v='straight' />
  </way>
  <way id='-22162288' action='modify'>
    <nd ref='-70928926' />
    <nd ref='-70928927' />
    <tag k='type' v='arc' />
  </way>
  <way id='-22162289' action='modify'>
    <nd ref='-70928927' />
    <nd ref='-70928928' />
    <tag k='type' v='straight' />
  </way>
  <way id='-22162290' action='modify'>
    <nd ref='-70928928' />
    <nd ref='-70928929' />
    <nd ref='-70928930' />
    <tag k='type' v='arc' />
  </way>
  <way id='-22162291' action='modify'>
    <nd ref='-70928930' />
    <nd ref='-70928931' />
    <tag k='type' v='straight' />
  </way>
  <way id='-22162292' action='modify'>
    <nd ref='-70928931' />
    <nd ref='-70928932' />
    <tag k='type' v='arc' />
  </way>
  <way id='-22162293' action='modify'>
    <nd ref='-70928932' />
    <nd ref='-70928933' />
    <tag k='type' v='straight' />
  </way>
  <way id='-22162294' action='modify'>
    <nd ref='-70928933' />
    <nd ref='-70928934' />
    <tag k='type' v='arc' />
  </way>
  <way id='-22162295' action='modify'>
    <nd ref='-70928934' />
    <nd ref='-70928935' />
    <tag k='type' v='straight' />
  </way>
  <way id='-22162296' action='modify'>
    <nd ref='-70928935' />
    <nd ref='-70928936' />
    <nd ref='-70928937' />
    <tag k='type' v='arc' />
  </way>
  <way id='-22162297' action='modify'>
    <nd ref='-70928937' />
    <nd ref='-70928938' />
    <tag k='type' v='straight' />
  </way>
  <way id='-22162298' action='modify'>
    <nd ref='-70928938' />
    <nd ref='-70928939' />
    <tag k='type' v='arc' />
  </way>
  <way id='-22162299' action='modify'>
    <nd ref='-70928939' />
    <nd ref='-70928941' />
    <tag k='type' v='straight' />
  </way>
  <way id='-22162300' action='modify'>
    <nd ref='-70928941' />
    <nd ref='-70928942' />
    <nd ref='-70928943' />
    <tag k='type' v='arc' />
  </way>
  <way id='-22162301' action='modify'>
    <nd ref='-70928943' />
    <nd ref='-70928944' />
    <tag k='type' v='straight' />
  </way>
  <way id='-22162302' action='modify'>
    <nd ref='-70928944' />
    <nd ref='-70928945' />
    <tag k='type' v='arc' />
  </way>
  <way id='-22162303' action='modify'>
    <nd ref='-70928945' />
    <nd ref='-70928946' />
    <tag k='type' v='straight' />
  </way>
  <way id='-22162304' action='modify'>
    <nd ref='-70928946' />
    <nd ref='-70928947' />
    <tag k='type' v='arc' />
  </way>
  <way id='-22162305' action='modify'>
    <nd ref='-70928947' />
    <nd ref='-70928948' />
    <tag k='type' v='straight' />
  </way>
  <way id='-22162306' action='modify'>
    <nd ref='-70928948' />
    <nd ref='-70928949' />
    <tag k='type' v='arc' />
  </way>
  <way id='-22162307' action='modify'>
    <nd ref='-70928949' />
    <nd ref='-70928950' />
    <tag k='type' v='straight' />
  </way>
  <way id='-22162308' action='modify'>
    <nd ref='-70928950' />
    <nd ref='-70928951' />
    <tag k='type' v='arc' />
  </way>
  <way id='-22162309' action='modify'>
    <nd ref='-70928951' />
    <nd ref='-70928952' />
    <tag k='type' v='straight' />
  </way>
  <way id='-22162310' action='modify'>
    <nd ref='-70928952' />
    <nd ref='-70928953' />
    <nd ref='-70928954' />
    <tag k='type' v='arc' />
  </way>
  <way id='-22162311' action='modify'>
    <nd ref='-70928954' />
    <nd ref='-70928955' />
    <tag k='type' v='straight' />
  </way>
  <way id='-22162312' action='modify'>
    <nd ref='-70928955' />
    <nd ref='-70928956' />
    <tag k='type' v='arc' />
  </way>
  <way id='-22162313' action='modify'>
    <nd ref='-70928956' />
    <nd ref='-70928957' />
    <tag k='type' v='straight' />
  </way>
  <way id='-22162314' action='modify'>
    <nd ref='-70928957' />
    <nd ref='-70928958' />
    <nd ref='-70928959' />
    <tag k='type' v='arc' />
  </way>
  <way id='-22162315' action='modify'>
    <nd ref='-70928959' />
    <nd ref='-70928960' />
    <tag k='type' v='straight' />
  </way>
  <way id='-22162316' action='modify'>
    <nd ref='-70928960' />
    <nd ref='-70928961' />
    <tag k='type' v='arc' />
  </way>
  <way id='-22162317' action='modify'>
    <nd ref='-70928961' />
    <nd ref='-70928962' />
    <tag k='type' v='straight' />
  </way>
  <way id='-22162318' action='modify'>
    <nd ref='-70928962' />
    <nd ref='-70928963' />
    <tag k='type' v='arc' />
  </way>
  <way id='-22162319' action='modify'>
    <nd ref='-70928963' />
    <nd ref='-70928964' />
    <tag k='type' v='straight' />
  </way>
  <way id='-22162320' action='modify'>
    <nd ref='-70928964' />
    <nd ref='-70928965' />
    <tag k='type' v='arc' />
  </way>
  <way id='-22162321' action='modify'>
    <nd ref='-70928965' />
    <nd ref='-70928966' />
    <tag k='type' v='straight' />
  </way>
  <way id='-22162322' action='modify'>
    <nd ref='-70928966' />
    <nd ref='-70928967' />
    <tag k='type' v='arc' />
  </way>
  <way id='-22162323' action='modify'>
    <nd ref='-70928967' />
    <nd ref='-70928968' />
    <tag k='type' v='straight' />
  </way>
  <way id='-22162324' action='modify'>
    <nd ref='-70928968' />
    <nd ref='-70928969' />
    <tag k='type' v='arc' />
  </way>
  <way id='-22162325' action='modify'>
    <nd ref='-70928969' />
    <nd ref='-70928970' />
    <tag k='type' v='straight' />
  </way>
  <way id='-22162326' action='modify'>
    <nd ref='-70928970' />
    <nd ref='-70928971' />
    <tag k='type' v='arc' />
  </way>
  <way id='-22162327' action='modify'>
    <nd ref='-70928971' />
    <nd ref='-70928972' />
    <tag k='type' v='straight' />
  </way>
  <way id='-22162328' action='modify'>
    <nd ref='-70928972' />
    <nd ref='-70928973' />
    <tag k='type' v='arc' />
  </way>
  <way id='-22162329' action='modify'>
    <nd ref='-70928973' />
    <nd ref='-70928974' />
    <tag k='type' v='straight' />
  </way>
  <way id='-22162330' action='modify'>
    <nd ref='-70928974' />
    <nd ref='-70928975' />
    <tag k='type' v='arc' />
  </way>
  <way id='-22162331' action='modify'>
    <nd ref='-70928975' />
    <nd ref='-70928976' />
    <tag k='type' v='straight' />
  </way>
  <way id='-22162332' action='modify'>
    <nd ref='-70928976' />
    <nd ref='-70928977' />
    <tag k='type' v='arc' />
  </way>
  <way id='-22162333' action='modify'>
    <nd ref='-70928977' />
    <nd ref='-70928978' />
    <tag k='type' v='straight' />
  </way>
  <way id='-22162334' action='modify'>
    <nd ref='-70928978' />
    <nd ref='-70928979' />
    <tag k='type' v='arc' />
  </way>
  <way id='-22162335' action='modify'>
    <nd ref='-70928979' />
    <nd ref='-70928980' />
    <tag k='type' v='straight' />
  </way>
  <way id='-22162336' action='modify'>
    <nd ref='-70928980' />
    <nd ref='-70928981' />
    <tag k='type' v='arc' />
  </way>
  <way id='-22162337' action='modify'>
    <nd ref='-70928981' />
    <nd ref='-70928982' />
    <tag k='type' v='straight' />
  </way>
  <way id='-22162338' action='modify'>
    <nd ref='-70928982' />
    <nd ref='-70928983' />
    <tag k='type' v='arc' />
  </way>
  <way id='-22162339' action='modify'>
    <nd ref='-70928983' />
    <nd ref='-70928984' />
    <tag k='type' v='straight' />
  </way>
  <way id='-22162340' action='modify'>
    <nd ref='-70928984' />
    <nd ref='-70928985' />
    <nd ref='-70928986' />
    <tag k='type' v='arc' />
  </way>
  <way id='-22162341' action='modify'>
    <nd ref='-70928986' />
    <nd ref='-70928987' />
    <tag k='type' v='straight' />
  </way>
  <way id='-22162342' action='modify'>
    <nd ref='-70928987' />
    <nd ref='-70928988' />
    <tag k='type' v='arc' />
  </way>
  <way id='-22162343' action='modify'>
    <nd ref='-70928988' />
    <nd ref='-70928989' />
    <tag k='type' v='straight' />
  </way>
  <way id='-22162344' action='modify'>
    <nd ref='-70928989' />
    <nd ref='-70928990' />
    <tag k='type' v='arc' />
  </way>
  <way id='-22162345' action='modify'>
    <nd ref='-70928990' />
    <nd ref='-70928991' />
    <tag k='type' v='straight' />
  </way>
  <way id='-22162346' action='modify'>
    <nd ref='-70928991' />
    <nd ref='-70928992' />
    <tag k='type' v='arc' />
  </way>
  <way id='-22162347' action='modify'>
    <nd ref='-70928992' />
    <nd ref='-70928993' />
    <tag k='type' v='straight' />
  </way>
  <way id='-22162348' action='modify'>
    <nd ref='-70928993' />
    <nd ref='-70928994' />
    <tag k='type' v='arc' />
  </way>
  <way id='-22162349' action='modify'>
    <nd ref='-70928994' />
    <nd ref='-70928995' />
    <tag k='type' v='straight' />
  </way>
  <way id='-22162350' action='modify'>
    <nd ref='-70928995' />
    <nd ref='-70928996' />
    <nd ref='-70928997' />
    <tag k='type' v='arc' />
  </way>
  <way id='-22162351' action='modify'>
    <nd ref='-70928997' />
    <nd ref='-70928998' />
    <tag k='type' v='straight' />
  </way>
  <way id='-22162352' action='modify'>
    <nd ref='-70928998' />
    <nd ref='-70928999' />
    <tag k='type' v='arc' />
  </way>
  <way id='-22162353' action='modify'>
    <nd ref='-70928999' />
    <nd ref='-70929000' />
    <tag k='type' v='straight' />
  </way>
  <way id='-22162354' action='modify'>
    <nd ref='-70929000' />
    <nd ref='-70929001' />
    <tag k='type' v='arc' />
  </way>
  <way id='-22162355' action='modify'>
    <nd ref='-70929001' />
    <nd ref='-70929002' />
    <tag k='type' v='straight' />
  </way>
  <way id='-22162356' action='modify'>
    <nd ref='-70929002' />
    <nd ref='-70929003' />
    <tag k='type' v='arc' />
  </way>
  <way id='-22162357' action='modify'>
    <nd ref='-70929003' />
    <nd ref='-70929004' />
    <nd ref='-70929005' />
    <tag k='type' v='straight' />
  </way>
  <way id='-22162358' action='modify'>
    <nd ref='-70929005' />
    <nd ref='-70929006' />
    <tag k='type' v='arc' />
  </way>
  <way id='-22162359' action='modify'>
    <nd ref='-70929006' />
    <nd ref='-70929007' />
    <tag k='type' v='straight' />
  </way>
  <way id='-22162360' action='modify'>
    <nd ref='-70929007' />
    <nd ref='-70929008' />
    <tag k='type' v='arc' />
  </way>
  <way id='-22162361' action='modify'>
    <nd ref='-70929008' />
    <nd ref='-70929009' />
    <tag k='type' v='straight' />
  </way>
  <way id='-22162362' action='modify'>
    <nd ref='-70929009' />
    <nd ref='-70929010' />
  </way>
  <way id='-22162363' action='modify'>
    <nd ref='-70929010' />
    <nd ref='-70929011' />
    <tag k='type' v='straight' />
  </way>
  <way id='-22162364' action='modify'>
    <nd ref='-70929011' />
    <nd ref='-70929012' />
    <tag k='type' v='arc' />
  </way>
  <way id='-22162365' action='modify'>
    <nd ref='-70929012' />
    <nd ref='-70929013' />
    <tag k='type' v='straight' />
  </way>
  <way id='-22162366' action='modify'>
    <nd ref='-70929013' />
    <nd ref='-70929014' />
    <tag k='type' v='arc' />
  </way>
  <way id='-22162367' action='modify'>
    <nd ref='-70929014' />
    <nd ref='-70929015' />
    <tag k='type' v='straight' />
  </way>
  <way id='-22162368' action='modify'>
    <nd ref='-70929015' />
    <nd ref='-70929016' />
    <tag k='type' v='arc' />
  </way>
  <way id='-22162369' action='modify'>
    <nd ref='-70929016' />
    <nd ref='-70929017' />
    <tag k='type' v='straight' />
  </way>
  <way id='-22162370' action='modify'>
    <nd ref='-70929017' />
    <nd ref='-70929018' />
    <tag k='type' v='arc' />
  </way>
  <way id='-22162371' action='modify'>
    <nd ref='-70929018' />
    <nd ref='-70929020' />
    <tag k='type' v='straight' />
  </way>
  <way id='-22162372' action='modify'>
    <nd ref='-70929020' />
    <nd ref='-70929021' />
    <tag k='type' v='arc' />
  </way>
  <way id='-22162373' action='modify'>
    <nd ref='-70929021' />
    <nd ref='-70929022' />
    <nd ref='-70929023' />
    <tag k='type' v='straight' />
  </way>
  <way id='-22162374' action='modify'>
    <nd ref='-70929023' />
    <nd ref='-70929024' />
    <tag k='type' v='arc' />
  </way>
  <way id='-22162375' action='modify'>
    <nd ref='-70929024' />
    <nd ref='-70929025' />
    <tag k='type' v='straight' />
  </way>
  <way id='-22162376' action='modify'>
    <nd ref='-70929025' />
    <nd ref='-70929026' />
    <nd ref='-70929027' />
    <tag k='type' v='curved' />
  </way>
  <way id='-22162377' action='modify'>
    <nd ref='-70929027' />
    <nd ref='-70929028' />
    <tag k='type' v='straight' />
  </way>
  <way id='-22162378' action='modify'>
    <nd ref='-70929028' />
    <nd ref='-70929029' />
    <nd ref='-70929030' />
    <tag k='type' v='arc' />
  </way>
  <way id='-22162379' action='modify'>
    <nd ref='-70929030' />
    <nd ref='-70929031' />
    <nd ref='-70929032' />
    <tag k='type' v='arc' />
  </way>
  <way id='-22162380' action='modify'>
    <nd ref='-70929032' />
    <nd ref='-70929033' />
    <tag k='type' v='arc' />
  </way>
  <way id='-22162382' action='modify'>
    <nd ref='-70929033' />
    <nd ref='-70929035' />
    <tag k='type' v='straight' />
  </way>
  <way id='-22162383' action='modify'>
    <nd ref='-70929035' />
    <nd ref='-70929036' />
    <tag k='type' v='arc' />
  </way>
  <way id='-22162384' action='modify'>
    <nd ref='-70929036' />
    <nd ref='-70929037' />
    <tag k='type' v='straight' />
  </way>
  <way id='-22162385' action='modify'>
    <nd ref='-70929037' />
    <nd ref='-70929038' />
    <tag k='type' v='arc' />
  </way>
  <way id='-22162386' action='modify'>
    <nd ref='-70929038' />
    <nd ref='-70929039' />
    <tag k='type' v='straight' />
  </way>
  <way id='-22162387' action='modify'>
    <nd ref='-70929039' />
    <nd ref='-70929040' />
  </way>
  <way id='-22162388' action='modify'>
    <nd ref='-70929040' />
    <nd ref='-70929041' />
    <tag k='type' v='straight' />
  </way>
  <way id='-22162389' action='modify'>
    <nd ref='-70929041' />
    <nd ref='-70929042' />
  </way>
  <way id='-22162390' action='modify'>
    <nd ref='-70929042' />
    <nd ref='-70929043' />
    <tag k='type' v='straight' />
  </way>
  <way id='-22162391' action='modify'>
    <nd ref='-70929043' />
    <nd ref='-70929044' />
  </way>
  <way id='-22162392' action='modify'>
    <nd ref='-70929044' />
    <nd ref='-70929045' />
    <tag k='type' v='straight' />
  </way>
  <way id='-22162393' action='modify'>
    <nd ref='-70929045' />
    <nd ref='-70929046' />
    <tag k='type' v='arc' />
  </way>
  <way id='-22162394' action='modify'>
    <nd ref='-70929046' />
    <nd ref='-70929047' />
    <tag k='type' v='straight' />
  </way>
  <relation id='-14220611' action='modify'>
    <member type='way' ref='-22162136' role='' />
    <member type='way' ref='-22162137' role='' />
    <member type='way' ref='-22162138' role='' />
    <member type='way' ref='-22162139' role='' />
    <member type='way' ref='-22162140' role='' />
    <member type='way' ref='-22162141' role='' />
    <member type='way' ref='-22162142' role='' />
    <member type='way' ref='-22162143' role='' />
    <member type='way' ref='-22162144' role='' />
    <member type='way' ref='-22162145' role='' />
    <member type='way' ref='-22162148' role='' />
    <member type='way' ref='-22162149' role='' />
    <member type='way' ref='-22162150' role='' />
    <member type='way' ref='-22162151' role='' />
    <member type='way' ref='-22162152' role='' />
    <member type='way' ref='-22162153' role='' />
    <member type='way' ref='-22162154' role='' />
    <member type='way' ref='-22162155' role='' />
    <member type='way' ref='-22162156' role='' />
    <member type='way' ref='-22162157' role='' />
    <member type='way' ref='-22162158' role='' />
    <member type='way' ref='-22162159' role='' />
    <member type='way' ref='-22162160' role='' />
    <member type='way' ref='-22162161' role='' />
    <member type='way' ref='-22162162' role='' />
    <member type='way' ref='-22162163' role='' />
    <member type='way' ref='-22162164' role='' />
    <member type='way' ref='-22162165' role='' />
    <member type='way' ref='-22162166' role='' />
    <member type='way' ref='-22162167' role='' />
    <member type='way' ref='-22162168' role='' />
    <member type='way' ref='-22162169' role='' />
    <member type='way' ref='-22162170' role='' />
    <member type='way' ref='-22162171' role='' />
    <member type='way' ref='-22162172' role='' />
    <member type='way' ref='-22162173' role='' />
    <member type='way' ref='-22162174' role='' />
    <member type='way' ref='-22162175' role='' />
    <member type='way' ref='-22162176' role='' />
    <member type='way' ref='-22162177' role='' />
    <member type='way' ref='-22162178' role='' />
    <member type='way' ref='-22162179' role='' />
    <member type='way' ref='-22162180' role='' />
    <member type='way' ref='-22162181' role='' />
    <member type='way' ref='-22162182' role='' />
    <member type='way' ref='-22162184' role='' />
    <member type='way' ref='-22162185' role='' />
    <member type='way' ref='-22162186' role='' />
    <member type='way' ref='-22162187' role='' />
    <member type='way' ref='-22162188' role='' />
    <member type='way' ref='-22162189' role='' />
    <member type='way' ref='-22162190' role='' />
    <member type='way' ref='-22162191' role='' />
    <member type='way' ref='-22162192' role='' />
    <member type='way' ref='-22162193' role='' />
    <member type='way' ref='-22162194' role='' />
    <member type='way' ref='-22162195' role='' />
    <member type='way' ref='-22162196' role='' />
    <member type='way' ref='-22162197' role='' />
    <member type='way' ref='-22162198' role='' />
    <member type='way' ref='-22162199' role='' />
    <member type='way' ref='-22162200' role='' />
    <member type='way' ref='-22162201' role='' />
    <member type='way' ref='-22162202' role='' />
    <member type='way' ref='-22162203' role='' />
    <member type='way' ref='-22162204' role='' />
    <member type='way' ref='-22162205' role='' />
    <member type='way' ref='-22162206' role='' />
    <member type='way' ref='-22162207' role='' />
    <member type='way' ref='-22162208' role='' />
    <member type='way' ref='-22162209' role='' />
    <member type='way' ref='-22162210' role='' />
    <member type='way' ref='-22162211' role='' />
    <member type='way' ref='-22162212' role='' />
    <member type='way' ref='-22162213' role='' />
    <member type='way' ref='-22162214' role='' />
    <member type='way' ref='-22162215' role='' />
    <member type='way' ref='-22162216' role='' />
    <member type='way' ref='-22162217' role='' />
    <member type='way' ref='-22162218' role='' />
    <member type='way' ref='-22162219' role='' />
    <member type='way' ref='-22162220' role='' />
    <member type='way' ref='-22162221' role='' />
    <member type='way' ref='-22162223' role='' />
    <member type='way' ref='-22162224' role='' />
    <member type='way' ref='-22162225' role='' />
    <member type='way' ref='-22162226' role='' />
    <member type='way' ref='-22162227' role='' />
    <member type='way' ref='-22162228' role='' />
    <member type='way' ref='-22162229' role='' />
    <member type='way' ref='-22162230' role='' />
    <member type='way' ref='-22162231' role='' />
    <member type='way' ref='-22162232' role='' />
    <member type='way' ref='-22162233' role='' />
    <member type='way' ref='-22162234' role='' />
    <member type='way' ref='-22162235' role='' />
    <member type='way' ref='-22162236' role='' />
    <member type='way' ref='-22162237' role='' />
    <member type='way' ref='-22162238' role='' />
    <member type='way' ref='-22162239' role='' />
    <member type='way' ref='-22162240' role='' />
    <member type='way' ref='-22162241' role='' />
    <member type='way' ref='-22162242' role='' />
    <member type='way' ref='-22162243' role='' />
    <member type='way' ref='-22162244' role='' />
    <member type='way' ref='-22162245' role='' />
    <member type='way' ref='-22162246' role='' />
    <member type='way' ref='-22162247' role='' />
    <member type='way' ref='-22162248' role='' />
    <member type='way' ref='-22162249' role='' />
    <member type='way' ref='-22162250' role='' />
    <member type='way' ref='-22162251' role='' />
    <member type='way' ref='-22162252' role='' />
    <member type='way' ref='-22162253' role='' />
    <member type='way' ref='-22162254' role='' />
    <member type='way' ref='-22162255' role='' />
    <member type='way' ref='-22162256' role='' />
    <member type='way' ref='-22162257' role='' />
    <member type='way' ref='-22162258' role='' />
    <member type='way' ref='-22162259' role='' />
    <member type='way' ref='-22162260' role='' />
    <member type='way' ref='-22162261' role='' />
    <member type='way' ref='-22162262' role='' />
    <member type='way' ref='-22162263' role='' />
    <member type='way' ref='-22162264' role='' />
    <member type='way' ref='-22162265' role='' />
    <member type='way' ref='-22162266' role='' />
    <member type='way' ref='-22162267' role='' />
    <member type='way' ref='-22162268' role='' />
    <member type='way' ref='-22162269' role='' />
    <member type='way' ref='-22162270' role='' />
    <member type='way' ref='-22162271' role='' />
    <member type='way' ref='-22162272' role='' />
    <member type='way' ref='-22162273' role='' />
    <member type='way' ref='-22162274' role='' />
    <member type='way' ref='-22162275' role='' />
    <member type='way' ref='-22162276' role='' />
    <member type='way' ref='-22162279' role='' />
    <member type='way' ref='-22162280' role='' />
    <member type='way' ref='-22162281' role='' />
    <member type='way' ref='-22162282' role='' />
    <member type='way' ref='-22162283' role='' />
    <member type='way' ref='-22162284' role='' />
    <member type='way' ref='-22162285' role='' />
    <member type='way' ref='-22162286' role='' />
    <member type='way' ref='-22162287' role='' />
    <member type='way' ref='-22162288' role='' />
    <member type='way' ref='-22162289' role='' />
    <member type='way' ref='-22162290' role='' />
    <member type='way' ref='-22162291' role='' />
    <member type='way' ref='-22162292' role='' />
    <member type='way' ref='-22162293' role='' />
    <member type='way' ref='-22162294' role='' />
    <member type='way' ref='-22162295' role='' />
    <member type='way' ref='-22162296' role='' />
    <member type='way' ref='-22162297' role='' />
    <member type='way' ref='-22162298' role='' />
    <member type='way' ref='-22162299' role='' />
    <member type='way' ref='-22162300' role='' />
    <member type='way' ref='-22162301' role='' />
    <member type='way' ref='-22162302' role='' />
    <member type='way' ref='-22162303' role='' />
    <member type='way' ref='-22162304' role='' />
    <member type='way' ref='-22162305' role='' />
    <member type='way' ref='-22162306' role='' />
    <member type='way' ref='-22162307' role='' />
    <member type='way' ref='-22162308' role='' />
    <member type='way' ref='-22162309' role='' />
    <member type='way' ref='-22162310' role='' />
    <member type='way' ref='-22162311' role='' />
    <member type='way' ref='-22162312' role='' />
    <member type='way' ref='-22162313' role='' />
    <member type='way' ref='-22162314' role='' />
    <member type='way' ref='-22162315' role='' />
    <member type='way' ref='-22162316' role='' />
    <member type='way' ref='-22162317' role='' />
    <member type='way' ref='-22162318' role='' />
    <member type='way' ref='-22162319' role='' />
    <member type='way' ref='-22162320' role='' />
    <member type='way' ref='-22162321' role='' />
    <member type='way' ref='-22162322' role='' />
    <member type='way' ref='-22162323' role='' />
    <member type='way' ref='-22162324' role='' />
    <member type='way' ref='-22162325' role='' />
    <member type='way' ref='-22162326' role='' />
    <member type='way' ref='-22162327' role='' />
    <member type='way' ref='-22162328' role='' />
    <member type='way' ref='-22162329' role='' />
    <member type='way' ref='-22162330' role='' />
    <member type='way' ref='-22162331' role='' />
    <member type='way' ref='-22162332' role='' />
    <member type='way' ref='-22162333' role='' />
    <member type='way' ref='-22162334' role='' />
    <member type='way' ref='-22162335' role='' />
    <member type='way' ref='-22162336' role='' />
    <member type='way' ref='-22162337' role='' />
    <member type='way' ref='-22162338' role='' />
    <member type='way' ref='-22162339' role='' />
    <member type='way' ref='-22162340' role='' />
    <member type='way' ref='-22162341' role='' />
    <member type='way' ref='-22162342' role='' />
    <member type='way' ref='-22162343' role='' />
    <member type='way' ref='-22162344' role='' />
    <member type='way' ref='-22162345' role='' />
    <member type='way' ref='-22162346' role='' />
    <member type='way' ref='-22162347' role='' />
    <member type='way' ref='-22162348' role='' />
    <member type='way' ref='-22162349' role='' />
    <member type='way' ref='-22162350' role='' />
    <member type='way' ref='-22162351' role='' />
    <member type='way' ref='-22162352' role='' />
    <member type='way' ref='-22162353' role='' />
    <member type='way' ref='-22162354' role='' />
    <member type='way' ref='-22162355' role='' />
    <member type='way' ref='-22162356' role='' />
    <member type='way' ref='-22162357' role='' />
    <member type='way' ref='-22162358' role='' />
    <member type='way' ref='-22162359' role='' />
    <member type='way' ref='-22162360' role='' />
    <member type='way' ref='-22162361' role='' />
    <member type='way' ref='-22162362' role='' />
    <member type='way' ref='-22162363' role='' />
    <member type='way' ref='-22162364' role='' />
    <member type='way' ref='-22162365' role='' />
    <member type='way' ref='-22162366' role='' />
    <member type='way' ref='-22162367' role='' />
    <member type='way' ref='-22162368' role='' />
    <member type='way' ref='-22162369' role='' />
    <member type='way' ref='-22162370' role='' />
    <member type='way' ref='-22162371' role='' />
    <member type='way' ref='-22162372' role='' />
    <member type='way' ref='-22162373' role='' />
    <member type='way' ref='-22162374' role='' />
    <member type='way' ref='-22162375' role='' />
    <member type='way' ref='-22162376' role='' />
    <member type='way' ref='-22162377' role='' />
    <member type='way' ref='-22162378' role='' />
    <member type='way' ref='-22162379' role='' />
    <member type='way' ref='-22162380' role='' />
    <member type='way' ref='-22162382' role='' />
    <member type='way' ref='-22162383' role='' />
    <member type='way' ref='-22162384' role='' />
    <member type='way' ref='-22162385' role='' />
    <member type='way' ref='-22162386' role='' />
    <member type='way' ref='-22162387' role='' />
    <member type='way' ref='-22162388' role='' />
    <member type='way' ref='-22162389' role='' />
    <member type='way' ref='-22162390' role='' />
    <member type='way' ref='-22162391' role='' />
    <member type='way' ref='-22162392' role='' />
    <member type='way' ref='-22162393' role='' />
    <member type='way' ref='-22162394' role='' />
    <tag k='key' v='path.dk.kfa' />
    <tag k='name' v='DK KFA' />
    <tag k='type' v='path' />
  </relation>
</osm>
