<?xml version='1.0' encoding='UTF-8'?>
<osm version='0.6' upload='false' generator='JOSM'>
  <node id='-136264715' action='modify' lat='55.67877902186' lon='12.56502133112'>
    <tag k='name' v='kob.a' />
  </node>
  <node id='-136264718' action='modify' lat='55.6722989193' lon='12.56447294682'>
    <tag k='name' v='kob' />
  </node>
  <node id='-136264719' action='modify' lat='55.67177041691' lon='12.56504448609' />
  <node id='-136264720' action='modify' lat='55.66722072208' lon='12.56349612385' />
  <node id='-136264721' action='modify' lat='55.66545797933' lon='12.5602107463'>
    <tag k='name' v='dyb' />
  </node>
  <node id='-136264723' action='modify' lat='55.66439248236' lon='12.55620904727' />
  <node id='-136264724' action='modify' lat='55.66383975449' lon='12.55036578771' />
  <node id='-136264725' action='modify' lat='55.66294529106' lon='12.54546481452' />
  <node id='-136264726' action='modify' lat='55.66288536189' lon='12.54154899484' />
  <node id='-136264727' action='modify' lat='55.66313097475' lon='12.53990792129' />
  <node id='-136264728' action='modify' lat='55.66342155844' lon='12.53586879147'>
    <tag k='name' v='car' />
  </node>
  <node id='-136264729' action='modify' lat='55.66352697677' lon='12.53240864559' />
  <node id='-136264730' action='modify' lat='55.66363041049' lon='12.52738293278' />
  <node id='-136264731' action='modify' lat='55.6638397572' lon='12.51454799171'>
    <tag k='name' v='val' />
  </node>
  <node id='-136264732' action='modify' lat='55.66389859212' lon='12.51094083997' />
  <node id='-136264733' action='modify' lat='55.66763256966' lon='12.50400512338'>
    <tag k='name' v='lan' />
  </node>
  <node id='-136264734' action='modify' lat='55.66956656326' lon='12.50427067012' />
  <node id='-136264735' action='modify' lat='55.67052558516' lon='12.50487953156' />
  <node id='-136264736' action='modify' lat='55.67364904955' lon='12.50512227282' />
  <node id='-136264737' action='modify' lat='55.67743604603' lon='12.50384541963'>
    <tag k='name' v='pet' />
  </node>
  <node id='-136264738' action='modify' lat='55.67862490341' lon='12.50344454974' />
  <node id='-136264739' action='modify' lat='55.68017953867' lon='12.50260501832' />
  <node id='-136264740' action='modify' lat='55.68459055696' lon='12.49939441144' />
  <node id='-136264741' action='modify' lat='55.68501536372' lon='12.49904577611'>
    <tag k='name' v='fli' />
  </node>
  <node id='-136264742' action='modify' lat='55.68643751707' lon='12.49625630202' />
  <node id='-136264743' action='modify' lat='55.68714062572' lon='12.49226468706'>
    <tag k='name' v='van' />
  </node>
  <node id='-136264744' action='modify' lat='55.68863821378' lon='12.48376249731' />
  <node id='-136264745' action='modify' lat='55.69003725633' lon='12.47873693502'>
    <tag k='name' v='jyl' />
  </node>
  <node id='-136264746' action='modify' lat='55.69701796438' lon='12.4702280733' />
  <node id='-136264747' action='modify' lat='55.69896090705' lon='12.46940156975'>
    <tag k='name' v='isl' />
  </node>
  <node id='-136264748' action='modify' lat='55.70029971136' lon='12.46885107001' />
  <node id='-136264749' action='modify' lat='55.70133050065' lon='12.46850195682' />
  <node id='-136264750' action='modify' lat='55.7022757401' lon='12.46814592861' />
  <node id='-136264751' action='modify' lat='55.70516242532' lon='12.46698528394' />
  <node id='-136264752' action='modify' lat='55.71049542369' lon='12.4629324621'>
    <tag k='name' v='hus' />
  </node>
  <node id='-136264753' action='modify' lat='55.7158586635' lon='12.45305388898' />
  <node id='-136264754' action='modify' lat='55.71888744132' lon='12.44352178985' />
  <node id='-136264755' action='modify' lat='55.71897166443' lon='12.44325402878'>
    <tag k='name' v='her' />
  </node>
  <node id='-136264756' action='modify' lat='55.71923684799' lon='12.44238406152' />
  <node id='-136264757' action='modify' lat='55.71991667985' lon='12.44006931514' />
  <node id='-136264758' action='modify' lat='55.72107840959' lon='12.43447422713' />
  <node id='-136264759' action='modify' lat='55.72145305628' lon='12.42954700917' />
  <node id='-136264760' action='modify' lat='55.72193344476' lon='12.41570144624' />
  <node id='-136264761' action='modify' lat='55.72215248711' lon='12.41203755006' />
  <node id='-136264762' action='modify' lat='55.72311325688' lon='12.4019699041'>
    <tag k='name' v='sko' />
  </node>
  <node id='-136264763' action='modify' lat='55.72462558104' lon='12.38612216735'>
    <tag k='name' v='map' />
  </node>
  <node id='-136264764' action='modify' lat='55.72486600271' lon='12.38360271752' />
  <node id='-136264765' action='modify' lat='55.72508018972' lon='12.38135872173' />
  <node id='-136264766' action='modify' lat='55.72593192085' lon='12.37199485034' />
  <node id='-136264767' action='modify' lat='55.72788644812' lon='12.36296117038' />
  <node id='-136264768' action='modify' lat='55.72899054662' lon='12.36000269383' />
  <node id='-136264769' action='modify' lat='55.72929461387' lon='12.35923278837' />
  <node id='-136264770' action='modify' lat='55.72957428275' lon='12.3585552425'>
    <tag k='name' v='bal' />
  </node>
  <node id='-136264771' action='modify' lat='55.73085797633' lon='12.35544521221' />
  <node id='-136264772' action='modify' lat='55.73123036601' lon='12.35460072488' />
  <node id='-136264773' action='modify' lat='55.73262175366' lon='12.35152214507' />
  <node id='-136264774' action='modify' lat='55.73321871257' lon='12.35014871251' />
  <node id='-136264775' action='modify' lat='55.7413842128' lon='12.33068883151' />
  <node id='-136264776' action='modify' lat='55.74227353013' lon='12.32871740788' />
  <node id='-136264777' action='modify' lat='55.74323529797' lon='12.32673525676' />
  <node id='-136264778' action='modify' lat='55.74384752607' lon='12.32544645533' />
  <node id='-136264779' action='modify' lat='55.74409286831' lon='12.32490867108' />
  <node id='-136264780' action='modify' lat='55.74500024096' lon='12.32299357384' />
  <node id='-136264781' action='modify' lat='55.74715365413' lon='12.31859656223'>
    <tag k='name' v='mal' />
  </node>
  <node id='-136264782' action='modify' lat='55.74821588428' lon='12.31642752618' />
  <node id='-136264783' action='modify' lat='55.75070971249' lon='12.30598032206' />
  <node id='-136264784' action='modify' lat='55.7508500988' lon='12.30386405915' />
  <node id='-136264785' action='modify' lat='55.75105237648' lon='12.30019479454' />
  <node id='-136264786' action='modify' lat='55.7519339149' lon='12.286906979'>
    <tag k='name' v='kil' />
  </node>
  <node id='-136264787' action='modify' lat='55.75270224514' lon='12.27532535523' />
  <node id='-136264788' action='modify' lat='55.75239280546' lon='12.2676381442' />
  <node id='-136264789' action='modify' lat='55.75129540689' lon='12.26097285479' />
  <node id='-136264790' action='modify' lat='55.75019797745' lon='12.24957346648' />
  <node id='-136264791' action='modify' lat='55.74995644825' lon='12.24244683713' />
  <node id='-136264792' action='modify' lat='55.75000022553' lon='12.23834037513'>
    <tag k='name' v='vek' />
  </node>
  <node id='-136264793' action='modify' lat='55.75096784177' lon='12.23242342204' />
  <node id='-136264794' action='modify' lat='55.75204260734' lon='12.22807556123' />
  <node id='-136264795' action='modify' lat='55.75303356855' lon='12.22099050745' />
  <node id='-136264796' action='modify' lat='55.75309621038' lon='12.21896543965' />
  <node id='-136264797' action='modify' lat='55.75443581595' lon='12.21039980516' />
  <node id='-136264798' action='modify' lat='55.75787027895' lon='12.19899237022' />
  <node id='-136264799' action='modify' lat='55.76416035095' lon='12.19102889031' />
  <node id='-136264800' action='modify' lat='55.76658201472' lon='12.1901711348'>
    <tag k='name' v='ste' />
  </node>
  <node id='-136264801' action='modify' lat='55.7791304382' lon='12.18572561828'>
    <tag k='name' v='ege' />
  </node>
  <node id='-136264802' action='modify' lat='55.78146035748' lon='12.18490004271' />
  <node id='-136264803' action='modify' lat='55.78774737738' lon='12.17782035202' />
  <node id='-136264804' action='modify' lat='55.78897721234' lon='12.17508718237' />
  <node id='-136264805' action='modify' lat='55.79015649179' lon='12.1723687622' />
  <node id='-136264806' action='modify' lat='55.7941509954' lon='12.16349333256' />
  <node id='-136264807' action='modify' lat='55.79578966914' lon='12.15925506215'>
    <tag k='name' v='ols' />
  </node>
  <node id='-136264808' action='modify' lat='55.79612849176' lon='12.15815171465' />
  <node id='-136264809' action='modify' lat='55.79807724294' lon='12.15149312943' />
  <node id='-136264810' action='modify' lat='55.80010052317' lon='12.14663833112' />
  <node id='-136264811' action='modify' lat='55.80593156536' lon='12.13642179698' />
  <node id='-136264812' action='modify' lat='55.80994253796' lon='12.1215811345' />
  <node id='-136264813' action='modify' lat='55.81023579116' lon='12.11668375493'>
    <tag k='name' v='vin' />
  </node>
  <node id='-136264814' action='modify' lat='55.8106795714' lon='12.10927247733'>
    <tag k='name' v='opp' />
  </node>
  <node id='-136264815' action='modify' lat='55.81466443482' lon='12.09327041835' />
  <node id='-136264816' action='modify' lat='55.82165655233' lon='12.07938998669' />
  <node id='-136264817' action='modify' lat='55.82557851987' lon='12.07438230246' />
  <node id='-136264818' action='modify' lat='55.82776307868' lon='12.07252889603' />
  <node id='-136264819' action='modify' lat='55.82996671116' lon='12.07071143056' />
  <node id='-136264820' action='modify' lat='55.83114362993' lon='12.06968307227' />
  <node id='-136264821' action='modify' lat='55.83198905642' lon='12.06891202641'>
    <tag k='name' v='fre' />
  </node>
  <node id='-136264822' action='modify' lat='55.83256415715' lon='12.0683526966' />
  <node id='-136264823' action='modify' lat='55.83416087024' lon='12.06690162152' />
  <node id='-136264824' action='modify' lat='55.83595031606' lon='12.06535130471' />
  <node id='-136264856' action='modify' lat='55.6634548952' lon='12.54794775903' />
  <node id='-136264863' action='modify' lat='55.66607854918' lon='12.56124617572' />
  <node id='-136264870' action='modify' lat='55.66674381667' lon='12.56245046586' />
  <node id='-136264871' action='modify' lat='55.66419465944' lon='12.55411771808'>
    <tag k='name' v='ske' />
  </node>
  <way id='-35922042' action='modify'>
    <nd ref='-136264718' />
    <nd ref='-136264719' />
    <tag k='type' v='straight' />
  </way>
  <way id='-35922043' action='modify'>
    <nd ref='-136264719' />
    <nd ref='-136264720' />
    <tag k='type' v='arc' />
  </way>
  <way id='-35922044' action='modify'>
    <nd ref='-136264720' />
    <nd ref='-136264870' />
    <tag k='type' v='straight' />
  </way>
  <way id='-35922045' action='modify'>
    <nd ref='-136264721' />
    <nd ref='-136264723' />
  </way>
  <way id='-35922046' action='modify'>
    <nd ref='-136264723' />
    <nd ref='-136264871' />
    <nd ref='-136264724' />
    <tag k='type' v='straight' />
  </way>
  <way id='-35922047' action='modify'>
    <nd ref='-136264725' />
    <nd ref='-136264726' />
  </way>
  <way id='-35922048' action='modify'>
    <nd ref='-136264726' />
    <nd ref='-136264727' />
    <tag k='type' v='straight' />
  </way>
  <way id='-35922049' action='modify'>
    <nd ref='-136264727' />
    <nd ref='-136264728' />
    <tag k='type' v='arc' />
  </way>
  <way id='-35922050' action='modify'>
    <nd ref='-136264728' />
    <nd ref='-136264729' />
    <tag k='type' v='straight' />
  </way>
  <way id='-35922051' action='modify'>
    <nd ref='-136264729' />
    <nd ref='-136264730' />
    <tag k='type' v='arc' />
  </way>
  <way id='-35922052' action='modify'>
    <nd ref='-136264730' />
    <nd ref='-136264731' />
    <nd ref='-136264732' />
    <tag k='type' v='straight' />
  </way>
  <way id='-35922053' action='modify'>
    <nd ref='-136264732' />
    <nd ref='-136264733' />
    <nd ref='-136264734' />
  </way>
  <way id='-35922054' action='modify'>
    <nd ref='-136264734' />
    <nd ref='-136264735' />
    <tag k='type' v='straight' />
  </way>
  <way id='-35922055' action='modify'>
    <nd ref='-136264735' />
    <nd ref='-136264736' />
  </way>
  <way id='-35922056' action='modify'>
    <nd ref='-136264736' />
    <nd ref='-136264737' />
    <nd ref='-136264738' />
    <tag k='type' v='straight' />
  </way>
  <way id='-35922057' action='modify'>
    <nd ref='-136264738' />
    <nd ref='-136264739' />
  </way>
  <way id='-35922058' action='modify'>
    <nd ref='-136264739' />
    <nd ref='-136264740' />
    <tag k='type' v='straight' />
  </way>
  <way id='-35922059' action='modify'>
    <nd ref='-136264740' />
    <nd ref='-136264741' />
    <nd ref='-136264742' />
  </way>
  <way id='-35922060' action='modify'>
    <nd ref='-136264742' />
    <nd ref='-136264743' />
    <nd ref='-136264744' />
    <tag k='type' v='straight' />
  </way>
  <way id='-35922061' action='modify'>
    <nd ref='-136264744' />
    <nd ref='-136264745' />
    <nd ref='-136264746' />
  </way>
  <way id='-35922062' action='modify'>
    <nd ref='-136264746' />
    <nd ref='-136264747' />
    <tag k='type' v='straight' />
  </way>
  <way id='-35922063' action='modify'>
    <nd ref='-136264747' />
    <nd ref='-136264748' />
  </way>
  <way id='-35922064' action='modify'>
    <nd ref='-136264748' />
    <nd ref='-136264749' />
    <tag k='type' v='straight' />
  </way>
  <way id='-35922065' action='modify'>
    <nd ref='-136264749' />
    <nd ref='-136264750' />
  </way>
  <way id='-35922066' action='modify'>
    <nd ref='-136264750' />
    <nd ref='-136264751' />
    <tag k='type' v='straight' />
  </way>
  <way id='-35922067' action='modify'>
    <nd ref='-136264751' />
    <nd ref='-136264752' />
    <nd ref='-136264753' />
  </way>
  <way id='-35922068' action='modify'>
    <nd ref='-136264753' />
    <nd ref='-136264754' />
    <tag k='type' v='straight' />
  </way>
  <way id='-35922069' action='modify'>
    <nd ref='-136264754' />
    <nd ref='-136264755' />
    <nd ref='-136264756' />
  </way>
  <way id='-35922070' action='modify'>
    <nd ref='-136264756' />
    <nd ref='-136264757' />
    <tag k='type' v='straight' />
  </way>
  <way id='-35922071' action='modify'>
    <nd ref='-136264757' />
    <nd ref='-136264758' />
    <nd ref='-136264759' />
  </way>
  <way id='-35922072' action='modify'>
    <nd ref='-136264759' />
    <nd ref='-136264760' />
    <tag k='type' v='straight' />
  </way>
  <way id='-35922073' action='modify'>
    <nd ref='-136264760' />
    <nd ref='-136264761' />
  </way>
  <way id='-35922074' action='modify'>
    <nd ref='-136264761' />
    <nd ref='-136264762' />
    <nd ref='-136264763' />
    <nd ref='-136264764' />
    <tag k='type' v='straight' />
  </way>
  <way id='-35922075' action='modify'>
    <nd ref='-136264764' />
    <nd ref='-136264765' />
  </way>
  <way id='-35922076' action='modify'>
    <nd ref='-136264765' />
    <nd ref='-136264766' />
    <tag k='type' v='straight' />
  </way>
  <way id='-35922077' action='modify'>
    <nd ref='-136264766' />
    <nd ref='-136264767' />
  </way>
  <way id='-35922078' action='modify'>
    <nd ref='-136264767' />
    <nd ref='-136264768' />
    <tag k='type' v='straight' />
  </way>
  <way id='-35922079' action='modify'>
    <nd ref='-136264768' />
    <nd ref='-136264769' />
  </way>
  <way id='-35922080' action='modify'>
    <nd ref='-136264769' />
    <nd ref='-136264770' />
    <nd ref='-136264771' />
    <tag k='type' v='straight' />
  </way>
  <way id='-35922081' action='modify'>
    <nd ref='-136264771' />
    <nd ref='-136264772' />
  </way>
  <way id='-35922082' action='modify'>
    <nd ref='-136264772' />
    <nd ref='-136264773' />
    <tag k='type' v='straight' />
  </way>
  <way id='-35922083' action='modify'>
    <nd ref='-136264773' />
    <nd ref='-136264774' />
  </way>
  <way id='-35922084' action='modify'>
    <nd ref='-136264774' />
    <nd ref='-136264775' />
    <tag k='type' v='straight' />
  </way>
  <way id='-35922085' action='modify'>
    <nd ref='-136264775' />
    <nd ref='-136264776' />
  </way>
  <way id='-35922086' action='modify'>
    <nd ref='-136264776' />
    <nd ref='-136264777' />
    <tag k='type' v='straight' />
  </way>
  <way id='-35922087' action='modify'>
    <nd ref='-136264777' />
    <nd ref='-136264778' />
  </way>
  <way id='-35922088' action='modify'>
    <nd ref='-136264778' />
    <nd ref='-136264779' />
    <tag k='type' v='straight' />
  </way>
  <way id='-35922089' action='modify'>
    <nd ref='-136264779' />
    <nd ref='-136264780' />
  </way>
  <way id='-35922090' action='modify'>
    <nd ref='-136264780' />
    <nd ref='-136264781' />
    <nd ref='-136264782' />
    <tag k='type' v='straight' />
  </way>
  <way id='-35922091' action='modify'>
    <nd ref='-136264782' />
    <nd ref='-136264783' />
  </way>
  <way id='-35922092' action='modify'>
    <nd ref='-136264783' />
    <nd ref='-136264784' />
    <tag k='type' v='straight' />
  </way>
  <way id='-35922093' action='modify'>
    <nd ref='-136264784' />
    <nd ref='-136264785' />
  </way>
  <way id='-35922094' action='modify'>
    <nd ref='-136264785' />
    <nd ref='-136264786' />
    <nd ref='-136264787' />
    <tag k='type' v='straight' />
  </way>
  <way id='-35922095' action='modify'>
    <nd ref='-136264787' />
    <nd ref='-136264788' />
  </way>
  <way id='-35922096' action='modify'>
    <nd ref='-136264788' />
    <nd ref='-136264789' />
    <tag k='type' v='straight' />
  </way>
  <way id='-35922097' action='modify'>
    <nd ref='-136264789' />
    <nd ref='-136264790' />
  </way>
  <way id='-35922098' action='modify'>
    <nd ref='-136264790' />
    <nd ref='-136264791' />
    <tag k='type' v='straight' />
  </way>
  <way id='-35922099' action='modify'>
    <nd ref='-136264791' />
    <nd ref='-136264792' />
    <nd ref='-136264793' />
  </way>
  <way id='-35922100' action='modify'>
    <nd ref='-136264793' />
    <nd ref='-136264794' />
    <tag k='type' v='straight' />
  </way>
  <way id='-35922101' action='modify'>
    <nd ref='-136264794' />
    <nd ref='-136264795' />
  </way>
  <way id='-35922102' action='modify'>
    <nd ref='-136264795' />
    <nd ref='-136264796' />
    <tag k='type' v='straight' />
  </way>
  <way id='-35922103' action='modify'>
    <nd ref='-136264796' />
    <nd ref='-136264797' />
  </way>
  <way id='-35922104' action='modify'>
    <nd ref='-136264797' />
    <nd ref='-136264798' />
    <tag k='type' v='straight' />
  </way>
  <way id='-35922105' action='modify'>
    <nd ref='-136264798' />
    <nd ref='-136264799' />
  </way>
  <way id='-35922106' action='modify'>
    <nd ref='-136264799' />
    <nd ref='-136264800' />
    <nd ref='-136264801' />
    <nd ref='-136264802' />
    <tag k='type' v='straight' />
  </way>
  <way id='-35922107' action='modify'>
    <nd ref='-136264802' />
    <nd ref='-136264803' />
  </way>
  <way id='-35922108' action='modify'>
    <nd ref='-136264803' />
    <nd ref='-136264804' />
    <tag k='type' v='straight' />
  </way>
  <way id='-35922109' action='modify'>
    <nd ref='-136264804' />
    <nd ref='-136264805' />
  </way>
  <way id='-35922110' action='modify'>
    <nd ref='-136264805' />
    <nd ref='-136264806' />
    <tag k='type' v='straight' />
  </way>
  <way id='-35922111' action='modify'>
    <nd ref='-136264806' />
    <nd ref='-136264807' />
    <nd ref='-136264808' />
  </way>
  <way id='-35922112' action='modify'>
    <nd ref='-136264808' />
    <nd ref='-136264809' />
    <tag k='type' v='straight' />
  </way>
  <way id='-35922113' action='modify'>
    <nd ref='-136264809' />
    <nd ref='-136264810' />
  </way>
  <way id='-35922114' action='modify'>
    <nd ref='-136264810' />
    <nd ref='-136264811' />
    <tag k='type' v='straight' />
  </way>
  <way id='-35922115' action='modify'>
    <nd ref='-136264811' />
    <nd ref='-136264812' />
  </way>
  <way id='-35922116' action='modify'>
    <nd ref='-136264812' />
    <nd ref='-136264813' />
    <nd ref='-136264814' />
    <tag k='type' v='straight' />
  </way>
  <way id='-35922117' action='modify'>
    <nd ref='-136264814' />
    <nd ref='-136264815' />
  </way>
  <way id='-35922118' action='modify'>
    <nd ref='-136264815' />
    <nd ref='-136264816' />
    <tag k='type' v='straight' />
  </way>
  <way id='-35922119' action='modify'>
    <nd ref='-136264816' />
    <nd ref='-136264817' />
  </way>
  <way id='-35922120' action='modify'>
    <nd ref='-136264817' />
    <nd ref='-136264818' />
    <tag k='type' v='straight' />
  </way>
  <way id='-35922121' action='modify'>
    <nd ref='-136264818' />
    <nd ref='-136264819' />
  </way>
  <way id='-35922122' action='modify'>
    <nd ref='-136264819' />
    <nd ref='-136264820' />
    <tag k='type' v='straight' />
  </way>
  <way id='-35922123' action='modify'>
    <nd ref='-136264820' />
    <nd ref='-136264821' />
  </way>
  <way id='-35922124' action='modify'>
    <nd ref='-136264821' />
    <nd ref='-136264822' />
    <tag k='type' v='straight' />
  </way>
  <way id='-35922125' action='modify'>
    <nd ref='-136264822' />
    <nd ref='-136264823' />
  </way>
  <way id='-35922126' action='modify'>
    <nd ref='-136264823' />
    <nd ref='-136264824' />
    <tag k='type' v='straight' />
  </way>
  <way id='-35922176' action='modify'>
    <nd ref='-136264870' />
    <nd ref='-136264863' />
  </way>
  <way id='-35922177' action='modify'>
    <nd ref='-136264863' />
    <nd ref='-136264721' />
    <tag k='type' v='straight' />
  </way>
  <way id='-35922181' action='modify'>
    <nd ref='-136264724' />
    <nd ref='-136264856' />
  </way>
  <way id='-35922182' action='modify'>
    <nd ref='-136264856' />
    <nd ref='-136264725' />
    <tag k='type' v='straight' />
  </way>
  <relation id='-14390255' action='modify'>
    <member type='way' ref='-35922042' role='' />
    <member type='way' ref='-35922043' role='' />
    <member type='way' ref='-35922044' role='' />
    <member type='way' ref='-35922176' role='' />
    <member type='way' ref='-35922177' role='' />
    <member type='way' ref='-35922045' role='' />
    <member type='way' ref='-35922046' role='' />
    <member type='way' ref='-35922181' role='' />
    <member type='way' ref='-35922182' role='' />
    <member type='way' ref='-35922047' role='' />
    <member type='way' ref='-35922048' role='' />
    <member type='way' ref='-35922049' role='' />
    <member type='way' ref='-35922050' role='' />
    <member type='way' ref='-35922051' role='' />
    <member type='way' ref='-35922052' role='' />
    <member type='way' ref='-35922053' role='' />
    <member type='way' ref='-35922054' role='' />
    <member type='way' ref='-35922055' role='' />
    <member type='way' ref='-35922056' role='' />
    <member type='way' ref='-35922057' role='' />
    <member type='way' ref='-35922058' role='' />
    <member type='way' ref='-35922059' role='' />
    <member type='way' ref='-35922060' role='' />
    <member type='way' ref='-35922061' role='' />
    <member type='way' ref='-35922062' role='' />
    <member type='way' ref='-35922063' role='' />
    <member type='way' ref='-35922064' role='' />
    <member type='way' ref='-35922065' role='' />
    <member type='way' ref='-35922066' role='' />
    <member type='way' ref='-35922067' role='' />
    <member type='way' ref='-35922068' role='' />
    <member type='way' ref='-35922069' role='' />
    <member type='way' ref='-35922070' role='' />
    <member type='way' ref='-35922071' role='' />
    <member type='way' ref='-35922072' role='' />
    <member type='way' ref='-35922073' role='' />
    <member type='way' ref='-35922074' role='' />
    <member type='way' ref='-35922075' role='' />
    <member type='way' ref='-35922076' role='' />
    <member type='way' ref='-35922077' role='' />
    <member type='way' ref='-35922078' role='' />
    <member type='way' ref='-35922079' role='' />
    <member type='way' ref='-35922080' role='' />
    <member type='way' ref='-35922081' role='' />
    <member type='way' ref='-35922082' role='' />
    <member type='way' ref='-35922083' role='' />
    <member type='way' ref='-35922084' role='' />
    <member type='way' ref='-35922085' role='' />
    <member type='way' ref='-35922086' role='' />
    <member type='way' ref='-35922087' role='' />
    <member type='way' ref='-35922088' role='' />
    <member type='way' ref='-35922089' role='' />
    <member type='way' ref='-35922090' role='' />
    <member type='way' ref='-35922091' role='' />
    <member type='way' ref='-35922092' role='' />
    <member type='way' ref='-35922093' role='' />
    <member type='way' ref='-35922094' role='' />
    <member type='way' ref='-35922095' role='' />
    <member type='way' ref='-35922096' role='' />
    <member type='way' ref='-35922097' role='' />
    <member type='way' ref='-35922098' role='' />
    <member type='way' ref='-35922099' role='' />
    <member type='way' ref='-35922100' role='' />
    <member type='way' ref='-35922101' role='' />
    <member type='way' ref='-35922102' role='' />
    <member type='way' ref='-35922103' role='' />
    <member type='way' ref='-35922104' role='' />
    <member type='way' ref='-35922105' role='' />
    <member type='way' ref='-35922106' role='' />
    <member type='way' ref='-35922107' role='' />
    <member type='way' ref='-35922108' role='' />
    <member type='way' ref='-35922109' role='' />
    <member type='way' ref='-35922110' role='' />
    <member type='way' ref='-35922111' role='' />
    <member type='way' ref='-35922112' role='' />
    <member type='way' ref='-35922113' role='' />
    <member type='way' ref='-35922114' role='' />
    <member type='way' ref='-35922115' role='' />
    <member type='way' ref='-35922116' role='' />
    <member type='way' ref='-35922117' role='' />
    <member type='way' ref='-35922118' role='' />
    <member type='way' ref='-35922119' role='' />
    <member type='way' ref='-35922120' role='' />
    <member type='way' ref='-35922121' role='' />
    <member type='way' ref='-35922122' role='' />
    <member type='way' ref='-35922123' role='' />
    <member type='way' ref='-35922124' role='' />
    <member type='way' ref='-35922125' role='' />
    <member type='way' ref='-35922126' role='' />
    <tag k='key' v='path.dk.kfs' />
    <tag k='name' v='DK KFS' />
    <tag k='type' v='path' />
  </relation>
</osm>
