<?xml version='1.0' encoding='UTF-8'?>
<osm version='0.6' upload='false' generator='JOSM'>
  <node id='-143838910' action='modify' lat='55.45982734146' lon='12.18722336852' />
  <node id='-143838911' action='modify' lat='55.4577980803' lon='12.18673231152' />
  <node id='-143838912' action='modify' lat='55.45735429839' lon='12.18661397561'>
    <tag k='name' v='kog' />
  </node>
  <node id='-143838913' action='modify' lat='55.45674831612' lon='12.18643595345' />
  <node id='-143838914' action='modify' lat='55.4556649707' lon='12.1859634567' />
  <node id='-143838915' action='modify' lat='55.453528286' lon='12.18517449811' />
  <node id='-143838916' action='modify' lat='55.45107270143' lon='12.18453551379' />
  <node id='-143838917' action='modify' lat='55.4471968697' lon='12.18500316741' />
  <node id='-143838918' action='modify' lat='55.44143751927' lon='12.18755543098' />
  <node id='-143838919' action='modify' lat='55.43913925874' lon='12.18821659617' />
  <node id='-143838920' action='modify' lat='55.42700822297' lon='12.18964956634' />
  <node id='-143838921' action='modify' lat='55.42649892658' lon='12.18971019481' />
  <node id='-143838922' action='modify' lat='55.42451233784' lon='12.18994889955'>
    <tag k='name' v='ego' />
  </node>
  <node id='-143838923' action='modify' lat='55.40633396203' lon='12.19213262133' />
  <node id='-143838924' action='modify' lat='55.4042171695' lon='12.19223856859' />
  <node id='-143838925' action='modify' lat='55.40032650994' lon='12.19214836657'>
    <tag k='name' v='val' />
  </node>
  <node id='-143838926' action='modify' lat='55.38923305317' lon='12.19189122185' />
  <node id='-143838927' action='modify' lat='55.3828133046' lon='12.19656296007' />
  <node id='-143838928' action='modify' lat='55.38117883542' lon='12.19953472264'>
    <tag k='name' v='gru' />
  </node>
  <node id='-143838929' action='modify' lat='55.3723794578' lon='12.21553148353'>
    <tag k='name' v='him' />
  </node>
  <node id='-143838930' action='modify' lat='55.37161986718' lon='12.21691220865' />
  <node id='-143838931' action='modify' lat='55.36706538767' lon='12.22200438313' />
  <node id='-143838932' action='modify' lat='55.3571490474' lon='12.22771614656' />
  <node id='-143838933' action='modify' lat='55.35286052215' lon='12.22790390119' />
  <node id='-143838934' action='modify' lat='55.35187832717' lon='12.2273801574'>
    <tag k='name' v='har' />
  </node>
  <node id='-143838935' action='modify' lat='55.33735221517' lon='12.2196357974'>
    <tag k='name' v='lli' />
  </node>
  <node id='-143838936' action='modify' lat='55.32940172388' lon='12.21539832479'>
    <tag k='name' v='sli' />
  </node>
  <node id='-143838937' action='modify' lat='55.32769257933' lon='12.2144874917' />
  <node id='-143838938' action='modify' lat='55.32696778888' lon='12.21408247814' />
  <node id='-143838939' action='modify' lat='55.31360256674' lon='12.20627322659' />
  <node id='-143838940' action='modify' lat='55.30950930558' lon='12.20130309328' />
  <node id='-143838941' action='modify' lat='55.30740092799' lon='12.19659321367'>
    <tag k='name' v='kar' />
  </node>
  <node id='-143838942' action='modify' lat='55.29807234433' lon='12.17575720555'>
    <tag k='name' v='gan' />
  </node>
  <node id='-143838943' action='modify' lat='55.28972811447' lon='12.15712396709' />
  <node id='-143838944' action='modify' lat='55.28893915001' lon='12.15536279013' />
  <node id='-143838945' action='modify' lat='55.28319941854' lon='12.14263313835'>
    <tag k='name' v='tok' />
  </node>
  <node id='-143838946' action='modify' lat='55.28226840304' lon='12.14056849346' />
  <node id='-143838947' action='modify' lat='55.27941014365' lon='12.13806062803' />
  <node id='-143838948' action='modify' lat='55.26450368337' lon='12.13824570045' />
  <node id='-143838949' action='modify' lat='55.26404968171' lon='12.13826682402' />
  <node id='-143838950' action='modify' lat='55.26029450331' lon='12.13853247527'>
    <tag k='name' v='fax' />
  </node>
  <node id='-143838951' action='modify' lat='55.25993115067' lon='12.13855817847' />
  <node id='-143838952' action='modify' lat='55.2581974479' lon='12.13927432761' />
  <node id='-143838953' action='modify' lat='55.25670480531' lon='12.14042231306' />
  <node id='-143838954' action='modify' lat='55.25304136441' lon='12.14176341757' />
  <node id='-143838955' action='modify' lat='55.24995090955' lon='12.13990196452' />
  <node id='-143838956' action='modify' lat='55.24809866178' lon='12.13763415679' />
  <node id='-143838957' action='modify' lat='55.24709414629' lon='12.13665649161' />
  <node id='-143838958' action='modify' lat='55.24643439361' lon='12.13612541422' />
  <node id='-143838959' action='modify' lat='55.24295985618' lon='12.13625168493'>
    <tag k='name' v='fas' />
  </node>
  <node id='-143838960' action='modify' lat='55.24253757774' lon='12.13663503394' />
  <node id='-143838961' action='modify' lat='55.24051141895' lon='12.13868960604' />
  <node id='-143838962' action='modify' lat='55.2399738961' lon='12.13917642698' />
  <node id='-143838963' action='modify' lat='55.23814029977' lon='12.14065298304' />
  <node id='-143838964' action='modify' lat='55.23739475582' lon='12.14136108622' />
  <node id='-143838965' action='modify' lat='55.23508615723' lon='12.14378446206' />
  <node id='-143838966' action='modify' lat='55.23447285345' lon='12.14432492718' />
  <node id='-143838967' action='modify' lat='55.22967239236' lon='12.14774474367' />
  <node id='-143838968' action='modify' lat='55.22910336509' lon='12.14816182718' />
  <node id='-143838969' action='modify' lat='55.22687765608' lon='12.14982211456' />
  <node id='-143838970' action='modify' lat='55.22544541111' lon='12.15156286888' />
  <node id='-143838971' action='modify' lat='55.22348301884' lon='12.15548962221' />
  <node id='-143838972' action='modify' lat='55.22251985264' lon='12.15694011251' />
  <node id='-143838973' action='modify' lat='55.22210764172' lon='12.15737253293' />
  <node id='-143838974' action='modify' lat='55.22164789678' lon='12.1578318619' />
  <node id='-143838975' action='modify' lat='55.21951586753' lon='12.15982407197' />
  <node id='-143838976' action='modify' lat='55.2190931494' lon='12.16019811851' />
  <node id='-143838977' action='modify' lat='55.21877609464' lon='12.16046243772' />
  <node id='-143838978' action='modify' lat='55.21840046529' lon='12.16076686844' />
  <node id='-143838979' action='modify' lat='55.2182596992' lon='12.16087454868'>
    <tag k='name' v='fal' />
  </node>
  <node id='-143838980' action='modify' lat='55.21657888042' lon='12.16216027603'>
    <tag k='name' v='fal.f' />
  </node>
  <way id='-36349212' action='modify'>
    <nd ref='-143838910' />
    <nd ref='-143838911' />
    <tag k='type' v='straight' />
  </way>
  <way id='-36349213' action='modify'>
    <nd ref='-143838911' />
    <nd ref='-143838912' />
    <nd ref='-143838913' />
  </way>
  <way id='-36349214' action='modify'>
    <nd ref='-143838913' />
    <nd ref='-143838914' />
    <tag k='type' v='straight' />
  </way>
  <way id='-36349215' action='modify'>
    <nd ref='-143838914' />
    <nd ref='-143838915' />
  </way>
  <way id='-36349216' action='modify'>
    <nd ref='-143838915' />
    <nd ref='-143838916' />
    <tag k='type' v='straight' />
  </way>
  <way id='-36349217' action='modify'>
    <nd ref='-143838916' />
    <nd ref='-143838917' />
  </way>
  <way id='-36349218' action='modify'>
    <nd ref='-143838917' />
    <nd ref='-143838918' />
    <tag k='type' v='straight' />
  </way>
  <way id='-36349219' action='modify'>
    <nd ref='-143838918' />
    <nd ref='-143838919' />
  </way>
  <way id='-36349220' action='modify'>
    <nd ref='-143838919' />
    <nd ref='-143838920' />
    <tag k='type' v='straight' />
  </way>
  <way id='-36349221' action='modify'>
    <nd ref='-143838920' />
    <nd ref='-143838921' />
  </way>
  <way id='-36349222' action='modify'>
    <nd ref='-143838921' />
    <nd ref='-143838922' />
    <nd ref='-143838923' />
    <tag k='type' v='straight' />
  </way>
  <way id='-36349223' action='modify'>
    <nd ref='-143838923' />
    <nd ref='-143838924' />
  </way>
  <way id='-36349224' action='modify'>
    <nd ref='-143838924' />
    <nd ref='-143838925' />
    <nd ref='-143838926' />
    <tag k='type' v='straight' />
  </way>
  <way id='-36349225' action='modify'>
    <nd ref='-143838926' />
    <nd ref='-143838927' />
  </way>
  <way id='-36349226' action='modify'>
    <nd ref='-143838927' />
    <nd ref='-143838928' />
    <nd ref='-143838929' />
    <nd ref='-143838930' />
    <tag k='type' v='straight' />
  </way>
  <way id='-36349227' action='modify'>
    <nd ref='-143838930' />
    <nd ref='-143838931' />
  </way>
  <way id='-36349228' action='modify'>
    <nd ref='-143838931' />
    <nd ref='-143838932' />
    <tag k='type' v='straight' />
  </way>
  <way id='-36349229' action='modify'>
    <nd ref='-143838932' />
    <nd ref='-143838933' />
  </way>
  <way id='-36349230' action='modify'>
    <nd ref='-143838933' />
    <nd ref='-143838934' />
    <nd ref='-143838935' />
    <nd ref='-143838936' />
    <nd ref='-143838937' />
    <tag k='type' v='straight' />
  </way>
  <way id='-36349231' action='modify'>
    <nd ref='-143838937' />
    <nd ref='-143838938' />
  </way>
  <way id='-36349232' action='modify'>
    <nd ref='-143838938' />
    <nd ref='-143838939' />
    <tag k='type' v='straight' />
  </way>
  <way id='-36349233' action='modify'>
    <nd ref='-143838939' />
    <nd ref='-143838940' />
  </way>
  <way id='-36349234' action='modify'>
    <nd ref='-143838940' />
    <nd ref='-143838941' />
    <nd ref='-143838942' />
    <nd ref='-143838943' />
    <tag k='type' v='straight' />
  </way>
  <way id='-36349235' action='modify'>
    <nd ref='-143838943' />
    <nd ref='-143838944' />
  </way>
  <way id='-36349236' action='modify'>
    <nd ref='-143838944' />
    <nd ref='-143838945' />
    <nd ref='-143838946' />
    <tag k='type' v='straight' />
  </way>
  <way id='-36349237' action='modify'>
    <nd ref='-143838946' />
    <nd ref='-143838947' />
  </way>
  <way id='-36349238' action='modify'>
    <nd ref='-143838947' />
    <nd ref='-143838948' />
    <tag k='type' v='straight' />
  </way>
  <way id='-36349239' action='modify'>
    <nd ref='-143838948' />
    <nd ref='-143838949' />
  </way>
  <way id='-36349240' action='modify'>
    <nd ref='-143838949' />
    <nd ref='-143838950' />
    <nd ref='-143838951' />
    <tag k='type' v='straight' />
  </way>
  <way id='-36349241' action='modify'>
    <nd ref='-143838951' />
    <nd ref='-143838952' />
  </way>
  <way id='-36349242' action='modify'>
    <nd ref='-143838952' />
    <nd ref='-143838953' />
    <tag k='type' v='straight' />
  </way>
  <way id='-36349243' action='modify'>
    <nd ref='-143838953' />
    <nd ref='-143838954' />
    <nd ref='-143838955' />
  </way>
  <way id='-36349244' action='modify'>
    <nd ref='-143838955' />
    <nd ref='-143838956' />
    <tag k='type' v='straight' />
  </way>
  <way id='-36349245' action='modify'>
    <nd ref='-143838956' />
    <nd ref='-143838957' />
  </way>
  <way id='-36349246' action='modify'>
    <nd ref='-143838957' />
    <nd ref='-143838958' />
    <tag k='type' v='straight' />
  </way>
  <way id='-36349247' action='modify'>
    <nd ref='-143838958' />
    <nd ref='-143838959' />
    <nd ref='-143838960' />
  </way>
  <way id='-36349248' action='modify'>
    <nd ref='-143838960' />
    <nd ref='-143838961' />
    <tag k='type' v='straight' />
  </way>
  <way id='-36349249' action='modify'>
    <nd ref='-143838961' />
    <nd ref='-143838962' />
  </way>
  <way id='-36349250' action='modify'>
    <nd ref='-143838962' />
    <nd ref='-143838963' />
    <tag k='type' v='straight' />
  </way>
  <way id='-36349251' action='modify'>
    <nd ref='-143838963' />
    <nd ref='-143838964' />
  </way>
  <way id='-36349252' action='modify'>
    <nd ref='-143838964' />
    <nd ref='-143838965' />
    <tag k='type' v='straight' />
  </way>
  <way id='-36349253' action='modify'>
    <nd ref='-143838965' />
    <nd ref='-143838966' />
  </way>
  <way id='-36349254' action='modify'>
    <nd ref='-143838966' />
    <nd ref='-143838967' />
    <tag k='type' v='straight' />
  </way>
  <way id='-36349255' action='modify'>
    <nd ref='-143838967' />
    <nd ref='-143838968' />
  </way>
  <way id='-36349256' action='modify'>
    <nd ref='-143838968' />
    <nd ref='-143838969' />
    <tag k='type' v='straight' />
  </way>
  <way id='-36349257' action='modify'>
    <nd ref='-143838969' />
    <nd ref='-143838970' />
  </way>
  <way id='-36349258' action='modify'>
    <nd ref='-143838970' />
    <nd ref='-143838971' />
    <tag k='type' v='straight' />
  </way>
  <way id='-36349259' action='modify'>
    <nd ref='-143838971' />
    <nd ref='-143838972' />
  </way>
  <way id='-36349260' action='modify'>
    <nd ref='-143838972' />
    <nd ref='-143838973' />
    <tag k='type' v='straight' />
  </way>
  <way id='-36349261' action='modify'>
    <nd ref='-143838973' />
    <nd ref='-143838974' />
  </way>
  <way id='-36349262' action='modify'>
    <nd ref='-143838974' />
    <nd ref='-143838975' />
    <tag k='type' v='straight' />
  </way>
  <way id='-36349263' action='modify'>
    <nd ref='-143838975' />
    <nd ref='-143838976' />
  </way>
  <way id='-36349264' action='modify'>
    <nd ref='-143838976' />
    <nd ref='-143838977' />
    <tag k='type' v='straight' />
  </way>
  <way id='-36349265' action='modify'>
    <nd ref='-143838977' />
    <nd ref='-143838978' />
  </way>
  <way id='-36349266' action='modify'>
    <nd ref='-143838978' />
    <nd ref='-143838979' />
    <nd ref='-143838980' />
    <tag k='type' v='straight' />
  </way>
  <relation id='-14467294' action='modify'>
    <member type='way' ref='-36349212' role='' />
    <member type='way' ref='-36349213' role='' />
    <member type='way' ref='-36349214' role='' />
    <member type='way' ref='-36349215' role='' />
    <member type='way' ref='-36349216' role='' />
    <member type='way' ref='-36349217' role='' />
    <member type='way' ref='-36349218' role='' />
    <member type='way' ref='-36349219' role='' />
    <member type='way' ref='-36349220' role='' />
    <member type='way' ref='-36349221' role='' />
    <member type='way' ref='-36349222' role='' />
    <member type='way' ref='-36349223' role='' />
    <member type='way' ref='-36349224' role='' />
    <member type='way' ref='-36349225' role='' />
    <member type='way' ref='-36349226' role='' />
    <member type='way' ref='-36349227' role='' />
    <member type='way' ref='-36349228' role='' />
    <member type='way' ref='-36349229' role='' />
    <member type='way' ref='-36349230' role='' />
    <member type='way' ref='-36349231' role='' />
    <member type='way' ref='-36349232' role='' />
    <member type='way' ref='-36349233' role='' />
    <member type='way' ref='-36349234' role='' />
    <member type='way' ref='-36349235' role='' />
    <member type='way' ref='-36349236' role='' />
    <member type='way' ref='-36349237' role='' />
    <member type='way' ref='-36349238' role='' />
    <member type='way' ref='-36349239' role='' />
    <member type='way' ref='-36349240' role='' />
    <member type='way' ref='-36349241' role='' />
    <member type='way' ref='-36349242' role='' />
    <member type='way' ref='-36349243' role='' />
    <member type='way' ref='-36349244' role='' />
    <member type='way' ref='-36349245' role='' />
    <member type='way' ref='-36349246' role='' />
    <member type='way' ref='-36349247' role='' />
    <member type='way' ref='-36349248' role='' />
    <member type='way' ref='-36349249' role='' />
    <member type='way' ref='-36349250' role='' />
    <member type='way' ref='-36349251' role='' />
    <member type='way' ref='-36349252' role='' />
    <member type='way' ref='-36349253' role='' />
    <member type='way' ref='-36349254' role='' />
    <member type='way' ref='-36349255' role='' />
    <member type='way' ref='-36349256' role='' />
    <member type='way' ref='-36349257' role='' />
    <member type='way' ref='-36349258' role='' />
    <member type='way' ref='-36349259' role='' />
    <member type='way' ref='-36349260' role='' />
    <member type='way' ref='-36349261' role='' />
    <member type='way' ref='-36349262' role='' />
    <member type='way' ref='-36349263' role='' />
    <member type='way' ref='-36349264' role='' />
    <member type='way' ref='-36349265' role='' />
    <member type='way' ref='-36349266' role='' />
    <tag k='key' v='path.dk.kfx' />
    <tag k='name' v='DK KFX' />
    <tag k='type' v='path' />
  </relation>
</osm>
