<?xml version='1.0' encoding='UTF-8'?>
<osm version='0.6' upload='false' generator='JOSM'>
  <node id='-137249916' action='modify' lat='55.65999863449' lon='12.54066500805' />
  <node id='-137249917' action='modify' lat='55.65812145656' lon='12.53961631596' />
  <node id='-137249919' action='modify' lat='55.65703736914' lon='12.53911658987' />
  <node id='-137249920' action='modify' lat='55.65675818984' lon='12.5390441848' />
  <node id='-137249921' action='modify' lat='55.65506485227' lon='12.5378248732'>
    <tag k='name' v='syd' />
  </node>
  <node id='-137249923' action='modify' lat='55.65357546494' lon='12.53501383116' />
  <node id='-137249924' action='modify' lat='55.65222149337' lon='12.53034483431' />
  <node id='-137249925' action='modify' lat='55.65150323514' lon='12.52651585225' />
  <node id='-137249926' action='modify' lat='55.65140242949' lon='12.5253934713'>
    <tag k='name' v='sja' />
  </node>
  <node id='-137249927' action='modify' lat='55.65137924213' lon='12.52513530116' />
  <node id='-137249928' action='modify' lat='55.65126935007' lon='12.52242459006' />
  <node id='-137249929' action='modify' lat='55.65128601727' lon='12.52210966606' />
  <node id='-137249930' action='modify' lat='55.65234403545' lon='12.51619711384'>
    <tag k='name' v='nel' />
  </node>
  <node id='-137249931' action='modify' lat='55.65069295062' lon='12.51155286759'>
    <tag k='name' v='kog.xk' />
  </node>
  <node id='-137249932' action='modify' lat='55.64874439535' lon='12.50944844542'>
    <tag k='name' v='ell' />
  </node>
  <node id='-137249933' action='modify' lat='55.64849997129' lon='12.50918447703' />
  <node id='-137249934' action='modify' lat='55.64752073382' lon='12.50814646214' />
  <node id='-137249935' action='modify' lat='55.64479024221' lon='12.50538646907' />
  <node id='-137249936' action='modify' lat='55.64364386418' lon='12.50423801327' />
  <node id='-137249937' action='modify' lat='55.64278433952' lon='12.5034493507' />
  <node id='-137249938' action='modify' lat='55.64161906099' lon='12.50222414464' />
  <node id='-137249939' action='modify' lat='55.63922315073' lon='12.49927754431'>
    <tag k='name' v='ama' />
  </node>
  <node id='-137249940' action='modify' lat='55.63715021289' lon='12.49672829568' />
  <node id='-137249941' action='modify' lat='55.63578008593' lon='12.49511897296' />
  <node id='-137249942' action='modify' lat='55.63458099761' lon='12.49400317401' />
  <node id='-137249943' action='modify' lat='55.63369225569' lon='12.49331921071' />
  <node id='-137249944' action='modify' lat='55.63049443488' lon='12.48791187733' />
  <node id='-137249945' action='modify' lat='55.6303028018' lon='12.4872061526' />
  <node id='-137249946' action='modify' lat='55.62979824989' lon='12.48525621307' />
  <node id='-137249947' action='modify' lat='55.62935686805' lon='12.48355448357'>
    <tag k='name' v='fri' />
  </node>
  <node id='-137249948' action='modify' lat='55.62899656749' lon='12.48216537383' />
  <node id='-137249949' action='modify' lat='55.62861040758' lon='12.48059295858' />
  <node id='-137249950' action='modify' lat='55.62808984091' lon='12.47840076417' />
  <node id='-137249951' action='modify' lat='55.62699349091' lon='12.4702280733' />
  <node id='-137249952' action='modify' lat='55.62687688834' lon='12.46614843339' />
  <node id='-137249953' action='modify' lat='55.62650587939' lon='12.46121584833' />
  <node id='-137249954' action='modify' lat='55.62571690109' lon='12.45619743794' />
  <node id='-137249955' action='modify' lat='55.62553612587' lon='12.45519961586'>
    <tag k='name' v='ave' />
  </node>
  <node id='-137249956' action='modify' lat='55.62543068485' lon='12.45461761683' />
  <node id='-137249957' action='modify' lat='55.62468560421' lon='12.45132118195' />
  <node id='-137249958' action='modify' lat='55.62171877071' lon='12.44054138392' />
  <node id='-137249959' action='modify' lat='55.62056620362' lon='12.42695331305' />
  <node id='-137249960' action='modify' lat='55.62075400924' lon='12.42468952864' />
  <node id='-137249961' action='modify' lat='55.62095847401' lon='12.42163717479'>
    <tag k='name' v='bro' />
  </node>
  <node id='-137249962' action='modify' lat='55.62110084145' lon='12.41802960366' />
  <node id='-137249963' action='modify' lat='55.62176572082' lon='12.41185784072' />
  <node id='-137249964' action='modify' lat='55.62294551317' lon='12.40567266673' />
  <node id='-137249965' action='modify' lat='55.6237118291' lon='12.39460587233' />
  <node id='-137249966' action='modify' lat='55.62339806642' lon='12.38725381526'>
    <tag k='name' v='val' />
  </node>
  <node id='-137249967' action='modify' lat='55.62321205954' lon='12.38289534777' />
  <node id='-137249968' action='modify' lat='55.61680232868' lon='12.36158251494' />
  <node id='-137249969' action='modify' lat='55.61345722494' lon='12.35797710592'>
    <tag k='name' v='ish' />
  </node>
  <node id='-137249970' action='modify' lat='55.61087481993' lon='12.3551988548' />
  <node id='-137249971' action='modify' lat='55.6083766036' lon='12.35195606679' />
  <node id='-137249972' action='modify' lat='55.60141439674' lon='12.33912705839' />
  <node id='-137249973' action='modify' lat='55.59929594321' lon='12.33579039037' />
  <node id='-137249974' action='modify' lat='55.59815493471' lon='12.33430138664'>
    <tag k='name' v='hun' />
  </node>
  <node id='-137249975' action='modify' lat='55.59267314404' lon='12.32714831293' />
  <node id='-137249976' action='modify' lat='55.58975390633' lon='12.31918751925' />
  <node id='-137249977' action='modify' lat='55.58917336774' lon='12.31447756022' />
  <node id='-137249978' action='modify' lat='55.58897631614' lon='12.31278642744' />
  <node id='-137249979' action='modify' lat='55.58891720047' lon='12.31225132674' />
  <node id='-137249980' action='modify' lat='55.58607802751' lon='12.30427711934' />
  <node id='-137249981' action='modify' lat='55.58481526475' lon='12.30254977673' />
  <node id='-137249982' action='modify' lat='55.58273684767' lon='12.29888587922' />
  <node id='-137249983' action='modify' lat='55.58168583416' lon='12.29654189524'>
    <tag k='name' v='gre' />
  </node>
  <node id='-137249984' action='modify' lat='55.57968800184' lon='12.29208647668' />
  <node id='-137249985' action='modify' lat='55.57430835263' lon='12.28470504016' />
  <node id='-137249986' action='modify' lat='55.57285262791' lon='12.28350877494' />
  <node id='-137249987' action='modify' lat='55.56747052707' lon='12.27418809861' />
  <node id='-137249988' action='modify' lat='55.56651808077' lon='12.27084874839' />
  <node id='-137249989' action='modify' lat='55.56633494454' lon='12.2701842311'>
    <tag k='name' v='kar' />
  </node>
  <node id='-137249990' action='modify' lat='55.56610099909' lon='12.26932257146' />
  <node id='-137249991' action='modify' lat='55.565151553' lon='12.26577937335' />
  <node id='-137249992' action='modify' lat='55.56359689922' lon='12.2604095909' />
  <node id='-137249993' action='modify' lat='55.56217566433' lon='12.25600808591' />
  <node id='-137249994' action='modify' lat='55.5577569184' lon='12.24782198399' />
  <node id='-137249995' action='modify' lat='55.55147000533' lon='12.24070608348' />
  <node id='-137249996' action='modify' lat='55.55042613476' lon='12.23941057652' />
  <node id='-137249997' action='modify' lat='55.54790130994' lon='12.23601758212' />
  <node id='-137249998' action='modify' lat='55.54608649192' lon='12.23324954242' />
  <node id='-137249999' action='modify' lat='55.54274039123' lon='12.22743183106' />
  <node id='-137250000' action='modify' lat='55.53617938631' lon='12.22028642625' />
  <node id='-137250001' action='modify' lat='55.53496966365' lon='12.21933960378' />
  <node id='-137250002' action='modify' lat='55.53335309834' lon='12.21812322199'>
    <tag k='name' v='sol' />
  </node>
  <node id='-137250003' action='modify' lat='55.53023969476' lon='12.21575080812' />
  <node id='-137250004' action='modify' lat='55.52825099347' lon='12.2140234682' />
  <node id='-137250005' action='modify' lat='55.52730063273' lon='12.21308201283' />
  <node id='-137250006' action='modify' lat='55.52511441225' lon='12.21135198802' />
  <node id='-137250007' action='modify' lat='55.52424596318' lon='12.21082895726' />
  <node id='-137250008' action='modify' lat='55.52205805458' lon='12.20938592881' />
  <node id='-137250009' action='modify' lat='55.52149352456' lon='12.20900722138'>
    <tag k='name' v='jer' />
  </node>
  <node id='-137250010' action='modify' lat='55.51994290999' lon='12.20796704024' />
  <node id='-137250011' action='modify' lat='55.51491499945' lon='12.20232099026' />
  <node id='-137250012' action='modify' lat='55.51096025064' lon='12.19556450576' />
  <node id='-137250013' action='modify' lat='55.50961153576' lon='12.19313442439' />
  <node id='-137250014' action='modify' lat='55.50395037822' lon='12.18251287669'>
    <tag k='name' v='ols' />
  </node>
  <node id='-137250015' action='modify' lat='55.50244647266' lon='12.17985212535' />
  <node id='-137250016' action='modify' lat='55.50134357208' lon='12.17801481217' />
  <node id='-137250017' action='modify' lat='55.49888586123' lon='12.17477135092'>
    <tag k='name' v='kon' />
  </node>
  <node id='-137250018' action='modify' lat='55.49672047225' lon='12.17336117953' />
  <node id='-137250019' action='modify' lat='55.49142671352' lon='12.17102229327'>
    <tag k='name' v='olb.zk' />
  </node>
  <node id='-137250020' action='modify' lat='55.48748328219' lon='12.1707326147' />
  <node id='-137250021' action='modify' lat='55.48447111767' lon='12.17158555448'>
    <tag k='name' v='olb.xk' />
  </node>
  <node id='-137250024' action='modify' lat='55.4817382873' lon='12.17322569137' />
  <node id='-137250025' action='modify' lat='55.47994731312' lon='12.17549241327'>
    <tag k='name' v='olb' />
  </node>
  <node id='-137250026' action='modify' lat='55.47905061149' lon='12.17706473733' />
  <node id='-137250027' action='modify' lat='55.47810454423' lon='12.17895221657' />
  <node id='-137250028' action='modify' lat='55.47390466065' lon='12.18283421095' />
  <node id='-137250032' action='modify' lat='55.46546691895' lon='12.18585589625' />
  <node id='-137250033' action='modify' lat='55.46442417148' lon='12.18624413582' />
  <node id='-137250034' action='modify' lat='55.46359033053' lon='12.18658281839' />
  <node id='-137250035' action='modify' lat='55.45983342454' lon='12.18690686786' />
  <node id='-137250036' action='modify' lat='55.45776157994' lon='12.18640776423'>
    <tag k='name' v='kog' />
  </node>
  <node id='-137250178' action='modify' lat='55.6722989193' lon='12.56447294682'>
    <tag k='name' v='kob' />
  </node>
  <node id='-137250179' action='modify' lat='55.67177041691' lon='12.56504448609' />
  <node id='-137250180' action='modify' lat='55.66722072208' lon='12.56349612385' />
  <node id='-137250181' action='modify' lat='55.66674381667' lon='12.56245046586' />
  <node id='-137250182' action='modify' lat='55.66607854918' lon='12.56124617572' />
  <node id='-137250183' action='modify' lat='55.66545797933' lon='12.5602107463'>
    <tag k='name' v='dyb' />
  </node>
  <node id='-137250184' action='modify' lat='55.66439248236' lon='12.55620904727' />
  <node id='-137250185' action='modify' lat='55.66419465944' lon='12.55411771808'>
    <tag k='name' v='ske' />
  </node>
  <node id='-137250186' action='modify' lat='55.66383975449' lon='12.55036578771' />
  <node id='-137250187' action='modify' lat='55.6634548952' lon='12.54794775903' />
  <node id='-137250188' action='modify' lat='55.66294529106' lon='12.54546481452' />
  <node id='-137250228' action='modify' lat='55.65935288165' lon='12.54030425027'>
    <tag k='name' v='bav' />
  </node>
  <node id='-137250274' action='modify' lat='55.65195754616' lon='12.51877546602' />
  <node id='-137250279' action='modify' lat='55.6517069161' lon='12.51965582103' />
  <way id='-35977697' action='modify'>
    <nd ref='-137250188' />
    <nd ref='-137249916' />
  </way>
  <way id='-35977698' action='modify'>
    <nd ref='-137249916' />
    <nd ref='-137250228' />
    <nd ref='-137249917' />
    <tag k='type' v='straight' />
  </way>
  <way id='-35977699' action='modify'>
    <nd ref='-137249917' />
    <nd ref='-137249919' />
    <tag k='type' v='arc' />
  </way>
  <way id='-35977700' action='modify'>
    <nd ref='-137249919' />
    <nd ref='-137249920' />
    <tag k='type' v='straight' />
  </way>
  <way id='-35977701' action='modify'>
    <nd ref='-137249920' />
    <nd ref='-137249921' />
    <nd ref='-137249923' />
  </way>
  <way id='-35977702' action='modify'>
    <nd ref='-137249923' />
    <nd ref='-137249924' />
    <tag k='type' v='straight' />
  </way>
  <way id='-35977703' action='modify'>
    <nd ref='-137249924' />
    <nd ref='-137249925' />
    <tag k='type' v='arc' />
  </way>
  <way id='-35977704' action='modify'>
    <nd ref='-137249925' />
    <nd ref='-137249926' />
    <nd ref='-137249927' />
    <tag k='type' v='straight' />
  </way>
  <way id='-35977705' action='modify'>
    <nd ref='-137249927' />
    <nd ref='-137249928' />
    <tag k='type' v='arc' />
  </way>
  <way id='-35977706' action='modify'>
    <nd ref='-137249928' />
    <nd ref='-137249929' />
    <tag k='type' v='straight' />
  </way>
  <way id='-35977707' action='modify'>
    <nd ref='-137250274' />
    <nd ref='-137249930' />
    <nd ref='-137249931' />
  </way>
  <way id='-35977708' action='modify'>
    <nd ref='-137249931' />
    <nd ref='-137249932' />
    <nd ref='-137249933' />
    <tag k='type' v='straight' />
  </way>
  <way id='-35977709' action='modify'>
    <nd ref='-137249933' />
    <nd ref='-137249934' />
  </way>
  <way id='-35977710' action='modify'>
    <nd ref='-137249934' />
    <nd ref='-137249935' />
    <tag k='type' v='straight' />
  </way>
  <way id='-35977711' action='modify'>
    <nd ref='-137249935' />
    <nd ref='-137249936' />
  </way>
  <way id='-35977712' action='modify'>
    <nd ref='-137249936' />
    <nd ref='-137249937' />
    <tag k='type' v='straight' />
  </way>
  <way id='-35977713' action='modify'>
    <nd ref='-137249937' />
    <nd ref='-137249938' />
    <tag k='type' v='straight' />
  </way>
  <way id='-35977714' action='modify'>
    <nd ref='-137249938' />
    <nd ref='-137249939' />
    <nd ref='-137249940' />
    <tag k='type' v='straight' />
  </way>
  <way id='-35977715' action='modify'>
    <nd ref='-137249940' />
    <nd ref='-137249941' />
    <nd ref='-137249942' />
  </way>
  <way id='-35977716' action='modify'>
    <nd ref='-137249942' />
    <nd ref='-137249943' />
    <tag k='type' v='straight' />
  </way>
  <way id='-35977717' action='modify'>
    <nd ref='-137249943' />
    <nd ref='-137249944' />
  </way>
  <way id='-35977718' action='modify'>
    <nd ref='-137249944' />
    <nd ref='-137249945' />
    <tag k='type' v='straight' />
  </way>
  <way id='-35977719' action='modify'>
    <nd ref='-137249945' />
    <nd ref='-137249946' />
  </way>
  <way id='-35977720' action='modify'>
    <nd ref='-137249946' />
    <nd ref='-137249947' />
    <nd ref='-137249948' />
    <tag k='type' v='straight' />
  </way>
  <way id='-35977721' action='modify'>
    <nd ref='-137249948' />
    <nd ref='-137249949' />
  </way>
  <way id='-35977722' action='modify'>
    <nd ref='-137249949' />
    <nd ref='-137249950' />
    <tag k='type' v='straight' />
  </way>
  <way id='-35977723' action='modify'>
    <nd ref='-137249950' />
    <nd ref='-137249951' />
  </way>
  <way id='-35977724' action='modify'>
    <nd ref='-137249951' />
    <nd ref='-137249952' />
    <tag k='type' v='straight' />
  </way>
  <way id='-35977725' action='modify'>
    <nd ref='-137249952' />
    <nd ref='-137249953' />
    <nd ref='-137249954' />
  </way>
  <way id='-35977726' action='modify'>
    <nd ref='-137249954' />
    <nd ref='-137249955' />
    <nd ref='-137249956' />
    <tag k='type' v='straight' />
  </way>
  <way id='-35977727' action='modify'>
    <nd ref='-137249956' />
    <nd ref='-137249957' />
  </way>
  <way id='-35977728' action='modify'>
    <nd ref='-137249957' />
    <nd ref='-137249958' />
    <tag k='type' v='straight' />
  </way>
  <way id='-35977729' action='modify'>
    <nd ref='-137249958' />
    <nd ref='-137249959' />
  </way>
  <way id='-35977730' action='modify'>
    <nd ref='-137249959' />
    <nd ref='-137249960' />
    <tag k='type' v='straight' />
  </way>
  <way id='-35977731' action='modify'>
    <nd ref='-137249960' />
    <nd ref='-137249961' />
  </way>
  <way id='-35977732' action='modify'>
    <nd ref='-137249961' />
    <nd ref='-137249962' />
    <tag k='type' v='straight' />
  </way>
  <way id='-35977733' action='modify'>
    <nd ref='-137249962' />
    <nd ref='-137249963' />
  </way>
  <way id='-35977734' action='modify'>
    <nd ref='-137249963' />
    <nd ref='-137249964' />
    <tag k='type' v='straight' />
  </way>
  <way id='-35977735' action='modify'>
    <nd ref='-137249964' />
    <nd ref='-137249965' />
  </way>
  <way id='-35977736' action='modify'>
    <nd ref='-137249965' />
    <nd ref='-137249966' />
    <nd ref='-137249967' />
    <tag k='type' v='straight' />
  </way>
  <way id='-35977737' action='modify'>
    <nd ref='-137249967' />
    <nd ref='-137249968' />
  </way>
  <way id='-35977738' action='modify'>
    <nd ref='-137249968' />
    <nd ref='-137249969' />
    <nd ref='-137249970' />
    <tag k='type' v='straight' />
  </way>
  <way id='-35977739' action='modify'>
    <nd ref='-137249970' />
    <nd ref='-137249971' />
  </way>
  <way id='-35977740' action='modify'>
    <nd ref='-137249971' />
    <nd ref='-137249972' />
    <tag k='type' v='straight' />
  </way>
  <way id='-35977741' action='modify'>
    <nd ref='-137249972' />
    <nd ref='-137249973' />
  </way>
  <way id='-35977742' action='modify'>
    <nd ref='-137249973' />
    <nd ref='-137249974' />
    <nd ref='-137249975' />
    <tag k='type' v='straight' />
  </way>
  <way id='-35977743' action='modify'>
    <nd ref='-137249975' />
    <nd ref='-137249976' />
  </way>
  <way id='-35977744' action='modify'>
    <nd ref='-137249976' />
    <nd ref='-137249977' />
    <tag k='type' v='straight' />
  </way>
  <way id='-35977745' action='modify'>
    <nd ref='-137249977' />
    <nd ref='-137249978' />
  </way>
  <way id='-35977746' action='modify'>
    <nd ref='-137249978' />
    <nd ref='-137249979' />
    <tag k='type' v='straight' />
  </way>
  <way id='-35977747' action='modify'>
    <nd ref='-137249979' />
    <nd ref='-137249980' />
  </way>
  <way id='-35977748' action='modify'>
    <nd ref='-137249980' />
    <nd ref='-137249981' />
    <tag k='type' v='straight' />
  </way>
  <way id='-35977749' action='modify'>
    <nd ref='-137249981' />
    <nd ref='-137249982' />
  </way>
  <way id='-35977750' action='modify'>
    <nd ref='-137249982' />
    <nd ref='-137249983' />
    <nd ref='-137249984' />
    <tag k='type' v='straight' />
  </way>
  <way id='-35977751' action='modify'>
    <nd ref='-137249984' />
    <nd ref='-137249985' />
  </way>
  <way id='-35977752' action='modify'>
    <nd ref='-137249985' />
    <nd ref='-137249986' />
    <tag k='type' v='straight' />
  </way>
  <way id='-35977753' action='modify'>
    <nd ref='-137249986' />
    <nd ref='-137249987' />
  </way>
  <way id='-35977754' action='modify'>
    <nd ref='-137249987' />
    <nd ref='-137249988' />
    <tag k='type' v='straight' />
  </way>
  <way id='-35977755' action='modify'>
    <nd ref='-137249988' />
    <nd ref='-137249989' />
    <nd ref='-137249990' />
  </way>
  <way id='-35977756' action='modify'>
    <nd ref='-137249990' />
    <nd ref='-137249991' />
    <tag k='type' v='straight' />
  </way>
  <way id='-35977757' action='modify'>
    <nd ref='-137249991' />
    <nd ref='-137249992' />
  </way>
  <way id='-35977758' action='modify'>
    <nd ref='-137249992' />
    <nd ref='-137249993' />
    <tag k='type' v='straight' />
  </way>
  <way id='-35977759' action='modify'>
    <nd ref='-137249993' />
    <nd ref='-137249994' />
  </way>
  <way id='-35977760' action='modify'>
    <nd ref='-137249994' />
    <nd ref='-137249995' />
    <tag k='type' v='straight' />
  </way>
  <way id='-35977761' action='modify'>
    <nd ref='-137249995' />
    <nd ref='-137249996' />
  </way>
  <way id='-35977762' action='modify'>
    <nd ref='-137249996' />
    <nd ref='-137249997' />
    <tag k='type' v='straight' />
  </way>
  <way id='-35977763' action='modify'>
    <nd ref='-137249997' />
    <nd ref='-137249998' />
  </way>
  <way id='-35977764' action='modify'>
    <nd ref='-137249998' />
    <nd ref='-137249999' />
    <tag k='type' v='straight' />
  </way>
  <way id='-35977765' action='modify'>
    <nd ref='-137249999' />
    <nd ref='-137250000' />
  </way>
  <way id='-35977766' action='modify'>
    <nd ref='-137250000' />
    <nd ref='-137250001' />
    <tag k='type' v='straight' />
  </way>
  <way id='-35977767' action='modify'>
    <nd ref='-137250001' />
    <nd ref='-137250002' />
  </way>
  <way id='-35977768' action='modify'>
    <nd ref='-137250002' />
    <nd ref='-137250003' />
    <tag k='type' v='straight' />
  </way>
  <way id='-35977769' action='modify'>
    <nd ref='-137250003' />
    <nd ref='-137250004' />
  </way>
  <way id='-35977770' action='modify'>
    <nd ref='-137250004' />
    <nd ref='-137250005' />
    <tag k='type' v='straight' />
  </way>
  <way id='-35977771' action='modify'>
    <nd ref='-137250005' />
    <nd ref='-137250006' />
  </way>
  <way id='-35977772' action='modify'>
    <nd ref='-137250006' />
    <nd ref='-137250007' />
    <tag k='type' v='straight' />
  </way>
  <way id='-35977773' action='modify'>
    <nd ref='-137250007' />
    <nd ref='-137250008' />
  </way>
  <way id='-35977774' action='modify'>
    <nd ref='-137250008' />
    <nd ref='-137250009' />
    <nd ref='-137250010' />
    <tag k='type' v='straight' />
  </way>
  <way id='-35977775' action='modify'>
    <nd ref='-137250010' />
    <nd ref='-137250011' />
  </way>
  <way id='-35977776' action='modify'>
    <nd ref='-137250011' />
    <nd ref='-137250012' />
    <tag k='type' v='straight' />
  </way>
  <way id='-35977777' action='modify'>
    <nd ref='-137250012' />
    <nd ref='-137250013' />
  </way>
  <way id='-35977778' action='modify'>
    <nd ref='-137250013' />
    <nd ref='-137250014' />
    <tag k='type' v='straight' />
  </way>
  <way id='-35977779' action='modify'>
    <nd ref='-137250014' />
    <nd ref='-137250015' />
  </way>
  <way id='-35977780' action='modify'>
    <nd ref='-137250015' />
    <nd ref='-137250016' />
    <tag k='type' v='straight' />
  </way>
  <way id='-35977781' action='modify'>
    <nd ref='-137250016' />
    <nd ref='-137250017' />
    <nd ref='-137250018' />
  </way>
  <way id='-35977782' action='modify'>
    <nd ref='-137250018' />
    <nd ref='-137250019' />
    <tag k='type' v='straight' />
  </way>
  <way id='-35977783' action='modify'>
    <nd ref='-137250019' />
    <nd ref='-137250020' />
  </way>
  <way id='-35977784' action='modify'>
    <nd ref='-137250020' />
    <nd ref='-137250021' />
    <tag k='type' v='straight' />
  </way>
  <way id='-35977787' action='modify'>
    <nd ref='-137250021' />
    <nd ref='-137250024' />
    <nd ref='-137250025' />
    <nd ref='-137250026' />
  </way>
  <way id='-35977788' action='modify'>
    <nd ref='-137250026' />
    <nd ref='-137250027' />
    <tag k='type' v='straight' />
  </way>
  <way id='-35977789' action='modify'>
    <nd ref='-137250027' />
    <nd ref='-137250028' />
  </way>
  <way id='-35977790' action='modify'>
    <nd ref='-137250028' />
    <nd ref='-137250032' />
    <tag k='type' v='straight' />
  </way>
  <way id='-35977793' action='modify'>
    <nd ref='-137250032' />
    <nd ref='-137250033' />
  </way>
  <way id='-35977794' action='modify'>
    <nd ref='-137250033' />
    <nd ref='-137250034' />
    <tag k='type' v='straight' />
  </way>
  <way id='-35977795' action='modify'>
    <nd ref='-137250034' />
    <nd ref='-137250035' />
  </way>
  <way id='-35977796' action='modify'>
    <nd ref='-137250035' />
    <nd ref='-137250036' />
    <tag k='type' v='straight' />
  </way>
  <way id='-35977911' action='modify'>
    <nd ref='-137250178' />
    <nd ref='-137250179' />
    <tag k='type' v='straight' />
  </way>
  <way id='-35977912' action='modify'>
    <nd ref='-137250179' />
    <nd ref='-137250180' />
    <tag k='type' v='arc' />
  </way>
  <way id='-35977913' action='modify'>
    <nd ref='-137250180' />
    <nd ref='-137250181' />
    <tag k='type' v='straight' />
  </way>
  <way id='-35977914' action='modify'>
    <nd ref='-137250181' />
    <nd ref='-137250182' />
  </way>
  <way id='-35977915' action='modify'>
    <nd ref='-137250182' />
    <nd ref='-137250183' />
    <tag k='type' v='straight' />
  </way>
  <way id='-35977916' action='modify'>
    <nd ref='-137250183' />
    <nd ref='-137250184' />
  </way>
  <way id='-35977917' action='modify'>
    <nd ref='-137250184' />
    <nd ref='-137250185' />
    <nd ref='-137250186' />
    <tag k='type' v='straight' />
  </way>
  <way id='-35977918' action='modify'>
    <nd ref='-137250186' />
    <nd ref='-137250187' />
  </way>
  <way id='-35977919' action='modify'>
    <nd ref='-137250187' />
    <nd ref='-137250188' />
    <tag k='type' v='straight' />
  </way>
  <way id='-35977992' action='modify'>
    <nd ref='-137249929' />
    <nd ref='-137250279' />
  </way>
  <way id='-35977993' action='modify'>
    <nd ref='-137250279' />
    <nd ref='-137250274' />
    <tag k='type' v='straight' />
  </way>
  <relation id='-14415306' action='modify'>
    <member type='way' ref='-35977911' role='' />
    <member type='way' ref='-35977912' role='' />
    <member type='way' ref='-35977913' role='' />
    <member type='way' ref='-35977914' role='' />
    <member type='way' ref='-35977915' role='' />
    <member type='way' ref='-35977916' role='' />
    <member type='way' ref='-35977917' role='' />
    <member type='way' ref='-35977918' role='' />
    <member type='way' ref='-35977919' role='' />
    <member type='way' ref='-35977697' role='' />
    <member type='way' ref='-35977698' role='' />
    <member type='way' ref='-35977699' role='' />
    <member type='way' ref='-35977700' role='' />
    <member type='way' ref='-35977701' role='' />
    <member type='way' ref='-35977702' role='' />
    <member type='way' ref='-35977703' role='' />
    <member type='way' ref='-35977704' role='' />
    <member type='way' ref='-35977705' role='' />
    <member type='way' ref='-35977706' role='' />
    <member type='way' ref='-35977992' role='' />
    <member type='way' ref='-35977993' role='' />
    <member type='way' ref='-35977707' role='' />
    <member type='way' ref='-35977708' role='' />
    <member type='way' ref='-35977709' role='' />
    <member type='way' ref='-35977710' role='' />
    <member type='way' ref='-35977711' role='' />
    <member type='way' ref='-35977712' role='' />
    <member type='way' ref='-35977713' role='' />
    <member type='way' ref='-35977714' role='' />
    <member type='way' ref='-35977715' role='' />
    <member type='way' ref='-35977716' role='' />
    <member type='way' ref='-35977717' role='' />
    <member type='way' ref='-35977718' role='' />
    <member type='way' ref='-35977719' role='' />
    <member type='way' ref='-35977720' role='' />
    <member type='way' ref='-35977721' role='' />
    <member type='way' ref='-35977722' role='' />
    <member type='way' ref='-35977723' role='' />
    <member type='way' ref='-35977724' role='' />
    <member type='way' ref='-35977725' role='' />
    <member type='way' ref='-35977726' role='' />
    <member type='way' ref='-35977727' role='' />
    <member type='way' ref='-35977728' role='' />
    <member type='way' ref='-35977729' role='' />
    <member type='way' ref='-35977730' role='' />
    <member type='way' ref='-35977731' role='' />
    <member type='way' ref='-35977732' role='' />
    <member type='way' ref='-35977733' role='' />
    <member type='way' ref='-35977734' role='' />
    <member type='way' ref='-35977735' role='' />
    <member type='way' ref='-35977736' role='' />
    <member type='way' ref='-35977737' role='' />
    <member type='way' ref='-35977738' role='' />
    <member type='way' ref='-35977739' role='' />
    <member type='way' ref='-35977740' role='' />
    <member type='way' ref='-35977741' role='' />
    <member type='way' ref='-35977742' role='' />
    <member type='way' ref='-35977743' role='' />
    <member type='way' ref='-35977744' role='' />
    <member type='way' ref='-35977745' role='' />
    <member type='way' ref='-35977746' role='' />
    <member type='way' ref='-35977747' role='' />
    <member type='way' ref='-35977748' role='' />
    <member type='way' ref='-35977749' role='' />
    <member type='way' ref='-35977750' role='' />
    <member type='way' ref='-35977751' role='' />
    <member type='way' ref='-35977752' role='' />
    <member type='way' ref='-35977753' role='' />
    <member type='way' ref='-35977754' role='' />
    <member type='way' ref='-35977755' role='' />
    <member type='way' ref='-35977756' role='' />
    <member type='way' ref='-35977757' role='' />
    <member type='way' ref='-35977758' role='' />
    <member type='way' ref='-35977759' role='' />
    <member type='way' ref='-35977760' role='' />
    <member type='way' ref='-35977761' role='' />
    <member type='way' ref='-35977762' role='' />
    <member type='way' ref='-35977763' role='' />
    <member type='way' ref='-35977764' role='' />
    <member type='way' ref='-35977765' role='' />
    <member type='way' ref='-35977766' role='' />
    <member type='way' ref='-35977767' role='' />
    <member type='way' ref='-35977768' role='' />
    <member type='way' ref='-35977769' role='' />
    <member type='way' ref='-35977770' role='' />
    <member type='way' ref='-35977771' role='' />
    <member type='way' ref='-35977772' role='' />
    <member type='way' ref='-35977773' role='' />
    <member type='way' ref='-35977774' role='' />
    <member type='way' ref='-35977775' role='' />
    <member type='way' ref='-35977776' role='' />
    <member type='way' ref='-35977777' role='' />
    <member type='way' ref='-35977778' role='' />
    <member type='way' ref='-35977779' role='' />
    <member type='way' ref='-35977780' role='' />
    <member type='way' ref='-35977781' role='' />
    <member type='way' ref='-35977782' role='' />
    <member type='way' ref='-35977783' role='' />
    <member type='way' ref='-35977784' role='' />
    <member type='way' ref='-35977787' role='' />
    <member type='way' ref='-35977788' role='' />
    <member type='way' ref='-35977789' role='' />
    <member type='way' ref='-35977790' role='' />
    <member type='way' ref='-35977793' role='' />
    <member type='way' ref='-35977794' role='' />
    <member type='way' ref='-35977795' role='' />
    <member type='way' ref='-35977796' role='' />
    <tag k='key' v='path.dk.khk' />
    <tag k='name' v='DK KHK' />
    <tag k='type' v='path' />
  </relation>
</osm>
