<?xml version='1.0' encoding='UTF-8'?>
<osm version='0.6' upload='false' generator='JOSM'>
  <node id='-71093562' action='modify' lat='55.67256210485' lon='12.56524542302'>
    <tag k='name' v='kob' />
  </node>
  <node id='-71093563' action='modify' lat='55.6740063778' lon='12.56368349048' />
  <node id='-71093564' action='modify' lat='55.67877902186' lon='12.56502133112' />
  <node id='-71093565' action='modify' lat='55.67937458541' lon='12.56625097197' />
  <node id='-71093566' action='modify' lat='55.68027988651' lon='12.56772179701' />
  <node id='-71093567' action='modify' lat='55.68199862924' lon='12.56990786263' />
  <node id='-71093568' action='modify' lat='55.68271621759' lon='12.57093566101' />
  <node id='-71093569' action='modify' lat='55.68344032327' lon='12.57210020711' />
  <node id='-71093570' action='modify' lat='55.68374856286' lon='12.57257686652'>
    <tag k='name' v='nor' />
  </node>
  <node id='-71093571' action='modify' lat='55.68416831394' lon='12.57320920414' />
  <node id='-71093572' action='modify' lat='55.68607727103' lon='12.57596254738' />
  <node id='-71093573' action='modify' lat='55.6869043567' lon='12.5772905426' />
  <node id='-71093574' action='modify' lat='55.68827358747' lon='12.57973514181' />
  <node id='-71093575' action='modify' lat='55.68877436497' lon='12.58068571707' />
  <node id='-71093576' action='modify' lat='55.69016429962' lon='12.58349149815' />
  <node id='-71093577' action='modify' lat='55.69066196719' lon='12.58439513285' />
  <node id='-71093578' action='modify' lat='55.69372329252' lon='12.5893964312'>
    <tag k='name' v='ost' />
  </node>
  <node id='-71093579' action='modify' lat='55.6939042605' lon='12.58969209151' />
  <node id='-71093580' action='modify' lat='55.69795815952' lon='12.59219316178' />
  <node id='-71093581' action='modify' lat='55.704122544' lon='12.59137202433' />
  <node id='-71093582' action='modify' lat='55.70578484533' lon='12.59088318637' />
  <node id='-71093583' action='modify' lat='55.70898104378' lon='12.5894136306' />
  <node id='-71093584' action='modify' lat='55.7113648286' lon='12.58757639754' />
  <node id='-71093585' action='modify' lat='55.71199978591' lon='12.58686061233'>
    <tag k='name' v='heg' />
  </node>
  <node id='-71093586' action='modify' lat='55.71404141094' lon='12.58329955657' />
  <node id='-71093587' action='modify' lat='55.71527705463' lon='12.57997609433'>
    <tag k='name' v='sva' />
  </node>
  <node id='-71093588' action='modify' lat='55.71656942968' lon='12.57649993149' />
  <node id='-71093589' action='modify' lat='55.71995549924' lon='12.5719808133' />
  <node id='-71093590' action='modify' lat='55.72431672407' lon='12.56956802825' />
  <node id='-71093591' action='modify' lat='55.72547987815' lon='12.56905483104' />
  <node id='-71093592' action='modify' lat='55.7311122108' lon='12.56728828906'>
    <tag k='name' v='hel' />
  </node>
  <node id='-71093593' action='modify' lat='55.73295433963' lon='12.56671046285' />
  <node id='-71093594' action='modify' lat='55.73388065317' lon='12.56648140522' />
  <node id='-71093595' action='modify' lat='55.73494449563' lon='12.56628826485' />
  <node id='-71093596' action='modify' lat='55.73566698489' lon='12.56611370839' />
  <node id='-71093597' action='modify' lat='55.73794951114' lon='12.56542390193' />
  <node id='-71093598' action='modify' lat='55.73869698888' lon='12.56514907854' />
  <node id='-71093599' action='modify' lat='55.73941483565' lon='12.56483746842' />
  <node id='-71093600' action='modify' lat='55.74569104568' lon='12.56590308789' />
  <node id='-71093601' action='modify' lat='55.74663664819' lon='12.56667401624' />
  <node id='-71093602' action='modify' lat='55.74815893692' lon='12.56822906105' />
  <node id='-71093603' action='modify' lat='55.74974655398' lon='12.57021481559' />
  <node id='-71093604' action='modify' lat='55.75164963112' lon='12.57247044991'>
    <tag k='name' v='cha' />
  </node>
  <node id='-71093605' action='modify' lat='55.752653647' lon='12.57358525539' />
  <node id='-71093606' action='modify' lat='55.75845656152' lon='12.57980322665' />
  <node id='-71093607' action='modify' lat='55.75945805307' lon='12.58082928675' />
  <node id='-71093608' action='modify' lat='55.76116292868' lon='12.58249741134' />
  <node id='-71093609' action='modify' lat='55.76217009176' lon='12.58334442157'>
    <tag k='name' v='ord' />
  </node>
  <node id='-71093610' action='modify' lat='55.76423210952' lon='12.58442324841' />
  <node id='-71093611' action='modify' lat='55.76669692268' lon='12.58520018574' />
  <node id='-71093612' action='modify' lat='55.77050762615' lon='12.58784106354' />
  <node id='-71093613' action='modify' lat='55.77128252202' lon='12.58872003441' />
  <node id='-71093614' action='modify' lat='55.77569972267' lon='12.58927318962' />
  <node id='-71093615' action='modify' lat='55.77663953548' lon='12.58872883144'>
    <tag k='name' v='kla' />
  </node>
  <node id='-71093616' action='modify' lat='55.77831713861' lon='12.58775709788' />
  <node id='-71093617' action='modify' lat='55.7838351729' lon='12.58839099674' />
  <node id='-71093618' action='modify' lat='55.78493883796' lon='12.5893244398' />
  <node id='-71093619' action='modify' lat='55.79172739206' lon='12.59000597656' />
  <node id='-71093620' action='modify' lat='55.80084103617' lon='12.58443259707' />
  <node id='-71093621' action='modify' lat='55.8032958814' lon='12.58218913202' />
  <node id='-71093622' action='modify' lat='55.80427463886' lon='12.58095139139' />
  <node id='-71093623' action='modify' lat='55.80667265267' lon='12.57871401715' />
  <node id='-71093624' action='modify' lat='55.81077563116' lon='12.57606547976' />
  <node id='-71093625' action='modify' lat='55.81566649056' lon='12.57370047789' />
  <node id='-71093626' action='modify' lat='55.81980148654' lon='12.57234127856' />
  <node id='-71093627' action='modify' lat='55.822671534' lon='12.57174220103' />
  <node id='-71093628' action='modify' lat='55.82351922209' lon='12.57166541547'>
    <tag k='name' v='sko' />
  </node>
  <node id='-71093629' action='modify' lat='55.82601926512' lon='12.57143894602' />
  <node id='-71093630' action='modify' lat='55.82893177224' lon='12.57045538314' />
  <node id='-71093631' action='modify' lat='55.84066336063' lon='12.56343810427' />
  <node id='-71093632' action='modify' lat='55.84353418939' lon='12.56259424673' />
  <node id='-71093633' action='modify' lat='55.85157017402' lon='12.56255026677' />
  <node id='-71093634' action='modify' lat='55.85273857743' lon='12.56244150605'>
    <tag k='name' v='ved' />
  </node>
  <node id='-71093635' action='modify' lat='55.86152958938' lon='12.55318194645' />
  <node id='-71093636' action='modify' lat='55.86286449037' lon='12.54972300495' />
  <node id='-71093637' action='modify' lat='55.86657496052' lon='12.54425702502' />
  <node id='-71093638' action='modify' lat='55.88029089843' lon='12.53353812122' />
  <node id='-71093639' action='modify' lat='55.88225664322' lon='12.53161111377'>
    <tag k='name' v='run' />
  </node>
  <node id='-71093640' action='modify' lat='55.88378288091' lon='12.52956162475' />
  <node id='-71093641' action='modify' lat='55.89779802693' lon='12.50748131836' />
  <node id='-71093642' action='modify' lat='55.90360270723' lon='12.50227614253'>
    <tag k='name' v='kok' />
  </node>
  <node id='-71093643' action='modify' lat='55.90562294846' lon='12.50175975365' />
  <node id='-71093644' action='modify' lat='55.92165994034' lon='12.50019903685' />
  <node id='-71093645' action='modify' lat='55.92993339439' lon='12.50322119646' />
  <node id='-71093646' action='modify' lat='55.93340033216' lon='12.50627363656'>
    <tag k='name' v='niv' />
  </node>
  <node id='-71093647' action='modify' lat='55.96348826075' lon='12.53277581257'>
    <tag k='name' v='hum' />
  </node>
  <node id='-71093648' action='modify' lat='55.97314621193' lon='12.54128713809' />
  <node id='-71093649' action='modify' lat='55.97675197805' lon='12.54340931864' />
  <node id='-71093650' action='modify' lat='55.9942672973' lon='12.54904528126' />
  <node id='-71093651' action='modify' lat='55.99588445656' lon='12.54979340086'>
    <tag k='name' v='esp' />
  </node>
  <node id='-71093652' action='modify' lat='56.00127458117' lon='12.55661120716' />
  <node id='-71093653' action='modify' lat='56.0065341701' lon='12.5686692672' />
  <node id='-71093654' action='modify' lat='56.00823872367' lon='12.57544849999' />
  <node id='-71093655' action='modify' lat='56.00854593186' lon='12.57842152427' />
  <node id='-71093656' action='modify' lat='56.00860312146' lon='12.57897498236' />
  <node id='-71093657' action='modify' lat='56.00922589233' lon='12.58310188756' />
  <node id='-71093658' action='modify' lat='56.00938158258' lon='12.58387799478'>
    <tag k='name' v='sne' />
  </node>
  <node id='-71093659' action='modify' lat='56.01035240774' lon='12.58871757469' />
  <node id='-71093660' action='modify' lat='56.01442552058' lon='12.59670461432' />
  <node id='-71093661' action='modify' lat='56.01889844916' lon='12.60041749793' />
  <node id='-71093662' action='modify' lat='56.02188285018' lon='12.60189514618' />
  <node id='-71093663' action='modify' lat='56.02331209913' lon='12.60216602438' />
  <node id='-71093664' action='modify' lat='56.02729227229' lon='12.60468754915' />
  <node id='-71093665' action='modify' lat='56.02945257986' lon='12.60719280145' />
  <node id='-71093666' action='modify' lat='56.03119139869' lon='12.60988425982' />
  <node id='-71093667' action='modify' lat='56.03326538759' lon='12.61411966005'>
    <tag k='name' v='hor' />
  </node>
  <way id='-22172385' action='modify'>
    <nd ref='-71093562' />
    <nd ref='-71093563' />
    <tag k='type' v='straight' />
  </way>
  <way id='-22172386' action='modify'>
    <nd ref='-71093563' />
    <nd ref='-71093564' />
    <tag k='type' v='arc' />
  </way>
  <way id='-22172387' action='modify'>
    <nd ref='-71093564' />
    <nd ref='-71093565' />
    <tag k='type' v='straight' />
  </way>
  <way id='-22172388' action='modify'>
    <nd ref='-71093565' />
    <nd ref='-71093566' />
    <tag k='type' v='arc' />
  </way>
  <way id='-22172389' action='modify'>
    <nd ref='-71093566' />
    <nd ref='-71093567' />
    <tag k='type' v='straight' />
  </way>
  <way id='-22172390' action='modify'>
    <nd ref='-71093567' />
    <nd ref='-71093568' />
    <tag k='type' v='arc' />
  </way>
  <way id='-22172391' action='modify'>
    <nd ref='-71093568' />
    <nd ref='-71093569' />
    <tag k='type' v='straight' />
  </way>
  <way id='-22172392' action='modify'>
    <nd ref='-71093569' />
    <nd ref='-71093570' />
    <nd ref='-71093571' />
    <tag k='type' v='arc' />
  </way>
  <way id='-22172393' action='modify'>
    <nd ref='-71093571' />
    <nd ref='-71093572' />
    <tag k='type' v='straight' />
  </way>
  <way id='-22172394' action='modify'>
    <nd ref='-71093572' />
    <nd ref='-71093573' />
    <tag k='type' v='arc' />
  </way>
  <way id='-22172395' action='modify'>
    <nd ref='-71093573' />
    <nd ref='-71093574' />
    <tag k='type' v='straight' />
  </way>
  <way id='-22172396' action='modify'>
    <nd ref='-71093574' />
    <nd ref='-71093575' />
    <tag k='type' v='arc' />
  </way>
  <way id='-22172397' action='modify'>
    <nd ref='-71093575' />
    <nd ref='-71093576' />
    <tag k='type' v='straight' />
  </way>
  <way id='-22172398' action='modify'>
    <nd ref='-71093576' />
    <nd ref='-71093577' />
    <tag k='type' v='arc' />
  </way>
  <way id='-22172399' action='modify'>
    <nd ref='-71093577' />
    <nd ref='-71093578' />
    <nd ref='-71093579' />
    <tag k='type' v='straight' />
  </way>
  <way id='-22172400' action='modify'>
    <nd ref='-71093579' />
    <nd ref='-71093580' />
    <tag k='type' v='arc' />
  </way>
  <way id='-22172401' action='modify'>
    <nd ref='-71093580' />
    <nd ref='-71093581' />
    <tag k='type' v='straight' />
  </way>
  <way id='-22172402' action='modify'>
    <nd ref='-71093581' />
    <nd ref='-71093582' />
    <tag k='type' v='arc' />
  </way>
  <way id='-22172403' action='modify'>
    <nd ref='-71093582' />
    <nd ref='-71093583' />
    <tag k='type' v='straight' />
  </way>
  <way id='-22172404' action='modify'>
    <nd ref='-71093583' />
    <nd ref='-71093584' />
    <tag k='type' v='arc' />
  </way>
  <way id='-22172405' action='modify'>
    <nd ref='-71093584' />
    <nd ref='-71093585' />
    <tag k='type' v='straight' />
  </way>
  <way id='-22172406' action='modify'>
    <nd ref='-71093585' />
    <nd ref='-71093586' />
    <tag k='type' v='arc' />
  </way>
  <way id='-22172407' action='modify'>
    <nd ref='-71093586' />
    <nd ref='-71093587' />
    <nd ref='-71093588' />
    <tag k='type' v='straight' />
  </way>
  <way id='-22172408' action='modify'>
    <nd ref='-71093588' />
    <nd ref='-71093589' />
    <tag k='type' v='arc' />
  </way>
  <way id='-22172409' action='modify'>
    <nd ref='-71093589' />
    <nd ref='-71093590' />
    <tag k='type' v='straight' />
  </way>
  <way id='-22172410' action='modify'>
    <nd ref='-71093590' />
    <nd ref='-71093591' />
    <tag k='type' v='arc' />
  </way>
  <way id='-22172411' action='modify'>
    <nd ref='-71093591' />
    <nd ref='-71093592' />
    <nd ref='-71093593' />
    <tag k='type' v='straight' />
  </way>
  <way id='-22172412' action='modify'>
    <nd ref='-71093593' />
    <nd ref='-71093594' />
    <tag k='type' v='arc' />
  </way>
  <way id='-22172413' action='modify'>
    <nd ref='-71093594' />
    <nd ref='-71093595' />
    <tag k='type' v='straight' />
  </way>
  <way id='-22172414' action='modify'>
    <nd ref='-71093595' />
    <nd ref='-71093596' />
    <tag k='type' v='arc' />
  </way>
  <way id='-22172415' action='modify'>
    <nd ref='-71093596' />
    <nd ref='-71093597' />
    <tag k='type' v='straight' />
  </way>
  <way id='-22172416' action='modify'>
    <nd ref='-71093597' />
    <nd ref='-71093598' />
    <tag k='type' v='arc' />
  </way>
  <way id='-22172417' action='modify'>
    <nd ref='-71093598' />
    <nd ref='-71093599' />
    <tag k='type' v='straight' />
  </way>
  <way id='-22172418' action='modify'>
    <nd ref='-71093599' />
    <nd ref='-71093600' />
    <tag k='type' v='arc' />
  </way>
  <way id='-22172419' action='modify'>
    <nd ref='-71093600' />
    <nd ref='-71093601' />
    <tag k='type' v='straight' />
  </way>
  <way id='-22172420' action='modify'>
    <nd ref='-71093601' />
    <nd ref='-71093602' />
    <tag k='type' v='arc' />
  </way>
  <way id='-22172421' action='modify'>
    <nd ref='-71093602' />
    <nd ref='-71093603' />
    <tag k='type' v='straight' />
  </way>
  <way id='-22172422' action='modify'>
    <nd ref='-71093603' />
    <nd ref='-71093604' />
    <nd ref='-71093605' />
    <tag k='type' v='arc' />
  </way>
  <way id='-22172423' action='modify'>
    <nd ref='-71093605' />
    <nd ref='-71093606' />
    <tag k='type' v='straight' />
  </way>
  <way id='-22172424' action='modify'>
    <nd ref='-71093606' />
    <nd ref='-71093607' />
    <tag k='type' v='arc' />
  </way>
  <way id='-22172425' action='modify'>
    <nd ref='-71093607' />
    <nd ref='-71093608' />
    <tag k='type' v='straight' />
  </way>
  <way id='-22172426' action='modify'>
    <nd ref='-71093608' />
    <nd ref='-71093609' />
    <nd ref='-71093610' />
    <tag k='type' v='arc' />
  </way>
  <way id='-22172427' action='modify'>
    <nd ref='-71093610' />
    <nd ref='-71093611' />
    <tag k='type' v='straight' />
  </way>
  <way id='-22172428' action='modify'>
    <nd ref='-71093611' />
    <nd ref='-71093612' />
    <tag k='type' v='arc' />
  </way>
  <way id='-22172429' action='modify'>
    <nd ref='-71093612' />
    <nd ref='-71093613' />
    <tag k='type' v='straight' />
  </way>
  <way id='-22172430' action='modify'>
    <nd ref='-71093613' />
    <nd ref='-71093614' />
    <tag k='type' v='arc' />
  </way>
  <way id='-22172431' action='modify'>
    <nd ref='-71093614' />
    <nd ref='-71093615' />
    <nd ref='-71093616' />
    <tag k='type' v='straight' />
  </way>
  <way id='-22172432' action='modify'>
    <nd ref='-71093616' />
    <nd ref='-71093617' />
    <tag k='type' v='arc' />
  </way>
  <way id='-22172433' action='modify'>
    <nd ref='-71093617' />
    <nd ref='-71093618' />
    <tag k='type' v='straight' />
  </way>
  <way id='-22172434' action='modify'>
    <nd ref='-71093618' />
    <nd ref='-71093619' />
    <tag k='type' v='arc' />
  </way>
  <way id='-22172435' action='modify'>
    <nd ref='-71093619' />
    <nd ref='-71093620' />
    <tag k='type' v='straight' />
  </way>
  <way id='-22172436' action='modify'>
    <nd ref='-71093620' />
    <nd ref='-71093621' />
    <tag k='type' v='arc' />
  </way>
  <way id='-22172437' action='modify'>
    <nd ref='-71093621' />
    <nd ref='-71093622' />
    <tag k='type' v='straight' />
  </way>
  <way id='-22172438' action='modify'>
    <nd ref='-71093622' />
    <nd ref='-71093623' />
    <tag k='type' v='arc' />
  </way>
  <way id='-22172439' action='modify'>
    <nd ref='-71093623' />
    <nd ref='-71093624' />
    <tag k='type' v='straight' />
  </way>
  <way id='-22172440' action='modify'>
    <nd ref='-71093624' />
    <nd ref='-71093625' />
    <tag k='type' v='arc' />
  </way>
  <way id='-22172441' action='modify'>
    <nd ref='-71093625' />
    <nd ref='-71093626' />
    <tag k='type' v='straight' />
  </way>
  <way id='-22172442' action='modify'>
    <nd ref='-71093626' />
    <nd ref='-71093627' />
    <tag k='type' v='arc' />
  </way>
  <way id='-22172443' action='modify'>
    <nd ref='-71093627' />
    <nd ref='-71093628' />
    <nd ref='-71093629' />
    <tag k='type' v='straight' />
  </way>
  <way id='-22172444' action='modify'>
    <nd ref='-71093629' />
    <nd ref='-71093630' />
    <tag k='type' v='arc' />
  </way>
  <way id='-22172445' action='modify'>
    <nd ref='-71093630' />
    <nd ref='-71093631' />
    <tag k='type' v='straight' />
  </way>
  <way id='-22172446' action='modify'>
    <nd ref='-71093631' />
    <nd ref='-71093632' />
    <tag k='type' v='arc' />
  </way>
  <way id='-22172447' action='modify'>
    <nd ref='-71093632' />
    <nd ref='-71093633' />
    <tag k='type' v='straight' />
  </way>
  <way id='-22172448' action='modify'>
    <nd ref='-71093633' />
    <nd ref='-71093634' />
    <nd ref='-71093635' />
    <tag k='type' v='arc' />
  </way>
  <way id='-22172449' action='modify'>
    <nd ref='-71093635' />
    <nd ref='-71093636' />
    <tag k='type' v='straight' />
  </way>
  <way id='-22172450' action='modify'>
    <nd ref='-71093636' />
    <nd ref='-71093637' />
    <tag k='type' v='arc' />
  </way>
  <way id='-22172451' action='modify'>
    <nd ref='-71093637' />
    <nd ref='-71093638' />
    <tag k='type' v='straight' />
  </way>
  <way id='-22172452' action='modify'>
    <nd ref='-71093638' />
    <nd ref='-71093639' />
    <nd ref='-71093640' />
    <tag k='type' v='arc' />
  </way>
  <way id='-22172453' action='modify'>
    <nd ref='-71093640' />
    <nd ref='-71093641' />
    <tag k='type' v='straight' />
  </way>
  <way id='-22172454' action='modify'>
    <nd ref='-71093641' />
    <nd ref='-71093642' />
    <nd ref='-71093643' />
    <tag k='type' v='arc' />
  </way>
  <way id='-22172455' action='modify'>
    <nd ref='-71093643' />
    <nd ref='-71093644' />
    <tag k='type' v='straight' />
  </way>
  <way id='-22172456' action='modify'>
    <nd ref='-71093644' />
    <nd ref='-71093645' />
    <tag k='type' v='arc' />
  </way>
  <way id='-22172457' action='modify'>
    <nd ref='-71093645' />
    <nd ref='-71093646' />
    <nd ref='-71093647' />
    <nd ref='-71093648' />
    <tag k='type' v='straight' />
  </way>
  <way id='-22172458' action='modify'>
    <nd ref='-71093648' />
    <nd ref='-71093649' />
    <tag k='type' v='arc' />
  </way>
  <way id='-22172459' action='modify'>
    <nd ref='-71093649' />
    <nd ref='-71093650' />
    <tag k='type' v='straight' />
  </way>
  <way id='-22172460' action='modify'>
    <nd ref='-71093650' />
    <nd ref='-71093651' />
    <nd ref='-71093652' />
    <tag k='type' v='arc' />
  </way>
  <way id='-22172461' action='modify'>
    <nd ref='-71093652' />
    <nd ref='-71093653' />
    <tag k='type' v='straight' />
  </way>
  <way id='-22172462' action='modify'>
    <nd ref='-71093653' />
    <nd ref='-71093654' />
    <tag k='type' v='arc' />
  </way>
  <way id='-22172463' action='modify'>
    <nd ref='-71093654' />
    <nd ref='-71093655' />
    <tag k='type' v='straight' />
  </way>
  <way id='-22172464' action='modify'>
    <nd ref='-71093655' />
    <nd ref='-71093656' />
    <tag k='type' v='straight' />
  </way>
  <way id='-22172465' action='modify'>
    <nd ref='-71093656' />
    <nd ref='-71093657' />
    <tag k='type' v='arc' />
  </way>
  <way id='-22172466' action='modify'>
    <nd ref='-71093657' />
    <nd ref='-71093658' />
    <nd ref='-71093659' />
    <tag k='type' v='straight' />
  </way>
  <way id='-22172467' action='modify'>
    <nd ref='-71093659' />
    <nd ref='-71093660' />
    <tag k='type' v='arc' />
  </way>
  <way id='-22172468' action='modify'>
    <nd ref='-71093660' />
    <nd ref='-71093661' />
    <tag k='type' v='straight' />
  </way>
  <way id='-22172469' action='modify'>
    <nd ref='-71093661' />
    <nd ref='-71093662' />
    <tag k='type' v='arc' />
  </way>
  <way id='-22172470' action='modify'>
    <nd ref='-71093662' />
    <nd ref='-71093663' />
    <tag k='type' v='straight' />
  </way>
  <way id='-22172471' action='modify'>
    <nd ref='-71093663' />
    <nd ref='-71093664' />
    <tag k='type' v='arc' />
  </way>
  <way id='-22172472' action='modify'>
    <nd ref='-71093664' />
    <nd ref='-71093665' />
    <tag k='type' v='straight' />
  </way>
  <way id='-22172473' action='modify'>
    <nd ref='-71093665' />
    <nd ref='-71093666' />
    <tag k='type' v='arc' />
  </way>
  <way id='-22172474' action='modify'>
    <nd ref='-71093666' />
    <nd ref='-71093667' />
    <tag k='type' v='straight' />
  </way>
  <relation id='-14220611' action='modify'>
    <member type='way' ref='-22172385' role='' />
    <member type='way' ref='-22172386' role='' />
    <member type='way' ref='-22172387' role='' />
    <member type='way' ref='-22172388' role='' />
    <member type='way' ref='-22172389' role='' />
    <member type='way' ref='-22172390' role='' />
    <member type='way' ref='-22172391' role='' />
    <member type='way' ref='-22172392' role='' />
    <member type='way' ref='-22172393' role='' />
    <member type='way' ref='-22172394' role='' />
    <member type='way' ref='-22172395' role='' />
    <member type='way' ref='-22172396' role='' />
    <member type='way' ref='-22172397' role='' />
    <member type='way' ref='-22172398' role='' />
    <member type='way' ref='-22172399' role='' />
    <member type='way' ref='-22172400' role='' />
    <member type='way' ref='-22172401' role='' />
    <member type='way' ref='-22172402' role='' />
    <member type='way' ref='-22172403' role='' />
    <member type='way' ref='-22172404' role='' />
    <member type='way' ref='-22172405' role='' />
    <member type='way' ref='-22172406' role='' />
    <member type='way' ref='-22172407' role='' />
    <member type='way' ref='-22172408' role='' />
    <member type='way' ref='-22172409' role='' />
    <member type='way' ref='-22172410' role='' />
    <member type='way' ref='-22172411' role='' />
    <member type='way' ref='-22172412' role='' />
    <member type='way' ref='-22172413' role='' />
    <member type='way' ref='-22172414' role='' />
    <member type='way' ref='-22172415' role='' />
    <member type='way' ref='-22172416' role='' />
    <member type='way' ref='-22172417' role='' />
    <member type='way' ref='-22172418' role='' />
    <member type='way' ref='-22172419' role='' />
    <member type='way' ref='-22172420' role='' />
    <member type='way' ref='-22172421' role='' />
    <member type='way' ref='-22172422' role='' />
    <member type='way' ref='-22172423' role='' />
    <member type='way' ref='-22172424' role='' />
    <member type='way' ref='-22172425' role='' />
    <member type='way' ref='-22172426' role='' />
    <member type='way' ref='-22172427' role='' />
    <member type='way' ref='-22172428' role='' />
    <member type='way' ref='-22172429' role='' />
    <member type='way' ref='-22172430' role='' />
    <member type='way' ref='-22172431' role='' />
    <member type='way' ref='-22172432' role='' />
    <member type='way' ref='-22172433' role='' />
    <member type='way' ref='-22172434' role='' />
    <member type='way' ref='-22172435' role='' />
    <member type='way' ref='-22172436' role='' />
    <member type='way' ref='-22172437' role='' />
    <member type='way' ref='-22172438' role='' />
    <member type='way' ref='-22172439' role='' />
    <member type='way' ref='-22172440' role='' />
    <member type='way' ref='-22172441' role='' />
    <member type='way' ref='-22172442' role='' />
    <member type='way' ref='-22172443' role='' />
    <member type='way' ref='-22172444' role='' />
    <member type='way' ref='-22172445' role='' />
    <member type='way' ref='-22172446' role='' />
    <member type='way' ref='-22172447' role='' />
    <member type='way' ref='-22172448' role='' />
    <member type='way' ref='-22172449' role='' />
    <member type='way' ref='-22172450' role='' />
    <member type='way' ref='-22172451' role='' />
    <member type='way' ref='-22172452' role='' />
    <member type='way' ref='-22172453' role='' />
    <member type='way' ref='-22172454' role='' />
    <member type='way' ref='-22172455' role='' />
    <member type='way' ref='-22172456' role='' />
    <member type='way' ref='-22172457' role='' />
    <member type='way' ref='-22172458' role='' />
    <member type='way' ref='-22172459' role='' />
    <member type='way' ref='-22172460' role='' />
    <member type='way' ref='-22172461' role='' />
    <member type='way' ref='-22172462' role='' />
    <member type='way' ref='-22172463' role='' />
    <member type='way' ref='-22172464' role='' />
    <member type='way' ref='-22172465' role='' />
    <member type='way' ref='-22172466' role='' />
    <member type='way' ref='-22172467' role='' />
    <member type='way' ref='-22172468' role='' />
    <member type='way' ref='-22172469' role='' />
    <member type='way' ref='-22172470' role='' />
    <member type='way' ref='-22172471' role='' />
    <member type='way' ref='-22172472' role='' />
    <member type='way' ref='-22172473' role='' />
    <member type='way' ref='-22172474' role='' />
    <tag k='key' v='path.dk.khr' />
    <tag k='name' v='DK KHR' />
    <tag k='type' v='path' />
  </relation>
</osm>
