<?xml version='1.0' encoding='UTF-8'?>
<osm version='0.6' upload='false' generator='JOSM'>
  <node id='-149677973' action='modify' lat='55.33630131383' lon='11.13681882352'>
    <tag k='name' v='kor' />
  </node>
  <node id='-149677974' action='modify' lat='55.33550955625' lon='11.135593054' />
  <node id='-149677975' action='modify' lat='55.33925005665' lon='11.13869904399' />
  <node id='-149677976' action='modify' lat='55.34175776066' lon='11.13885997653' />
  <node id='-149677977' action='modify' lat='55.34367961307' lon='11.13559841573' />
  <node id='-149677978' action='modify' lat='55.34381078394' lon='11.13445043027' />
  <node id='-149677979' action='modify' lat='55.34430800908' lon='11.13214909494' />
  <node id='-149677980' action='modify' lat='55.34459474957' lon='11.13135516107' />
  <node id='-149677981' action='modify' lat='55.34561357666' lon='11.1268705076' />
  <node id='-149677982' action='modify' lat='55.34825508717' lon='11.10774635196' />
  <node id='-149677983' action='modify' lat='55.34823678634' lon='11.09476982474'>
    <tag k='name' v='hal' />
  </node>
  <node id='-149677984' action='modify' lat='55.34719100214' lon='11.09321653036' />
  <node id='-149677985' action='modify' lat='55.34691910426' lon='11.09296201587'>
    <tag k='name' v='hal.f' />
  </node>
  <way id='-36698484' action='modify'>
    <nd ref='-149677974' />
    <nd ref='-149677973' />
    <tag k='type' v='straight' />
  </way>
  <way id='-36698485' action='modify'>
    <nd ref='-149677973' />
    <nd ref='-149677975' />
  </way>
  <way id='-36698486' action='modify'>
    <nd ref='-149677975' />
    <nd ref='-149677976' />
    <tag k='type' v='straight' />
  </way>
  <way id='-36698487' action='modify'>
    <nd ref='-149677976' />
    <nd ref='-149677977' />
  </way>
  <way id='-36698488' action='modify'>
    <nd ref='-149677977' />
    <nd ref='-149677978' />
    <tag k='type' v='straight' />
  </way>
  <way id='-36698489' action='modify'>
    <nd ref='-149677978' />
    <nd ref='-149677979' />
  </way>
  <way id='-36698490' action='modify'>
    <nd ref='-149677979' />
    <nd ref='-149677980' />
    <tag k='type' v='straight' />
  </way>
  <way id='-36698491' action='modify'>
    <nd ref='-149677980' />
    <nd ref='-149677981' />
  </way>
  <way id='-36698492' action='modify'>
    <nd ref='-149677981' />
    <nd ref='-149677982' />
    <tag k='type' v='straight' />
  </way>
  <way id='-36698493' action='modify'>
    <nd ref='-149677982' />
    <nd ref='-149677983' />
    <nd ref='-149677984' />
  </way>
  <way id='-36698494' action='modify'>
    <nd ref='-149677984' />
    <nd ref='-149677985' />
    <tag k='type' v='straight' />
  </way>
  <relation id='-14470117' action='modify'>
    <member type='way' ref='-36698484' role='' />
    <member type='way' ref='-36698485' role='' />
    <member type='way' ref='-36698486' role='' />
    <member type='way' ref='-36698487' role='' />
    <member type='way' ref='-36698488' role='' />
    <member type='way' ref='-36698489' role='' />
    <member type='way' ref='-36698490' role='' />
    <member type='way' ref='-36698491' role='' />
    <member type='way' ref='-36698492' role='' />
    <member type='way' ref='-36698493' role='' />
    <member type='way' ref='-36698494' role='' />
    <tag k='key' v='path.dk.khs' />
    <tag k='name' v='DK KHS' />
    <tag k='type' v='path' />
  </relation>
</osm>
