<?xml version='1.0' encoding='UTF-8'?>
<osm version='0.6' upload='false' generator='JOSM'>
  <node id='-136759392' action='modify' lat='55.50616316348' lon='12.17549960621' />
  <node id='-136759393' action='modify' lat='55.49992087026' lon='12.17271587651'>
    <tag k='name' v='kon' />
  </node>
  <node id='-136759394' action='modify' lat='55.49524087352' lon='12.1706291371'>
    <tag k='name' v='kon.yk' />
  </node>
  <node id='-136759395' action='modify' lat='55.49079758507' lon='12.17054357769' />
  <node id='-136759396' action='modify' lat='55.48980752782' lon='12.17101973379' />
  <node id='-136759397' action='modify' lat='55.48924063722' lon='12.17128606203' />
  <node id='-136759399' action='modify' lat='55.48904589677' lon='12.17136588075' />
  <node id='-136759401' action='modify' lat='55.48862959489' lon='12.17150358466'>
    <tag k='name' v='kox' />
  </node>
  <node id='-136759402' action='modify' lat='55.48858457498' lon='12.17152018083' />
  <way id='-35950258' action='modify'>
    <nd ref='-136759392' />
    <nd ref='-136759393' />
    <nd ref='-136759394' />
    <tag k='type' v='straight' />
  </way>
  <way id='-35950259' action='modify'>
    <nd ref='-136759394' />
    <nd ref='-136759395' />
  </way>
  <way id='-35950260' action='modify'>
    <nd ref='-136759395' />
    <nd ref='-136759396' />
    <tag k='type' v='straight' />
  </way>
  <way id='-35950261' action='modify'>
    <nd ref='-136759396' />
    <nd ref='-136759397' />
  </way>
  <way id='-35950262' action='modify'>
    <nd ref='-136759397' />
    <nd ref='-136759399' />
    <tag k='type' v='straight' />
  </way>
  <way id='-35950282' action='modify'>
    <nd ref='-136759399' />
    <nd ref='-136759401' />
  </way>
  <way id='-35950283' action='modify'>
    <nd ref='-136759401' />
    <nd ref='-136759402' />
    <tag k='type' v='straight' />
  </way>
  <relation id='-14406978' action='modify'>
    <member type='way' ref='-35950258' role='' />
    <member type='way' ref='-35950259' role='' />
    <member type='way' ref='-35950260' role='' />
    <member type='way' ref='-35950261' role='' />
    <member type='way' ref='-35950262' role='' />
    <member type='way' ref='-35950282' role='' />
    <member type='way' ref='-35950283' role='' />
    <tag k='key' v='path.dk.kjx' />
    <tag k='name' v='DK KJX' />
    <tag k='type' v='path' />
  </relation>
</osm>
