<?xml version='1.0' encoding='UTF-8'?>
<osm version='0.6' upload='false' generator='JOSM'>
  <node id='-137577436' action='modify' lat='55.6722943816' lon='12.56446758241'>
    <tag k='name' v='kob' />
  </node>
  <node id='-137577437' action='modify' lat='55.67275552053' lon='12.56397316905' />
  <node id='-137577438' action='modify' lat='55.67880019427' lon='12.56482016544' />
  <node id='-137577439' action='modify' lat='55.6794275156' lon='12.56610881489' />
  <node id='-137577440' action='modify' lat='55.68041145266' lon='12.56770033934' />
  <node id='-137577441' action='modify' lat='55.68201072676' lon='12.56972547242' />
  <node id='-137577442' action='modify' lat='55.68277367974' lon='12.57079350393' />
  <node id='-137577443' action='modify' lat='55.68350685715' lon='12.57193659236' />
  <node id='-137577444' action='modify' lat='55.68382265682' lon='12.57243470944'>
    <tag k='name' v='nor' />
  </node>
  <node id='-137577445' action='modify' lat='55.68450248812' lon='12.57348547167' />
  <node id='-137577446' action='modify' lat='55.68600318134' lon='12.57565141113' />
  <node id='-137577447' action='modify' lat='55.68698902867' lon='12.57722616958' />
  <node id='-137577448' action='modify' lat='55.68825997993' lon='12.57947764974' />
  <node id='-137577449' action='modify' lat='55.68882879437' lon='12.58057306429' />
  <node id='-137577450' action='modify' lat='55.68983470948' lon='12.58257954708' />
  <node id='-137577451' action='modify' lat='55.69078896287' lon='12.58427175124' />
  <node id='-137577452' action='modify' lat='55.69385027825' lon='12.58927304959'>
    <tag k='name' v='ost' />
  </node>
  <node id='-137577453' action='modify' lat='55.69403124565' lon='12.5895687099' />
  <node id='-137577454' action='modify' lat='55.69831791238' lon='12.59200004273' />
  <node id='-137577455' action='modify' lat='55.70380818501' lon='12.59127546481' />
  <node id='-137577457' action='modify' lat='55.70611404481' lon='12.59055798884'>
    <tag k='name' v='nha' />
  </node>
  <node id='-137577458' action='modify' lat='55.70895384312' lon='12.58928220236' />
  <node id='-137577459' action='modify' lat='55.71146606916' lon='12.58728671897' />
  <node id='-137577460' action='modify' lat='55.71205720503' lon='12.58661116689' />
  <node id='-137577461' action='modify' lat='55.71441914701' lon='12.58180824836' />
  <node id='-137577462' action='modify' lat='55.71514539615' lon='12.57986141887'>
    <tag k='name' v='sva' />
  </node>
  <node id='-137577463' action='modify' lat='55.71634733354' lon='12.5765026137' />
  <node id='-137577465' action='modify' lat='55.71990715608' lon='12.57184670285' />
  <node id='-137577467' action='modify' lat='55.72417624228' lon='12.56950633744' />
  <node id='-137577468' action='modify' lat='55.72834067764' lon='12.56779955722' />
  <node id='-137577469' action='modify' lat='55.73106690204' lon='12.56697715281'>
    <tag k='name' v='hel' />
  </node>
  <node id='-137577470' action='modify' lat='55.7325773162' lon='12.56669884663' />
  <node id='-137577471' action='modify' lat='55.73390123607' lon='12.56629472045' />
  <node id='-137577472' action='modify' lat='55.73461459576' lon='12.56615685793' />
  <node id='-137577473' action='modify' lat='55.73493694491' lon='12.56611392126' />
  <node id='-137577474' action='modify' lat='55.73565188374' lon='12.56597691573' />
  <node id='-137577475' action='modify' lat='55.73777132758' lon='12.56533807124' />
  <node id='-137577476' action='modify' lat='55.7386788689' lon='12.56501228588' />
  <node id='-137577478' action='modify' lat='55.73939671601' lon='12.56470067576' />
  <node id='-137577479' action='modify' lat='55.74574539582' lon='12.56577970628' />
  <node id='-137577481' action='modify' lat='55.74669401639' lon='12.56656136346' />
  <node id='-137577482' action='modify' lat='55.7482434762' lon='12.56816737024' />
  <node id='-137577483' action='modify' lat='55.74976617839' lon='12.57004851863' />
  <node id='-137577484' action='modify' lat='55.75170397296' lon='12.57229342412'>
    <tag k='name' v='cha' />
  </node>
  <node id='-137577485' action='modify' lat='55.75313968937' lon='12.57390175605' />
  <node id='-137577486' action='modify' lat='55.75840222909' lon='12.57958596772' />
  <node id='-137577487' action='modify' lat='55.75951540242' lon='12.58073272723' />
  <node id='-137577488' action='modify' lat='55.761202166' lon='12.58237134752' />
  <node id='-137577489' action='modify' lat='55.76220027354' lon='12.58321299333'>
    <tag k='name' v='ord' />
  </node>
  <node id='-137577490' action='modify' lat='55.76446147832' lon='12.58434814656' />
  <node id='-137577491' action='modify' lat='55.76655961124' lon='12.58500438448' />
  <node id='-137577492' action='modify' lat='55.77054836283' lon='12.58771231751' />
  <node id='-137577493' action='modify' lat='55.77118143652' lon='12.58842499142' />
  <node id='-137577494' action='modify' lat='55.77561373432' lon='12.58876625212' />
  <node id='-137577495' action='modify' lat='55.77655354921' lon='12.58822189394'>
    <tag k='name' v='kla' />
  </node>
  <node id='-137577611' action='modify' lat='55.67423568236' lon='12.56295331111' />
  <node id='-137577612' action='modify' lat='55.67511630471' lon='12.5625752579' />
  <node id='-137577635' action='modify' lat='55.70687935052' lon='12.59024690822' />
  <node id='-137577654' action='modify' lat='55.70487603463' lon='12.59104281396' />
  <node id='-137577657' action='modify' lat='55.71609408608' lon='12.57724737834' />
  <node id='-137577664' action='modify' lat='55.71569397709' lon='12.57839083403' />
  <node id='-137577668' action='modify' lat='55.72517303208' lon='12.56901714954' />
  <node id='-137577685' action='modify' lat='55.72644246369' lon='12.56848811835' />
  <node id='-137577690' action='modify' lat='55.77738915057' lon='12.58773788714' />
  <way id='-35996306' action='modify'>
    <nd ref='-137577436' />
    <nd ref='-137577437' />
    <tag k='type' v='straight' />
  </way>
  <way id='-35996307' action='modify'>
    <nd ref='-137577437' />
    <nd ref='-137577611' />
    <tag k='type' v='arc' />
  </way>
  <way id='-35996308' action='modify'>
    <nd ref='-137577438' />
    <nd ref='-137577439' />
    <tag k='type' v='straight' />
  </way>
  <way id='-35996309' action='modify'>
    <nd ref='-137577439' />
    <nd ref='-137577440' />
    <tag k='type' v='arc' />
  </way>
  <way id='-35996310' action='modify'>
    <nd ref='-137577440' />
    <nd ref='-137577441' />
    <tag k='type' v='straight' />
  </way>
  <way id='-35996311' action='modify'>
    <nd ref='-137577441' />
    <nd ref='-137577442' />
    <tag k='type' v='arc' />
  </way>
  <way id='-35996312' action='modify'>
    <nd ref='-137577442' />
    <nd ref='-137577443' />
    <tag k='type' v='straight' />
  </way>
  <way id='-35996313' action='modify'>
    <nd ref='-137577443' />
    <nd ref='-137577444' />
    <nd ref='-137577445' />
    <tag k='type' v='arc' />
  </way>
  <way id='-35996314' action='modify'>
    <nd ref='-137577445' />
    <nd ref='-137577446' />
    <tag k='type' v='straight' />
  </way>
  <way id='-35996315' action='modify'>
    <nd ref='-137577446' />
    <nd ref='-137577447' />
    <tag k='type' v='arc' />
  </way>
  <way id='-35996316' action='modify'>
    <nd ref='-137577447' />
    <nd ref='-137577448' />
    <tag k='type' v='straight' />
  </way>
  <way id='-35996317' action='modify'>
    <nd ref='-137577448' />
    <nd ref='-137577449' />
    <tag k='type' v='arc' />
  </way>
  <way id='-35996318' action='modify'>
    <nd ref='-137577449' />
    <nd ref='-137577450' />
    <tag k='type' v='straight' />
  </way>
  <way id='-35996319' action='modify'>
    <nd ref='-137577450' />
    <nd ref='-137577451' />
    <tag k='type' v='arc' />
  </way>
  <way id='-35996320' action='modify'>
    <nd ref='-137577451' />
    <nd ref='-137577452' />
    <nd ref='-137577453' />
    <tag k='type' v='straight' />
  </way>
  <way id='-35996321' action='modify'>
    <nd ref='-137577453' />
    <nd ref='-137577454' />
    <tag k='type' v='arc' />
  </way>
  <way id='-35996322' action='modify'>
    <nd ref='-137577454' />
    <nd ref='-137577455' />
    <tag k='type' v='straight' />
  </way>
  <way id='-35996323' action='modify'>
    <nd ref='-137577455' />
    <nd ref='-137577654' />
    <nd ref='-137577457' />
    <nd ref='-137577635' />
  </way>
  <way id='-35996325' action='modify'>
    <nd ref='-137577458' />
    <nd ref='-137577459' />
    <tag k='type' v='arc' />
  </way>
  <way id='-35996326' action='modify'>
    <nd ref='-137577459' />
    <nd ref='-137577460' />
    <tag k='type' v='straight' />
  </way>
  <way id='-35996327' action='modify'>
    <nd ref='-137577460' />
    <nd ref='-137577461' />
    <tag k='type' v='arc' />
  </way>
  <way id='-35996328' action='modify'>
    <nd ref='-137577461' />
    <nd ref='-137577462' />
    <nd ref='-137577664' />
    <tag k='type' v='straight' />
  </way>
  <way id='-35996329' action='modify'>
    <nd ref='-137577463' />
    <nd ref='-137577465' />
    <tag k='type' v='arc' />
  </way>
  <way id='-35996330' action='modify'>
    <nd ref='-137577465' />
    <nd ref='-137577467' />
    <tag k='type' v='straight' />
  </way>
  <way id='-35996331' action='modify'>
    <nd ref='-137577467' />
    <nd ref='-137577668' />
    <tag k='type' v='arc' />
  </way>
  <way id='-35996332' action='modify'>
    <nd ref='-137577468' />
    <nd ref='-137577469' />
    <tag k='type' v='straight' />
  </way>
  <way id='-35996333' action='modify'>
    <nd ref='-137577470' />
    <nd ref='-137577471' />
    <tag k='type' v='straight' />
  </way>
  <way id='-35996334' action='modify'>
    <nd ref='-137577471' />
    <nd ref='-137577472' />
    <tag k='type' v='arc' />
  </way>
  <way id='-35996335' action='modify'>
    <nd ref='-137577472' />
    <nd ref='-137577473' />
    <tag k='type' v='straight' />
  </way>
  <way id='-35996336' action='modify'>
    <nd ref='-137577473' />
    <nd ref='-137577474' />
    <tag k='type' v='arc' />
  </way>
  <way id='-35996337' action='modify'>
    <nd ref='-137577474' />
    <nd ref='-137577475' />
    <tag k='type' v='straight' />
  </way>
  <way id='-35996338' action='modify'>
    <nd ref='-137577475' />
    <nd ref='-137577476' />
    <tag k='type' v='arc' />
  </way>
  <way id='-35996339' action='modify'>
    <nd ref='-137577476' />
    <nd ref='-137577478' />
    <tag k='type' v='straight' />
  </way>
  <way id='-35996340' action='modify'>
    <nd ref='-137577478' />
    <nd ref='-137577479' />
    <tag k='type' v='arc' />
  </way>
  <way id='-35996341' action='modify'>
    <nd ref='-137577479' />
    <nd ref='-137577481' />
    <tag k='type' v='straight' />
  </way>
  <way id='-35996342' action='modify'>
    <nd ref='-137577481' />
    <nd ref='-137577482' />
    <tag k='type' v='arc' />
  </way>
  <way id='-35996343' action='modify'>
    <nd ref='-137577482' />
    <nd ref='-137577483' />
    <tag k='type' v='straight' />
  </way>
  <way id='-35996344' action='modify'>
    <nd ref='-137577483' />
    <nd ref='-137577484' />
    <nd ref='-137577485' />
    <tag k='type' v='arc' />
  </way>
  <way id='-35996345' action='modify'>
    <nd ref='-137577485' />
    <nd ref='-137577486' />
    <tag k='type' v='straight' />
  </way>
  <way id='-35996346' action='modify'>
    <nd ref='-137577486' />
    <nd ref='-137577487' />
    <tag k='type' v='arc' />
  </way>
  <way id='-35996347' action='modify'>
    <nd ref='-137577487' />
    <nd ref='-137577488' />
    <tag k='type' v='straight' />
  </way>
  <way id='-35996348' action='modify'>
    <nd ref='-137577488' />
    <nd ref='-137577489' />
    <nd ref='-137577490' />
    <tag k='type' v='arc' />
  </way>
  <way id='-35996349' action='modify'>
    <nd ref='-137577490' />
    <nd ref='-137577491' />
    <tag k='type' v='straight' />
  </way>
  <way id='-35996350' action='modify'>
    <nd ref='-137577491' />
    <nd ref='-137577492' />
    <tag k='type' v='arc' />
  </way>
  <way id='-35996351' action='modify'>
    <nd ref='-137577492' />
    <nd ref='-137577493' />
    <tag k='type' v='straight' />
  </way>
  <way id='-35996352' action='modify'>
    <nd ref='-137577493' />
    <nd ref='-137577494' />
    <tag k='type' v='arc' />
  </way>
  <way id='-35996353' action='modify'>
    <nd ref='-137577494' />
    <nd ref='-137577495' />
    <nd ref='-137577690' />
    <tag k='type' v='straight' />
  </way>
  <way id='-35996450' action='modify'>
    <nd ref='-137577611' />
    <nd ref='-137577612' />
    <tag k='type' v='straight' />
  </way>
  <way id='-35996451' action='modify'>
    <nd ref='-137577612' />
    <nd ref='-137577438' />
    <tag k='type' v='arc' />
  </way>
  <way id='-35996494' action='modify'>
    <nd ref='-137577635' />
    <nd ref='-137577458' />
    <tag k='type' v='straight' />
  </way>
  <way id='-35996528' action='modify'>
    <nd ref='-137577664' />
    <nd ref='-137577657' />
  </way>
  <way id='-35996529' action='modify'>
    <nd ref='-137577657' />
    <nd ref='-137577463' />
    <tag k='type' v='straight' />
  </way>
  <way id='-35996536' action='modify'>
    <nd ref='-137577668' />
    <nd ref='-137577685' />
    <tag k='type' v='straight' />
  </way>
  <way id='-35996556' action='modify'>
    <nd ref='-137577685' />
    <nd ref='-137577468' />
    <tag k='type' v='arc' />
  </way>
  <way id='-35996572' action='modify'>
    <nd ref='-137577469' />
    <nd ref='-137577470' />
  </way>
  <relation id='-14431951' action='modify'>
    <member type='way' ref='-35996306' role='' />
    <member type='way' ref='-35996307' role='' />
    <member type='way' ref='-35996450' role='' />
    <member type='way' ref='-35996451' role='' />
    <member type='way' ref='-35996308' role='' />
    <member type='way' ref='-35996309' role='' />
    <member type='way' ref='-35996310' role='' />
    <member type='way' ref='-35996311' role='' />
    <member type='way' ref='-35996312' role='' />
    <member type='way' ref='-35996313' role='' />
    <member type='way' ref='-35996314' role='' />
    <member type='way' ref='-35996315' role='' />
    <member type='way' ref='-35996316' role='' />
    <member type='way' ref='-35996317' role='' />
    <member type='way' ref='-35996318' role='' />
    <member type='way' ref='-35996319' role='' />
    <member type='way' ref='-35996320' role='' />
    <member type='way' ref='-35996321' role='' />
    <member type='way' ref='-35996322' role='' />
    <member type='way' ref='-35996323' role='' />
    <member type='way' ref='-35996494' role='' />
    <member type='way' ref='-35996325' role='' />
    <member type='way' ref='-35996326' role='' />
    <member type='way' ref='-35996327' role='' />
    <member type='way' ref='-35996328' role='' />
    <member type='way' ref='-35996528' role='' />
    <member type='way' ref='-35996529' role='' />
    <member type='way' ref='-35996329' role='' />
    <member type='way' ref='-35996330' role='' />
    <member type='way' ref='-35996331' role='' />
    <member type='way' ref='-35996536' role='' />
    <member type='way' ref='-35996556' role='' />
    <member type='way' ref='-35996332' role='' />
    <member type='way' ref='-35996572' role='' />
    <member type='way' ref='-35996333' role='' />
    <member type='way' ref='-35996334' role='' />
    <member type='way' ref='-35996335' role='' />
    <member type='way' ref='-35996336' role='' />
    <member type='way' ref='-35996337' role='' />
    <member type='way' ref='-35996338' role='' />
    <member type='way' ref='-35996339' role='' />
    <member type='way' ref='-35996340' role='' />
    <member type='way' ref='-35996341' role='' />
    <member type='way' ref='-35996342' role='' />
    <member type='way' ref='-35996343' role='' />
    <member type='way' ref='-35996344' role='' />
    <member type='way' ref='-35996345' role='' />
    <member type='way' ref='-35996346' role='' />
    <member type='way' ref='-35996347' role='' />
    <member type='way' ref='-35996348' role='' />
    <member type='way' ref='-35996349' role='' />
    <member type='way' ref='-35996350' role='' />
    <member type='way' ref='-35996351' role='' />
    <member type='way' ref='-35996352' role='' />
    <member type='way' ref='-35996353' role='' />
    <tag k='key' v='path.dk.kkb' />
    <tag k='name' v='DK KKB' />
    <tag k='type' v='path' />
  </relation>
</osm>
