<?xml version='1.0' encoding='UTF-8'?>
<osm version='0.6' upload='false' generator='JOSM'>
  <node id='-134762029' action='modify' lat='55.67256210485' lon='12.56524542302'>
    <tag k='name' v='kob' />
  </node>
  <node id='-134762030' action='modify' lat='55.67203360602' lon='12.56581696229' />
  <node id='-134762031' action='modify' lat='55.6666534322' lon='12.56413985401' />
  <node id='-134762032' action='modify' lat='55.6650948984' lon='12.5606881795'>
    <tag k='name' v='dyb' />
  </node>
  <node id='-134762033' action='modify' lat='55.66478530231' lon='12.56000253545' />
  <node id='-134762034' action='modify' lat='55.66392802809' lon='12.55671330256' />
  <node id='-134762035' action='modify' lat='55.66363400053' lon='12.55442665216'>
    <tag k='name' v='ske' />
  </node>
  <node id='-134762036' action='modify' lat='55.66262303621' lon='12.54656452022' />
  <node id='-134762037' action='modify' lat='55.65996534757' lon='12.54084739826' />
  <node id='-134762038' action='modify' lat='55.65808816804' lon='12.53979870617' />
  <node id='-134762039' action='modify' lat='55.65733579402' lon='12.53944181163'>
    <tag k='name' v='bav' />
  </node>
  <node id='-134762040' action='modify' lat='55.65693069152' lon='12.53929227456' />
  <node id='-134762041' action='modify' lat='55.6568209862' lon='12.53925607931' />
  <node id='-134762042' action='modify' lat='55.65541625452' lon='12.53899546406' />
  <node id='-134762043' action='modify' lat='55.65223394425' lon='12.53973800457' />
  <node id='-134762044' action='modify' lat='55.64717024419' lon='12.54244049244' />
  <node id='-134762045' action='modify' lat='55.64391528082' lon='12.54516494565' />
  <node id='-134762047' action='modify' lat='55.63999410189' lon='12.54981753044'>
    <tag k='name' v='kal' />
  </node>
  <node id='-134762048' action='modify' lat='55.63596539198' lon='12.55459721862' />
  <node id='-134762049' action='modify' lat='55.62859050878' lon='12.57596000721' />
  <node id='-134762050' action='modify' lat='55.62855051883' lon='12.57656294283' />
  <node id='-134762051' action='modify' lat='55.62841487716' lon='12.57924972063'>
    <tag k='name' v='ore' />
  </node>
  <node id='-134762052' action='modify' lat='55.62835294406' lon='12.58328117363' />
  <node id='-134762053' action='modify' lat='55.62836018368' lon='12.58427861937' />
  <node id='-134762054' action='modify' lat='55.62875139666' lon='12.59000175597' />
  <node id='-134762055' action='modify' lat='55.6291255625' lon='12.59285641398' />
  <node id='-134762056' action='modify' lat='55.62968957658' lon='12.60012618974' />
  <node id='-134762057' action='modify' lat='55.62973270765' lon='12.60182231813'>
    <tag k='name' v='tar' />
  </node>
  <node id='-134762058' action='modify' lat='55.63023713543' lon='12.62165907249' />
  <node id='-134762059' action='modify' lat='55.63028313226' lon='12.623075036' />
  <node id='-134762060' action='modify' lat='55.63066860012' lon='12.63282113406' />
  <node id='-134762063' action='modify' lat='55.63035826147' lon='12.6406144374' />
  <node id='-134762064' action='modify' lat='55.62982363529' lon='12.64504045239' />
  <node id='-134762065' action='modify' lat='55.6295833791' lon='12.65070017192' />
  <node id='-134762066' action='modify' lat='55.62966105252' lon='12.65215774229'>
    <tag k='name' v='kas' />
  </node>
  <node id='-134762067' action='modify' lat='55.63104484772' lon='12.65788651078' />
  <node id='-134762068' action='modify' lat='55.63127428648' lon='12.65844294593' />
  <node id='-134762069' action='modify' lat='55.63243509716' lon='12.66288373436' />
  <node id='-134762070' action='modify' lat='55.6324582384' lon='12.66306025978' />
  <node id='-134762071' action='modify' lat='55.63250673192' lon='12.67080634296' />
  <node id='-134762072' action='modify' lat='55.63248309152' lon='12.67099547121' />
  <node id='-134762073' action='modify' lat='55.63072115277' lon='12.67799338299' />
  <node id='-134762074' action='modify' lat='55.61051667783' lon='12.72747646479' />
  <node id='-134762075' action='modify' lat='55.60313061587' lon='12.74359596391' />
  <node id='-134762076' action='modify' lat='55.60071923058' lon='12.74829908084'>
    <tag k='name' v='peb' />
  </node>
  <node id='-134762077' action='modify' lat='55.59838355369' lon='12.75285426204' />
  <node id='-134762078' action='modify' lat='55.59406899197' lon='12.76284414194' />
  <node id='-134762079' action='modify' lat='55.58750011196' lon='12.78104760449' />
  <node id='-134762080' action='modify' lat='55.57925743499' lon='12.80897550392'>
    <tag k='name' v='peg' />
  </node>
  <node id='-134762081' action='modify' lat='55.57824720415' lon='12.81315662289' />
  <node id='-134762082' action='modify' lat='55.56927677955' lon='12.85349964023' />
  <way id='-35818158' action='modify'>
    <nd ref='-134762029' />
    <nd ref='-134762030' />
    <tag k='type' v='straight' />
  </way>
  <way id='-35818159' action='modify'>
    <nd ref='-134762030' />
    <nd ref='-134762031' />
    <tag k='type' v='arc' />
  </way>
  <way id='-35818160' action='modify'>
    <nd ref='-134762031' />
    <nd ref='-134762032' />
    <nd ref='-134762033' />
    <tag k='type' v='straight' />
  </way>
  <way id='-35818161' action='modify'>
    <nd ref='-134762033' />
    <nd ref='-134762034' />
  </way>
  <way id='-35818162' action='modify'>
    <nd ref='-134762034' />
    <nd ref='-134762035' />
    <nd ref='-134762036' />
    <tag k='type' v='straight' />
  </way>
  <way id='-35818163' action='modify'>
    <nd ref='-134762036' />
    <nd ref='-134762037' />
  </way>
  <way id='-35818164' action='modify'>
    <nd ref='-134762037' />
    <nd ref='-134762038' />
    <tag k='type' v='straight' />
  </way>
  <way id='-35818165' action='modify'>
    <nd ref='-134762038' />
    <nd ref='-134762039' />
    <nd ref='-134762040' />
    <tag k='type' v='arc' />
  </way>
  <way id='-35818166' action='modify'>
    <nd ref='-134762040' />
    <nd ref='-134762041' />
    <tag k='type' v='straight' />
  </way>
  <way id='-35818167' action='modify'>
    <nd ref='-134762041' />
    <nd ref='-134762042' />
    <tag k='type' v='arc' />
  </way>
  <way id='-35818168' action='modify'>
    <nd ref='-134762042' />
    <nd ref='-134762043' />
    <tag k='type' v='arc' />
  </way>
  <way id='-35818169' action='modify'>
    <nd ref='-134762043' />
    <nd ref='-134762044' />
    <tag k='type' v='straight' />
  </way>
  <way id='-35818170' action='modify'>
    <nd ref='-134762044' />
    <nd ref='-134762045' />
    <tag k='type' v='arc' />
  </way>
  <way id='-35818171' action='modify'>
    <nd ref='-134762045' />
    <nd ref='-134762047' />
    <nd ref='-134762048' />
    <tag k='type' v='straight' />
  </way>
  <way id='-35818172' action='modify'>
    <nd ref='-134762048' />
    <nd ref='-134762049' />
    <tag k='type' v='arc' />
  </way>
  <way id='-35818173' action='modify'>
    <nd ref='-134762049' />
    <nd ref='-134762050' />
    <tag k='type' v='straight' />
  </way>
  <way id='-35818174' action='modify'>
    <nd ref='-134762050' />
    <nd ref='-134762051' />
    <nd ref='-134762052' />
    <tag k='type' v='arc' />
  </way>
  <way id='-35818175' action='modify'>
    <nd ref='-134762052' />
    <nd ref='-134762053' />
    <tag k='type' v='straight' />
  </way>
  <way id='-35818176' action='modify'>
    <nd ref='-134762053' />
    <nd ref='-134762054' />
    <tag k='type' v='arc' />
  </way>
  <way id='-35818177' action='modify'>
    <nd ref='-134762054' />
    <nd ref='-134762055' />
    <tag k='type' v='straight' />
  </way>
  <way id='-35818178' action='modify'>
    <nd ref='-134762055' />
    <nd ref='-134762056' />
    <tag k='type' v='arc' />
  </way>
  <way id='-35818179' action='modify'>
    <nd ref='-134762056' />
    <nd ref='-134762057' />
    <nd ref='-134762058' />
    <tag k='type' v='straight' />
  </way>
  <way id='-35818180' action='modify'>
    <nd ref='-134762058' />
    <nd ref='-134762059' />
    <tag k='type' v='arc' />
  </way>
  <way id='-35818181' action='modify'>
    <nd ref='-134762059' />
    <nd ref='-134762060' />
    <tag k='type' v='straight' />
  </way>
  <way id='-35818182' action='modify'>
    <nd ref='-134762060' />
    <nd ref='-134762063' />
  </way>
  <way id='-35818185' action='modify'>
    <nd ref='-134762063' />
    <nd ref='-134762064' />
    <tag k='type' v='straight' />
  </way>
  <way id='-35818186' action='modify'>
    <nd ref='-134762064' />
    <nd ref='-134762065' />
    <tag k='type' v='arc' />
  </way>
  <way id='-35818187' action='modify'>
    <nd ref='-134762065' />
    <nd ref='-134762066' />
    <nd ref='-134762067' />
    <tag k='type' v='arc' />
  </way>
  <way id='-35818188' action='modify'>
    <nd ref='-134762067' />
    <nd ref='-134762068' />
    <tag k='type' v='straight' />
  </way>
  <way id='-35818189' action='modify'>
    <nd ref='-134762068' />
    <nd ref='-134762069' />
    <tag k='type' v='arc' />
  </way>
  <way id='-35818190' action='modify'>
    <nd ref='-134762069' />
    <nd ref='-134762070' />
    <tag k='type' v='straight' />
  </way>
  <way id='-35818191' action='modify'>
    <nd ref='-134762070' />
    <nd ref='-134762071' />
    <tag k='type' v='arc' />
  </way>
  <way id='-35818192' action='modify'>
    <nd ref='-134762071' />
    <nd ref='-134762072' />
    <tag k='type' v='straight' />
  </way>
  <way id='-35818193' action='modify'>
    <nd ref='-134762072' />
    <nd ref='-134762073' />
    <tag k='type' v='arc' />
  </way>
  <way id='-35818194' action='modify'>
    <nd ref='-134762073' />
    <nd ref='-134762074' />
    <tag k='type' v='straight' />
  </way>
  <way id='-35818195' action='modify'>
    <nd ref='-134762074' />
    <nd ref='-134762075' />
    <tag k='type' v='arc' />
  </way>
  <way id='-35818196' action='modify'>
    <nd ref='-134762075' />
    <nd ref='-134762076' />
    <nd ref='-134762077' />
    <tag k='type' v='straight' />
  </way>
  <way id='-35818197' action='modify'>
    <nd ref='-134762077' />
    <nd ref='-134762078' />
    <tag k='type' v='arc' />
  </way>
  <way id='-35818198' action='modify'>
    <nd ref='-134762078' />
    <nd ref='-134762079' />
    <tag k='type' v='straight' />
  </way>
  <way id='-35818199' action='modify'>
    <nd ref='-134762079' />
    <nd ref='-134762080' />
    <nd ref='-134762081' />
    <tag k='type' v='arc' />
  </way>
  <way id='-35818200' action='modify'>
    <nd ref='-134762081' />
    <nd ref='-134762082' />
    <tag k='type' v='straight' />
  </way>
  <relation id='-14221008' action='modify'>
    <member type='way' ref='-35818158' role='' />
    <member type='way' ref='-35818159' role='' />
    <member type='way' ref='-35818160' role='' />
    <member type='way' ref='-35818161' role='' />
    <member type='way' ref='-35818162' role='' />
    <member type='way' ref='-35818163' role='' />
    <member type='way' ref='-35818164' role='' />
    <member type='way' ref='-35818165' role='' />
    <member type='way' ref='-35818166' role='' />
    <member type='way' ref='-35818167' role='' />
    <member type='way' ref='-35818168' role='' />
    <member type='way' ref='-35818169' role='' />
    <member type='way' ref='-35818170' role='' />
    <member type='way' ref='-35818171' role='' />
    <member type='way' ref='-35818172' role='' />
    <member type='way' ref='-35818173' role='' />
    <member type='way' ref='-35818174' role='' />
    <member type='way' ref='-35818175' role='' />
    <member type='way' ref='-35818176' role='' />
    <member type='way' ref='-35818177' role='' />
    <member type='way' ref='-35818178' role='' />
    <member type='way' ref='-35818179' role='' />
    <member type='way' ref='-35818180' role='' />
    <member type='way' ref='-35818181' role='' />
    <member type='way' ref='-35818182' role='' />
    <member type='way' ref='-35818185' role='' />
    <member type='way' ref='-35818186' role='' />
    <member type='way' ref='-35818187' role='' />
    <member type='way' ref='-35818188' role='' />
    <member type='way' ref='-35818189' role='' />
    <member type='way' ref='-35818190' role='' />
    <member type='way' ref='-35818191' role='' />
    <member type='way' ref='-35818192' role='' />
    <member type='way' ref='-35818193' role='' />
    <member type='way' ref='-35818194' role='' />
    <member type='way' ref='-35818195' role='' />
    <member type='way' ref='-35818196' role='' />
    <member type='way' ref='-35818197' role='' />
    <member type='way' ref='-35818198' role='' />
    <member type='way' ref='-35818199' role='' />
    <member type='way' ref='-35818200' role='' />
    <tag k='key' v='path.dk.kph' />
    <tag k='name' v='DK KPH' />
    <tag k='type' v='path' />
  </relation>
</osm>
