<?xml version='1.0' encoding='UTF-8'?>
<osm version='0.6' upload='false' generator='JOSM'>
  <node id='-143463783' action='modify' lat='55.46342091297' lon='12.18627627735' />
  <node id='-143463784' action='modify' lat='55.4623857648' lon='12.18668958932' />
  <node id='-143463785' action='modify' lat='55.46558284145' lon='12.18183427513'>
    <tag k='name' v='kob' />
  </node>
  <node id='-143463786' action='modify' lat='55.46584285421' lon='12.17995941103' />
  <node id='-143463787' action='modify' lat='55.46541710143' lon='12.17419266164' />
  <node id='-143463788' action='modify' lat='55.46136917931' lon='12.16214954317' />
  <node id='-143463789' action='modify' lat='55.46052973848' lon='12.15493440092' />
  <node id='-143463790' action='modify' lat='55.46156007694' lon='12.13038832263'>
    <tag k='name' v='osm' />
  </node>
  <node id='-143463791' action='modify' lat='55.46181323324' lon='12.12435720205' />
  <node id='-143463792' action='modify' lat='55.46224205716' lon='12.11981355608' />
  <node id='-143463793' action='modify' lat='55.46420304863' lon='12.1081278318'>
    <tag k='name' v='lel' />
  </node>
  <node id='-143463794' action='modify' lat='55.46435574055' lon='12.10721790254' />
  <node id='-143463795' action='modify' lat='55.46477238132' lon='12.10161745012' />
  <node id='-143463796' action='modify' lat='55.46502376943' lon='12.08963816892'>
    <tag k='name' v='nle' />
  </node>
  <node id='-143463797' action='modify' lat='55.46537726287' lon='12.07279317969' />
  <node id='-143463798' action='modify' lat='55.46536236145' lon='12.07032948196'>
    <tag k='name' v='yde' />
  </node>
  <node id='-143463799' action='modify' lat='55.46528633206' lon='12.06886499852' />
  <node id='-143463800' action='modify' lat='55.46389803887' lon='12.06100075901'>
    <tag k='name' v='vem' />
  </node>
  <node id='-143463801' action='modify' lat='55.46134464613' lon='12.05493926943'>
    <tag k='name' v='lun' />
  </node>
  <node id='-143463802' action='modify' lat='55.46074264183' lon='12.05391168058' />
  <node id='-143463803' action='modify' lat='55.45655127895' lon='12.0479571712' />
  <node id='-143463804' action='modify' lat='55.45417556522' lon='12.04392849863' />
  <node id='-143463805' action='modify' lat='55.44964495575' lon='12.03592362536'>
    <tag k='name' v='bja' />
  </node>
  <node id='-143463806' action='modify' lat='55.44337811962' lon='12.02485262811' />
  <node id='-143463807' action='modify' lat='55.44262958192' lon='12.02341496408'>
    <tag k='name' v='mol' />
  </node>
  <node id='-143463808' action='modify' lat='55.44178974224' lon='12.02158033311' />
  <node id='-143463809' action='modify' lat='55.44045995952' lon='12.01861917436' />
  <node id='-143463810' action='modify' lat='55.43933074219' lon='12.01635286367'>
    <tag k='name' v='gra' />
  </node>
  <node id='-143463811' action='modify' lat='55.43746397898' lon='12.01301872462' />
  <node id='-143463812' action='modify' lat='55.43546714873' lon='12.00957792372'>
    <tag k='name' v='gun' />
  </node>
  <node id='-143463813' action='modify' lat='55.43075688598' lon='12.00146221156'>
    <tag k='name' v='gor' />
  </node>
  <node id='-143463814' action='modify' lat='55.42564423883' lon='11.99265429291'>
    <tag k='name' v='osv' />
  </node>
  <node id='-143463815' action='modify' lat='55.42179262927' lon='11.98601960599' />
  <node id='-143463816' action='modify' lat='55.41668976541' lon='11.97987198293' />
  <node id='-143463817' action='modify' lat='55.41083710163' lon='11.9754302448' />
  <node id='-143463818' action='modify' lat='55.40690844871' lon='11.97103142202'>
    <tag k='name' v='nyv' />
  </node>
  <node id='-143463819' action='modify' lat='55.40375610754' lon='11.96475505292' />
  <node id='-143463820' action='modify' lat='55.39867223733' lon='11.94967567384' />
  <node id='-143463821' action='modify' lat='55.39632655554' lon='11.94458483577' />
  <node id='-143463822' action='modify' lat='55.39499828787' lon='11.94258927226' />
  <node id='-143463823' action='modify' lat='55.39210244412' lon='11.93489402264'>
    <tag k='name' v='ors' />
  </node>
  <node id='-143463824' action='modify' lat='55.39202475624' lon='11.9221293819' />
  <node id='-143463825' action='modify' lat='55.39397239137' lon='11.91008894621'>
    <tag k='name' v='ott' />
  </node>
  <node id='-143463826' action='modify' lat='55.39567003893' lon='11.8995934698' />
  <node id='-143463827' action='modify' lat='55.39634672287' lon='11.88986099066'>
    <tag k='name' v='far' />
  </node>
  <node id='-143463828' action='modify' lat='55.39433718083' lon='11.87642991006' />
  <node id='-143463829' action='modify' lat='55.39141814686' lon='11.86673692853'>
    <tag k='name' v='fre' />
  </node>
  <node id='-143463830' action='modify' lat='55.38987672494' lon='11.86161875188' />
  <node id='-143463831' action='modify' lat='55.38902662195' lon='11.853561396' />
  <node id='-143463832' action='modify' lat='55.38926428699' lon='11.84964000642' />
  <node id='-143463833' action='modify' lat='55.39032157441' lon='11.84350847661' />
  <node id='-143463834' action='modify' lat='55.39045995108' lon='11.8430241024'>
    <tag k='name' v='sne' />
  </node>
  <node id='-143463835' action='modify' lat='55.39083649667' lon='11.84170603216' />
  <node id='-143463836' action='modify' lat='55.39277425353' lon='11.83799384952' />
  <node id='-143463837' action='modify' lat='55.3973693666' lon='11.83423946464' />
  <node id='-143463838' action='modify' lat='55.39860134153' lon='11.83330603776'>
    <tag k='name' v='all' />
  </node>
  <node id='-143463839' action='modify' lat='55.40318043852' lon='11.82997940898' />
  <node id='-143463840' action='modify' lat='55.40415511646' lon='11.8291532886' />
  <node id='-143463841' action='modify' lat='55.41158184443' lon='11.82179738322'>
    <tag k='name' v='hav' />
  </node>
  <node id='-143463842' action='modify' lat='55.41246326994' lon='11.82092427135' />
  <node id='-143463843' action='modify' lat='55.4136265126' lon='11.81986748636' />
  <node id='-143463844' action='modify' lat='55.42198760239' lon='11.81252390451'>
    <tag k='name' v='tol' />
  </node>
  <node id='-143463845' action='modify' lat='55.43207551808' lon='11.80366157413' />
  <node id='-143463846' action='modify' lat='55.4337677672' lon='11.80148362041' />
  <node id='-143463847' action='modify' lat='55.43678685165' lon='11.79530381083' />
  <node id='-143463848' action='modify' lat='55.43791462256' lon='11.78914071207' />
  <node id='-143463849' action='modify' lat='55.4377971649' lon='11.78666554267'>
    <tag k='name' v='rin' />
  </node>
  <node id='-143464083' action='modify' lat='55.45970852908' lon='12.18665956914' />
  <node id='-143464084' action='modify' lat='55.45777709882' lon='12.18619286478'>
    <tag k='name' v='kog' />
  </node>
  <way id='-36328251' action='modify'>
    <nd ref='-143464084' />
    <nd ref='-143464083' />
    <tag k='type' v='straight' />
  </way>
  <way id='-36328252' action='modify'>
    <nd ref='-143463783' />
    <nd ref='-143463785' />
  </way>
  <way id='-36328253' action='modify'>
    <nd ref='-143463785' />
    <nd ref='-143463786' />
    <tag k='type' v='straight' />
  </way>
  <way id='-36328254' action='modify'>
    <nd ref='-143463786' />
    <nd ref='-143463787' />
  </way>
  <way id='-36328255' action='modify'>
    <nd ref='-143463787' />
    <nd ref='-143463788' />
    <tag k='type' v='straight' />
  </way>
  <way id='-36328256' action='modify'>
    <nd ref='-143463788' />
    <nd ref='-143463789' />
  </way>
  <way id='-36328257' action='modify'>
    <nd ref='-143463789' />
    <nd ref='-143463790' />
    <nd ref='-143463791' />
    <tag k='type' v='straight' />
  </way>
  <way id='-36328258' action='modify'>
    <nd ref='-143463791' />
    <nd ref='-143463792' />
  </way>
  <way id='-36328259' action='modify'>
    <nd ref='-143463792' />
    <nd ref='-143463793' />
    <tag k='type' v='straight' />
  </way>
  <way id='-36328260' action='modify'>
    <nd ref='-143463793' />
    <nd ref='-143463794' />
    <tag k='type' v='straight' />
  </way>
  <way id='-36328261' action='modify'>
    <nd ref='-143463794' />
    <nd ref='-143463795' />
  </way>
  <way id='-36328262' action='modify'>
    <nd ref='-143463795' />
    <nd ref='-143463796' />
    <nd ref='-143463797' />
    <tag k='type' v='straight' />
  </way>
  <way id='-36328263' action='modify'>
    <nd ref='-143463797' />
    <nd ref='-143463798' />
  </way>
  <way id='-36328264' action='modify'>
    <nd ref='-143463798' />
    <nd ref='-143463799' />
    <tag k='type' v='straight' />
  </way>
  <way id='-36328265' action='modify'>
    <nd ref='-143463799' />
    <nd ref='-143463800' />
    <nd ref='-143463801' />
    <nd ref='-143463802' />
  </way>
  <way id='-36328266' action='modify'>
    <nd ref='-143463802' />
    <nd ref='-143463803' />
    <nd ref='-143463804' />
    <nd ref='-143463805' />
    <nd ref='-143463806' />
    <tag k='type' v='straight' />
  </way>
  <way id='-36328267' action='modify'>
    <nd ref='-143463806' />
    <nd ref='-143463807' />
    <nd ref='-143463808' />
  </way>
  <way id='-36328268' action='modify'>
    <nd ref='-143463808' />
    <nd ref='-143463809' />
    <tag k='type' v='straight' />
  </way>
  <way id='-36328269' action='modify'>
    <nd ref='-143463809' />
    <nd ref='-143463810' />
    <nd ref='-143463811' />
  </way>
  <way id='-36328270' action='modify'>
    <nd ref='-143463811' />
    <nd ref='-143463812' />
    <nd ref='-143463813' />
    <nd ref='-143463814' />
    <nd ref='-143463815' />
    <tag k='type' v='straight' />
  </way>
  <way id='-36328271' action='modify'>
    <nd ref='-143463815' />
    <nd ref='-143463816' />
  </way>
  <way id='-36328272' action='modify'>
    <nd ref='-143463816' />
    <nd ref='-143463817' />
    <tag k='type' v='straight' />
  </way>
  <way id='-36328273' action='modify'>
    <nd ref='-143463817' />
    <nd ref='-143463818' />
    <nd ref='-143463819' />
  </way>
  <way id='-36328274' action='modify'>
    <nd ref='-143463819' />
    <nd ref='-143463820' />
    <tag k='type' v='straight' />
  </way>
  <way id='-36328275' action='modify'>
    <nd ref='-143463820' />
    <nd ref='-143463821' />
  </way>
  <way id='-36328276' action='modify'>
    <nd ref='-143463821' />
    <nd ref='-143463822' />
    <tag k='type' v='straight' />
  </way>
  <way id='-36328277' action='modify'>
    <nd ref='-143463822' />
    <nd ref='-143463823' />
    <nd ref='-143463824' />
  </way>
  <way id='-36328278' action='modify'>
    <nd ref='-143463824' />
    <nd ref='-143463825' />
    <nd ref='-143463826' />
    <tag k='type' v='straight' />
  </way>
  <way id='-36328279' action='modify'>
    <nd ref='-143463826' />
    <nd ref='-143463827' />
    <nd ref='-143463828' />
  </way>
  <way id='-36328280' action='modify'>
    <nd ref='-143463828' />
    <nd ref='-143463829' />
    <nd ref='-143463830' />
    <tag k='type' v='straight' />
  </way>
  <way id='-36328281' action='modify'>
    <nd ref='-143463830' />
    <nd ref='-143463831' />
  </way>
  <way id='-36328282' action='modify'>
    <nd ref='-143463831' />
    <nd ref='-143463832' />
    <tag k='type' v='straight' />
  </way>
  <way id='-36328283' action='modify'>
    <nd ref='-143463832' />
    <nd ref='-143463833' />
  </way>
  <way id='-36328284' action='modify'>
    <nd ref='-143463833' />
    <nd ref='-143463834' />
    <nd ref='-143463835' />
    <tag k='type' v='straight' />
  </way>
  <way id='-36328285' action='modify'>
    <nd ref='-143463835' />
    <nd ref='-143463836' />
  </way>
  <way id='-36328286' action='modify'>
    <nd ref='-143463836' />
    <nd ref='-143463837' />
    <tag k='type' v='straight' />
  </way>
  <way id='-36328287' action='modify'>
    <nd ref='-143463837' />
    <nd ref='-143463838' />
  </way>
  <way id='-36328288' action='modify'>
    <nd ref='-143463838' />
    <nd ref='-143463839' />
    <tag k='type' v='straight' />
  </way>
  <way id='-36328289' action='modify'>
    <nd ref='-143463839' />
    <nd ref='-143463840' />
  </way>
  <way id='-36328290' action='modify'>
    <nd ref='-143463840' />
    <nd ref='-143463841' />
    <nd ref='-143463842' />
    <tag k='type' v='straight' />
  </way>
  <way id='-36328291' action='modify'>
    <nd ref='-143463842' />
    <nd ref='-143463843' />
  </way>
  <way id='-36328292' action='modify'>
    <nd ref='-143463843' />
    <nd ref='-143463844' />
    <nd ref='-143463845' />
    <tag k='type' v='straight' />
  </way>
  <way id='-36328293' action='modify'>
    <nd ref='-143463845' />
    <nd ref='-143463846' />
  </way>
  <way id='-36328294' action='modify'>
    <nd ref='-143463846' />
    <nd ref='-143463847' />
    <tag k='type' v='straight' />
  </way>
  <way id='-36328295' action='modify'>
    <nd ref='-143463847' />
    <nd ref='-143463848' />
  </way>
  <way id='-36328296' action='modify'>
    <nd ref='-143463848' />
    <nd ref='-143463849' />
    <tag k='type' v='straight' />
  </way>
  <way id='-36328487' action='modify'>
    <nd ref='-143464083' />
    <nd ref='-143463784' />
  </way>
  <way id='-36328488' action='modify'>
    <nd ref='-143463784' />
    <nd ref='-143463783' />
    <tag k='type' v='straight' />
  </way>
  <relation id='-14467181' action='modify'>
    <member type='way' ref='-36328251' role='' />
    <member type='way' ref='-36328487' role='' />
    <member type='way' ref='-36328488' role='' />
    <member type='way' ref='-36328252' role='' />
    <member type='way' ref='-36328253' role='' />
    <member type='way' ref='-36328254' role='' />
    <member type='way' ref='-36328255' role='' />
    <member type='way' ref='-36328256' role='' />
    <member type='way' ref='-36328257' role='' />
    <member type='way' ref='-36328258' role='' />
    <member type='way' ref='-36328259' role='' />
    <member type='way' ref='-36328260' role='' />
    <member type='way' ref='-36328261' role='' />
    <member type='way' ref='-36328262' role='' />
    <member type='way' ref='-36328263' role='' />
    <member type='way' ref='-36328264' role='' />
    <member type='way' ref='-36328265' role='' />
    <member type='way' ref='-36328266' role='' />
    <member type='way' ref='-36328267' role='' />
    <member type='way' ref='-36328268' role='' />
    <member type='way' ref='-36328269' role='' />
    <member type='way' ref='-36328270' role='' />
    <member type='way' ref='-36328271' role='' />
    <member type='way' ref='-36328272' role='' />
    <member type='way' ref='-36328273' role='' />
    <member type='way' ref='-36328274' role='' />
    <member type='way' ref='-36328275' role='' />
    <member type='way' ref='-36328276' role='' />
    <member type='way' ref='-36328277' role='' />
    <member type='way' ref='-36328278' role='' />
    <member type='way' ref='-36328279' role='' />
    <member type='way' ref='-36328280' role='' />
    <member type='way' ref='-36328281' role='' />
    <member type='way' ref='-36328282' role='' />
    <member type='way' ref='-36328283' role='' />
    <member type='way' ref='-36328284' role='' />
    <member type='way' ref='-36328285' role='' />
    <member type='way' ref='-36328286' role='' />
    <member type='way' ref='-36328287' role='' />
    <member type='way' ref='-36328288' role='' />
    <member type='way' ref='-36328289' role='' />
    <member type='way' ref='-36328290' role='' />
    <member type='way' ref='-36328291' role='' />
    <member type='way' ref='-36328292' role='' />
    <member type='way' ref='-36328293' role='' />
    <member type='way' ref='-36328294' role='' />
    <member type='way' ref='-36328295' role='' />
    <member type='way' ref='-36328296' role='' />
    <tag k='key' v='path.dk.krs' />
    <tag k='name' v='DK KRS' />
    <tag k='type' v='path' />
  </relation>
</osm>
