<?xml version='1.0' encoding='UTF-8'?>
<osm version='0.6' upload='false' generator='JOSM'>
  <node id='-140084709' action='modify' lat='55.99623527529' lon='12.28736053657' />
  <node id='-140084710' action='modify' lat='55.9968876122' lon='12.2864453009'>
    <tag k='name' v='kag' />
  </node>
  <node id='-140084711' action='modify' lat='55.99791435898' lon='12.28582550324' />
  <node id='-140084712' action='modify' lat='55.99820451526' lon='12.28569923942' />
  <node id='-140084713' action='modify' lat='55.99848460415' lon='12.28553467442' />
  <node id='-140084714' action='modify' lat='56.00211735684' lon='12.28278719432' />
  <node id='-140084715' action='modify' lat='56.00670054649' lon='12.27472529306' />
  <node id='-140084716' action='modify' lat='56.00950240939' lon='12.26329757404'>
    <tag k='name' v='due' />
  </node>
  <node id='-140084717' action='modify' lat='56.01238347174' lon='12.25154596672' />
  <node id='-140084718' action='modify' lat='56.01310902714' lon='12.2484905788' />
  <node id='-140084719' action='modify' lat='56.01813783152' lon='12.22653679128'>
    <tag k='name' v='hob' />
  </node>
  <node id='-140084720' action='modify' lat='56.02249004374' lon='12.20753443207' />
  <node id='-140084721' action='modify' lat='56.0232426588' lon='12.20510944718'>
    <tag k='name' v='hel' />
  </node>
  <node id='-140084722' action='modify' lat='56.02440767193' lon='12.20369705686' />
  <node id='-140084723' action='modify' lat='56.02559990878' lon='12.2030241674' />
  <node id='-140084724' action='modify' lat='56.02846472177' lon='12.19871768306' />
  <node id='-140084725' action='modify' lat='56.02891336455' lon='12.1971260071' />
  <node id='-140084726' action='modify' lat='56.03194693475' lon='12.19085949487' />
  <node id='-140084727' action='modify' lat='56.03233353093' lon='12.19036683766'>
    <tag k='name' v='tro' />
  </node>
  <node id='-140084728' action='modify' lat='56.0334206526' lon='12.18898144227' />
  <node id='-140084729' action='modify' lat='56.0341270069' lon='12.18815433577' />
  <node id='-140084730' action='modify' lat='56.03840436449' lon='12.18369696058' />
  <node id='-140084731' action='modify' lat='56.03882088706' lon='12.18328777371' />
  <node id='-140084732' action='modify' lat='56.03902952615' lon='12.18309249978'>
    <tag k='name' v='lau' />
  </node>
  <node id='-140084733' action='modify' lat='56.03984584139' lon='12.18232846648' />
  <node id='-140084734' action='modify' lat='56.04167887921' lon='12.180612769' />
  <node id='-140084735' action='modify' lat='56.04303777488' lon='12.1792727474' />
  <node id='-140084736' action='modify' lat='56.04932266316' lon='12.17273227788' />
  <node id='-140084737' action='modify' lat='56.05154186945' lon='12.16976436267' />
  <node id='-140084738' action='modify' lat='56.0555059012' lon='12.16285232145'>
    <tag k='name' v='orb' />
  </node>
  <node id='-140084739' action='modify' lat='56.05952152034' lon='12.1558496034' />
  <node id='-140084740' action='modify' lat='56.06103074083' lon='12.15118895063' />
  <node id='-140084741' action='modify' lat='56.06237548973' lon='12.13986040568' />
  <node id='-140084742' action='modify' lat='56.06257624678' lon='12.13678187161'>
    <tag k='name' v='vej' />
  </node>
  <node id='-140084743' action='modify' lat='56.06200986888' lon='12.13104876978' />
  <node id='-140084744' action='modify' lat='56.06011424191' lon='12.12165682546' />
  <node id='-140084745' action='modify' lat='56.05953068544' lon='12.11796402372'>
    <tag k='name' v='hol' />
  </node>
  <node id='-140084746' action='modify' lat='56.0594321872' lon='12.11412593385' />
  <node id='-140084747' action='modify' lat='56.05996665494' lon='12.0970036804'>
    <tag k='name' v='god' />
  </node>
  <node id='-140084748' action='modify' lat='56.06013869186' lon='12.09149224075' />
  <node id='-140084749' action='modify' lat='56.06010552588' lon='12.08855370483' />
  <node id='-140084750' action='modify' lat='56.05972760739' lon='12.08270537004' />
  <node id='-140084751' action='modify' lat='56.05961415598' lon='12.08011346294' />
  <node id='-140084752' action='modify' lat='56.05950090904' lon='12.07837938658'>
    <tag k='name' v='til' />
  </node>
  <node id='-140084779' action='modify' lat='55.99768516821' lon='12.28591572225' />
  <node id='-140084786' action='modify' lat='55.99771029144' lon='12.28590499543' />
  <node id='-140084787' action='modify' lat='55.99609601664' lon='12.28760793709' />
  <way id='-36137670' action='modify'>
    <nd ref='-140084787' />
    <nd ref='-140084709' />
    <tag k='type' v='straight' />
  </way>
  <way id='-36137671' action='modify'>
    <nd ref='-140084709' />
    <nd ref='-140084710' />
    <nd ref='-140084779' />
  </way>
  <way id='-36137672' action='modify'>
    <nd ref='-140084711' />
    <nd ref='-140084712' />
    <tag k='type' v='straight' />
  </way>
  <way id='-36137673' action='modify'>
    <nd ref='-140084712' />
    <nd ref='-140084713' />
  </way>
  <way id='-36137674' action='modify'>
    <nd ref='-140084713' />
    <nd ref='-140084714' />
    <tag k='type' v='straight' />
  </way>
  <way id='-36137675' action='modify'>
    <nd ref='-140084714' />
    <nd ref='-140084715' />
  </way>
  <way id='-36137676' action='modify'>
    <nd ref='-140084715' />
    <nd ref='-140084716' />
    <nd ref='-140084717' />
    <tag k='type' v='straight' />
  </way>
  <way id='-36137677' action='modify'>
    <nd ref='-140084717' />
    <nd ref='-140084718' />
  </way>
  <way id='-36137678' action='modify'>
    <nd ref='-140084718' />
    <nd ref='-140084719' />
    <nd ref='-140084720' />
    <tag k='type' v='straight' />
  </way>
  <way id='-36137679' action='modify'>
    <nd ref='-140084720' />
    <nd ref='-140084721' />
    <nd ref='-140084722' />
  </way>
  <way id='-36137680' action='modify'>
    <nd ref='-140084722' />
    <nd ref='-140084723' />
    <tag k='type' v='straight' />
  </way>
  <way id='-36137681' action='modify'>
    <nd ref='-140084723' />
    <nd ref='-140084724' />
  </way>
  <way id='-36137682' action='modify'>
    <nd ref='-140084724' />
    <nd ref='-140084725' />
    <tag k='type' v='straight' />
  </way>
  <way id='-36137683' action='modify'>
    <nd ref='-140084725' />
    <nd ref='-140084726' />
  </way>
  <way id='-36137684' action='modify'>
    <nd ref='-140084726' />
    <nd ref='-140084727' />
    <nd ref='-140084728' />
    <tag k='type' v='straight' />
  </way>
  <way id='-36137685' action='modify'>
    <nd ref='-140084728' />
    <nd ref='-140084729' />
  </way>
  <way id='-36137686' action='modify'>
    <nd ref='-140084729' />
    <nd ref='-140084730' />
    <tag k='type' v='straight' />
  </way>
  <way id='-36137687' action='modify'>
    <nd ref='-140084730' />
    <nd ref='-140084731' />
  </way>
  <way id='-36137688' action='modify'>
    <nd ref='-140084731' />
    <nd ref='-140084732' />
    <nd ref='-140084733' />
    <nd ref='-140084734' />
    <tag k='type' v='straight' />
  </way>
  <way id='-36137689' action='modify'>
    <nd ref='-140084734' />
    <nd ref='-140084735' />
  </way>
  <way id='-36137690' action='modify'>
    <nd ref='-140084735' />
    <nd ref='-140084736' />
    <tag k='type' v='straight' />
  </way>
  <way id='-36137691' action='modify'>
    <nd ref='-140084736' />
    <nd ref='-140084737' />
  </way>
  <way id='-36137692' action='modify'>
    <nd ref='-140084737' />
    <nd ref='-140084738' />
    <nd ref='-140084739' />
    <tag k='type' v='straight' />
  </way>
  <way id='-36137693' action='modify'>
    <nd ref='-140084739' />
    <nd ref='-140084740' />
  </way>
  <way id='-36137694' action='modify'>
    <nd ref='-140084740' />
    <nd ref='-140084741' />
    <tag k='type' v='straight' />
  </way>
  <way id='-36137695' action='modify'>
    <nd ref='-140084741' />
    <nd ref='-140084742' />
    <nd ref='-140084743' />
  </way>
  <way id='-36137696' action='modify'>
    <nd ref='-140084743' />
    <nd ref='-140084744' />
    <tag k='type' v='straight' />
  </way>
  <way id='-36137697' action='modify'>
    <nd ref='-140084744' />
    <nd ref='-140084745' />
    <nd ref='-140084746' />
  </way>
  <way id='-36137698' action='modify'>
    <nd ref='-140084746' />
    <nd ref='-140084747' />
    <nd ref='-140084748' />
    <tag k='type' v='straight' />
  </way>
  <way id='-36137699' action='modify'>
    <nd ref='-140084748' />
    <nd ref='-140084749' />
  </way>
  <way id='-36137700' action='modify'>
    <nd ref='-140084749' />
    <nd ref='-140084750' />
    <tag k='type' v='straight' />
  </way>
  <way id='-36137701' action='modify'>
    <nd ref='-140084750' />
    <nd ref='-140084751' />
  </way>
  <way id='-36137702' action='modify'>
    <nd ref='-140084751' />
    <nd ref='-140084752' />
    <tag k='type' v='straight' />
  </way>
  <way id='-36137731' action='modify'>
    <nd ref='-140084779' />
    <nd ref='-140084786' />
    <tag k='type' v='straight' />
  </way>
  <way id='-36137732' action='modify'>
    <nd ref='-140084786' />
    <nd ref='-140084711' />
  </way>
  <relation id='-14465950' action='modify'>
    <member type='way' ref='-36137670' role='' />
    <member type='way' ref='-36137671' role='' />
    <member type='way' ref='-36137731' role='' />
    <member type='way' ref='-36137732' role='' />
    <member type='way' ref='-36137672' role='' />
    <member type='way' ref='-36137673' role='' />
    <member type='way' ref='-36137674' role='' />
    <member type='way' ref='-36137675' role='' />
    <member type='way' ref='-36137676' role='' />
    <member type='way' ref='-36137677' role='' />
    <member type='way' ref='-36137678' role='' />
    <member type='way' ref='-36137679' role='' />
    <member type='way' ref='-36137680' role='' />
    <member type='way' ref='-36137681' role='' />
    <member type='way' ref='-36137682' role='' />
    <member type='way' ref='-36137683' role='' />
    <member type='way' ref='-36137684' role='' />
    <member type='way' ref='-36137685' role='' />
    <member type='way' ref='-36137686' role='' />
    <member type='way' ref='-36137687' role='' />
    <member type='way' ref='-36137688' role='' />
    <member type='way' ref='-36137689' role='' />
    <member type='way' ref='-36137690' role='' />
    <member type='way' ref='-36137691' role='' />
    <member type='way' ref='-36137692' role='' />
    <member type='way' ref='-36137693' role='' />
    <member type='way' ref='-36137694' role='' />
    <member type='way' ref='-36137695' role='' />
    <member type='way' ref='-36137696' role='' />
    <member type='way' ref='-36137697' role='' />
    <member type='way' ref='-36137698' role='' />
    <member type='way' ref='-36137699' role='' />
    <member type='way' ref='-36137700' role='' />
    <member type='way' ref='-36137701' role='' />
    <member type='way' ref='-36137702' role='' />
    <tag k='key' v='path.dk.ktd' />
    <tag k='name' v='DK KTD' />
    <tag k='type' v='path' />
  </relation>
</osm>
