<?xml version='1.0' encoding='UTF-8'?>
<osm version='0.6' upload='false' generator='JOSM'>
  <node id='-137577778' action='modify' lat='55.67256210485' lon='12.56524542302'>
    <tag k='name' v='kob' />
  </node>
  <node id='-137577779' action='modify' lat='55.67203360602' lon='12.56581696229' />
  <node id='-137577780' action='modify' lat='55.6666534322' lon='12.56413985401' />
  <node id='-137577781' action='modify' lat='55.66478530231' lon='12.56000253545' />
  <node id='-137577782' action='modify' lat='55.66392802809' lon='12.55671330256' />
  <node id='-137577783' action='modify' lat='55.66262303621' lon='12.54656452022' />
  <node id='-137577784' action='modify' lat='55.65996534757' lon='12.54084739826' />
  <node id='-137577785' action='modify' lat='55.65808816804' lon='12.53979870617' />
  <node id='-137577786' action='modify' lat='55.65693069152' lon='12.53929227456' />
  <node id='-137577787' action='modify' lat='55.6568209862' lon='12.53925607931' />
  <node id='-137577788' action='modify' lat='55.65496497883' lon='12.53810918736' />
  <node id='-137577789' action='modify' lat='55.65334117032' lon='12.53496749638'>
    <tag k='name' v='kog' />
  </node>
  <node id='-137577790' action='modify' lat='55.65287480563' lon='12.53341255238' />
  <node id='-137577791' action='modify' lat='55.65197481787' lon='12.53008466004' />
  <node id='-137577792' action='modify' lat='55.65135038451' lon='12.52653730992' />
  <node id='-137577793' action='modify' lat='55.65122639102' lon='12.52515675883' />
  <node id='-137577794' action='modify' lat='55.65322681722' lon='12.51443046579' />
  <node id='-137577795' action='modify' lat='55.65365884428' lon='12.51365882544'>
    <tag k='name' v='nel' />
  </node>
  <node id='-137577796' action='modify' lat='55.65378760924' lon='12.51342883767' />
  <node id='-137577797' action='modify' lat='55.6551055498' lon='12.51078489609' />
  <node id='-137577799' action='modify' lat='55.66232102652' lon='12.49240349856' />
  <node id='-137577800' action='modify' lat='55.6642418859' lon='12.48314544529' />
  <node id='-137577801' action='modify' lat='55.66458293727' lon='12.46089128228'>
    <tag k='name' v='hvf' />
  </node>
  <node id='-137577802' action='modify' lat='55.65905888469' lon='12.50045717147'>
    <tag k='name' v='vig' />
  </node>
  <node id='-137577819' action='modify' lat='55.66154625077' lon='12.49425534308' />
  <node id='-137577829' action='modify' lat='55.66346245822' lon='12.48900085419' />
  <node id='-137577839' action='modify' lat='55.65993419929' lon='12.4981954667' />
  <node id='-137577840' action='modify' lat='55.65748838993' lon='12.5048198314' />
  <node id='-137577841' action='modify' lat='55.65693373767' lon='12.50625206352' />
  <node id='-137577851' action='modify' lat='55.65573679098' lon='12.50929176539' />
  <way id='-35996677' action='modify'>
    <nd ref='-137577778' />
    <nd ref='-137577779' />
    <tag k='type' v='straight' />
  </way>
  <way id='-35996678' action='modify'>
    <nd ref='-137577779' />
    <nd ref='-137577780' />
    <tag k='type' v='arc' />
  </way>
  <way id='-35996679' action='modify'>
    <nd ref='-137577780' />
    <nd ref='-137577781' />
    <tag k='type' v='straight' />
  </way>
  <way id='-35996680' action='modify'>
    <nd ref='-137577781' />
    <nd ref='-137577782' />
  </way>
  <way id='-35996681' action='modify'>
    <nd ref='-137577782' />
    <nd ref='-137577783' />
    <tag k='type' v='straight' />
  </way>
  <way id='-35996682' action='modify'>
    <nd ref='-137577783' />
    <nd ref='-137577784' />
  </way>
  <way id='-35996683' action='modify'>
    <nd ref='-137577784' />
    <nd ref='-137577785' />
    <tag k='type' v='straight' />
  </way>
  <way id='-35996684' action='modify'>
    <nd ref='-137577785' />
    <nd ref='-137577786' />
    <tag k='type' v='arc' />
  </way>
  <way id='-35996685' action='modify'>
    <nd ref='-137577786' />
    <nd ref='-137577787' />
    <tag k='type' v='straight' />
  </way>
  <way id='-35996686' action='modify'>
    <nd ref='-137577787' />
    <nd ref='-137577788' />
    <nd ref='-137577789' />
    <nd ref='-137577790' />
  </way>
  <way id='-35996687' action='modify'>
    <nd ref='-137577790' />
    <nd ref='-137577791' />
    <tag k='type' v='straight' />
  </way>
  <way id='-35996688' action='modify'>
    <nd ref='-137577791' />
    <nd ref='-137577792' />
    <tag k='type' v='arc' />
  </way>
  <way id='-35996689' action='modify'>
    <nd ref='-137577792' />
    <nd ref='-137577793' />
    <tag k='type' v='straight' />
  </way>
  <way id='-35996690' action='modify'>
    <nd ref='-137577793' />
    <nd ref='-137577794' />
    <tag k='type' v='arc' />
  </way>
  <way id='-35996691' action='modify'>
    <nd ref='-137577794' />
    <nd ref='-137577795' />
    <nd ref='-137577796' />
    <tag k='type' v='straight' />
  </way>
  <way id='-35996692' action='modify'>
    <nd ref='-137577796' />
    <nd ref='-137577797' />
    <tag k='type' v='arc' />
  </way>
  <way id='-35996693' action='modify'>
    <nd ref='-137577797' />
    <nd ref='-137577851' />
    <tag k='type' v='straight' />
  </way>
  <way id='-35996694' action='modify'>
    <nd ref='-137577799' />
    <nd ref='-137577829' />
    <nd ref='-137577800' />
    <tag k='type' v='arc' />
  </way>
  <way id='-35996695' action='modify'>
    <nd ref='-137577800' />
    <nd ref='-137577801' />
    <tag k='type' v='straight' />
  </way>
  <way id='-35996720' action='modify'>
    <nd ref='-137577839' />
    <nd ref='-137577819' />
  </way>
  <way id='-35996721' action='modify'>
    <nd ref='-137577819' />
    <nd ref='-137577799' />
    <tag k='type' v='straight' />
  </way>
  <way id='-35996727' action='modify'>
    <nd ref='-137577840' />
    <nd ref='-137577802' />
    <nd ref='-137577839' />
  </way>
  <way id='-35996741' action='modify'>
    <nd ref='-137577851' />
    <nd ref='-137577841' />
  </way>
  <way id='-35996742' action='modify'>
    <nd ref='-137577841' />
    <nd ref='-137577840' />
    <tag k='type' v='straight' />
  </way>
  <relation id='-14431992' action='modify'>
    <member type='way' ref='-35996677' role='' />
    <member type='way' ref='-35996678' role='' />
    <member type='way' ref='-35996679' role='' />
    <member type='way' ref='-35996680' role='' />
    <member type='way' ref='-35996681' role='' />
    <member type='way' ref='-35996682' role='' />
    <member type='way' ref='-35996683' role='' />
    <member type='way' ref='-35996684' role='' />
    <member type='way' ref='-35996685' role='' />
    <member type='way' ref='-35996686' role='' />
    <member type='way' ref='-35996687' role='' />
    <member type='way' ref='-35996688' role='' />
    <member type='way' ref='-35996689' role='' />
    <member type='way' ref='-35996690' role='' />
    <member type='way' ref='-35996691' role='' />
    <member type='way' ref='-35996692' role='' />
    <member type='way' ref='-35996693' role='' />
    <member type='way' ref='-35996741' role='' />
    <member type='way' ref='-35996742' role='' />
    <member type='way' ref='-35996727' role='' />
    <member type='way' ref='-35996720' role='' />
    <member type='way' ref='-35996721' role='' />
    <member type='way' ref='-35996694' role='' />
    <member type='way' ref='-35996695' role='' />
    <tag k='key' v='path.dk.kvh' />
    <tag k='name' v='DK KVH' />
    <tag k='type' v='path' />
  </relation>
</osm>
