<?xml version='1.0' encoding='UTF-8'?>
<osm version='0.6' upload='false' generator='JOSM'>
  <node id='-166540741' action='modify' lat='52.42154479438' lon='4.63121943109' />
  <node id='-166540742' action='modify' lat='52.42839146092' lon='4.63159963354' />
  <node id='-166540743' action='modify' lat='52.4338401836' lon='4.63256384768'>
    <tag k='name' v='san' />
  </node>
  <node id='-166540744' action='modify' lat='52.43443661115' lon='4.63273554973' />
  <node id='-166540745' action='modify' lat='52.43704559057' lon='4.63356703386'>
    <tag k='name' v='san.yi' />
  </node>
  <node id='-166540746' action='modify' lat='52.44009506394' lon='4.63328808278' />
  <node id='-166540747' action='modify' lat='52.4419557108' lon='4.6325504753' />
  <node id='-166540748' action='modify' lat='52.44291575065' lon='4.63240637791' />
  <node id='-166540749' action='modify' lat='52.44463706883' lon='4.63250200529'>
    <tag k='name' v='wes' />
  </node>
  <node id='-166540750' action='modify' lat='52.45065585117' lon='4.63283640653' />
  <node id='-166540751' action='modify' lat='52.45137546005' lon='4.63283747166'>
    <tag k='name' v='vze' />
  </node>
  <node id='-166540752' action='modify' lat='52.45219113485' lon='4.63280260026' />
  <node id='-166540753' action='modify' lat='52.45419347321' lon='4.6325504753' />
  <node id='-166540754' action='modify' lat='52.45543733165' lon='4.63249682844' />
  <node id='-166540755' action='modify' lat='52.45993801945' lon='4.6323692145'>
    <tag k='name' v='vel' />
  </node>
  <node id='-166540756' action='modify' lat='52.46090213511' lon='4.63234187596' />
  <node id='-166540757' action='modify' lat='52.46346516523' lon='4.6274274534' />
  <node id='-166540758' action='modify' lat='52.46341602818' lon='4.61989569756'>
    <tag k='name' v='cas' />
  </node>
  <node id='-166540759' action='modify' lat='52.46334750397' lon='4.60939227998' />
  <node id='-166540760' action='modify' lat='52.46243235012' lon='4.60468232095'>
    <tag k='name' v='jul' />
  </node>
  <node id='-166540761' action='modify' lat='52.46049739078' lon='4.59965049684' />
  <node id='-166540762' action='modify' lat='52.4600085771' lon='4.59446672627'>
    <tag k='name' v='ijm' />
  </node>
  <node id='-166540763' action='modify' lat='52.46086673925' lon='4.59116398752' />
  <node id='-166540764' action='modify' lat='52.46268401933' lon='4.58608388364'>
    <tag k='name' v='ijm.f' />
  </node>
  <way id='-37738004' action='modify'>
    <nd ref='-166540741' />
    <nd ref='-166540742' />
    <tag k='type' v='straight' />
  </way>
  <way id='-37738005' action='modify'>
    <nd ref='-166540742' />
    <nd ref='-166540743' />
    <nd ref='-166540744' />
  </way>
  <way id='-37738006' action='modify'>
    <nd ref='-166540744' />
    <nd ref='-166540745' />
    <tag k='type' v='straight' />
  </way>
  <way id='-37738007' action='modify'>
    <nd ref='-166540745' />
    <nd ref='-166540746' />
  </way>
  <way id='-37738008' action='modify'>
    <nd ref='-166540746' />
    <nd ref='-166540747' />
    <tag k='type' v='straight' />
  </way>
  <way id='-37738009' action='modify'>
    <nd ref='-166540747' />
    <nd ref='-166540748' />
  </way>
  <way id='-37738010' action='modify'>
    <nd ref='-166540748' />
    <nd ref='-166540749' />
    <nd ref='-166540750' />
    <tag k='type' v='straight' />
  </way>
  <way id='-37738011' action='modify'>
    <nd ref='-166540750' />
    <nd ref='-166540751' />
    <nd ref='-166540752' />
  </way>
  <way id='-37738012' action='modify'>
    <nd ref='-166540752' />
    <nd ref='-166540753' />
    <tag k='type' v='straight' />
  </way>
  <way id='-37738013' action='modify'>
    <nd ref='-166540753' />
    <nd ref='-166540754' />
  </way>
  <way id='-37738014' action='modify'>
    <nd ref='-166540754' />
    <nd ref='-166540755' />
    <tag k='type' v='straight' />
  </way>
  <way id='-37738015' action='modify'>
    <nd ref='-166540755' />
    <nd ref='-166540756' />
    <tag k='type' v='straight' />
  </way>
  <way id='-37738016' action='modify'>
    <nd ref='-166540756' />
    <nd ref='-166540757' />
  </way>
  <way id='-37738017' action='modify'>
    <nd ref='-166540757' />
    <nd ref='-166540758' />
    <nd ref='-166540759' />
    <tag k='type' v='straight' />
  </way>
  <way id='-37738018' action='modify'>
    <nd ref='-166540759' />
    <nd ref='-166540760' />
  </way>
  <way id='-37738019' action='modify'>
    <nd ref='-166540760' />
    <nd ref='-166540761' />
    <tag k='type' v='straight' />
  </way>
  <way id='-37738020' action='modify'>
    <nd ref='-166540761' />
    <nd ref='-166540762' />
    <nd ref='-166540763' />
  </way>
  <way id='-37738021' action='modify'>
    <nd ref='-166540763' />
    <nd ref='-166540764' />
    <tag k='type' v='straight' />
  </way>
  <relation id='-14480963' action='modify'>
    <member type='way' ref='-37738004' role='' />
    <member type='way' ref='-37738005' role='' />
    <member type='way' ref='-37738006' role='' />
    <member type='way' ref='-37738007' role='' />
    <member type='way' ref='-37738008' role='' />
    <member type='way' ref='-37738009' role='' />
    <member type='way' ref='-37738010' role='' />
    <member type='way' ref='-37738011' role='' />
    <member type='way' ref='-37738012' role='' />
    <member type='way' ref='-37738013' role='' />
    <member type='way' ref='-37738014' role='' />
    <member type='way' ref='-37738015' role='' />
    <member type='way' ref='-37738016' role='' />
    <member type='way' ref='-37738017' role='' />
    <member type='way' ref='-37738018' role='' />
    <member type='way' ref='-37738019' role='' />
    <member type='way' ref='-37738020' role='' />
    <member type='way' ref='-37738021' role='' />
    <tag k='key' v='path.nl.sim' />
    <tag k='name' v='NL SIM' />
    <tag k='type' v='path' />
  </relation>
</osm>
