<?xml version='1.0' encoding='UTF-8'?>
<osm version='0.6' upload='false' generator='JOSM'>
  <node id='-187444934' action='modify' lat='54.69328306207' lon='20.49849901962'>
    <tag k='description' v='Калининград-Пассажирский' />
    <tag k='name' v='kal' />
  </node>
  <node id='-187444935' action='modify' lat='54.69469808124' lon='20.49454450339' />
  <node id='-187444936' action='modify' lat='54.69526377086' lon='20.49108970144' />
  <node id='-187444937' action='modify' lat='54.69530405011' lon='20.48886608833' />
  <node id='-187444938' action='modify' lat='54.69463607492' lon='20.48516079649' />
  <node id='-187444939' action='modify' lat='54.69369913583' lon='20.48312142454' />
  <node id='-187444940' action='modify' lat='54.69222339552' lon='20.48122888053' />
  <node id='-187444941' action='modify' lat='54.69044067179' lon='20.48040851326' />
  <node id='-187444942' action='modify' lat='54.68787380222' lon='20.47814547747' />
  <node id='-187444943' action='modify' lat='54.68207091044' lon='20.47029876477'>
    <tag k='description' v='Киевская' />
    <tag k='name' v='kie' />
  </node>
  <node id='-187444944' action='modify' lat='54.67914775899' lon='20.46634648283'>
    <tag k='name' v='kma' />
  </node>
  <node id='-187444945' action='modify' lat='54.67890711589' lon='20.46602113113' />
  <node id='-187444946' action='modify' lat='54.67550959995' lon='20.46261461527' />
  <node id='-187444947' action='modify' lat='54.66539961053' lon='20.45432861509'>
    <tag k='name' v='pra' />
  </node>
  <node id='-187444948' action='modify' lat='54.65271720068' lon='20.44393721228'>
    <tag k='description' v='Ласкино' />
    <tag k='name' v='las' />
  </node>
  <node id='-187444949' action='modify' lat='54.64427279541' lon='20.43702004037' />
  <node id='-187444950' action='modify' lat='54.64272652891' lon='20.43564334563' />
  <node id='-187444952' action='modify' lat='54.6306258051' lon='20.42389731053' />
  <node id='-187444953' action='modify' lat='54.62795711682' lon='20.42126500189' />
  <node id='-187444954' action='modify' lat='54.61556682566' lon='20.40870489586'>
    <tag k='name' v='gol' />
  </node>
  <node id='-187444955' action='modify' lat='54.60056772281' lon='20.3935053388'>
    <tag k='name' v='op1298' />
  </node>
  <node id='-187444956' action='modify' lat='54.59648890649' lon='20.38937297987' />
  <node id='-187444957' action='modify' lat='54.59231824589' lon='20.38369484112' />
  <node id='-187444958' action='modify' lat='54.5878703145' lon='20.37584781875' />
  <node id='-187444959' action='modify' lat='54.58563776562' lon='20.37125056808' />
  <node id='-187444960' action='modify' lat='54.58174573493' lon='20.36257416204' />
  <node id='-187444961' action='modify' lat='54.57974341933' lon='20.35790746606' />
  <node id='-187444962' action='modify' lat='54.57891505529' lon='20.35605752821'>
    <tag k='name' v='sve' />
  </node>
  <node id='-187444963' action='modify' lat='54.56661157185' lon='20.32858529151' />
  <node id='-187444964' action='modify' lat='54.56561397823' lon='20.3261862999'>
    <tag k='name' v='op1305' />
  </node>
  <node id='-187444965' action='modify' lat='54.56497455397' lon='20.32433068244' />
  <node id='-187444966' action='modify' lat='54.56488712446' lon='20.32407917374' />
  <node id='-187444967' action='modify' lat='54.56250589038' lon='20.3072837986' />
  <node id='-187444968' action='modify' lat='54.56262737147' lon='20.28505417037'>
    <tag k='name' v='op1307' />
  </node>
  <node id='-187444969' action='modify' lat='54.56276122736' lon='20.26056002237'>
    <tag k='name' v='pob' />
  </node>
  <node id='-187444970' action='modify' lat='54.56282860267' lon='20.24823105455' />
  <node id='-187444971' action='modify' lat='54.56667074295' lon='20.23206755251' />
  <node id='-187444972' action='modify' lat='54.57191716595' lon='20.22234475353' />
  <node id='-187444973' action='modify' lat='54.57251018773' lon='20.22121116625'>
    <tag k='name' v='op1312' />
  </node>
  <node id='-187444974' action='modify' lat='54.57364344859' lon='20.21884789672'>
    <tag k='name' v='por' />
  </node>
  <node id='-187444975' action='modify' lat='54.57546382126' lon='20.19803215401' />
  <node id='-187444976' action='modify' lat='54.57428311694' lon='20.19076227975' />
  <node id='-187444977' action='modify' lat='54.57299994059' lon='20.18511011883' />
  <node id='-187444978' action='modify' lat='54.57081928346' lon='20.1768999835'>
    <tag k='description' v='Ладушкин' />
    <tag k='name' v='lad' />
  </node>
  <node id='-187444979' action='modify' lat='54.56832476914' lon='20.16750871995' />
  <node id='-187444980' action='modify' lat='54.56727235316' lon='20.16318209691' />
  <node id='-187444981' action='modify' lat='54.55687399404' lon='20.11313877044'>
    <tag k='description' v='Сосновый Бор' />
    <tag k='name' v='sos' />
  </node>
  <node id='-187444982' action='modify' lat='54.5554874429' lon='20.10646679412'>
    <tag k='name' v='sol' />
  </node>
  <node id='-187444983' action='modify' lat='54.55448732364' lon='20.1016544388' />
  <node id='-187444984' action='modify' lat='54.55225840582' lon='20.09197550603' />
  <node id='-187444985' action='modify' lat='54.54447891711' lon='20.06027431586'>
    <tag k='name' v='pri' />
  </node>
  <node id='-187444986' action='modify' lat='54.54411090693' lon='20.05877483485' />
  <node id='-187444987' action='modify' lat='54.54332528306' lon='20.05574612585'>
    <tag k='description' v='Приморское Новое' />
    <tag k='name' v='pri.st' />
  </node>
  <node id='-187444988' action='modify' lat='54.53927083411' lon='20.04525509956' />
  <node id='-187444989' action='modify' lat='54.526342824' lon='20.0219631261' />
  <node id='-187444990' action='modify' lat='54.52284093887' lon='20.01671062197' />
  <node id='-187444991' action='modify' lat='54.51206043004' lon='20.00324807599'>
    <tag k='name' v='zna' />
  </node>
  <node id='-187444992' action='modify' lat='54.50756430085' lon='19.9976344237' />
  <node id='-187444993' action='modify' lat='54.50167497887' lon='19.98485459789' />
  <node id='-187444994' action='modify' lat='54.50005582857' lon='19.97830223077' />
  <node id='-187444995' action='modify' lat='54.49367966165' lon='19.96546428914' />
  <node id='-187444996' action='modify' lat='54.48129893364' lon='19.95390256981'>
    <tag k='name' v='op1333' />
  </node>
  <node id='-187444997' action='modify' lat='54.47108495266' lon='19.94436689766' />
  <node id='-187444998' action='modify' lat='54.46733290599' lon='19.94038178722' />
  <node id='-187444999' action='modify' lat='54.46711667557' lon='19.94007646914' />
  <node id='-187445000' action='modify' lat='54.46468154331' lon='19.93588864267' />
  <node id='-187445001' action='modify' lat='54.46420676017' lon='19.93489438358'>
    <tag k='description' v='Мамоново' />
    <tag k='name' v='mam' />
  </node>
  <node id='-187445002' action='modify' lat='54.46184289866' lon='19.92994431466' />
  <node id='-187445003' action='modify' lat='54.46009028706' lon='19.92602348059' />
  <node id='-187445004' action='modify' lat='54.43661491827' lon='19.87364138247'>
    <tag k='name' v='mag' />
  </node>
  <node id='-187445005' action='modify' lat='54.42995607562' lon='19.85878854454' />
  <way id='-39309244' action='modify'>
    <nd ref='-187444934' />
    <nd ref='-187444935' />
    <tag k='type' v='straight' />
  </way>
  <way id='-39309245' action='modify'>
    <nd ref='-187444935' />
    <nd ref='-187444936' />
  </way>
  <way id='-39309246' action='modify'>
    <nd ref='-187444936' />
    <nd ref='-187444937' />
    <tag k='type' v='straight' />
  </way>
  <way id='-39309247' action='modify'>
    <nd ref='-187444937' />
    <nd ref='-187444938' />
  </way>
  <way id='-39309248' action='modify'>
    <nd ref='-187444938' />
    <nd ref='-187444939' />
    <tag k='type' v='straight' />
  </way>
  <way id='-39309249' action='modify'>
    <nd ref='-187444939' />
    <nd ref='-187444940' />
  </way>
  <way id='-39309250' action='modify'>
    <nd ref='-187444940' />
    <nd ref='-187444941' />
    <tag k='type' v='straight' />
  </way>
  <way id='-39309251' action='modify'>
    <nd ref='-187444941' />
    <nd ref='-187444942' />
  </way>
  <way id='-39309252' action='modify'>
    <nd ref='-187444942' />
    <nd ref='-187444943' />
    <nd ref='-187444944' />
    <nd ref='-187444945' />
    <tag k='type' v='straight' />
  </way>
  <way id='-39309253' action='modify'>
    <nd ref='-187444945' />
    <nd ref='-187444946' />
  </way>
  <way id='-39309254' action='modify'>
    <nd ref='-187444946' />
    <nd ref='-187444947' />
    <nd ref='-187444948' />
    <nd ref='-187444949' />
    <tag k='type' v='straight' />
  </way>
  <way id='-39309255' action='modify'>
    <nd ref='-187444949' />
    <nd ref='-187444950' />
  </way>
  <way id='-39309256' action='modify'>
    <nd ref='-187444950' />
    <nd ref='-187444952' />
    <tag k='type' v='straight' />
  </way>
  <way id='-39309258' action='modify'>
    <nd ref='-187444952' />
    <nd ref='-187444953' />
  </way>
  <way id='-39309259' action='modify'>
    <nd ref='-187444953' />
    <nd ref='-187444954' />
    <tag k='type' v='straight' />
  </way>
  <way id='-39309260' action='modify'>
    <nd ref='-187444954' />
    <nd ref='-187444955' />
    <nd ref='-187444956' />
    <tag k='type' v='straight' />
  </way>
  <way id='-39309261' action='modify'>
    <nd ref='-187444956' />
    <nd ref='-187444957' />
  </way>
  <way id='-39309262' action='modify'>
    <nd ref='-187444957' />
    <nd ref='-187444958' />
    <tag k='type' v='straight' />
  </way>
  <way id='-39309263' action='modify'>
    <nd ref='-187444958' />
    <nd ref='-187444959' />
  </way>
  <way id='-39309264' action='modify'>
    <nd ref='-187444959' />
    <nd ref='-187444960' />
    <tag k='type' v='straight' />
  </way>
  <way id='-39309265' action='modify'>
    <nd ref='-187444960' />
    <nd ref='-187444961' />
  </way>
  <way id='-39309266' action='modify'>
    <nd ref='-187444961' />
    <nd ref='-187444962' />
    <tag k='type' v='straight' />
  </way>
  <way id='-39309267' action='modify'>
    <nd ref='-187444962' />
    <nd ref='-187444963' />
    <tag k='type' v='straight' />
  </way>
  <way id='-39309268' action='modify'>
    <nd ref='-187444963' />
    <nd ref='-187444964' />
    <nd ref='-187444965' />
  </way>
  <way id='-39309269' action='modify'>
    <nd ref='-187444965' />
    <nd ref='-187444966' />
    <tag k='type' v='straight' />
  </way>
  <way id='-39309270' action='modify'>
    <nd ref='-187444966' />
    <nd ref='-187444967' />
  </way>
  <way id='-39309271' action='modify'>
    <nd ref='-187444967' />
    <nd ref='-187444968' />
    <nd ref='-187444969' />
    <nd ref='-187444970' />
    <tag k='type' v='straight' />
  </way>
  <way id='-39309272' action='modify'>
    <nd ref='-187444970' />
    <nd ref='-187444971' />
  </way>
  <way id='-39309273' action='modify'>
    <nd ref='-187444971' />
    <nd ref='-187444972' />
    <tag k='type' v='straight' />
  </way>
  <way id='-39309274' action='modify'>
    <nd ref='-187444972' />
    <nd ref='-187444973' />
    <nd ref='-187444974' />
    <nd ref='-187444975' />
  </way>
  <way id='-39309275' action='modify'>
    <nd ref='-187444975' />
    <nd ref='-187444976' />
    <tag k='type' v='straight' />
  </way>
  <way id='-39309276' action='modify'>
    <nd ref='-187444976' />
    <nd ref='-187444977' />
  </way>
  <way id='-39309277' action='modify'>
    <nd ref='-187444977' />
    <nd ref='-187444978' />
    <nd ref='-187444979' />
    <tag k='type' v='straight' />
  </way>
  <way id='-39309278' action='modify'>
    <nd ref='-187444979' />
    <nd ref='-187444980' />
  </way>
  <way id='-39309279' action='modify'>
    <nd ref='-187444980' />
    <nd ref='-187444981' />
    <nd ref='-187444982' />
    <nd ref='-187444983' />
    <tag k='type' v='straight' />
  </way>
  <way id='-39309280' action='modify'>
    <nd ref='-187444983' />
    <nd ref='-187444984' />
  </way>
  <way id='-39309281' action='modify'>
    <nd ref='-187444984' />
    <nd ref='-187444985' />
    <nd ref='-187444986' />
    <tag k='type' v='straight' />
  </way>
  <way id='-39309282' action='modify'>
    <nd ref='-187444986' />
    <nd ref='-187444987' />
    <nd ref='-187444988' />
  </way>
  <way id='-39309283' action='modify'>
    <nd ref='-187444988' />
    <nd ref='-187444989' />
    <tag k='type' v='straight' />
  </way>
  <way id='-39309284' action='modify'>
    <nd ref='-187444989' />
    <nd ref='-187444990' />
  </way>
  <way id='-39309285' action='modify'>
    <nd ref='-187444990' />
    <nd ref='-187444991' />
    <nd ref='-187444992' />
    <tag k='type' v='straight' />
  </way>
  <way id='-39309286' action='modify'>
    <nd ref='-187444992' />
    <nd ref='-187444993' />
  </way>
  <way id='-39309287' action='modify'>
    <nd ref='-187444993' />
    <nd ref='-187444994' />
    <tag k='type' v='straight' />
  </way>
  <way id='-39309288' action='modify'>
    <nd ref='-187444994' />
    <nd ref='-187444995' />
  </way>
  <way id='-39309289' action='modify'>
    <nd ref='-187444995' />
    <nd ref='-187444996' />
    <nd ref='-187444997' />
    <tag k='type' v='straight' />
  </way>
  <way id='-39309290' action='modify'>
    <nd ref='-187444997' />
    <nd ref='-187444998' />
  </way>
  <way id='-39309291' action='modify'>
    <nd ref='-187444998' />
    <nd ref='-187444999' />
    <tag k='type' v='straight' />
  </way>
  <way id='-39309292' action='modify'>
    <nd ref='-187444999' />
    <nd ref='-187445000' />
  </way>
  <way id='-39309293' action='modify'>
    <nd ref='-187445000' />
    <nd ref='-187445001' />
    <nd ref='-187445002' />
    <tag k='type' v='straight' />
  </way>
  <way id='-39309294' action='modify'>
    <nd ref='-187445002' />
    <nd ref='-187445003' />
  </way>
  <way id='-39309295' action='modify'>
    <nd ref='-187445003' />
    <nd ref='-187445004' />
    <nd ref='-187445005' />
    <tag k='type' v='straight' />
  </way>
  <relation id='-14496167' action='modify'>
    <member type='way' ref='-39309244' role='' />
    <member type='way' ref='-39309245' role='' />
    <member type='way' ref='-39309246' role='' />
    <member type='way' ref='-39309247' role='' />
    <member type='way' ref='-39309248' role='' />
    <member type='way' ref='-39309249' role='' />
    <member type='way' ref='-39309250' role='' />
    <member type='way' ref='-39309251' role='' />
    <member type='way' ref='-39309252' role='' />
    <member type='way' ref='-39309253' role='' />
    <member type='way' ref='-39309254' role='' />
    <member type='way' ref='-39309255' role='' />
    <member type='way' ref='-39309256' role='' />
    <member type='way' ref='-39309258' role='' />
    <member type='way' ref='-39309259' role='' />
    <member type='way' ref='-39309260' role='' />
    <member type='way' ref='-39309261' role='' />
    <member type='way' ref='-39309262' role='' />
    <member type='way' ref='-39309263' role='' />
    <member type='way' ref='-39309264' role='' />
    <member type='way' ref='-39309265' role='' />
    <member type='way' ref='-39309266' role='' />
    <member type='way' ref='-39309267' role='' />
    <member type='way' ref='-39309268' role='' />
    <member type='way' ref='-39309269' role='' />
    <member type='way' ref='-39309270' role='' />
    <member type='way' ref='-39309271' role='' />
    <member type='way' ref='-39309272' role='' />
    <member type='way' ref='-39309273' role='' />
    <member type='way' ref='-39309274' role='' />
    <member type='way' ref='-39309275' role='' />
    <member type='way' ref='-39309276' role='' />
    <member type='way' ref='-39309277' role='' />
    <member type='way' ref='-39309278' role='' />
    <member type='way' ref='-39309279' role='' />
    <member type='way' ref='-39309280' role='' />
    <member type='way' ref='-39309281' role='' />
    <member type='way' ref='-39309282' role='' />
    <member type='way' ref='-39309283' role='' />
    <member type='way' ref='-39309284' role='' />
    <member type='way' ref='-39309285' role='' />
    <member type='way' ref='-39309286' role='' />
    <member type='way' ref='-39309287' role='' />
    <member type='way' ref='-39309288' role='' />
    <member type='way' ref='-39309289' role='' />
    <member type='way' ref='-39309290' role='' />
    <member type='way' ref='-39309291' role='' />
    <member type='way' ref='-39309292' role='' />
    <member type='way' ref='-39309293' role='' />
    <member type='way' ref='-39309294' role='' />
    <member type='way' ref='-39309295' role='' />
    <tag k='key' v='path.ru.kg.1' />
    <tag k='name' v='RU KG 1' />
    <tag k='type' v='path' />
  </relation>
</osm>
