<?xml version='1.0' encoding='UTF-8'?>
<osm version='0.6' upload='false' generator='JOSM'>
  <node id='-187444655' action='modify' lat='54.65963226457' lon='21.0763673' />
  <node id='-187444656' action='modify' lat='54.65974633756' lon='21.07644642502'>
    <tag k='name' v='gvs' />
  </node>
  <node id='-187444657' action='modify' lat='54.66099919416' lon='21.07386856529' />
  <node id='-187444658' action='modify' lat='54.66087182006' lon='21.07179615524' />
  <node id='-187444659' action='modify' lat='54.66072461801' lon='21.07067086632' />
  <node id='-187444660' action='modify' lat='54.66069087748' lon='21.07047119243'>
    <tag k='name' v='gho' />
  </node>
  <node id='-187444661' action='modify' lat='54.66041705796' lon='21.06885075556' />
  <node id='-187444662' action='modify' lat='54.66031868395' lon='21.06782061879' />
  <node id='-187444663' action='modify' lat='54.66052998092' lon='21.0644795963' />
  <node id='-187444664' action='modify' lat='54.66164500201' lon='21.06152056575' />
  <node id='-187444665' action='modify' lat='54.6621786801' lon='21.05816244006' />
  <node id='-187444666' action='modify' lat='54.66308577835' lon='21.05385947732' />
  <node id='-187444667' action='modify' lat='54.66340023498' lon='21.0513183042' />
  <node id='-187444668' action='modify' lat='54.66350663623' lon='21.04736387193' />
  <node id='-187444669' action='modify' lat='54.66419166044' lon='21.04561308327' />
  <node id='-187444670' action='modify' lat='54.66478204328' lon='21.04562347164'>
    <tag k='name' v='pri' />
  </node>
  <node id='-187444671' action='modify' lat='54.6678657357' lon='21.0456777347' />
  <node id='-187444672' action='modify' lat='54.66858979325' lon='21.04595239696' />
  <node id='-187444673' action='modify' lat='54.67339006602' lon='21.04973527411' />
  <node id='-187444674' action='modify' lat='54.67401653944' lon='21.0504494918' />
  <node id='-187444675' action='modify' lat='54.67429314249' lon='21.05066446926'>
    <tag k='name' v='luz' />
  </node>
  <node id='-187444676' action='modify' lat='54.67495383325' lon='21.05117796779' />
  <node id='-187444677' action='modify' lat='54.67671747918' lon='21.05019390621' />
  <node id='-187444678' action='modify' lat='54.6810495025' lon='21.04284083019' />
  <node id='-187444679' action='modify' lat='54.68158314362' lon='21.04144418606' />
  <node id='-187444680' action='modify' lat='54.6822795847' lon='21.03872178912' />
  <node id='-187444681' action='modify' lat='54.68257222084' lon='21.03705123769' />
  <node id='-187444682' action='modify' lat='54.68297568783' lon='21.02681444562' />
  <node id='-187444683' action='modify' lat='54.68293882749' lon='21.02436761818' />
  <node id='-187444684' action='modify' lat='54.68325670508' lon='21.01269542193' />
  <node id='-187444685' action='modify' lat='54.68332725031' lon='21.0113749533' />
  <node id='-187444686' action='modify' lat='54.68356191517' lon='21.00833962032' />
  <node id='-187444687' action='modify' lat='54.68359666582' lon='21.00713605591' />
  <node id='-187444688' action='modify' lat='54.68359156272' lon='21.00636355998'>
    <tag k='name' v='zve' />
  </node>
  <node id='-187444689' action='modify' lat='54.68356385968' lon='21.00216993847' />
  <node id='-187444690' action='modify' lat='54.68356489611' lon='21.00090752934' />
  <node id='-187444691' action='modify' lat='54.68369826886' lon='20.99648142223' />
  <node id='-187444692' action='modify' lat='54.68389625013' lon='20.99372462644' />
  <node id='-187444693' action='modify' lat='54.68407278772' lon='20.99278101965'>
    <tag k='name' v='gor' />
  </node>
  <node id='-187444694' action='modify' lat='54.68489347141' lon='20.98839434941' />
  <node id='-187444695' action='modify' lat='54.68607530513' lon='20.98677276492' />
  <node id='-187444696' action='modify' lat='54.68936691295' lon='20.98645026' />
  <node id='-187444697' action='modify' lat='54.69061970175' lon='20.98658485133' />
  <node id='-187444698' action='modify' lat='54.693138775' lon='20.98707683918'>
    <tag k='name' v='kal' />
  </node>
  <node id='-187444699' action='modify' lat='54.69370250573' lon='20.98718694285' />
  <node id='-187444700' action='modify' lat='54.69496659452' lon='20.98656161989' />
  <node id='-187444701' action='modify' lat='54.69629333991' lon='20.98354145685' />
  <node id='-187444702' action='modify' lat='54.69710123978' lon='20.98217639946' />
  <node id='-187444703' action='modify' lat='54.7007914166' lon='20.97824410083' />
  <node id='-187444704' action='modify' lat='54.70144684224' lon='20.97636423875' />
  <node id='-187444705' action='modify' lat='54.70167486344' lon='20.97441484771'>
    <tag k='name' v='pru' />
  </node>
  <node id='-187444706' action='modify' lat='54.70195349198' lon='20.97203279118' />
  <node id='-187444707' action='modify' lat='54.70210396685' lon='20.97022889972' />
  <node id='-187444708' action='modify' lat='54.70232063067' lon='20.96472491659' />
  <node id='-187444709' action='modify' lat='54.702819331' lon='20.96200279189' />
  <node id='-187444710' action='modify' lat='54.70334286051' lon='20.96012548183' />
  <node id='-187444711' action='modify' lat='54.7041174961' lon='20.95572214173' />
  <node id='-187444712' action='modify' lat='54.70589074035' lon='20.95110180335'>
    <tag k='name' v='pog' />
  </node>
  <node id='-187444713' action='modify' lat='54.70608010095' lon='20.9506083963' />
  <node id='-187444714' action='modify' lat='54.7063749348' lon='20.94928715126' />
  <node id='-187444715' action='modify' lat='54.70712933971' lon='20.94051558604' />
  <node id='-187444716' action='modify' lat='54.70707149796' lon='20.93882931129' />
  <node id='-187444717' action='modify' lat='54.70697402554' lon='20.93844898292'>
    <tag k='name' v='mar' />
  </node>
  <node id='-187444718' action='modify' lat='54.70588543567' lon='20.93420146823' />
  <node id='-187444719' action='modify' lat='54.70524993551' lon='20.93158838555' />
  <node id='-187444720' action='modify' lat='54.70472547075' lon='20.9220080905'>
    <tag k='name' v='yab' />
  </node>
  <node id='-187444721' action='modify' lat='54.70416956697' lon='20.91185364015' />
  <node id='-187444722' action='modify' lat='54.70476962907' lon='20.90670346141' />
  <node id='-187444723' action='modify' lat='54.70498180861' lon='20.90375534693'>
    <tag k='name' v='mal' />
  </node>
  <node id='-187444724' action='modify' lat='54.70501754632' lon='20.90325879023' />
  <node id='-187444725' action='modify' lat='54.70537760216' lon='20.90187572137' />
  <node id='-187444726' action='modify' lat='54.71001566934' lon='20.89312871356' />
  <node id='-187444727' action='modify' lat='54.71061650131' lon='20.89091145539' />
  <node id='-187444728' action='modify' lat='54.71191827164' lon='20.88679648786' />
  <node id='-187444729' action='modify' lat='54.71230872936' lon='20.884537335' />
  <node id='-187444730' action='modify' lat='54.71245910539' lon='20.88226861374' />
  <node id='-187444731' action='modify' lat='54.71251131008' lon='20.8806922088' />
  <node id='-187444732' action='modify' lat='54.71246496774' lon='20.87870120466' />
  <node id='-187444733' action='modify' lat='54.71284532898' lon='20.87672629814' />
  <node id='-187444734' action='modify' lat='54.7152760289' lon='20.87020502719' />
  <node id='-187444735' action='modify' lat='54.7155281318' lon='20.8685973233'>
    <tag k='name' v='ros' />
  </node>
  <node id='-187444736' action='modify' lat='54.71519916571' lon='20.86617216132' />
  <node id='-187444737' action='modify' lat='54.71431004396' lon='20.86311457249' />
  <way id='-39309002' action='modify'>
    <nd ref='-187444655' />
    <nd ref='-187444656' />
    <tag k='type' v='straight' />
  </way>
  <way id='-39309003' action='modify'>
    <nd ref='-187444656' />
    <nd ref='-187444657' />
  </way>
  <way id='-39309004' action='modify'>
    <nd ref='-187444657' />
    <nd ref='-187444658' />
    <tag k='type' v='straight' />
  </way>
  <way id='-39309005' action='modify'>
    <nd ref='-187444658' />
    <nd ref='-187444659' />
  </way>
  <way id='-39309006' action='modify'>
    <nd ref='-187444659' />
    <nd ref='-187444660' />
    <nd ref='-187444661' />
    <tag k='type' v='straight' />
  </way>
  <way id='-39309007' action='modify'>
    <nd ref='-187444661' />
    <nd ref='-187444662' />
  </way>
  <way id='-39309008' action='modify'>
    <nd ref='-187444662' />
    <nd ref='-187444663' />
    <tag k='type' v='straight' />
  </way>
  <way id='-39309009' action='modify'>
    <nd ref='-187444663' />
    <nd ref='-187444664' />
    <nd ref='-187444665' />
    <nd ref='-187444666' />
    <nd ref='-187444667' />
  </way>
  <way id='-39309010' action='modify'>
    <nd ref='-187444667' />
    <nd ref='-187444668' />
    <tag k='type' v='straight' />
  </way>
  <way id='-39309011' action='modify'>
    <nd ref='-187444668' />
    <nd ref='-187444669' />
  </way>
  <way id='-39309012' action='modify'>
    <nd ref='-187444669' />
    <nd ref='-187444670' />
    <nd ref='-187444671' />
    <tag k='type' v='straight' />
  </way>
  <way id='-39309013' action='modify'>
    <nd ref='-187444671' />
    <nd ref='-187444672' />
  </way>
  <way id='-39309014' action='modify'>
    <nd ref='-187444672' />
    <nd ref='-187444673' />
    <tag k='type' v='straight' />
  </way>
  <way id='-39309015' action='modify'>
    <nd ref='-187444673' />
    <nd ref='-187444674' />
  </way>
  <way id='-39309016' action='modify'>
    <nd ref='-187444674' />
    <nd ref='-187444675' />
    <nd ref='-187444676' />
    <tag k='type' v='straight' />
  </way>
  <way id='-39309017' action='modify'>
    <nd ref='-187444676' />
    <nd ref='-187444677' />
  </way>
  <way id='-39309018' action='modify'>
    <nd ref='-187444677' />
    <nd ref='-187444678' />
    <tag k='type' v='straight' />
  </way>
  <way id='-39309019' action='modify'>
    <nd ref='-187444678' />
    <nd ref='-187444679' />
  </way>
  <way id='-39309020' action='modify'>
    <nd ref='-187444679' />
    <nd ref='-187444680' />
    <tag k='type' v='straight' />
  </way>
  <way id='-39309021' action='modify'>
    <nd ref='-187444680' />
    <nd ref='-187444681' />
  </way>
  <way id='-39309022' action='modify'>
    <nd ref='-187444681' />
    <nd ref='-187444682' />
    <tag k='type' v='straight' />
  </way>
  <way id='-39309023' action='modify'>
    <nd ref='-187444682' />
    <nd ref='-187444683' />
  </way>
  <way id='-39309024' action='modify'>
    <nd ref='-187444683' />
    <nd ref='-187444684' />
    <tag k='type' v='straight' />
  </way>
  <way id='-39309025' action='modify'>
    <nd ref='-187444684' />
    <nd ref='-187444685' />
  </way>
  <way id='-39309026' action='modify'>
    <nd ref='-187444685' />
    <nd ref='-187444686' />
    <tag k='type' v='straight' />
  </way>
  <way id='-39309027' action='modify'>
    <nd ref='-187444686' />
    <nd ref='-187444687' />
  </way>
  <way id='-39309028' action='modify'>
    <nd ref='-187444687' />
    <nd ref='-187444688' />
    <nd ref='-187444689' />
    <tag k='type' v='straight' />
  </way>
  <way id='-39309029' action='modify'>
    <nd ref='-187444689' />
    <nd ref='-187444690' />
  </way>
  <way id='-39309030' action='modify'>
    <nd ref='-187444690' />
    <nd ref='-187444691' />
    <tag k='type' v='straight' />
  </way>
  <way id='-39309031' action='modify'>
    <nd ref='-187444691' />
    <nd ref='-187444692' />
  </way>
  <way id='-39309032' action='modify'>
    <nd ref='-187444692' />
    <nd ref='-187444693' />
    <nd ref='-187444694' />
    <tag k='type' v='straight' />
  </way>
  <way id='-39309033' action='modify'>
    <nd ref='-187444694' />
    <nd ref='-187444695' />
  </way>
  <way id='-39309034' action='modify'>
    <nd ref='-187444695' />
    <nd ref='-187444696' />
    <tag k='type' v='straight' />
  </way>
  <way id='-39309035' action='modify'>
    <nd ref='-187444696' />
    <nd ref='-187444697' />
  </way>
  <way id='-39309036' action='modify'>
    <nd ref='-187444697' />
    <nd ref='-187444698' />
    <nd ref='-187444699' />
    <tag k='type' v='straight' />
  </way>
  <way id='-39309037' action='modify'>
    <nd ref='-187444699' />
    <nd ref='-187444700' />
  </way>
  <way id='-39309038' action='modify'>
    <nd ref='-187444700' />
    <nd ref='-187444701' />
    <tag k='type' v='straight' />
  </way>
  <way id='-39309039' action='modify'>
    <nd ref='-187444701' />
    <nd ref='-187444702' />
  </way>
  <way id='-39309040' action='modify'>
    <nd ref='-187444702' />
    <nd ref='-187444703' />
    <tag k='type' v='straight' />
  </way>
  <way id='-39309041' action='modify'>
    <nd ref='-187444703' />
    <nd ref='-187444704' />
  </way>
  <way id='-39309042' action='modify'>
    <nd ref='-187444704' />
    <nd ref='-187444705' />
    <nd ref='-187444706' />
    <tag k='type' v='straight' />
  </way>
  <way id='-39309043' action='modify'>
    <nd ref='-187444706' />
    <nd ref='-187444707' />
  </way>
  <way id='-39309044' action='modify'>
    <nd ref='-187444707' />
    <nd ref='-187444708' />
    <tag k='type' v='straight' />
  </way>
  <way id='-39309045' action='modify'>
    <nd ref='-187444708' />
    <nd ref='-187444709' />
  </way>
  <way id='-39309046' action='modify'>
    <nd ref='-187444709' />
    <nd ref='-187444710' />
    <tag k='type' v='straight' />
  </way>
  <way id='-39309047' action='modify'>
    <nd ref='-187444710' />
    <nd ref='-187444711' />
  </way>
  <way id='-39309048' action='modify'>
    <nd ref='-187444711' />
    <nd ref='-187444712' />
    <nd ref='-187444713' />
    <tag k='type' v='straight' />
  </way>
  <way id='-39309049' action='modify'>
    <nd ref='-187444713' />
    <nd ref='-187444714' />
  </way>
  <way id='-39309050' action='modify'>
    <nd ref='-187444714' />
    <nd ref='-187444715' />
    <tag k='type' v='straight' />
  </way>
  <way id='-39309051' action='modify'>
    <nd ref='-187444715' />
    <nd ref='-187444716' />
  </way>
  <way id='-39309052' action='modify'>
    <nd ref='-187444716' />
    <nd ref='-187444717' />
    <nd ref='-187444718' />
    <tag k='type' v='straight' />
  </way>
  <way id='-39309053' action='modify'>
    <nd ref='-187444718' />
    <nd ref='-187444719' />
  </way>
  <way id='-39309054' action='modify'>
    <nd ref='-187444719' />
    <nd ref='-187444720' />
    <nd ref='-187444721' />
    <tag k='type' v='straight' />
  </way>
  <way id='-39309055' action='modify'>
    <nd ref='-187444721' />
    <nd ref='-187444722' />
  </way>
  <way id='-39309056' action='modify'>
    <nd ref='-187444722' />
    <nd ref='-187444723' />
    <nd ref='-187444724' />
    <tag k='type' v='straight' />
  </way>
  <way id='-39309057' action='modify'>
    <nd ref='-187444724' />
    <nd ref='-187444725' />
  </way>
  <way id='-39309058' action='modify'>
    <nd ref='-187444725' />
    <nd ref='-187444726' />
    <tag k='type' v='straight' />
  </way>
  <way id='-39309059' action='modify'>
    <nd ref='-187444726' />
    <nd ref='-187444727' />
  </way>
  <way id='-39309060' action='modify'>
    <nd ref='-187444727' />
    <nd ref='-187444728' />
    <tag k='type' v='straight' />
  </way>
  <way id='-39309061' action='modify'>
    <nd ref='-187444728' />
    <nd ref='-187444729' />
  </way>
  <way id='-39309062' action='modify'>
    <nd ref='-187444729' />
    <nd ref='-187444730' />
    <tag k='type' v='straight' />
  </way>
  <way id='-39309063' action='modify'>
    <nd ref='-187444730' />
    <nd ref='-187444731' />
  </way>
  <way id='-39309064' action='modify'>
    <nd ref='-187444731' />
    <nd ref='-187444732' />
    <tag k='type' v='straight' />
  </way>
  <way id='-39309065' action='modify'>
    <nd ref='-187444732' />
    <nd ref='-187444733' />
  </way>
  <way id='-39309066' action='modify'>
    <nd ref='-187444733' />
    <nd ref='-187444734' />
    <tag k='type' v='straight' />
  </way>
  <way id='-39309068' action='modify'>
    <nd ref='-187444734' />
    <nd ref='-187444735' />
    <nd ref='-187444736' />
  </way>
  <way id='-39309069' action='modify'>
    <nd ref='-187444736' />
    <nd ref='-187444737' />
    <tag k='type' v='straight' />
  </way>
  <relation id='-14496160' action='modify'>
    <member type='way' ref='-39309002' role='' />
    <member type='way' ref='-39309003' role='' />
    <member type='way' ref='-39309004' role='' />
    <member type='way' ref='-39309005' role='' />
    <member type='way' ref='-39309006' role='' />
    <member type='way' ref='-39309007' role='' />
    <member type='way' ref='-39309008' role='' />
    <member type='way' ref='-39309009' role='' />
    <member type='way' ref='-39309010' role='' />
    <member type='way' ref='-39309011' role='' />
    <member type='way' ref='-39309012' role='' />
    <member type='way' ref='-39309013' role='' />
    <member type='way' ref='-39309014' role='' />
    <member type='way' ref='-39309015' role='' />
    <member type='way' ref='-39309016' role='' />
    <member type='way' ref='-39309017' role='' />
    <member type='way' ref='-39309018' role='' />
    <member type='way' ref='-39309019' role='' />
    <member type='way' ref='-39309020' role='' />
    <member type='way' ref='-39309021' role='' />
    <member type='way' ref='-39309022' role='' />
    <member type='way' ref='-39309023' role='' />
    <member type='way' ref='-39309024' role='' />
    <member type='way' ref='-39309025' role='' />
    <member type='way' ref='-39309026' role='' />
    <member type='way' ref='-39309027' role='' />
    <member type='way' ref='-39309028' role='' />
    <member type='way' ref='-39309029' role='' />
    <member type='way' ref='-39309030' role='' />
    <member type='way' ref='-39309031' role='' />
    <member type='way' ref='-39309032' role='' />
    <member type='way' ref='-39309033' role='' />
    <member type='way' ref='-39309034' role='' />
    <member type='way' ref='-39309035' role='' />
    <member type='way' ref='-39309036' role='' />
    <member type='way' ref='-39309037' role='' />
    <member type='way' ref='-39309038' role='' />
    <member type='way' ref='-39309039' role='' />
    <member type='way' ref='-39309040' role='' />
    <member type='way' ref='-39309041' role='' />
    <member type='way' ref='-39309042' role='' />
    <member type='way' ref='-39309043' role='' />
    <member type='way' ref='-39309044' role='' />
    <member type='way' ref='-39309045' role='' />
    <member type='way' ref='-39309046' role='' />
    <member type='way' ref='-39309047' role='' />
    <member type='way' ref='-39309048' role='' />
    <member type='way' ref='-39309049' role='' />
    <member type='way' ref='-39309050' role='' />
    <member type='way' ref='-39309051' role='' />
    <member type='way' ref='-39309052' role='' />
    <member type='way' ref='-39309053' role='' />
    <member type='way' ref='-39309054' role='' />
    <member type='way' ref='-39309055' role='' />
    <member type='way' ref='-39309056' role='' />
    <member type='way' ref='-39309057' role='' />
    <member type='way' ref='-39309058' role='' />
    <member type='way' ref='-39309059' role='' />
    <member type='way' ref='-39309060' role='' />
    <member type='way' ref='-39309061' role='' />
    <member type='way' ref='-39309062' role='' />
    <member type='way' ref='-39309063' role='' />
    <member type='way' ref='-39309064' role='' />
    <member type='way' ref='-39309065' role='' />
    <member type='way' ref='-39309066' role='' />
    <member type='way' ref='-39309068' role='' />
    <member type='way' ref='-39309069' role='' />
    <tag k='key' v='path.ru.kg.77' />
    <tag k='name' v='RU KG 77' />
    <tag k='type' v='path' />
  </relation>
</osm>
