<?xml version='1.0' encoding='UTF-8'?>
<osm version='0.6' upload='false' generator='JOSM'>
  <node id='-148923223' action='modify' lat='55.05852282353' lon='10.6119926643' />
  <node id='-148923224' action='modify' lat='55.05888585683' lon='10.61211654417'>
    <tag k='name' v='sve' />
  </node>
  <node id='-148923226' action='modify' lat='55.05602103301' lon='10.60907542571' />
  <node id='-148923227' action='modify' lat='55.05224289331' lon='10.59807099368' />
  <node id='-148923228' action='modify' lat='55.05109068652' lon='10.59294703339' />
  <node id='-148923229' action='modify' lat='55.05108190221' lon='10.59281499992' />
  <node id='-148923230' action='modify' lat='55.05040929572' lon='10.58745681703' />
  <node id='-148923231' action='modify' lat='55.04508951627' lon='10.56429325998' />
  <node id='-148923232' action='modify' lat='55.04414079805' lon='10.55921799179'>
    <tag k='name' v='sko' />
  </node>
  <node id='-148923233' action='modify' lat='55.04417976631' lon='10.54300724924' />
  <node id='-148923234' action='modify' lat='55.04658318562' lon='10.53157566905' />
  <node id='-148923235' action='modify' lat='55.04936752127' lon='10.52488624781'>
    <tag k='name' v='ege' />
  </node>
  <node id='-148923236' action='modify' lat='55.05140494716' lon='10.5220806545' />
  <node id='-148923237' action='modify' lat='55.06755624282' lon='10.50248979449' />
  <node id='-148923238' action='modify' lat='55.06963101289' lon='10.49899473697'>
    <tag k='name' v='oll' />
  </node>
  <node id='-148923239' action='modify' lat='55.07060787612' lon='10.49581646651' />
  <node id='-148923240' action='modify' lat='55.07091963075' lon='10.49456923932' />
  <node id='-148923241' action='modify' lat='55.07087509452' lon='10.48941939801' />
  <node id='-148923242' action='modify' lat='55.070632448' lon='10.4879280898' />
  <node id='-148923243' action='modify' lat='55.07108395365' lon='10.48086046904' />
  <node id='-148923244' action='modify' lat='55.0719639143' lon='10.4785269472' />
  <node id='-148923245' action='modify' lat='55.07374374064' lon='10.46846598119'>
    <tag k='name' v='aki' />
  </node>
  <node id='-148923246' action='modify' lat='55.0734565797' lon='10.46404838026' />
  <node id='-148923247' action='modify' lat='55.07279932305' lon='10.45948862493' />
  <node id='-148923248' action='modify' lat='55.07223573069' lon='10.44937669963'>
    <tag k='name' v='vsk' />
  </node>
  <node id='-148923249' action='modify' lat='55.07279932305' lon='10.43866931856' />
  <node id='-148923250' action='modify' lat='55.0728791757' lon='10.43473720282' />
  <node id='-148923251' action='modify' lat='55.07258279301' lon='10.42291134328'>
    <tag k='name' v='ulb' />
  </node>
  <node id='-148923252' action='modify' lat='55.07446394276' lon='10.41561841428' />
  <node id='-148923253' action='modify' lat='55.0812936852' lon='10.40510147542' />
  <node id='-148923254' action='modify' lat='55.08463136437' lon='10.39840935588' />
  <node id='-148923255' action='modify' lat='55.08695252671' lon='10.39162873149' />
  <node id='-148923256' action='modify' lat='55.0872564754' lon='10.38398444116' />
  <node id='-148923257' action='modify' lat='55.08702927935' lon='10.38261651456' />
  <node id='-148923258' action='modify' lat='55.08666392084' lon='10.37752031744'>
    <tag k='name' v='vab' />
  </node>
  <node id='-148923259' action='modify' lat='55.08704156025' lon='10.37414073408' />
  <node id='-148923260' action='modify' lat='55.08880383035' lon='10.36310612619' />
  <node id='-148923261' action='modify' lat='55.08836480364' lon='10.35509437054' />
  <node id='-148923262' action='modify' lat='55.08747445805' lon='10.3513607356' />
  <node id='-148923263' action='modify' lat='55.08707226095' lon='10.34937858313'>
    <tag k='name' v='nak' />
  </node>
  <node id='-148923264' action='modify' lat='55.08643058396' lon='10.34227608562' />
  <node id='-148923265' action='modify' lat='55.08642444035' lon='10.32514213979' />
  <node id='-148923266' action='modify' lat='55.08568545709' lon='10.31817981022' />
  <node id='-148923267' action='modify' lat='55.08565590197' lon='10.31803003937' />
  <node id='-148923268' action='modify' lat='55.08479255518' lon='10.31185649201' />
  <node id='-148923269' action='modify' lat='55.08453735063' lon='10.30919092302'>
    <tag k='name' v='kat' />
  </node>
  <way id='-36649453' action='modify'>
    <nd ref='-148923224' />
    <nd ref='-148923223' />
    <tag k='type' v='straight' />
  </way>
  <way id='-36649454' action='modify'>
    <nd ref='-148923223' />
    <nd ref='-148923226' />
  </way>
  <way id='-36649455' action='modify'>
    <nd ref='-148923226' />
    <nd ref='-148923227' />
    <tag k='type' v='straight' />
  </way>
  <way id='-36649456' action='modify'>
    <nd ref='-148923227' />
    <nd ref='-148923228' />
  </way>
  <way id='-36649457' action='modify'>
    <nd ref='-148923228' />
    <nd ref='-148923229' />
    <tag k='type' v='straight' />
  </way>
  <way id='-36649458' action='modify'>
    <nd ref='-148923229' />
    <nd ref='-148923230' />
  </way>
  <way id='-36649459' action='modify'>
    <nd ref='-148923230' />
    <nd ref='-148923231' />
    <tag k='type' v='straight' />
  </way>
  <way id='-36649460' action='modify'>
    <nd ref='-148923231' />
    <nd ref='-148923232' />
    <nd ref='-148923233' />
  </way>
  <way id='-36649461' action='modify'>
    <nd ref='-148923233' />
    <nd ref='-148923234' />
    <tag k='type' v='straight' />
  </way>
  <way id='-36649462' action='modify'>
    <nd ref='-148923234' />
    <nd ref='-148923235' />
    <nd ref='-148923236' />
  </way>
  <way id='-36649463' action='modify'>
    <nd ref='-148923236' />
    <nd ref='-148923237' />
    <tag k='type' v='straight' />
  </way>
  <way id='-36649464' action='modify'>
    <nd ref='-148923237' />
    <nd ref='-148923238' />
    <nd ref='-148923239' />
  </way>
  <way id='-36649465' action='modify'>
    <nd ref='-148923239' />
    <nd ref='-148923240' />
    <tag k='type' v='straight' />
  </way>
  <way id='-36649466' action='modify'>
    <nd ref='-148923240' />
    <nd ref='-148923241' />
  </way>
  <way id='-36649467' action='modify'>
    <nd ref='-148923241' />
    <nd ref='-148923242' />
    <tag k='type' v='straight' />
  </way>
  <way id='-36649468' action='modify'>
    <nd ref='-148923242' />
    <nd ref='-148923243' />
  </way>
  <way id='-36649469' action='modify'>
    <nd ref='-148923243' />
    <nd ref='-148923244' />
    <tag k='type' v='straight' />
  </way>
  <way id='-36649470' action='modify'>
    <nd ref='-148923244' />
    <nd ref='-148923245' />
    <nd ref='-148923246' />
  </way>
  <way id='-36649471' action='modify'>
    <nd ref='-148923246' />
    <nd ref='-148923247' />
    <tag k='type' v='straight' />
  </way>
  <way id='-36649472' action='modify'>
    <nd ref='-148923247' />
    <nd ref='-148923248' />
  </way>
  <way id='-36649473' action='modify'>
    <nd ref='-148923248' />
    <nd ref='-148923249' />
    <tag k='type' v='straight' />
  </way>
  <way id='-36649474' action='modify'>
    <nd ref='-148923249' />
    <nd ref='-148923250' />
  </way>
  <way id='-36649475' action='modify'>
    <nd ref='-148923250' />
    <nd ref='-148923251' />
    <tag k='type' v='straight' />
  </way>
  <way id='-36649476' action='modify'>
    <nd ref='-148923251' />
    <nd ref='-148923252' />
  </way>
  <way id='-36649477' action='modify'>
    <nd ref='-148923252' />
    <nd ref='-148923253' />
    <tag k='type' v='straight' />
  </way>
  <way id='-36649478' action='modify'>
    <nd ref='-148923253' />
    <nd ref='-148923254' />
  </way>
  <way id='-36649479' action='modify'>
    <nd ref='-148923254' />
    <nd ref='-148923255' />
    <tag k='type' v='straight' />
  </way>
  <way id='-36649480' action='modify'>
    <nd ref='-148923255' />
    <nd ref='-148923256' />
  </way>
  <way id='-36649481' action='modify'>
    <nd ref='-148923256' />
    <nd ref='-148923257' />
    <tag k='type' v='straight' />
  </way>
  <way id='-36649482' action='modify'>
    <nd ref='-148923257' />
    <nd ref='-148923258' />
    <nd ref='-148923259' />
  </way>
  <way id='-36649483' action='modify'>
    <nd ref='-148923259' />
    <nd ref='-148923260' />
    <tag k='type' v='straight' />
  </way>
  <way id='-36649484' action='modify'>
    <nd ref='-148923260' />
    <nd ref='-148923261' />
  </way>
  <way id='-36649485' action='modify'>
    <nd ref='-148923261' />
    <nd ref='-148923262' />
    <tag k='type' v='straight' />
  </way>
  <way id='-36649486' action='modify'>
    <nd ref='-148923262' />
    <nd ref='-148923263' />
    <nd ref='-148923264' />
  </way>
  <way id='-36649487' action='modify'>
    <nd ref='-148923264' />
    <nd ref='-148923265' />
    <tag k='type' v='straight' />
  </way>
  <way id='-36649488' action='modify'>
    <nd ref='-148923265' />
    <nd ref='-148923266' />
  </way>
  <way id='-36649489' action='modify'>
    <nd ref='-148923266' />
    <nd ref='-148923267' />
    <tag k='type' v='straight' />
  </way>
  <way id='-36649490' action='modify'>
    <nd ref='-148923267' />
    <nd ref='-148923268' />
  </way>
  <way id='-36649491' action='modify'>
    <nd ref='-148923268' />
    <nd ref='-148923269' />
    <tag k='type' v='straight' />
  </way>
  <relation id='-14469689' action='modify'>
    <member type='way' ref='-36649453' role='' />
    <member type='way' ref='-36649454' role='' />
    <member type='way' ref='-36649455' role='' />
    <member type='way' ref='-36649456' role='' />
    <member type='way' ref='-36649457' role='' />
    <member type='way' ref='-36649458' role='' />
    <member type='way' ref='-36649459' role='' />
    <member type='way' ref='-36649460' role='' />
    <member type='way' ref='-36649461' role='' />
    <member type='way' ref='-36649462' role='' />
    <member type='way' ref='-36649463' role='' />
    <member type='way' ref='-36649464' role='' />
    <member type='way' ref='-36649465' role='' />
    <member type='way' ref='-36649466' role='' />
    <member type='way' ref='-36649467' role='' />
    <member type='way' ref='-36649468' role='' />
    <member type='way' ref='-36649469' role='' />
    <member type='way' ref='-36649470' role='' />
    <member type='way' ref='-36649471' role='' />
    <member type='way' ref='-36649472' role='' />
    <member type='way' ref='-36649473' role='' />
    <member type='way' ref='-36649474' role='' />
    <member type='way' ref='-36649475' role='' />
    <member type='way' ref='-36649476' role='' />
    <member type='way' ref='-36649477' role='' />
    <member type='way' ref='-36649478' role='' />
    <member type='way' ref='-36649479' role='' />
    <member type='way' ref='-36649480' role='' />
    <member type='way' ref='-36649481' role='' />
    <member type='way' ref='-36649482' role='' />
    <member type='way' ref='-36649483' role='' />
    <member type='way' ref='-36649484' role='' />
    <member type='way' ref='-36649485' role='' />
    <member type='way' ref='-36649486' role='' />
    <member type='way' ref='-36649487' role='' />
    <member type='way' ref='-36649488' role='' />
    <member type='way' ref='-36649489' role='' />
    <member type='way' ref='-36649490' role='' />
    <member type='way' ref='-36649491' role='' />
    <tag k='key' v='path.dk.sbf' />
    <tag k='name' v='DK SBF' />
    <tag k='type' v='path' />
  </relation>
</osm>
