<?xml version='1.0' encoding='UTF-8'?>
<osm version='0.6' upload='false' generator='JOSM'>
  <node id='-158668241' action='modify' lat='56.04313183539' lon='9.92035254702' />
  <node id='-158668242' action='modify' lat='56.04366882379' lon='9.92487091369'>
    <tag k='name' v='ska' />
  </node>
  <node id='-158668243' action='modify' lat='56.04311866737' lon='9.92014275646' />
  <node id='-158668244' action='modify' lat='56.0437303608' lon='9.91598591074' />
  <node id='-158668245' action='modify' lat='56.04394085376' lon='9.91551115975' />
  <node id='-158668246' action='modify' lat='56.04563449452' lon='9.90714266628' />
  <node id='-158668247' action='modify' lat='56.04580677496' lon='9.90414932236' />
  <node id='-158668248' action='modify' lat='56.04625769862' lon='9.90042105183' />
  <node id='-158668249' action='modify' lat='56.04638952913' lon='9.89966198668' />
  <node id='-158668250' action='modify' lat='56.04678426892' lon='9.89314153656' />
  <node id='-158668251' action='modify' lat='56.04672734275' lon='9.89206999406' />
  <node id='-158668252' action='modify' lat='56.04696890351' lon='9.88647021286' />
  <node id='-158668253' action='modify' lat='56.04791565878' lon='9.87921148472' />
  <node id='-158668254' action='modify' lat='56.04885527544' lon='9.87451828949' />
  <node id='-158668255' action='modify' lat='56.0522278205' lon='9.86266091332' />
  <node id='-158668256' action='modify' lat='56.05296175702' lon='9.85204473071' />
  <node id='-158668257' action='modify' lat='56.05279774618' lon='9.85077068076' />
  <node id='-158668258' action='modify' lat='56.05257076626' lon='9.84554095327'>
    <tag k='name' v='alk' />
  </node>
  <node id='-158668259' action='modify' lat='56.05391098895' lon='9.83871749997' />
  <node id='-158668260' action='modify' lat='56.0559258213' lon='9.83489133351' />
  <node id='-158668261' action='modify' lat='56.05739653568' lon='9.83291186325' />
  <node id='-158668262' action='modify' lat='56.06040106677' lon='9.82811339132' />
  <node id='-158668263' action='modify' lat='56.06364981526' lon='9.82200264864' />
  <node id='-158668264' action='modify' lat='56.06515355096' lon='9.8186143481' />
  <node id='-158668265' action='modify' lat='56.06760761747' lon='9.81154270403' />
  <node id='-158668266' action='modify' lat='56.0694312216' lon='9.80437248878' />
  <node id='-158668267' action='modify' lat='56.07187902748' lon='9.7903633111' />
  <node id='-158668268' action='modify' lat='56.07347263773' lon='9.78481650285' />
  <node id='-158668269' action='modify' lat='56.07392510923' lon='9.78373154931' />
  <node id='-158668270' action='modify' lat='56.07505270983' lon='9.78028625116' />
  <node id='-158668271' action='modify' lat='56.07528473765' lon='9.77939978108' />
  <node id='-158668272' action='modify' lat='56.08065541654' lon='9.76997516982' />
  <node id='-158668273' action='modify' lat='56.08161406691' lon='9.76909808747' />
  <node id='-158668274' action='modify' lat='56.08347105675' lon='9.76711258225' />
  <node id='-158668275' action='modify' lat='56.08781590608' lon='9.76168647341' />
  <node id='-158668276' action='modify' lat='56.09002574346' lon='9.75953400068' />
  <node id='-158668277' action='modify' lat='56.09124876145' lon='9.75864098769'>
    <tag k='name' v='ryy' />
  </node>
  <node id='-158668278' action='modify' lat='56.09204841765' lon='9.75805342063' />
  <node id='-158668279' action='modify' lat='56.09232074253' lon='9.75784622066' />
  <node id='-158668280' action='modify' lat='56.09519463479' lon='9.75328913748' />
  <node id='-158668281' action='modify' lat='56.09578785827' lon='9.74691823058' />
  <node id='-158668282' action='modify' lat='56.09572389769' lon='9.74602639608' />
  <node id='-158668283' action='modify' lat='56.09722171843' lon='9.73762737304' />
  <node id='-158668284' action='modify' lat='56.10191785565' lon='9.73429039054' />
  <node id='-158668285' action='modify' lat='56.11333325774' lon='9.73363976643'>
    <tag k='name' v='all' />
  </node>
  <node id='-158668286' action='modify' lat='56.11784679592' lon='9.73338246278' />
  <node id='-158668287' action='modify' lat='56.12394619481' lon='9.72732299656' />
  <node id='-158668288' action='modify' lat='56.12483338967' lon='9.71866899995'>
    <tag k='name' v='lav' />
  </node>
  <node id='-158668289' action='modify' lat='56.1241586678' lon='9.71503548257' />
  <node id='-158668290' action='modify' lat='56.12323845345' lon='9.71160896055' />
  <node id='-158668291' action='modify' lat='56.12245614217' lon='9.70670118794' />
  <node id='-158668292' action='modify' lat='56.12239783259' lon='9.70561086997' />
  <node id='-158668293' action='modify' lat='56.12226364509' lon='9.70385871761' />
  <node id='-158668294' action='modify' lat='56.12183342082' lon='9.69952359729' />
  <node id='-158668295' action='modify' lat='56.12429322208' lon='9.68867607348' />
  <node id='-158668296' action='modify' lat='56.12478583622' lon='9.68806654148' />
  <node id='-158668297' action='modify' lat='56.12719089529' lon='9.68357247949' />
  <node id='-158668298' action='modify' lat='56.12878408038' lon='9.67439598262' />
  <node id='-158668299' action='modify' lat='56.1281233364' lon='9.66513566606' />
  <node id='-158668300' action='modify' lat='56.12785388045' lon='9.66385021739' />
  <node id='-158668301' action='modify' lat='56.12894813644' lon='9.64885532789' />
  <node id='-158668302' action='modify' lat='56.13283991024' lon='9.63646890733'>
    <tag k='name' v='sve' />
  </node>
  <node id='-158668303' action='modify' lat='56.14573853941' lon='9.59540723655'>
    <tag k='name' v='sej' />
  </node>
  <node id='-158668304' action='modify' lat='56.14930167442' lon='9.58406187527' />
  <node id='-158668305' action='modify' lat='56.15253583232' lon='9.57702241771' />
  <node id='-158668306' action='modify' lat='56.16090625293' lon='9.56473320588' />
  <node id='-158668307' action='modify' lat='56.16253426593' lon='9.56169158086' />
  <node id='-158668308' action='modify' lat='56.16308837205' lon='9.56046447024' />
  <node id='-158668309' action='modify' lat='56.16428990317' lon='9.55589264564' />
  <node id='-158668310' action='modify' lat='56.1643724184' lon='9.55515503816' />
  <node id='-158668311' action='modify' lat='56.16450683235' lon='9.55151662096' />
  <node id='-158668312' action='modify' lat='56.16443103809' lon='9.54918980464' />
  <node id='-158668313' action='modify' lat='56.16434217566' lon='9.54791039094' />
  <node id='-158668314' action='modify' lat='56.16414652823' lon='9.54598590598' />
  <node id='-158668315' action='modify' lat='56.16405467815' lon='9.5447131978' />
  <node id='-158668316' action='modify' lat='56.16403494126' lon='9.54420855977'>
    <tag k='name' v='sil' />
  </node>
  <node id='-158668317' action='modify' lat='56.16388441887' lon='9.54035997257' />
  <node id='-158668318' action='modify' lat='56.16385305524' lon='9.53711718187' />
  <node id='-158668319' action='modify' lat='56.16379032789' lon='9.53555747733' />
  <node id='-158668320' action='modify' lat='56.16374401582' lon='9.53425899359' />
  <node id='-158668321' action='modify' lat='56.16369001294' lon='9.53241078107' />
  <node id='-158668322' action='modify' lat='56.16366673941' lon='9.53173801236' />
  <node id='-158668323' action='modify' lat='56.16348714428' lon='9.52730029687' />
  <node id='-158668324' action='modify' lat='56.16046264477' lon='9.51823711261' />
  <node id='-158668325' action='modify' lat='56.15801822709' lon='9.51569303736' />
  <node id='-158668326' action='modify' lat='56.15705027535' lon='9.51457857952' />
  <node id='-158668327' action='modify' lat='56.15694720498' lon='9.51444178686' />
  <node id='-158668328' action='modify' lat='56.1550627606' lon='9.51086170904' />
  <node id='-158668329' action='modify' lat='56.14929233684' lon='9.49563816056' />
  <node id='-158668330' action='modify' lat='56.14862037121' lon='9.4939644628' />
  <node id='-158668331' action='modify' lat='56.1451169227' lon='9.48570459947' />
  <node id='-158668332' action='modify' lat='56.14384717478' lon='9.48343209855' />
  <node id='-158668333' action='modify' lat='56.141550764' lon='9.48046624593' />
  <node id='-158668334' action='modify' lat='56.13974402365' lon='9.47529762849' />
  <node id='-158668335' action='modify' lat='56.1396797625' lon='9.47468206152' />
  <node id='-158668336' action='modify' lat='56.13702255972' lon='9.46697222983' />
  <node id='-158668337' action='modify' lat='56.13680385649' lon='9.46669256626' />
  <node id='-158668338' action='modify' lat='56.13640566372' lon='9.46619890496' />
  <node id='-158668339' action='modify' lat='56.13623139187' lon='9.46598850752'>
    <tag k='name' v='fun' />
  </node>
  <node id='-158668340' action='modify' lat='56.13605630544' lon='9.46577712759' />
  <node id='-158668341' action='modify' lat='56.13512367142' lon='9.46444809303' />
  <node id='-158668342' action='modify' lat='56.13409685108' lon='9.46282669768' />
  <node id='-158668343' action='modify' lat='56.13156443311' lon='9.45299304955' />
  <node id='-158668344' action='modify' lat='56.1315147326' lon='9.44969192013' />
  <node id='-158668345' action='modify' lat='56.13171802' lon='9.44566190109' />
  <node id='-158668346' action='modify' lat='56.13206330715' lon='9.44246470794' />
  <node id='-158668347' action='modify' lat='56.13240485439' lon='9.44016471371' />
  <node id='-158668348' action='modify' lat='56.13832352809' lon='9.40926432475' />
  <node id='-158668349' action='modify' lat='56.1392699079' lon='9.40510891311' />
  <node id='-158668350' action='modify' lat='56.14212572013' lon='9.39392208986' />
  <node id='-158668351' action='modify' lat='56.146575642' lon='9.38399322264' />
  <node id='-158668352' action='modify' lat='56.14886428213' lon='9.38091069393' />
  <node id='-158668353' action='modify' lat='56.15475353266' lon='9.37781676583' />
  <node id='-158668354' action='modify' lat='56.15581117155' lon='9.37800317936' />
  <node id='-158668355' action='modify' lat='56.15836850608' lon='9.37774970993' />
  <node id='-158668356' action='modify' lat='56.16115083231' lon='9.37573268943' />
  <node id='-158668357' action='modify' lat='56.16470098409' lon='9.3719762557' />
  <node id='-158668358' action='modify' lat='56.16682530213' lon='9.36868586573'>
    <tag k='name' v='mos' />
  </node>
  <node id='-158668359' action='modify' lat='56.16874696802' lon='9.36038910806' />
  <node id='-158668360' action='modify' lat='56.16778959938' lon='9.35159184269'>
    <tag k='name' v='eng' />
  </node>
  <node id='-158668361' action='modify' lat='56.16455947717' lon='9.34578917854' />
  <node id='-158668362' action='modify' lat='56.145253645' lon='9.32592540845' />
  <node id='-158668363' action='modify' lat='56.14145475035' lon='9.30766895346' />
  <node id='-158668364' action='modify' lat='56.14612925388' lon='9.28278207645' />
  <node id='-158668365' action='modify' lat='56.14675615865' lon='9.27851385718'>
    <tag k='name' v='bod' />
  </node>
  <node id='-158668366' action='modify' lat='56.14690435991' lon='9.27202373676' />
  <node id='-158668367' action='modify' lat='56.14570265853' lon='9.24422532186' />
  <node id='-158668368' action='modify' lat='56.14562047637' lon='9.24068078332' />
  <node id='-158668369' action='modify' lat='56.14567725653' lon='9.19022977285' />
  <node id='-158668370' action='modify' lat='56.14555771925' lon='9.18541923098' />
  <node id='-158668371' action='modify' lat='56.14436008499' lon='9.16107550129' />
  <node id='-158668372' action='modify' lat='56.14468508585' lon='9.15596589379' />
  <node id='-158668373' action='modify' lat='56.14480682245' lon='9.15528477689'>
    <tag k='name' v='ika' />
  </node>
  <node id='-158668374' action='modify' lat='56.14506835964' lon='9.15382146768' />
  <node id='-158668375' action='modify' lat='56.14556220303' lon='9.15046065778' />
  <node id='-158668376' action='modify' lat='56.14532424693' lon='9.14422184162' />
  <node id='-158668377' action='modify' lat='56.13950864795' lon='9.10866916046' />
  <node id='-158668378' action='modify' lat='56.13894710259' lon='9.10283267431' />
  <node id='-158668379' action='modify' lat='56.13827944107' lon='9.08321231335' />
  <node id='-158668380' action='modify' lat='56.1327520034' lon='9.06455688111' />
  <node id='-158668381' action='modify' lat='56.1317689824' lon='9.06321602606'>
    <tag k='name' v='ham' />
  </node>
  <node id='-158668382' action='modify' lat='56.12986671975' lon='9.06062140927' />
  <node id='-158668383' action='modify' lat='56.12458961396' lon='9.03555348381' />
  <node id='-158668384' action='modify' lat='56.12482246433' lon='9.03338089518' />
  <node id='-158668385' action='modify' lat='56.12526550327' lon='9.02979327232'>
    <tag k='name' v='bir' />
  </node>
  <node id='-158668386' action='modify' lat='56.12985775078' lon='8.99842098221' />
  <node id='-158668387' action='modify' lat='56.13073595256' lon='8.99015709624' />
  <node id='-158668388' action='modify' lat='56.13127048058' lon='8.98649386149' />
  <node id='-158668389' action='modify' lat='56.13239213816' lon='8.97880673687'>
    <tag k='name' v='her' />
  </node>
  <node id='-158668390' action='modify' lat='56.13253368575' lon='8.97801780076' />
  <node id='-158668391' action='modify' lat='56.13298256379' lon='8.97560208768' />
  <node id='-158668392' action='modify' lat='56.13358268328' lon='8.9676238583' />
  <node id='-158668393' action='modify' lat='56.13356848378' lon='8.96740794048' />
  <node id='-158668394' action='modify' lat='56.13235627564' lon='8.9616116868' />
  <node id='-158668395' action='modify' lat='56.13102668899' lon='8.95824417338' />
  <node id='-158668396' action='modify' lat='56.13057526145' lon='8.95705863766' />
  <node id='-158668397' action='modify' lat='56.12878893347' lon='8.95219310984' />
  <node id='-158668398' action='modify' lat='56.12506391' lon='8.94586510889' />
  <node id='-158668399' action='modify' lat='56.12363871982' lon='8.9443598388'>
    <tag k='name' v='hme' />
  </node>
  <node id='-158668400' action='modify' lat='56.11679895374' lon='8.93713652954' />
  <node id='-158668401' action='modify' lat='56.11508002643' lon='8.93555067345' />
  <node id='-158668402' action='modify' lat='56.1143386729' lon='8.93495723538' />
  <node id='-158668403' action='modify' lat='56.11083396895' lon='8.93121555381' />
  <node id='-158668404' action='modify' lat='56.11039426945' lon='8.93061809175' />
  <node id='-158668405' action='modify' lat='56.1086713169' lon='8.92855949633' />
  <node id='-158668406' action='modify' lat='56.09174070497' lon='8.91070504175'>
    <tag k='name' v='stu' />
  </node>
  <node id='-158668407' action='modify' lat='56.06480354552' lon='8.8823141896' />
  <node id='-158668408' action='modify' lat='56.06027939249' lon='8.87899495594' />
  <node id='-158668409' action='modify' lat='56.05450672382' lon='8.87648239598' />
  <node id='-158668410' action='modify' lat='56.05042100268' lon='8.8763342046' />
  <node id='-158668411' action='modify' lat='56.04799355533' lon='8.87732863359' />
  <node id='-158668412' action='modify' lat='56.04237785957' lon='8.87418709628' />
  <node id='-158668413' action='modify' lat='56.03445179837' lon='8.8590969887' />
  <node id='-158668414' action='modify' lat='56.03302638991' lon='8.85525424654' />
  <node id='-158668415' action='modify' lat='56.03295645327' lon='8.85496783924' />
  <node id='-158668416' action='modify' lat='56.03261098806' lon='8.85342921304'>
    <tag k='name' v='kib' />
  </node>
  <node id='-158668417' action='modify' lat='56.03249185228' lon='8.85285448249' />
  <node id='-158668418' action='modify' lat='56.02687820987' lon='8.82507920131' />
  <node id='-158668419' action='modify' lat='56.02549214293' lon='8.82013253734' />
  <node id='-158668420' action='modify' lat='56.01237956423' lon='8.78356262907' />
  <node id='-158668421' action='modify' lat='56.00549899206' lon='8.76909278266' />
  <node id='-158668422' action='modify' lat='55.99066180215' lon='8.74507759498'>
    <tag k='name' v='tro' />
  </node>
  <node id='-158668423' action='modify' lat='55.96765157718' lon='8.70785191521' />
  <node id='-158668424' action='modify' lat='55.96553530451' lon='8.6994814121' />
  <node id='-158668425' action='modify' lat='55.96547150306' lon='8.68468500607' />
  <node id='-158668426' action='modify' lat='55.96487776914' lon='8.67802441053' />
  <node id='-158668427' action='modify' lat='55.95842244234' lon='8.64442041513'>
    <tag k='name' v='bos' />
  </node>
  <node id='-158668428' action='modify' lat='55.95669254577' lon='8.63541617855' />
  <node id='-158668429' action='modify' lat='55.95597479698' lon='8.63099858031' />
  <node id='-158668430' action='modify' lat='55.93972729144' lon='8.50867509708' />
  <node id='-158668431' action='modify' lat='55.94248684643' lon='8.49706736884' />
  <node id='-158668432' action='modify' lat='55.9441480457' lon='8.49546387523' />
  <node id='-158668433' action='modify' lat='55.9449291663' lon='8.49466047321'>
    <tag k='name' v='ske' />
  </node>
  <node id='-158668434' action='modify' lat='55.94507554377' lon='8.49450163275' />
  <node id='-158668435' action='modify' lat='56.04322985101' lon='9.92134032301' />
  <node id='-158668436' action='modify' lat='56.04330091544' lon='9.92197871768' />
  <node id='-158668437' action='modify' lat='56.04343152316' lon='9.92311953282' />
  <node id='-158668438' action='modify' lat='56.04345837469' lon='9.92334359435' />
  <node id='-158668439' action='modify' lat='56.04369101875' lon='9.92499980896' />
  <way id='-37215831' action='modify'>
    <nd ref='-158668439' />
    <nd ref='-158668242' />
    <tag k='type' v='straight' />
  </way>
  <way id='-37215832' action='modify'>
    <nd ref='-158668241' />
    <nd ref='-158668243' />
    <tag k='type' v='straight' />
  </way>
  <way id='-37215833' action='modify'>
    <nd ref='-158668243' />
    <nd ref='-158668244' />
  </way>
  <way id='-37215834' action='modify'>
    <nd ref='-158668244' />
    <nd ref='-158668245' />
    <tag k='type' v='straight' />
  </way>
  <way id='-37215835' action='modify'>
    <nd ref='-158668245' />
    <nd ref='-158668246' />
  </way>
  <way id='-37215836' action='modify'>
    <nd ref='-158668246' />
    <nd ref='-158668247' />
    <tag k='type' v='straight' />
  </way>
  <way id='-37215837' action='modify'>
    <nd ref='-158668247' />
    <nd ref='-158668248' />
  </way>
  <way id='-37215838' action='modify'>
    <nd ref='-158668248' />
    <nd ref='-158668249' />
    <tag k='type' v='straight' />
  </way>
  <way id='-37215839' action='modify'>
    <nd ref='-158668249' />
    <nd ref='-158668250' />
  </way>
  <way id='-37215840' action='modify'>
    <nd ref='-158668250' />
    <nd ref='-158668251' />
    <tag k='type' v='straight' />
  </way>
  <way id='-37215841' action='modify'>
    <nd ref='-158668251' />
    <nd ref='-158668252' />
  </way>
  <way id='-37215842' action='modify'>
    <nd ref='-158668252' />
    <nd ref='-158668253' />
    <tag k='type' v='straight' />
  </way>
  <way id='-37215843' action='modify'>
    <nd ref='-158668253' />
    <nd ref='-158668254' />
  </way>
  <way id='-37215844' action='modify'>
    <nd ref='-158668254' />
    <nd ref='-158668255' />
    <tag k='type' v='straight' />
  </way>
  <way id='-37215845' action='modify'>
    <nd ref='-158668255' />
    <nd ref='-158668256' />
  </way>
  <way id='-37215846' action='modify'>
    <nd ref='-158668256' />
    <nd ref='-158668257' />
    <tag k='type' v='straight' />
  </way>
  <way id='-37215847' action='modify'>
    <nd ref='-158668257' />
    <nd ref='-158668258' />
    <nd ref='-158668259' />
    <nd ref='-158668260' />
  </way>
  <way id='-37215848' action='modify'>
    <nd ref='-158668260' />
    <nd ref='-158668261' />
    <tag k='type' v='straight' />
  </way>
  <way id='-37215849' action='modify'>
    <nd ref='-158668261' />
    <nd ref='-158668262' />
  </way>
  <way id='-37215850' action='modify'>
    <nd ref='-158668262' />
    <nd ref='-158668263' />
    <tag k='type' v='straight' />
  </way>
  <way id='-37215851' action='modify'>
    <nd ref='-158668263' />
    <nd ref='-158668264' />
  </way>
  <way id='-37215852' action='modify'>
    <nd ref='-158668264' />
    <nd ref='-158668265' />
    <tag k='type' v='straight' />
  </way>
  <way id='-37215853' action='modify'>
    <nd ref='-158668265' />
    <nd ref='-158668266' />
  </way>
  <way id='-37215854' action='modify'>
    <nd ref='-158668266' />
    <nd ref='-158668267' />
    <tag k='type' v='straight' />
  </way>
  <way id='-37215855' action='modify'>
    <nd ref='-158668267' />
    <nd ref='-158668268' />
  </way>
  <way id='-37215856' action='modify'>
    <nd ref='-158668268' />
    <nd ref='-158668269' />
    <tag k='type' v='straight' />
  </way>
  <way id='-37215857' action='modify'>
    <nd ref='-158668269' />
    <nd ref='-158668270' />
  </way>
  <way id='-37215858' action='modify'>
    <nd ref='-158668270' />
    <nd ref='-158668271' />
    <tag k='type' v='straight' />
  </way>
  <way id='-37215859' action='modify'>
    <nd ref='-158668271' />
    <nd ref='-158668272' />
  </way>
  <way id='-37215860' action='modify'>
    <nd ref='-158668272' />
    <nd ref='-158668273' />
    <tag k='type' v='straight' />
  </way>
  <way id='-37215861' action='modify'>
    <nd ref='-158668273' />
    <nd ref='-158668274' />
  </way>
  <way id='-37215862' action='modify'>
    <nd ref='-158668274' />
    <nd ref='-158668275' />
    <tag k='type' v='straight' />
  </way>
  <way id='-37215863' action='modify'>
    <nd ref='-158668275' />
    <nd ref='-158668276' />
  </way>
  <way id='-37215864' action='modify'>
    <nd ref='-158668276' />
    <nd ref='-158668277' />
    <tag k='type' v='straight' />
  </way>
  <way id='-37215865' action='modify'>
    <nd ref='-158668277' />
    <nd ref='-158668278' />
  </way>
  <way id='-37215866' action='modify'>
    <nd ref='-158668278' />
    <nd ref='-158668279' />
    <tag k='type' v='straight' />
  </way>
  <way id='-37215867' action='modify'>
    <nd ref='-158668279' />
    <nd ref='-158668280' />
    <nd ref='-158668281' />
  </way>
  <way id='-37215868' action='modify'>
    <nd ref='-158668281' />
    <nd ref='-158668282' />
    <tag k='type' v='straight' />
  </way>
  <way id='-37215869' action='modify'>
    <nd ref='-158668282' />
    <nd ref='-158668283' />
    <nd ref='-158668284' />
  </way>
  <way id='-37215870' action='modify'>
    <nd ref='-158668284' />
    <nd ref='-158668285' />
    <nd ref='-158668286' />
    <tag k='type' v='straight' />
  </way>
  <way id='-37215871' action='modify'>
    <nd ref='-158668286' />
    <nd ref='-158668287' />
    <nd ref='-158668288' />
    <nd ref='-158668289' />
  </way>
  <way id='-37215872' action='modify'>
    <nd ref='-158668289' />
    <nd ref='-158668290' />
    <tag k='type' v='straight' />
  </way>
  <way id='-37215873' action='modify'>
    <nd ref='-158668290' />
    <nd ref='-158668291' />
  </way>
  <way id='-37215874' action='modify'>
    <nd ref='-158668291' />
    <nd ref='-158668292' />
    <tag k='type' v='straight' />
  </way>
  <way id='-37215875' action='modify'>
    <nd ref='-158668292' />
    <nd ref='-158668293' />
  </way>
  <way id='-37215876' action='modify'>
    <nd ref='-158668293' />
    <nd ref='-158668294' />
    <tag k='type' v='straight' />
  </way>
  <way id='-37215877' action='modify'>
    <nd ref='-158668294' />
    <nd ref='-158668295' />
  </way>
  <way id='-37215878' action='modify'>
    <nd ref='-158668295' />
    <nd ref='-158668296' />
    <tag k='type' v='straight' />
  </way>
  <way id='-37215879' action='modify'>
    <nd ref='-158668296' />
    <nd ref='-158668297' />
    <nd ref='-158668298' />
    <nd ref='-158668299' />
  </way>
  <way id='-37215880' action='modify'>
    <nd ref='-158668299' />
    <nd ref='-158668300' />
    <tag k='type' v='straight' />
  </way>
  <way id='-37215881' action='modify'>
    <nd ref='-158668300' />
    <nd ref='-158668301' />
  </way>
  <way id='-37215882' action='modify'>
    <nd ref='-158668301' />
    <nd ref='-158668302' />
    <nd ref='-158668303' />
    <nd ref='-158668304' />
    <tag k='type' v='straight' />
  </way>
  <way id='-37215883' action='modify'>
    <nd ref='-158668304' />
    <nd ref='-158668305' />
  </way>
  <way id='-37215884' action='modify'>
    <nd ref='-158668305' />
    <nd ref='-158668306' />
    <tag k='type' v='straight' />
  </way>
  <way id='-37215885' action='modify'>
    <nd ref='-158668306' />
    <nd ref='-158668307' />
  </way>
  <way id='-37215886' action='modify'>
    <nd ref='-158668307' />
    <nd ref='-158668308' />
    <tag k='type' v='straight' />
  </way>
  <way id='-37215887' action='modify'>
    <nd ref='-158668308' />
    <nd ref='-158668309' />
  </way>
  <way id='-37215888' action='modify'>
    <nd ref='-158668309' />
    <nd ref='-158668310' />
    <tag k='type' v='straight' />
  </way>
  <way id='-37215889' action='modify'>
    <nd ref='-158668310' />
    <nd ref='-158668311' />
  </way>
  <way id='-37215890' action='modify'>
    <nd ref='-158668311' />
    <nd ref='-158668312' />
    <tag k='type' v='straight' />
  </way>
  <way id='-37215891' action='modify'>
    <nd ref='-158668312' />
    <nd ref='-158668313' />
  </way>
  <way id='-37215892' action='modify'>
    <nd ref='-158668313' />
    <nd ref='-158668314' />
    <tag k='type' v='straight' />
  </way>
  <way id='-37215893' action='modify'>
    <nd ref='-158668314' />
    <nd ref='-158668315' />
  </way>
  <way id='-37215894' action='modify'>
    <nd ref='-158668315' />
    <nd ref='-158668316' />
    <nd ref='-158668317' />
    <tag k='type' v='straight' />
  </way>
  <way id='-37215895' action='modify'>
    <nd ref='-158668317' />
    <nd ref='-158668318' />
  </way>
  <way id='-37215896' action='modify'>
    <nd ref='-158668318' />
    <nd ref='-158668319' />
    <tag k='type' v='straight' />
  </way>
  <way id='-37215897' action='modify'>
    <nd ref='-158668319' />
    <nd ref='-158668320' />
  </way>
  <way id='-37215898' action='modify'>
    <nd ref='-158668320' />
    <nd ref='-158668321' />
    <tag k='type' v='straight' />
  </way>
  <way id='-37215899' action='modify'>
    <nd ref='-158668321' />
    <nd ref='-158668322' />
  </way>
  <way id='-37215900' action='modify'>
    <nd ref='-158668322' />
    <nd ref='-158668323' />
    <tag k='type' v='straight' />
  </way>
  <way id='-37215901' action='modify'>
    <nd ref='-158668323' />
    <nd ref='-158668324' />
  </way>
  <way id='-37215902' action='modify'>
    <nd ref='-158668324' />
    <nd ref='-158668325' />
    <tag k='type' v='straight' />
  </way>
  <way id='-37215903' action='modify'>
    <nd ref='-158668325' />
    <nd ref='-158668326' />
  </way>
  <way id='-37215904' action='modify'>
    <nd ref='-158668326' />
    <nd ref='-158668327' />
    <tag k='type' v='straight' />
  </way>
  <way id='-37215905' action='modify'>
    <nd ref='-158668327' />
    <nd ref='-158668328' />
  </way>
  <way id='-37215906' action='modify'>
    <nd ref='-158668328' />
    <nd ref='-158668329' />
    <tag k='type' v='straight' />
  </way>
  <way id='-37215907' action='modify'>
    <nd ref='-158668329' />
    <nd ref='-158668330' />
  </way>
  <way id='-37215908' action='modify'>
    <nd ref='-158668330' />
    <nd ref='-158668331' />
    <tag k='type' v='straight' />
  </way>
  <way id='-37215909' action='modify'>
    <nd ref='-158668331' />
    <nd ref='-158668332' />
  </way>
  <way id='-37215910' action='modify'>
    <nd ref='-158668332' />
    <nd ref='-158668333' />
    <tag k='type' v='straight' />
  </way>
  <way id='-37215911' action='modify'>
    <nd ref='-158668333' />
    <nd ref='-158668334' />
  </way>
  <way id='-37215912' action='modify'>
    <nd ref='-158668334' />
    <nd ref='-158668335' />
    <tag k='type' v='straight' />
  </way>
  <way id='-37215913' action='modify'>
    <nd ref='-158668335' />
    <nd ref='-158668336' />
  </way>
  <way id='-37215914' action='modify'>
    <nd ref='-158668336' />
    <nd ref='-158668337' />
    <tag k='type' v='straight' />
  </way>
  <way id='-37215915' action='modify'>
    <nd ref='-158668337' />
    <nd ref='-158668338' />
  </way>
  <way id='-37215916' action='modify'>
    <nd ref='-158668338' />
    <nd ref='-158668339' />
    <nd ref='-158668340' />
    <tag k='type' v='straight' />
  </way>
  <way id='-37215917' action='modify'>
    <nd ref='-158668340' />
    <nd ref='-158668341' />
  </way>
  <way id='-37215918' action='modify'>
    <nd ref='-158668341' />
    <nd ref='-158668342' />
    <tag k='type' v='straight' />
  </way>
  <way id='-37215919' action='modify'>
    <nd ref='-158668342' />
    <nd ref='-158668343' />
  </way>
  <way id='-37215920' action='modify'>
    <nd ref='-158668343' />
    <nd ref='-158668344' />
    <tag k='type' v='straight' />
  </way>
  <way id='-37215921' action='modify'>
    <nd ref='-158668344' />
    <nd ref='-158668345' />
  </way>
  <way id='-37215922' action='modify'>
    <nd ref='-158668345' />
    <nd ref='-158668346' />
    <tag k='type' v='straight' />
  </way>
  <way id='-37215923' action='modify'>
    <nd ref='-158668346' />
    <nd ref='-158668347' />
  </way>
  <way id='-37215924' action='modify'>
    <nd ref='-158668347' />
    <nd ref='-158668348' />
    <tag k='type' v='straight' />
  </way>
  <way id='-37215925' action='modify'>
    <nd ref='-158668348' />
    <nd ref='-158668349' />
  </way>
  <way id='-37215926' action='modify'>
    <nd ref='-158668349' />
    <nd ref='-158668350' />
    <tag k='type' v='straight' />
  </way>
  <way id='-37215927' action='modify'>
    <nd ref='-158668350' />
    <nd ref='-158668351' />
  </way>
  <way id='-37215928' action='modify'>
    <nd ref='-158668351' />
    <nd ref='-158668352' />
    <tag k='type' v='straight' />
  </way>
  <way id='-37215929' action='modify'>
    <nd ref='-158668352' />
    <nd ref='-158668353' />
  </way>
  <way id='-37215930' action='modify'>
    <nd ref='-158668353' />
    <nd ref='-158668354' />
    <tag k='type' v='straight' />
  </way>
  <way id='-37215931' action='modify'>
    <nd ref='-158668354' />
    <nd ref='-158668355' />
    <nd ref='-158668356' />
  </way>
  <way id='-37215932' action='modify'>
    <nd ref='-158668356' />
    <nd ref='-158668357' />
    <tag k='type' v='straight' />
  </way>
  <way id='-37215933' action='modify'>
    <nd ref='-158668357' />
    <nd ref='-158668358' />
    <nd ref='-158668359' />
    <nd ref='-158668360' />
    <nd ref='-158668361' />
  </way>
  <way id='-37215934' action='modify'>
    <nd ref='-158668361' />
    <nd ref='-158668362' />
    <tag k='type' v='straight' />
  </way>
  <way id='-37215935' action='modify'>
    <nd ref='-158668362' />
    <nd ref='-158668363' />
  </way>
  <way id='-37215936' action='modify'>
    <nd ref='-158668363' />
    <nd ref='-158668364' />
    <tag k='type' v='straight' />
  </way>
  <way id='-37215937' action='modify'>
    <nd ref='-158668364' />
    <nd ref='-158668365' />
    <nd ref='-158668366' />
  </way>
  <way id='-37215938' action='modify'>
    <nd ref='-158668366' />
    <nd ref='-158668367' />
    <tag k='type' v='straight' />
  </way>
  <way id='-37215939' action='modify'>
    <nd ref='-158668367' />
    <nd ref='-158668368' />
  </way>
  <way id='-37215940' action='modify'>
    <nd ref='-158668368' />
    <nd ref='-158668369' />
    <tag k='type' v='straight' />
  </way>
  <way id='-37215941' action='modify'>
    <nd ref='-158668369' />
    <nd ref='-158668370' />
  </way>
  <way id='-37215942' action='modify'>
    <nd ref='-158668370' />
    <nd ref='-158668371' />
    <tag k='type' v='straight' />
  </way>
  <way id='-37215943' action='modify'>
    <nd ref='-158668371' />
    <nd ref='-158668372' />
  </way>
  <way id='-37215944' action='modify'>
    <nd ref='-158668372' />
    <nd ref='-158668373' />
    <nd ref='-158668374' />
    <tag k='type' v='straight' />
  </way>
  <way id='-37215945' action='modify'>
    <nd ref='-158668374' />
    <nd ref='-158668375' />
    <nd ref='-158668376' />
  </way>
  <way id='-37215946' action='modify'>
    <nd ref='-158668376' />
    <nd ref='-158668377' />
    <tag k='type' v='straight' />
  </way>
  <way id='-37215947' action='modify'>
    <nd ref='-158668377' />
    <nd ref='-158668378' />
  </way>
  <way id='-37215948' action='modify'>
    <nd ref='-158668378' />
    <nd ref='-158668379' />
    <tag k='type' v='straight' />
  </way>
  <way id='-37215949' action='modify'>
    <nd ref='-158668379' />
    <nd ref='-158668380' />
  </way>
  <way id='-37215950' action='modify'>
    <nd ref='-158668380' />
    <nd ref='-158668381' />
    <nd ref='-158668382' />
    <tag k='type' v='straight' />
  </way>
  <way id='-37215951' action='modify'>
    <nd ref='-158668382' />
    <nd ref='-158668383' />
  </way>
  <way id='-37215952' action='modify'>
    <nd ref='-158668383' />
    <nd ref='-158668384' />
    <tag k='type' v='straight' />
  </way>
  <way id='-37215953' action='modify'>
    <nd ref='-158668384' />
    <nd ref='-158668385' />
  </way>
  <way id='-37215954' action='modify'>
    <nd ref='-158668385' />
    <nd ref='-158668386' />
    <tag k='type' v='straight' />
  </way>
  <way id='-37215955' action='modify'>
    <nd ref='-158668386' />
    <nd ref='-158668387' />
  </way>
  <way id='-37215956' action='modify'>
    <nd ref='-158668387' />
    <nd ref='-158668388' />
    <nd ref='-158668389' />
    <tag k='type' v='straight' />
  </way>
  <way id='-37215957' action='modify'>
    <nd ref='-158668389' />
    <nd ref='-158668390' />
  </way>
  <way id='-37215958' action='modify'>
    <nd ref='-158668390' />
    <nd ref='-158668391' />
    <tag k='type' v='straight' />
  </way>
  <way id='-37215959' action='modify'>
    <nd ref='-158668391' />
    <nd ref='-158668392' />
  </way>
  <way id='-37215960' action='modify'>
    <nd ref='-158668392' />
    <nd ref='-158668393' />
    <tag k='type' v='straight' />
  </way>
  <way id='-37215961' action='modify'>
    <nd ref='-158668393' />
    <nd ref='-158668394' />
  </way>
  <way id='-37215962' action='modify'>
    <nd ref='-158668394' />
    <nd ref='-158668395' />
    <tag k='type' v='straight' />
  </way>
  <way id='-37215963' action='modify'>
    <nd ref='-158668395' />
    <nd ref='-158668396' />
  </way>
  <way id='-37215964' action='modify'>
    <nd ref='-158668396' />
    <nd ref='-158668397' />
    <tag k='type' v='straight' />
  </way>
  <way id='-37215965' action='modify'>
    <nd ref='-158668397' />
    <nd ref='-158668398' />
  </way>
  <way id='-37215966' action='modify'>
    <nd ref='-158668398' />
    <nd ref='-158668399' />
    <nd ref='-158668400' />
    <tag k='type' v='straight' />
  </way>
  <way id='-37215967' action='modify'>
    <nd ref='-158668400' />
    <nd ref='-158668401' />
  </way>
  <way id='-37215968' action='modify'>
    <nd ref='-158668401' />
    <nd ref='-158668402' />
    <tag k='type' v='straight' />
  </way>
  <way id='-37215969' action='modify'>
    <nd ref='-158668402' />
    <nd ref='-158668403' />
  </way>
  <way id='-37215970' action='modify'>
    <nd ref='-158668403' />
    <nd ref='-158668404' />
    <tag k='type' v='straight' />
  </way>
  <way id='-37215971' action='modify'>
    <nd ref='-158668404' />
    <nd ref='-158668405' />
  </way>
  <way id='-37215972' action='modify'>
    <nd ref='-158668405' />
    <nd ref='-158668406' />
    <nd ref='-158668407' />
    <tag k='type' v='straight' />
  </way>
  <way id='-37215973' action='modify'>
    <nd ref='-158668407' />
    <nd ref='-158668408' />
  </way>
  <way id='-37215974' action='modify'>
    <nd ref='-158668408' />
    <nd ref='-158668409' />
    <tag k='type' v='straight' />
  </way>
  <way id='-37215975' action='modify'>
    <nd ref='-158668409' />
    <nd ref='-158668410' />
  </way>
  <way id='-37215976' action='modify'>
    <nd ref='-158668410' />
    <nd ref='-158668411' />
    <tag k='type' v='straight' />
  </way>
  <way id='-37215977' action='modify'>
    <nd ref='-158668411' />
    <nd ref='-158668412' />
  </way>
  <way id='-37215978' action='modify'>
    <nd ref='-158668412' />
    <nd ref='-158668413' />
    <tag k='type' v='straight' />
  </way>
  <way id='-37215979' action='modify'>
    <nd ref='-158668413' />
    <nd ref='-158668414' />
  </way>
  <way id='-37215980' action='modify'>
    <nd ref='-158668414' />
    <nd ref='-158668415' />
    <tag k='type' v='straight' />
  </way>
  <way id='-37215981' action='modify'>
    <nd ref='-158668415' />
    <nd ref='-158668416' />
    <nd ref='-158668417' />
  </way>
  <way id='-37215982' action='modify'>
    <nd ref='-158668417' />
    <nd ref='-158668418' />
    <tag k='type' v='straight' />
  </way>
  <way id='-37215983' action='modify'>
    <nd ref='-158668418' />
    <nd ref='-158668419' />
  </way>
  <way id='-37215984' action='modify'>
    <nd ref='-158668419' />
    <nd ref='-158668420' />
    <tag k='type' v='straight' />
  </way>
  <way id='-37215985' action='modify'>
    <nd ref='-158668420' />
    <nd ref='-158668421' />
  </way>
  <way id='-37215986' action='modify'>
    <nd ref='-158668421' />
    <nd ref='-158668422' />
    <nd ref='-158668423' />
    <tag k='type' v='straight' />
  </way>
  <way id='-37215987' action='modify'>
    <nd ref='-158668423' />
    <nd ref='-158668424' />
  </way>
  <way id='-37215988' action='modify'>
    <nd ref='-158668424' />
    <nd ref='-158668425' />
    <tag k='type' v='straight' />
  </way>
  <way id='-37215989' action='modify'>
    <nd ref='-158668425' />
    <nd ref='-158668426' />
  </way>
  <way id='-37215990' action='modify'>
    <nd ref='-158668426' />
    <nd ref='-158668427' />
    <nd ref='-158668428' />
    <tag k='type' v='straight' />
  </way>
  <way id='-37215991' action='modify'>
    <nd ref='-158668428' />
    <nd ref='-158668429' />
  </way>
  <way id='-37215992' action='modify'>
    <nd ref='-158668429' />
    <nd ref='-158668430' />
    <tag k='type' v='straight' />
  </way>
  <way id='-37215993' action='modify'>
    <nd ref='-158668430' />
    <nd ref='-158668431' />
  </way>
  <way id='-37215994' action='modify'>
    <nd ref='-158668431' />
    <nd ref='-158668432' />
    <tag k='type' v='straight' />
  </way>
  <way id='-37215995' action='modify'>
    <nd ref='-158668432' />
    <nd ref='-158668433' />
  </way>
  <way id='-37215996' action='modify'>
    <nd ref='-158668433' />
    <nd ref='-158668434' />
    <tag k='type' v='straight' />
  </way>
  <way id='-37215997' action='modify'>
    <nd ref='-158668436' />
    <nd ref='-158668435' />
    <tag k='type' v='straight' />
  </way>
  <way id='-37215998' action='modify'>
    <nd ref='-158668435' />
    <nd ref='-158668241' />
  </way>
  <way id='-37215999' action='modify'>
    <nd ref='-158668438' />
    <nd ref='-158668437' />
    <tag k='type' v='straight' />
  </way>
  <way id='-37216000' action='modify'>
    <nd ref='-158668437' />
    <nd ref='-158668436' />
  </way>
  <way id='-37216001' action='modify'>
    <nd ref='-158668242' />
    <nd ref='-158668438' />
  </way>
  <relation id='-14476379' action='modify'>
    <member type='way' ref='-37215831' role='' />
    <member type='way' ref='-37216001' role='' />
    <member type='way' ref='-37215999' role='' />
    <member type='way' ref='-37216000' role='' />
    <member type='way' ref='-37215997' role='' />
    <member type='way' ref='-37215998' role='' />
    <member type='way' ref='-37215832' role='' />
    <member type='way' ref='-37215833' role='' />
    <member type='way' ref='-37215834' role='' />
    <member type='way' ref='-37215835' role='' />
    <member type='way' ref='-37215836' role='' />
    <member type='way' ref='-37215837' role='' />
    <member type='way' ref='-37215838' role='' />
    <member type='way' ref='-37215839' role='' />
    <member type='way' ref='-37215840' role='' />
    <member type='way' ref='-37215841' role='' />
    <member type='way' ref='-37215842' role='' />
    <member type='way' ref='-37215843' role='' />
    <member type='way' ref='-37215844' role='' />
    <member type='way' ref='-37215845' role='' />
    <member type='way' ref='-37215846' role='' />
    <member type='way' ref='-37215847' role='' />
    <member type='way' ref='-37215848' role='' />
    <member type='way' ref='-37215849' role='' />
    <member type='way' ref='-37215850' role='' />
    <member type='way' ref='-37215851' role='' />
    <member type='way' ref='-37215852' role='' />
    <member type='way' ref='-37215853' role='' />
    <member type='way' ref='-37215854' role='' />
    <member type='way' ref='-37215855' role='' />
    <member type='way' ref='-37215856' role='' />
    <member type='way' ref='-37215857' role='' />
    <member type='way' ref='-37215858' role='' />
    <member type='way' ref='-37215859' role='' />
    <member type='way' ref='-37215860' role='' />
    <member type='way' ref='-37215861' role='' />
    <member type='way' ref='-37215862' role='' />
    <member type='way' ref='-37215863' role='' />
    <member type='way' ref='-37215864' role='' />
    <member type='way' ref='-37215865' role='' />
    <member type='way' ref='-37215866' role='' />
    <member type='way' ref='-37215867' role='' />
    <member type='way' ref='-37215868' role='' />
    <member type='way' ref='-37215869' role='' />
    <member type='way' ref='-37215870' role='' />
    <member type='way' ref='-37215871' role='' />
    <member type='way' ref='-37215872' role='' />
    <member type='way' ref='-37215873' role='' />
    <member type='way' ref='-37215874' role='' />
    <member type='way' ref='-37215875' role='' />
    <member type='way' ref='-37215876' role='' />
    <member type='way' ref='-37215877' role='' />
    <member type='way' ref='-37215878' role='' />
    <member type='way' ref='-37215879' role='' />
    <member type='way' ref='-37215880' role='' />
    <member type='way' ref='-37215881' role='' />
    <member type='way' ref='-37215882' role='' />
    <member type='way' ref='-37215883' role='' />
    <member type='way' ref='-37215884' role='' />
    <member type='way' ref='-37215885' role='' />
    <member type='way' ref='-37215886' role='' />
    <member type='way' ref='-37215887' role='' />
    <member type='way' ref='-37215888' role='' />
    <member type='way' ref='-37215889' role='' />
    <member type='way' ref='-37215890' role='' />
    <member type='way' ref='-37215891' role='' />
    <member type='way' ref='-37215892' role='' />
    <member type='way' ref='-37215893' role='' />
    <member type='way' ref='-37215894' role='' />
    <member type='way' ref='-37215895' role='' />
    <member type='way' ref='-37215896' role='' />
    <member type='way' ref='-37215897' role='' />
    <member type='way' ref='-37215898' role='' />
    <member type='way' ref='-37215899' role='' />
    <member type='way' ref='-37215900' role='' />
    <member type='way' ref='-37215901' role='' />
    <member type='way' ref='-37215902' role='' />
    <member type='way' ref='-37215903' role='' />
    <member type='way' ref='-37215904' role='' />
    <member type='way' ref='-37215905' role='' />
    <member type='way' ref='-37215906' role='' />
    <member type='way' ref='-37215907' role='' />
    <member type='way' ref='-37215908' role='' />
    <member type='way' ref='-37215909' role='' />
    <member type='way' ref='-37215910' role='' />
    <member type='way' ref='-37215911' role='' />
    <member type='way' ref='-37215912' role='' />
    <member type='way' ref='-37215913' role='' />
    <member type='way' ref='-37215914' role='' />
    <member type='way' ref='-37215915' role='' />
    <member type='way' ref='-37215916' role='' />
    <member type='way' ref='-37215917' role='' />
    <member type='way' ref='-37215918' role='' />
    <member type='way' ref='-37215919' role='' />
    <member type='way' ref='-37215920' role='' />
    <member type='way' ref='-37215921' role='' />
    <member type='way' ref='-37215922' role='' />
    <member type='way' ref='-37215923' role='' />
    <member type='way' ref='-37215924' role='' />
    <member type='way' ref='-37215925' role='' />
    <member type='way' ref='-37215926' role='' />
    <member type='way' ref='-37215927' role='' />
    <member type='way' ref='-37215928' role='' />
    <member type='way' ref='-37215929' role='' />
    <member type='way' ref='-37215930' role='' />
    <member type='way' ref='-37215931' role='' />
    <member type='way' ref='-37215932' role='' />
    <member type='way' ref='-37215933' role='' />
    <member type='way' ref='-37215934' role='' />
    <member type='way' ref='-37215935' role='' />
    <member type='way' ref='-37215936' role='' />
    <member type='way' ref='-37215937' role='' />
    <member type='way' ref='-37215938' role='' />
    <member type='way' ref='-37215939' role='' />
    <member type='way' ref='-37215940' role='' />
    <member type='way' ref='-37215941' role='' />
    <member type='way' ref='-37215942' role='' />
    <member type='way' ref='-37215943' role='' />
    <member type='way' ref='-37215944' role='' />
    <member type='way' ref='-37215945' role='' />
    <member type='way' ref='-37215946' role='' />
    <member type='way' ref='-37215947' role='' />
    <member type='way' ref='-37215948' role='' />
    <member type='way' ref='-37215949' role='' />
    <member type='way' ref='-37215950' role='' />
    <member type='way' ref='-37215951' role='' />
    <member type='way' ref='-37215952' role='' />
    <member type='way' ref='-37215953' role='' />
    <member type='way' ref='-37215954' role='' />
    <member type='way' ref='-37215955' role='' />
    <member type='way' ref='-37215956' role='' />
    <member type='way' ref='-37215957' role='' />
    <member type='way' ref='-37215958' role='' />
    <member type='way' ref='-37215959' role='' />
    <member type='way' ref='-37215960' role='' />
    <member type='way' ref='-37215961' role='' />
    <member type='way' ref='-37215962' role='' />
    <member type='way' ref='-37215963' role='' />
    <member type='way' ref='-37215964' role='' />
    <member type='way' ref='-37215965' role='' />
    <member type='way' ref='-37215966' role='' />
    <member type='way' ref='-37215967' role='' />
    <member type='way' ref='-37215968' role='' />
    <member type='way' ref='-37215969' role='' />
    <member type='way' ref='-37215970' role='' />
    <member type='way' ref='-37215971' role='' />
    <member type='way' ref='-37215972' role='' />
    <member type='way' ref='-37215973' role='' />
    <member type='way' ref='-37215974' role='' />
    <member type='way' ref='-37215975' role='' />
    <member type='way' ref='-37215976' role='' />
    <member type='way' ref='-37215977' role='' />
    <member type='way' ref='-37215978' role='' />
    <member type='way' ref='-37215979' role='' />
    <member type='way' ref='-37215980' role='' />
    <member type='way' ref='-37215981' role='' />
    <member type='way' ref='-37215982' role='' />
    <member type='way' ref='-37215983' role='' />
    <member type='way' ref='-37215984' role='' />
    <member type='way' ref='-37215985' role='' />
    <member type='way' ref='-37215986' role='' />
    <member type='way' ref='-37215987' role='' />
    <member type='way' ref='-37215988' role='' />
    <member type='way' ref='-37215989' role='' />
    <member type='way' ref='-37215990' role='' />
    <member type='way' ref='-37215991' role='' />
    <member type='way' ref='-37215992' role='' />
    <member type='way' ref='-37215993' role='' />
    <member type='way' ref='-37215994' role='' />
    <member type='way' ref='-37215995' role='' />
    <member type='way' ref='-37215996' role='' />
    <tag k='key' v='path.dk.sbs' />
    <tag k='name' v='DK SBS' />
    <tag k='type' v='path' />
  </relation>
</osm>
