<?xml version='1.0' encoding='UTF-8'?>
<osm version='0.6' upload='false' generator='JOSM'>
  <node id='-186088117' action='modify' lat='54.91224374944' lon='9.77890223131'>
    <tag k='name' v='son.a' />
  </node>
  <node id='-186088118' action='modify' lat='54.91292676782' lon='9.77805062994' />
  <node id='-186088119' action='modify' lat='54.91349028781' lon='9.77714270219' />
  <node id='-186088120' action='modify' lat='54.9137893896' lon='9.77644130453' />
  <node id='-186088121' action='modify' lat='54.91440300384' lon='9.7734855102' />
  <node id='-186088122' action='modify' lat='54.91447841699' lon='9.77218839696'>
    <tag k='name' v='son' />
  </node>
  <node id='-186088123' action='modify' lat='54.91462732531' lon='9.76962715253' />
  <node id='-186088124' action='modify' lat='54.91577708321' lon='9.76610251629' />
  <node id='-186088125' action='modify' lat='54.9164380394' lon='9.76527795061' />
  <node id='-186088126' action='modify' lat='54.91812226183' lon='9.76327568159' />
  <node id='-186088127' action='modify' lat='54.91904489293' lon='9.76226314768' />
  <node id='-186088128' action='modify' lat='54.9200330174' lon='9.76128145918' />
  <node id='-186088129' action='modify' lat='54.9217178601' lon='9.75776642427' />
  <node id='-186088130' action='modify' lat='54.92308972931' lon='9.75190445647' />
  <node id='-186088131' action='modify' lat='54.92376793951' lon='9.74958166346' />
  <node id='-186088132' action='modify' lat='54.92511045371' lon='9.74576890334' />
  <node id='-186088133' action='modify' lat='54.92688332033' lon='9.74208220772' />
  <node id='-186088134' action='modify' lat='54.92830779993' lon='9.73983719811' />
  <node id='-186088135' action='modify' lat='54.92937969016' lon='9.73788052663' />
  <node id='-186088136' action='modify' lat='54.93174169484' lon='9.73289669963'>
    <tag k='name' v='rag' />
  </node>
  <node id='-186088137' action='modify' lat='54.93333873231' lon='9.72952678666' />
  <node id='-186088138' action='modify' lat='54.93447752045' lon='9.72656965122' />
  <node id='-186088139' action='modify' lat='54.94399238858' lon='9.69484381223'>
    <tag k='name' v='vso' />
  </node>
  <node id='-186088140' action='modify' lat='54.9449400718' lon='9.69168349966' />
  <node id='-186088141' action='modify' lat='54.94566374533' lon='9.68964501947' />
  <node id='-186088142' action='modify' lat='54.95251430435' lon='9.67304617032' />
  <node id='-186088143' action='modify' lat='54.95373110105' lon='9.66897323593' />
  <node id='-186088144' action='modify' lat='54.95430406091' lon='9.66616362199' />
  <node id='-186088145' action='modify' lat='54.95555160656' lon='9.6619994925' />
  <node id='-186088146' action='modify' lat='54.9591862101' lon='9.65326219663' />
  <node id='-186088147' action='modify' lat='54.96006654769' lon='9.64949623211' />
  <node id='-186088148' action='modify' lat='54.96009507581' lon='9.64918567112' />
  <node id='-186088149' action='modify' lat='54.96021030809' lon='9.64762016997' />
  <node id='-186088150' action='modify' lat='54.96024276537' lon='9.64698788281'>
    <tag k='name' v='avn' />
  </node>
  <node id='-186088151' action='modify' lat='54.96038124521' lon='9.64429020748' />
  <node id='-186088152' action='modify' lat='54.95925782081' lon='9.63897541031' />
  <node id='-186088153' action='modify' lat='54.95483927814' lon='9.63151752815' />
  <node id='-186088154' action='modify' lat='54.95333795614' lon='9.62941937082' />
  <node id='-186088155' action='modify' lat='54.9452112099' lon='9.61954682931' />
  <node id='-186088156' action='modify' lat='54.94424064992' lon='9.61851954393' />
  <node id='-186088157' action='modify' lat='54.9385061677' lon='9.61339652404' />
  <node id='-186088158' action='modify' lat='54.93710574433' lon='9.61230255594'>
    <tag k='name' v='ads' />
  </node>
  <node id='-186088159' action='modify' lat='54.93366157162' lon='9.61063921385' />
  <node id='-186088160' action='modify' lat='54.92697695258' lon='9.60806697339' />
  <node id='-186088161' action='modify' lat='54.92257412778' lon='9.60271194443' />
  <node id='-186088162' action='modify' lat='54.92081995409' lon='9.59781825408' />
  <node id='-186088163' action='modify' lat='54.91930618562' lon='9.59472700819' />
  <node id='-186088164' action='modify' lat='54.91887222647' lon='9.59411803861'>
    <tag k='name' v='gra' />
  </node>
  <node id='-186088165' action='modify' lat='54.91774457048' lon='9.59253564343' />
  <node id='-186088166' action='modify' lat='54.91631470684' lon='9.58809926972' />
  <node id='-186088167' action='modify' lat='54.91627308202' lon='9.5873214291' />
  <node id='-186088168' action='modify' lat='54.91375007441' lon='9.58199456267' />
  <node id='-186088169' action='modify' lat='54.91263691042' lon='9.581429957' />
  <node id='-186088170' action='modify' lat='54.9099779881' lon='9.5764021562' />
  <node id='-186088171' action='modify' lat='54.90974670212' lon='9.5743489252' />
  <node id='-186088172' action='modify' lat='54.90707756578' lon='9.56847086415' />
  <node id='-186088173' action='modify' lat='54.90130346888' lon='9.56426516041' />
  <node id='-186088174' action='modify' lat='54.89748587235' lon='9.5588175939' />
  <node id='-186088175' action='modify' lat='54.89674897306' lon='9.55691138935'>
    <tag k='name' v='rin' />
  </node>
  <node id='-186088176' action='modify' lat='54.89594037738' lon='9.55481976137' />
  <node id='-186088177' action='modify' lat='54.89571595177' lon='9.54889610276' />
  <node id='-186088178' action='modify' lat='54.89674552288' lon='9.54518660769' />
  <node id='-186088179' action='modify' lat='54.89725605699' lon='9.54247891769' />
  <node id='-186088180' action='modify' lat='54.89751903352' lon='9.54003408417' />
  <node id='-186088181' action='modify' lat='54.89771645759' lon='9.53858166799' />
  <node id='-186088182' action='modify' lat='54.8979994818' lon='9.5368006812' />
  <node id='-186088183' action='modify' lat='54.8983017834' lon='9.53511357173' />
  <node id='-186088184' action='modify' lat='54.89875600271' lon='9.532871245' />
  <node id='-186088185' action='modify' lat='54.89906369676' lon='9.53064635262' />
  <node id='-186088186' action='modify' lat='54.89921098806' lon='9.5290034996' />
  <node id='-186088187' action='modify' lat='54.89983330715' lon='9.5257312046' />
  <node id='-186088188' action='modify' lat='54.90122597153' lon='9.52101990446' />
  <node id='-186088189' action='modify' lat='54.90259776825' lon='9.51715752348' />
  <node id='-186088190' action='modify' lat='54.90467349545' lon='9.51217666134' />
  <node id='-186088191' action='modify' lat='54.90617933308' lon='9.50679883227' />
  <node id='-186088192' action='modify' lat='54.90691334104' lon='9.50214519963' />
  <node id='-186088193' action='modify' lat='54.90815541857' lon='9.49718981847' />
  <node id='-186088194' action='modify' lat='54.91010702773' lon='9.49174640141'>
    <tag k='name' v='tor' />
  </node>
  <node id='-186088195' action='modify' lat='54.91815694759' lon='9.4692908214' />
  <node id='-186088196' action='modify' lat='54.92041531178' lon='9.46431398258' />
  <node id='-186088197' action='modify' lat='54.92226430125' lon='9.46086734399' />
  <node id='-186088198' action='modify' lat='54.9243629054' lon='9.45443540677' />
  <node id='-186088199' action='modify' lat='54.92534922635' lon='9.44843926797'>
    <tag k='name' v='lun' />
  </node>
  <node id='-186088200' action='modify' lat='54.92766742628' lon='9.43434566125' />
  <node id='-186088201' action='modify' lat='54.92856864716' lon='9.43121820554' />
  <node id='-186088202' action='modify' lat='54.9322245695' lon='9.42281752557' />
  <node id='-186088203' action='modify' lat='54.93433421059' lon='9.41327020392' />
  <node id='-186088204' action='modify' lat='54.93505676536' lon='9.39875772974'>
    <tag k='name' v='kli' />
  </node>
  <node id='-186088205' action='modify' lat='54.9354406111' lon='9.39104810223' />
  <node id='-186088206' action='modify' lat='54.93507155749' lon='9.38061833248' />
  <node id='-186088207' action='modify' lat='54.93493287259' lon='9.37933087215' />
  <node id='-186088208' action='modify' lat='54.93467707473' lon='9.37559321389' />
  <node id='-186088209' action='modify' lat='54.93366080151' lon='9.34947118029' />
  <node id='-186088210' action='modify' lat='54.93352750524' lon='9.34717520937' />
  <node id='-186088211' action='modify' lat='54.93211006145' lon='9.3285753742'>
    <tag k='name' v='bje' />
  </node>
  <node id='-186088212' action='modify' lat='54.92824923429' lon='9.2779165493' />
  <node id='-186088213' action='modify' lat='54.9280981962' lon='9.26904648408' />
  <node id='-186088214' action='modify' lat='54.92824611318' lon='9.26200334387' />
  <node id='-186088215' action='modify' lat='54.93196368795' lon='9.25665978209' />
  <node id='-186088216' action='modify' lat='54.93626593584' lon='9.25853868136'>
    <tag k='name' v='tin' />
  </node>
  <node id='-186088242' action='modify' lat='54.94520231673' lon='9.25099967043' />
  <node id='-186088243' action='modify' lat='54.94777645142' lon='9.16426268316' />
  <node id='-186088244' action='modify' lat='54.9476752476' lon='9.16019573674' />
  <node id='-186088245' action='modify' lat='54.94713475794' lon='9.18588544305'>
    <tag k='name' v='ter' />
  </node>
  <node id='-186088246' action='modify' lat='54.94285332563' lon='9.10788193211' />
  <node id='-186088247' action='modify' lat='54.94262318247' lon='9.08920676759'>
    <tag k='name' v='byl' />
  </node>
  <node id='-186088248' action='modify' lat='54.94273816205' lon='9.10556316309' />
  <node id='-186088249' action='modify' lat='54.94072891545' lon='8.93696788665' />
  <node id='-186088250' action='modify' lat='54.94062569275' lon='8.91881953691'>
    <tag k='name' v='ror' />
  </node>
  <node id='-186088251' action='modify' lat='54.94070907881' lon='8.93584102325' />
  <node id='-186088252' action='modify' lat='54.94183879972' lon='8.97762581572' />
  <node id='-186088253' action='modify' lat='54.94155694462' lon='8.96694982571'>
    <tag k='name' v='jej' />
  </node>
  <node id='-186088254' action='modify' lat='54.94181722979' lon='8.97637456588' />
  <node id='-186088255' action='modify' lat='54.93905628338' lon='9.25958008389' />
  <node id='-186088256' action='modify' lat='54.93868066768' lon='9.2594803506' />
  <node id='-186088257' action='modify' lat='54.94044176219' lon='8.88127416305' />
  <node id='-186088258' action='modify' lat='54.93989710869' lon='8.87554898791' />
  <node id='-186088259' action='modify' lat='54.93851422299' lon='8.86876788332'>
    <tag k='name' v='too' />
  </node>
  <node id='-186088260' action='modify' lat='54.93840601498' lon='8.86823728547' />
  <node id='-186088261' action='modify' lat='54.93823228795' lon='8.86733472213' />
  <node id='-186088262' action='modify' lat='54.93805201165' lon='8.86632889375' />
  <node id='-186088263' action='modify' lat='54.93487230568' lon='8.86118810909' />
  <node id='-186088264' action='modify' lat='54.93342314597' lon='8.86065226361'>
    <tag k='name' v='ton' />
  </node>
  <node id='-186088279' action='modify' lat='54.93340193241' lon='9.25726258842' />
  <node id='-186088280' action='modify' lat='54.93480966429' lon='9.25793031111' />
  <node id='-186088281' action='modify' lat='54.93759533498' lon='9.25909406879' />
  <way id='-39196210' action='modify'>
    <nd ref='-186088117' />
    <nd ref='-186088118' />
    <tag k='type' v='straight' />
  </way>
  <way id='-39196211' action='modify'>
    <nd ref='-186088118' />
    <nd ref='-186088119' />
  </way>
  <way id='-39196212' action='modify'>
    <nd ref='-186088119' />
    <nd ref='-186088120' />
    <tag k='type' v='straight' />
  </way>
  <way id='-39196213' action='modify'>
    <nd ref='-186088120' />
    <nd ref='-186088121' />
  </way>
  <way id='-39196214' action='modify'>
    <nd ref='-186088121' />
    <nd ref='-186088122' />
    <nd ref='-186088123' />
    <tag k='type' v='straight' />
  </way>
  <way id='-39196215' action='modify'>
    <nd ref='-186088123' />
    <nd ref='-186088124' />
    <nd ref='-186088125' />
  </way>
  <way id='-39196216' action='modify'>
    <nd ref='-186088125' />
    <nd ref='-186088126' />
    <tag k='type' v='straight' />
  </way>
  <way id='-39196217' action='modify'>
    <nd ref='-186088126' />
    <nd ref='-186088127' />
  </way>
  <way id='-39196218' action='modify'>
    <nd ref='-186088127' />
    <nd ref='-186088128' />
    <tag k='type' v='straight' />
  </way>
  <way id='-39196219' action='modify'>
    <nd ref='-186088128' />
    <nd ref='-186088129' />
  </way>
  <way id='-39196220' action='modify'>
    <nd ref='-186088129' />
    <nd ref='-186088130' />
    <tag k='type' v='straight' />
  </way>
  <way id='-39196221' action='modify'>
    <nd ref='-186088130' />
    <nd ref='-186088131' />
  </way>
  <way id='-39196222' action='modify'>
    <nd ref='-186088131' />
    <nd ref='-186088132' />
    <tag k='type' v='straight' />
  </way>
  <way id='-39196223' action='modify'>
    <nd ref='-186088132' />
    <nd ref='-186088133' />
  </way>
  <way id='-39196224' action='modify'>
    <nd ref='-186088133' />
    <nd ref='-186088134' />
    <tag k='type' v='straight' />
  </way>
  <way id='-39196225' action='modify'>
    <nd ref='-186088134' />
    <nd ref='-186088135' />
  </way>
  <way id='-39196226' action='modify'>
    <nd ref='-186088135' />
    <nd ref='-186088136' />
    <nd ref='-186088137' />
    <tag k='type' v='straight' />
  </way>
  <way id='-39196227' action='modify'>
    <nd ref='-186088137' />
    <nd ref='-186088138' />
  </way>
  <way id='-39196228' action='modify'>
    <nd ref='-186088138' />
    <nd ref='-186088139' />
    <nd ref='-186088140' />
    <tag k='type' v='straight' />
  </way>
  <way id='-39196229' action='modify'>
    <nd ref='-186088140' />
    <nd ref='-186088141' />
  </way>
  <way id='-39196230' action='modify'>
    <nd ref='-186088141' />
    <nd ref='-186088142' />
    <tag k='type' v='straight' />
  </way>
  <way id='-39196231' action='modify'>
    <nd ref='-186088142' />
    <nd ref='-186088143' />
  </way>
  <way id='-39196232' action='modify'>
    <nd ref='-186088143' />
    <nd ref='-186088144' />
    <tag k='type' v='straight' />
  </way>
  <way id='-39196233' action='modify'>
    <nd ref='-186088144' />
    <nd ref='-186088145' />
  </way>
  <way id='-39196234' action='modify'>
    <nd ref='-186088145' />
    <nd ref='-186088146' />
    <tag k='type' v='straight' />
  </way>
  <way id='-39196235' action='modify'>
    <nd ref='-186088146' />
    <nd ref='-186088147' />
  </way>
  <way id='-39196236' action='modify'>
    <nd ref='-186088147' />
    <nd ref='-186088148' />
    <tag k='type' v='straight' />
  </way>
  <way id='-39196237' action='modify'>
    <nd ref='-186088148' />
    <nd ref='-186088149' />
  </way>
  <way id='-39196238' action='modify'>
    <nd ref='-186088149' />
    <nd ref='-186088150' />
    <nd ref='-186088151' />
    <tag k='type' v='straight' />
  </way>
  <way id='-39196239' action='modify'>
    <nd ref='-186088151' />
    <nd ref='-186088152' />
  </way>
  <way id='-39196240' action='modify'>
    <nd ref='-186088152' />
    <nd ref='-186088153' />
    <tag k='type' v='straight' />
  </way>
  <way id='-39196241' action='modify'>
    <nd ref='-186088153' />
    <nd ref='-186088154' />
  </way>
  <way id='-39196242' action='modify'>
    <nd ref='-186088154' />
    <nd ref='-186088155' />
    <tag k='type' v='straight' />
  </way>
  <way id='-39196243' action='modify'>
    <nd ref='-186088155' />
    <nd ref='-186088156' />
  </way>
  <way id='-39196244' action='modify'>
    <nd ref='-186088156' />
    <nd ref='-186088157' />
    <tag k='type' v='straight' />
  </way>
  <way id='-39196245' action='modify'>
    <nd ref='-186088157' />
    <nd ref='-186088158' />
    <nd ref='-186088159' />
  </way>
  <way id='-39196246' action='modify'>
    <nd ref='-186088159' />
    <nd ref='-186088160' />
    <tag k='type' v='straight' />
  </way>
  <way id='-39196247' action='modify'>
    <nd ref='-186088160' />
    <nd ref='-186088161' />
  </way>
  <way id='-39196248' action='modify'>
    <nd ref='-186088161' />
    <nd ref='-186088162' />
    <tag k='type' v='straight' />
  </way>
  <way id='-39196249' action='modify'>
    <nd ref='-186088162' />
    <nd ref='-186088163' />
  </way>
  <way id='-39196250' action='modify'>
    <nd ref='-186088163' />
    <nd ref='-186088164' />
    <nd ref='-186088165' />
    <tag k='type' v='straight' />
  </way>
  <way id='-39196251' action='modify'>
    <nd ref='-186088165' />
    <nd ref='-186088166' />
  </way>
  <way id='-39196252' action='modify'>
    <nd ref='-186088166' />
    <nd ref='-186088167' />
    <tag k='type' v='straight' />
  </way>
  <way id='-39196253' action='modify'>
    <nd ref='-186088167' />
    <nd ref='-186088168' />
  </way>
  <way id='-39196254' action='modify'>
    <nd ref='-186088168' />
    <nd ref='-186088169' />
    <tag k='type' v='straight' />
  </way>
  <way id='-39196255' action='modify'>
    <nd ref='-186088169' />
    <nd ref='-186088170' />
  </way>
  <way id='-39196256' action='modify'>
    <nd ref='-186088170' />
    <nd ref='-186088171' />
    <tag k='type' v='straight' />
  </way>
  <way id='-39196257' action='modify'>
    <nd ref='-186088171' />
    <nd ref='-186088172' />
  </way>
  <way id='-39196258' action='modify'>
    <nd ref='-186088172' />
    <nd ref='-186088173' />
    <tag k='type' v='straight' />
  </way>
  <way id='-39196259' action='modify'>
    <nd ref='-186088173' />
    <nd ref='-186088174' />
  </way>
  <way id='-39196260' action='modify'>
    <nd ref='-186088174' />
    <nd ref='-186088175' />
    <nd ref='-186088176' />
    <tag k='type' v='straight' />
  </way>
  <way id='-39196261' action='modify'>
    <nd ref='-186088176' />
    <nd ref='-186088177' />
  </way>
  <way id='-39196262' action='modify'>
    <nd ref='-186088177' />
    <nd ref='-186088178' />
    <tag k='type' v='straight' />
  </way>
  <way id='-39196263' action='modify'>
    <nd ref='-186088178' />
    <nd ref='-186088179' />
  </way>
  <way id='-39196264' action='modify'>
    <nd ref='-186088179' />
    <nd ref='-186088180' />
    <tag k='type' v='straight' />
  </way>
  <way id='-39196265' action='modify'>
    <nd ref='-186088180' />
    <nd ref='-186088181' />
  </way>
  <way id='-39196266' action='modify'>
    <nd ref='-186088181' />
    <nd ref='-186088182' />
    <tag k='type' v='straight' />
  </way>
  <way id='-39196267' action='modify'>
    <nd ref='-186088182' />
    <nd ref='-186088183' />
  </way>
  <way id='-39196268' action='modify'>
    <nd ref='-186088183' />
    <nd ref='-186088184' />
    <tag k='type' v='straight' />
  </way>
  <way id='-39196269' action='modify'>
    <nd ref='-186088184' />
    <nd ref='-186088185' />
  </way>
  <way id='-39196270' action='modify'>
    <nd ref='-186088185' />
    <nd ref='-186088186' />
    <tag k='type' v='straight' />
  </way>
  <way id='-39196271' action='modify'>
    <nd ref='-186088186' />
    <nd ref='-186088187' />
  </way>
  <way id='-39196272' action='modify'>
    <nd ref='-186088187' />
    <nd ref='-186088188' />
    <tag k='type' v='straight' />
  </way>
  <way id='-39196273' action='modify'>
    <nd ref='-186088188' />
    <nd ref='-186088189' />
  </way>
  <way id='-39196274' action='modify'>
    <nd ref='-186088189' />
    <nd ref='-186088190' />
    <tag k='type' v='straight' />
  </way>
  <way id='-39196275' action='modify'>
    <nd ref='-186088190' />
    <nd ref='-186088191' />
  </way>
  <way id='-39196276' action='modify'>
    <nd ref='-186088191' />
    <nd ref='-186088192' />
    <tag k='type' v='straight' />
  </way>
  <way id='-39196277' action='modify'>
    <nd ref='-186088192' />
    <nd ref='-186088193' />
  </way>
  <way id='-39196278' action='modify'>
    <nd ref='-186088193' />
    <nd ref='-186088194' />
    <nd ref='-186088195' />
    <tag k='type' v='straight' />
  </way>
  <way id='-39196279' action='modify'>
    <nd ref='-186088195' />
    <nd ref='-186088196' />
  </way>
  <way id='-39196280' action='modify'>
    <nd ref='-186088196' />
    <nd ref='-186088197' />
    <tag k='type' v='straight' />
  </way>
  <way id='-39196281' action='modify'>
    <nd ref='-186088197' />
    <nd ref='-186088198' />
  </way>
  <way id='-39196282' action='modify'>
    <nd ref='-186088198' />
    <nd ref='-186088199' />
    <nd ref='-186088200' />
    <tag k='type' v='straight' />
  </way>
  <way id='-39196283' action='modify'>
    <nd ref='-186088200' />
    <nd ref='-186088201' />
  </way>
  <way id='-39196284' action='modify'>
    <nd ref='-186088201' />
    <nd ref='-186088202' />
    <tag k='type' v='straight' />
  </way>
  <way id='-39196285' action='modify'>
    <nd ref='-186088202' />
    <nd ref='-186088203' />
  </way>
  <way id='-39196286' action='modify'>
    <nd ref='-186088203' />
    <nd ref='-186088204' />
    <nd ref='-186088205' />
    <tag k='type' v='straight' />
  </way>
  <way id='-39196287' action='modify'>
    <nd ref='-186088205' />
    <nd ref='-186088206' />
  </way>
  <way id='-39196288' action='modify'>
    <nd ref='-186088206' />
    <nd ref='-186088207' />
    <tag k='type' v='straight' />
  </way>
  <way id='-39196289' action='modify'>
    <nd ref='-186088207' />
    <nd ref='-186088208' />
  </way>
  <way id='-39196290' action='modify'>
    <nd ref='-186088208' />
    <nd ref='-186088209' />
    <tag k='type' v='straight' />
  </way>
  <way id='-39196291' action='modify'>
    <nd ref='-186088209' />
    <nd ref='-186088210' />
  </way>
  <way id='-39196292' action='modify'>
    <nd ref='-186088210' />
    <nd ref='-186088211' />
    <nd ref='-186088212' />
    <tag k='type' v='straight' />
  </way>
  <way id='-39196293' action='modify'>
    <nd ref='-186088212' />
    <nd ref='-186088213' />
  </way>
  <way id='-39196294' action='modify'>
    <nd ref='-186088213' />
    <nd ref='-186088214' />
    <tag k='type' v='straight' />
  </way>
  <way id='-39196295' action='modify'>
    <nd ref='-186088214' />
    <nd ref='-186088215' />
  </way>
  <way id='-39196296' action='modify'>
    <nd ref='-186088215' />
    <nd ref='-186088279' />
    <tag k='type' v='straight' />
  </way>
  <way id='-39196316' action='modify'>
    <nd ref='-186088255' />
    <nd ref='-186088242' />
  </way>
  <way id='-39196317' action='modify'>
    <nd ref='-186088244' />
    <nd ref='-186088246' />
    <tag k='type' v='straight' />
  </way>
  <way id='-39196318' action='modify'>
    <nd ref='-186088242' />
    <nd ref='-186088245' />
    <nd ref='-186088243' />
    <tag k='type' v='straight' />
  </way>
  <way id='-39196319' action='modify'>
    <nd ref='-186088243' />
    <nd ref='-186088244' />
  </way>
  <way id='-39196320' action='modify'>
    <nd ref='-186088246' />
    <nd ref='-186088248' />
  </way>
  <way id='-39196321' action='modify'>
    <nd ref='-186088248' />
    <nd ref='-186088247' />
    <nd ref='-186088252' />
    <tag k='type' v='straight' />
  </way>
  <way id='-39196322' action='modify'>
    <nd ref='-186088252' />
    <nd ref='-186088254' />
  </way>
  <way id='-39196323' action='modify'>
    <nd ref='-186088254' />
    <nd ref='-186088253' />
    <nd ref='-186088249' />
    <tag k='type' v='straight' />
  </way>
  <way id='-39196324' action='modify'>
    <nd ref='-186088249' />
    <nd ref='-186088251' />
  </way>
  <way id='-39196325' action='modify'>
    <nd ref='-186088251' />
    <nd ref='-186088250' />
    <nd ref='-186088257' />
    <tag k='type' v='straight' />
  </way>
  <way id='-39196326' action='modify'>
    <nd ref='-186088257' />
    <nd ref='-186088258' />
  </way>
  <way id='-39196327' action='modify'>
    <nd ref='-186088258' />
    <nd ref='-186088259' />
    <nd ref='-186088260' />
    <tag k='type' v='straight' />
  </way>
  <way id='-39196328' action='modify'>
    <nd ref='-186088260' />
    <nd ref='-186088261' />
  </way>
  <way id='-39196329' action='modify'>
    <nd ref='-186088261' />
    <nd ref='-186088262' />
    <tag k='type' v='straight' />
  </way>
  <way id='-39196330' action='modify'>
    <nd ref='-186088262' />
    <nd ref='-186088263' />
  </way>
  <way id='-39196331' action='modify'>
    <nd ref='-186088263' />
    <nd ref='-186088264' />
    <tag k='type' v='straight' />
  </way>
  <way id='-39196347' action='modify'>
    <nd ref='-186088281' />
    <nd ref='-186088256' />
  </way>
  <way id='-39196353' action='modify'>
    <nd ref='-186088279' />
    <nd ref='-186088280' />
  </way>
  <way id='-39196354' action='modify'>
    <nd ref='-186088280' />
    <nd ref='-186088216' />
    <nd ref='-186088281' />
    <tag k='type' v='straight' />
  </way>
  <way id='-39196361' action='modify'>
    <nd ref='-186088256' />
    <nd ref='-186088255' />
    <tag k='type' v='straight' />
  </way>
  <relation id='-14495261' action='modify'>
    <member type='way' ref='-39196210' role='' />
    <member type='way' ref='-39196211' role='' />
    <member type='way' ref='-39196212' role='' />
    <member type='way' ref='-39196213' role='' />
    <member type='way' ref='-39196214' role='' />
    <member type='way' ref='-39196215' role='' />
    <member type='way' ref='-39196216' role='' />
    <member type='way' ref='-39196217' role='' />
    <member type='way' ref='-39196218' role='' />
    <member type='way' ref='-39196219' role='' />
    <member type='way' ref='-39196220' role='' />
    <member type='way' ref='-39196221' role='' />
    <member type='way' ref='-39196222' role='' />
    <member type='way' ref='-39196223' role='' />
    <member type='way' ref='-39196224' role='' />
    <member type='way' ref='-39196225' role='' />
    <member type='way' ref='-39196226' role='' />
    <member type='way' ref='-39196227' role='' />
    <member type='way' ref='-39196228' role='' />
    <member type='way' ref='-39196229' role='' />
    <member type='way' ref='-39196230' role='' />
    <member type='way' ref='-39196231' role='' />
    <member type='way' ref='-39196232' role='' />
    <member type='way' ref='-39196233' role='' />
    <member type='way' ref='-39196234' role='' />
    <member type='way' ref='-39196235' role='' />
    <member type='way' ref='-39196236' role='' />
    <member type='way' ref='-39196237' role='' />
    <member type='way' ref='-39196238' role='' />
    <member type='way' ref='-39196239' role='' />
    <member type='way' ref='-39196240' role='' />
    <member type='way' ref='-39196241' role='' />
    <member type='way' ref='-39196242' role='' />
    <member type='way' ref='-39196243' role='' />
    <member type='way' ref='-39196244' role='' />
    <member type='way' ref='-39196245' role='' />
    <member type='way' ref='-39196246' role='' />
    <member type='way' ref='-39196247' role='' />
    <member type='way' ref='-39196248' role='' />
    <member type='way' ref='-39196249' role='' />
    <member type='way' ref='-39196250' role='' />
    <member type='way' ref='-39196251' role='' />
    <member type='way' ref='-39196252' role='' />
    <member type='way' ref='-39196253' role='' />
    <member type='way' ref='-39196254' role='' />
    <member type='way' ref='-39196255' role='' />
    <member type='way' ref='-39196256' role='' />
    <member type='way' ref='-39196257' role='' />
    <member type='way' ref='-39196258' role='' />
    <member type='way' ref='-39196259' role='' />
    <member type='way' ref='-39196260' role='' />
    <member type='way' ref='-39196261' role='' />
    <member type='way' ref='-39196262' role='' />
    <member type='way' ref='-39196263' role='' />
    <member type='way' ref='-39196264' role='' />
    <member type='way' ref='-39196265' role='' />
    <member type='way' ref='-39196266' role='' />
    <member type='way' ref='-39196267' role='' />
    <member type='way' ref='-39196268' role='' />
    <member type='way' ref='-39196269' role='' />
    <member type='way' ref='-39196270' role='' />
    <member type='way' ref='-39196271' role='' />
    <member type='way' ref='-39196272' role='' />
    <member type='way' ref='-39196273' role='' />
    <member type='way' ref='-39196274' role='' />
    <member type='way' ref='-39196275' role='' />
    <member type='way' ref='-39196276' role='' />
    <member type='way' ref='-39196277' role='' />
    <member type='way' ref='-39196278' role='' />
    <member type='way' ref='-39196279' role='' />
    <member type='way' ref='-39196280' role='' />
    <member type='way' ref='-39196281' role='' />
    <member type='way' ref='-39196282' role='' />
    <member type='way' ref='-39196283' role='' />
    <member type='way' ref='-39196284' role='' />
    <member type='way' ref='-39196285' role='' />
    <member type='way' ref='-39196286' role='' />
    <member type='way' ref='-39196287' role='' />
    <member type='way' ref='-39196288' role='' />
    <member type='way' ref='-39196289' role='' />
    <member type='way' ref='-39196290' role='' />
    <member type='way' ref='-39196291' role='' />
    <member type='way' ref='-39196292' role='' />
    <member type='way' ref='-39196293' role='' />
    <member type='way' ref='-39196294' role='' />
    <member type='way' ref='-39196295' role='' />
    <member type='way' ref='-39196296' role='' />
    <member type='way' ref='-39196353' role='' />
    <member type='way' ref='-39196354' role='' />
    <member type='way' ref='-39196347' role='' />
    <member type='way' ref='-39196361' role='' />
    <member type='way' ref='-39196316' role='' />
    <member type='way' ref='-39196318' role='' />
    <member type='way' ref='-39196319' role='' />
    <member type='way' ref='-39196317' role='' />
    <member type='way' ref='-39196320' role='' />
    <member type='way' ref='-39196321' role='' />
    <member type='way' ref='-39196322' role='' />
    <member type='way' ref='-39196323' role='' />
    <member type='way' ref='-39196324' role='' />
    <member type='way' ref='-39196325' role='' />
    <member type='way' ref='-39196326' role='' />
    <member type='way' ref='-39196327' role='' />
    <member type='way' ref='-39196328' role='' />
    <member type='way' ref='-39196329' role='' />
    <member type='way' ref='-39196330' role='' />
    <member type='way' ref='-39196331' role='' />
    <tag k='key' v='path.dk.sbt' />
    <tag k='name' v='DK SBT' />
    <tag k='type' v='path' />
  </relation>
</osm>
