<?xml version='1.0' encoding='UTF-8'?>
<osm version='0.6' upload='false' generator='JOSM'>
  <node id='-175787010' action='modify' lat='56.56153322907' lon='9.02547867209'>
    <tag k='name' v='ski' />
  </node>
  <node id='-175787011' action='modify' lat='56.56163082375' lon='9.02509286865' />
  <node id='-175787012' action='modify' lat='56.56427118508' lon='9.01928186282' />
  <node id='-175787013' action='modify' lat='56.56484017248' lon='9.01854425534' />
  <node id='-175787014' action='modify' lat='56.56723943172' lon='9.01191115245' />
  <node id='-175787015' action='modify' lat='56.56728376524' lon='9.0115101622' />
  <node id='-175787016' action='modify' lat='56.57251989166' lon='9.00678606584' />
  <node id='-175787017' action='modify' lat='56.57266768877' lon='9.00692491651' />
  <node id='-175787018' action='modify' lat='56.57529471689' lon='9.01290088624' />
  <node id='-175787019' action='modify' lat='56.57656531957' lon='9.01980757445' />
  <node id='-175787020' action='modify' lat='56.57787485065' lon='9.02379608189'>
    <tag k='name' v='skn' />
  </node>
  <node id='-175787021' action='modify' lat='56.5836444542' lon='9.02707367867' />
  <node id='-175787022' action='modify' lat='56.58472275361' lon='9.02632802457' />
  <node id='-175787023' action='modify' lat='56.58621016547' lon='9.024434385' />
  <node id='-175787025' action='modify' lat='56.58923355218' lon='9.01850670308' />
  <node id='-175787026' action='modify' lat='56.5974930919' lon='9.01416420668' />
  <node id='-175787027' action='modify' lat='56.59978027975' lon='9.01530414551' />
  <node id='-175787028' action='modify' lat='56.60083744826' lon='9.01618659228' />
  <node id='-175787029' action='modify' lat='56.60444724903' lon='9.01994436711' />
  <node id='-175787030' action='modify' lat='56.60675320702' lon='9.02120232314' />
  <node id='-175787031' action='modify' lat='56.60696665701' lon='9.02124290287'>
    <tag k='name' v='dol' />
  </node>
  <node id='-175787032' action='modify' lat='56.60885531494' lon='9.02160197228' />
  <node id='-175787033' action='modify' lat='56.6118525347' lon='9.02051836118' />
  <node id='-175787034' action='modify' lat='56.61695707872' lon='9.01533364981' />
  <node id='-175787035' action='modify' lat='56.61884610873' lon='9.01424467295' />
  <node id='-175787036' action='modify' lat='56.62347825959' lon='9.01352852315' />
  <node id='-175787037' action='modify' lat='56.62470445222' lon='9.01340514153' />
  <node id='-175787038' action='modify' lat='56.63378087518' lon='9.01312350959' />
  <node id='-175787039' action='modify' lat='56.6350591195' lon='9.01274858241'>
    <tag k='name' v='lyb' />
  </node>
  <node id='-175787040' action='modify' lat='56.63585935207' lon='9.01224910945' />
  <node id='-175787041' action='modify' lat='56.64525458594' lon='9.0051251623' />
  <node id='-175787042' action='modify' lat='56.64850844827' lon='9.00461420283' />
  <node id='-175787043' action='modify' lat='56.65487895498' lon='9.00709926814' />
  <node id='-175787044' action='modify' lat='56.655809264' lon='9.00736748904' />
  <node id='-175787045' action='modify' lat='56.66740839848' lon='9.00956101105'>
    <tag k='name' v='jeb' />
  </node>
  <node id='-175787046' action='modify' lat='56.67125405105' lon='9.01028841466' />
  <node id='-175787047' action='modify' lat='56.67452998487' lon='9.00995313853' />
  <node id='-175787048' action='modify' lat='56.68994058713' lon='9.00411665171' />
  <node id='-175787049' action='modify' lat='56.69310074813' lon='9.00158598952' />
  <node id='-175787050' action='modify' lat='56.69603826164' lon='8.99770080775' />
  <node id='-175787051' action='modify' lat='56.69846380103' lon='8.99602174491' />
  <node id='-175787052' action='modify' lat='56.70032666231' lon='8.99563550681' />
  <node id='-175787053' action='modify' lat='56.70301108204' lon='8.99370968074' />
  <node id='-175787054' action='modify' lat='56.70406241532' lon='8.99221569031' />
  <node id='-175787055' action='modify' lat='56.70488402508' lon='8.99126887053' />
  <node id='-175787056' action='modify' lat='56.70531990106' lon='8.99090964483'>
    <tag k='name' v='ros' />
  </node>
  <node id='-175787057' action='modify' lat='56.71022110835' lon='8.98687004507' />
  <node id='-175787058' action='modify' lat='56.71077759209' lon='8.98638456792' />
  <node id='-175787059' action='modify' lat='56.71811078712' lon='8.97968280041'>
    <tag k='name' v='tin' />
  </node>
  <node id='-175787060' action='modify' lat='56.71834379639' lon='8.97946983308' />
  <node id='-175787061' action='modify' lat='56.72052505357' lon='8.97491812438' />
  <node id='-175787062' action='modify' lat='56.72111376528' lon='8.97197305888' />
  <node id='-175787063' action='modify' lat='56.72316756106' lon='8.96719872683' />
  <node id='-175787064' action='modify' lat='56.73799482961' lon='8.94939556584' />
  <node id='-175787065' action='modify' lat='56.74021540076' lon='8.94811212748' />
  <node id='-175787066' action='modify' lat='56.74524282313' lon='8.9480340318'>
    <tag k='name' v='dur' />
  </node>
  <node id='-175787067' action='modify' lat='56.74625860006' lon='8.94801825151' />
  <node id='-175787068' action='modify' lat='56.74828602116' lon='8.94731819361' />
  <node id='-175787069' action='modify' lat='56.74990670216' lon='8.94636869162' />
  <node id='-175787070' action='modify' lat='56.75140672572' lon='8.94514023989' />
  <node id='-175787071' action='modify' lat='56.75429042627' lon='8.94190817803' />
  <node id='-175787072' action='modify' lat='56.75629756292' lon='8.93500417203' />
  <node id='-175787073' action='modify' lat='56.75621080978' lon='8.91836911172' />
  <node id='-175787074' action='modify' lat='56.75616225293' lon='8.91714245771'>
    <tag k='name' v='bys' />
  </node>
  <node id='-175787075' action='modify' lat='56.75592702269' lon='8.91526177257' />
  <node id='-175787076' action='modify' lat='56.75467789214' lon='8.90854820475' />
  <node id='-175787077' action='modify' lat='56.75440659315' lon='8.90557765692' />
  <node id='-175787078' action='modify' lat='56.75441541593' lon='8.90269964665' />
  <node id='-175787079' action='modify' lat='56.7546786281' lon='8.8998270008' />
  <node id='-175787080' action='modify' lat='56.75536532378' lon='8.89631062478' />
  <node id='-175787081' action='modify' lat='56.75622551371' lon='8.8936096403' />
  <node id='-175787082' action='modify' lat='56.75995277578' lon='8.88534575433' />
  <node id='-175787083' action='modify' lat='56.76120687732' lon='8.87985526979' />
  <node id='-175787084' action='modify' lat='56.76131273145' lon='8.87752711236' />
  <node id='-175787085' action='modify' lat='56.76158177454' lon='8.87463569373' />
  <node id='-175787086' action='modify' lat='56.7625681563' lon='8.86807569699'>
    <tag k='name' v='gly' />
  </node>
  <node id='-175787087' action='modify' lat='56.762704978' lon='8.86716574162' />
  <node id='-175787088' action='modify' lat='56.76375905331' lon='8.86479466885' />
  <node id='-175787089' action='modify' lat='56.76427406066' lon='8.86459309875'>
    <tag k='name' v='gly.f' />
  </node>
  <node id='-175787090' action='modify' lat='56.76511592956' lon='8.86426359147' />
  <node id='-175787092' action='modify' lat='56.56258603218' lon='9.03822973008'>
    <tag k='name' v='ski' />
  </node>
  <node id='-175787093' action='modify' lat='56.56335104962' lon='9.03625252084' />
  <node id='-175787094' action='modify' lat='56.56540324212' lon='9.03381406724' />
  <node id='-175787095' action='modify' lat='56.56639043721' lon='9.0335619396'>
    <tag k='name' v='ski.yn' />
  </node>
  <node id='-175787096' action='modify' lat='56.56862483155' lon='9.03461336553' />
  <node id='-175787097' action='modify' lat='56.56928389356' lon='9.03571843565' />
  <node id='-175787098' action='modify' lat='56.57000323419' lon='9.03655425565'>
    <tag k='name' v='skn' />
  </node>
  <node id='-175787099' action='modify' lat='56.57231602489' lon='9.03803049445' />
  <node id='-175787100' action='modify' lat='56.57447914919' lon='9.03852402091' />
  <node id='-175787101' action='modify' lat='56.57779451759' lon='9.03642653346' />
  <node id='-175787102' action='modify' lat='56.58108005045' lon='9.03047202945' />
  <way id='-38371634' action='modify'>
    <nd ref='-175787010' />
    <nd ref='-175787011' />
    <tag k='type' v='straight' />
  </way>
  <way id='-38371635' action='modify'>
    <nd ref='-175787011' />
    <nd ref='-175787012' />
  </way>
  <way id='-38371636' action='modify'>
    <nd ref='-175787012' />
    <nd ref='-175787013' />
    <tag k='type' v='straight' />
  </way>
  <way id='-38371637' action='modify'>
    <nd ref='-175787013' />
    <nd ref='-175787014' />
  </way>
  <way id='-38371638' action='modify'>
    <nd ref='-175787014' />
    <nd ref='-175787015' />
    <tag k='type' v='straight' />
  </way>
  <way id='-38371639' action='modify'>
    <nd ref='-175787015' />
    <nd ref='-175787016' />
  </way>
  <way id='-38371640' action='modify'>
    <nd ref='-175787016' />
    <nd ref='-175787017' />
    <tag k='type' v='straight' />
  </way>
  <way id='-38371641' action='modify'>
    <nd ref='-175787017' />
    <nd ref='-175787018' />
  </way>
  <way id='-38371642' action='modify'>
    <nd ref='-175787018' />
    <nd ref='-175787019' />
    <tag k='type' v='straight' />
  </way>
  <way id='-38371643' action='modify'>
    <nd ref='-175787019' />
    <nd ref='-175787020' />
    <nd ref='-175787021' />
  </way>
  <way id='-38371644' action='modify'>
    <nd ref='-175787021' />
    <nd ref='-175787022' />
    <tag k='type' v='straight' />
  </way>
  <way id='-38371645' action='modify'>
    <nd ref='-175787022' />
    <nd ref='-175787023' />
  </way>
  <way id='-38371646' action='modify'>
    <nd ref='-175787023' />
    <nd ref='-175787025' />
    <tag k='type' v='straight' />
  </way>
  <way id='-38371647' action='modify'>
    <nd ref='-175787025' />
    <nd ref='-175787026' />
  </way>
  <way id='-38371648' action='modify'>
    <nd ref='-175787026' />
    <nd ref='-175787027' />
    <tag k='type' v='straight' />
  </way>
  <way id='-38371649' action='modify'>
    <nd ref='-175787027' />
    <nd ref='-175787028' />
  </way>
  <way id='-38371650' action='modify'>
    <nd ref='-175787028' />
    <nd ref='-175787029' />
    <tag k='type' v='straight' />
  </way>
  <way id='-38371651' action='modify'>
    <nd ref='-175787029' />
    <nd ref='-175787030' />
  </way>
  <way id='-38371652' action='modify'>
    <nd ref='-175787030' />
    <nd ref='-175787031' />
    <nd ref='-175787032' />
    <tag k='type' v='straight' />
  </way>
  <way id='-38371653' action='modify'>
    <nd ref='-175787032' />
    <nd ref='-175787033' />
  </way>
  <way id='-38371654' action='modify'>
    <nd ref='-175787033' />
    <nd ref='-175787034' />
    <tag k='type' v='straight' />
  </way>
  <way id='-38371655' action='modify'>
    <nd ref='-175787034' />
    <nd ref='-175787035' />
  </way>
  <way id='-38371656' action='modify'>
    <nd ref='-175787035' />
    <nd ref='-175787036' />
    <tag k='type' v='straight' />
  </way>
  <way id='-38371657' action='modify'>
    <nd ref='-175787036' />
    <nd ref='-175787037' />
  </way>
  <way id='-38371658' action='modify'>
    <nd ref='-175787037' />
    <nd ref='-175787038' />
    <tag k='type' v='straight' />
  </way>
  <way id='-38371659' action='modify'>
    <nd ref='-175787038' />
    <nd ref='-175787039' />
    <nd ref='-175787040' />
  </way>
  <way id='-38371660' action='modify'>
    <nd ref='-175787040' />
    <nd ref='-175787041' />
    <tag k='type' v='straight' />
  </way>
  <way id='-38371661' action='modify'>
    <nd ref='-175787041' />
    <nd ref='-175787042' />
  </way>
  <way id='-38371662' action='modify'>
    <nd ref='-175787042' />
    <nd ref='-175787043' />
    <tag k='type' v='straight' />
  </way>
  <way id='-38371663' action='modify'>
    <nd ref='-175787043' />
    <nd ref='-175787044' />
  </way>
  <way id='-38371664' action='modify'>
    <nd ref='-175787044' />
    <nd ref='-175787045' />
    <nd ref='-175787046' />
    <tag k='type' v='straight' />
  </way>
  <way id='-38371665' action='modify'>
    <nd ref='-175787046' />
    <nd ref='-175787047' />
  </way>
  <way id='-38371666' action='modify'>
    <nd ref='-175787047' />
    <nd ref='-175787048' />
    <tag k='type' v='straight' />
  </way>
  <way id='-38371667' action='modify'>
    <nd ref='-175787048' />
    <nd ref='-175787049' />
  </way>
  <way id='-38371668' action='modify'>
    <nd ref='-175787049' />
    <nd ref='-175787050' />
    <tag k='type' v='straight' />
  </way>
  <way id='-38371669' action='modify'>
    <nd ref='-175787050' />
    <nd ref='-175787051' />
  </way>
  <way id='-38371670' action='modify'>
    <nd ref='-175787051' />
    <nd ref='-175787052' />
    <tag k='type' v='straight' />
  </way>
  <way id='-38371671' action='modify'>
    <nd ref='-175787052' />
    <nd ref='-175787053' />
  </way>
  <way id='-38371672' action='modify'>
    <nd ref='-175787053' />
    <nd ref='-175787054' />
    <tag k='type' v='straight' />
  </way>
  <way id='-38371673' action='modify'>
    <nd ref='-175787054' />
    <nd ref='-175787055' />
  </way>
  <way id='-38371674' action='modify'>
    <nd ref='-175787055' />
    <nd ref='-175787056' />
    <nd ref='-175787057' />
    <tag k='type' v='straight' />
  </way>
  <way id='-38371675' action='modify'>
    <nd ref='-175787057' />
    <nd ref='-175787058' />
  </way>
  <way id='-38371676' action='modify'>
    <nd ref='-175787058' />
    <nd ref='-175787059' />
    <nd ref='-175787060' />
    <tag k='type' v='straight' />
  </way>
  <way id='-38371677' action='modify'>
    <nd ref='-175787060' />
    <nd ref='-175787061' />
  </way>
  <way id='-38371678' action='modify'>
    <nd ref='-175787061' />
    <nd ref='-175787062' />
    <tag k='type' v='straight' />
  </way>
  <way id='-38371679' action='modify'>
    <nd ref='-175787062' />
    <nd ref='-175787063' />
  </way>
  <way id='-38371680' action='modify'>
    <nd ref='-175787063' />
    <nd ref='-175787064' />
    <tag k='type' v='straight' />
  </way>
  <way id='-38371681' action='modify'>
    <nd ref='-175787064' />
    <nd ref='-175787065' />
  </way>
  <way id='-38371682' action='modify'>
    <nd ref='-175787065' />
    <nd ref='-175787066' />
    <nd ref='-175787067' />
    <tag k='type' v='straight' />
  </way>
  <way id='-38371683' action='modify'>
    <nd ref='-175787067' />
    <nd ref='-175787068' />
  </way>
  <way id='-38371684' action='modify'>
    <nd ref='-175787068' />
    <nd ref='-175787069' />
    <tag k='type' v='straight' />
  </way>
  <way id='-38371685' action='modify'>
    <nd ref='-175787069' />
    <nd ref='-175787070' />
  </way>
  <way id='-38371686' action='modify'>
    <nd ref='-175787070' />
    <nd ref='-175787071' />
    <tag k='type' v='straight' />
  </way>
  <way id='-38371687' action='modify'>
    <nd ref='-175787071' />
    <nd ref='-175787072' />
  </way>
  <way id='-38371688' action='modify'>
    <nd ref='-175787072' />
    <nd ref='-175787073' />
    <tag k='type' v='straight' />
  </way>
  <way id='-38371689' action='modify'>
    <nd ref='-175787073' />
    <nd ref='-175787074' />
    <nd ref='-175787075' />
  </way>
  <way id='-38371690' action='modify'>
    <nd ref='-175787075' />
    <nd ref='-175787076' />
    <tag k='type' v='straight' />
  </way>
  <way id='-38371691' action='modify'>
    <nd ref='-175787076' />
    <nd ref='-175787077' />
  </way>
  <way id='-38371692' action='modify'>
    <nd ref='-175787077' />
    <nd ref='-175787078' />
    <tag k='type' v='straight' />
  </way>
  <way id='-38371693' action='modify'>
    <nd ref='-175787078' />
    <nd ref='-175787079' />
  </way>
  <way id='-38371694' action='modify'>
    <nd ref='-175787079' />
    <nd ref='-175787080' />
    <tag k='type' v='straight' />
  </way>
  <way id='-38371695' action='modify'>
    <nd ref='-175787080' />
    <nd ref='-175787081' />
  </way>
  <way id='-38371696' action='modify'>
    <nd ref='-175787081' />
    <nd ref='-175787082' />
    <tag k='type' v='straight' />
  </way>
  <way id='-38371697' action='modify'>
    <nd ref='-175787082' />
    <nd ref='-175787083' />
  </way>
  <way id='-38371698' action='modify'>
    <nd ref='-175787083' />
    <nd ref='-175787084' />
    <tag k='type' v='straight' />
  </way>
  <way id='-38371699' action='modify'>
    <nd ref='-175787084' />
    <nd ref='-175787085' />
  </way>
  <way id='-38371700' action='modify'>
    <nd ref='-175787085' />
    <nd ref='-175787086' />
    <nd ref='-175787087' />
    <tag k='type' v='straight' />
  </way>
  <way id='-38371701' action='modify'>
    <nd ref='-175787087' />
    <nd ref='-175787088' />
  </way>
  <way id='-38371702' action='modify'>
    <nd ref='-175787088' />
    <nd ref='-175787089' />
    <nd ref='-175787090' />
    <tag k='type' v='straight' />
  </way>
  <way id='-38371703' action='modify'>
    <nd ref='-175787092' />
    <nd ref='-175787093' />
    <tag k='type' v='straight' />
  </way>
  <way id='-38371704' action='modify'>
    <nd ref='-175787093' />
    <nd ref='-175787094' />
  </way>
  <way id='-38371705' action='modify'>
    <nd ref='-175787094' />
    <nd ref='-175787095' />
    <tag k='type' v='straight' />
  </way>
  <way id='-38371706' action='modify'>
    <nd ref='-175787095' />
    <nd ref='-175787096' />
  </way>
  <way id='-38371707' action='modify'>
    <nd ref='-175787096' />
    <nd ref='-175787097' />
    <tag k='type' v='straight' />
  </way>
  <way id='-38371708' action='modify'>
    <nd ref='-175787097' />
    <nd ref='-175787098' />
    <nd ref='-175787099' />
  </way>
  <way id='-38371709' action='modify'>
    <nd ref='-175787099' />
    <nd ref='-175787100' />
    <tag k='type' v='straight' />
  </way>
  <way id='-38371710' action='modify'>
    <nd ref='-175787100' />
    <nd ref='-175787101' />
  </way>
  <way id='-38371711' action='modify'>
    <nd ref='-175787101' />
    <nd ref='-175787102' />
    <tag k='type' v='straight' />
  </way>
  <way id='-38371712' action='modify'>
    <nd ref='-175787102' />
    <nd ref='-175787021' />
  </way>
  <relation id='-14486171' action='modify'>
    <member type='way' ref='-38371634' role='' />
    <member type='way' ref='-38371635' role='' />
    <member type='way' ref='-38371636' role='' />
    <member type='way' ref='-38371637' role='' />
    <member type='way' ref='-38371638' role='' />
    <member type='way' ref='-38371639' role='' />
    <member type='way' ref='-38371640' role='' />
    <member type='way' ref='-38371641' role='' />
    <member type='way' ref='-38371642' role='' />
    <member type='way' ref='-38371643' role='' />
    <member type='way' ref='-38371644' role='' />
    <member type='way' ref='-38371645' role='' />
    <member type='way' ref='-38371646' role='' />
    <member type='way' ref='-38371647' role='' />
    <member type='way' ref='-38371648' role='' />
    <member type='way' ref='-38371649' role='' />
    <member type='way' ref='-38371650' role='' />
    <member type='way' ref='-38371651' role='' />
    <member type='way' ref='-38371652' role='' />
    <member type='way' ref='-38371653' role='' />
    <member type='way' ref='-38371654' role='' />
    <member type='way' ref='-38371655' role='' />
    <member type='way' ref='-38371656' role='' />
    <member type='way' ref='-38371657' role='' />
    <member type='way' ref='-38371658' role='' />
    <member type='way' ref='-38371659' role='' />
    <member type='way' ref='-38371660' role='' />
    <member type='way' ref='-38371661' role='' />
    <member type='way' ref='-38371662' role='' />
    <member type='way' ref='-38371663' role='' />
    <member type='way' ref='-38371664' role='' />
    <member type='way' ref='-38371665' role='' />
    <member type='way' ref='-38371666' role='' />
    <member type='way' ref='-38371667' role='' />
    <member type='way' ref='-38371668' role='' />
    <member type='way' ref='-38371669' role='' />
    <member type='way' ref='-38371670' role='' />
    <member type='way' ref='-38371671' role='' />
    <member type='way' ref='-38371672' role='' />
    <member type='way' ref='-38371673' role='' />
    <member type='way' ref='-38371674' role='' />
    <member type='way' ref='-38371675' role='' />
    <member type='way' ref='-38371676' role='' />
    <member type='way' ref='-38371677' role='' />
    <member type='way' ref='-38371678' role='' />
    <member type='way' ref='-38371679' role='' />
    <member type='way' ref='-38371680' role='' />
    <member type='way' ref='-38371681' role='' />
    <member type='way' ref='-38371682' role='' />
    <member type='way' ref='-38371683' role='' />
    <member type='way' ref='-38371684' role='' />
    <member type='way' ref='-38371685' role='' />
    <member type='way' ref='-38371686' role='' />
    <member type='way' ref='-38371687' role='' />
    <member type='way' ref='-38371688' role='' />
    <member type='way' ref='-38371689' role='' />
    <member type='way' ref='-38371690' role='' />
    <member type='way' ref='-38371691' role='' />
    <member type='way' ref='-38371692' role='' />
    <member type='way' ref='-38371693' role='' />
    <member type='way' ref='-38371694' role='' />
    <member type='way' ref='-38371695' role='' />
    <member type='way' ref='-38371696' role='' />
    <member type='way' ref='-38371697' role='' />
    <member type='way' ref='-38371698' role='' />
    <member type='way' ref='-38371699' role='' />
    <member type='way' ref='-38371700' role='' />
    <member type='way' ref='-38371701' role='' />
    <member type='way' ref='-38371702' role='' />
    <tag k='key' v='path.dk.sgg' />
    <tag k='name' v='DK SGG' />
    <tag k='type' v='path' />
  </relation>
  <relation id='-14486172' action='modify'>
    <member type='way' ref='-38371703' role='' />
    <member type='way' ref='-38371704' role='' />
    <member type='way' ref='-38371705' role='' />
    <member type='way' ref='-38371706' role='' />
    <member type='way' ref='-38371707' role='' />
    <member type='way' ref='-38371708' role='' />
    <member type='way' ref='-38371709' role='' />
    <member type='way' ref='-38371710' role='' />
    <member type='way' ref='-38371711' role='' />
    <member type='way' ref='-38371712' role='' />
    <member type='way' ref='-38371644' role='' />
    <tag k='key' v='path.dk.sgg.ski' />
    <tag k='name' v='DK SGG (Ski)' />
    <tag k='type' v='path' />
  </relation>
</osm>
