<?xml version='1.0' encoding='UTF-8'?>
<osm version='0.6' upload='false' generator='JOSM'>
  <node id='-134925796' action='modify' lat='55.5354526752' lon='9.70901336904' />
  <node id='-134925797' action='modify' lat='55.53673391807' lon='9.70809982912'>
    <tag k='name' v='sno' />
  </node>
  <node id='-134925798' action='modify' lat='55.5369615839' lon='9.70793749782' />
  <node id='-134925800' action='modify' lat='55.53960246065' lon='9.7032142418' />
  <node id='-134925801' action='modify' lat='55.54194905948' lon='9.6925707809' />
  <node id='-134925802' action='modify' lat='55.54257862208' lon='9.68647817398' />
  <node id='-134925803' action='modify' lat='55.54255284854' lon='9.68204469042' />
  <node id='-134925804' action='modify' lat='55.5436243369' lon='9.67432916321' />
  <node id='-134925805' action='modify' lat='55.54795348522' lon='9.66004039408' />
  <node id='-134925806' action='modify' lat='55.54876579838' lon='9.64780644762' />
  <node id='-134925807' action='modify' lat='55.54548647189' lon='9.62583913375' />
  <node id='-134925808' action='modify' lat='55.54493376717' lon='9.61844159212' />
  <node id='-134925809' action='modify' lat='55.54492678142' lon='9.61576354557'>
    <tag k='name' v='tau' />
  </node>
  <way id='-35827480' action='modify'>
    <nd ref='-134925796' />
    <nd ref='-134925797' />
    <nd ref='-134925798' />
    <tag k='type' v='straight' />
  </way>
  <way id='-35827481' action='modify'>
    <nd ref='-134925798' />
    <nd ref='-134925800' />
    <tag k='type' v='arc' />
  </way>
  <way id='-35827482' action='modify'>
    <nd ref='-134925800' />
    <nd ref='-134925801' />
    <tag k='type' v='straight' />
  </way>
  <way id='-35827483' action='modify'>
    <nd ref='-134925801' />
    <nd ref='-134925802' />
    <tag k='type' v='arc' />
  </way>
  <way id='-35827484' action='modify'>
    <nd ref='-134925802' />
    <nd ref='-134925803' />
    <tag k='type' v='straight' />
  </way>
  <way id='-35827485' action='modify'>
    <nd ref='-134925803' />
    <nd ref='-134925804' />
    <tag k='type' v='arc' />
  </way>
  <way id='-35827486' action='modify'>
    <nd ref='-134925804' />
    <nd ref='-134925805' />
    <tag k='type' v='straight' />
  </way>
  <way id='-35827487' action='modify'>
    <nd ref='-134925805' />
    <nd ref='-134925806' />
  </way>
  <way id='-35827488' action='modify'>
    <nd ref='-134925806' />
    <nd ref='-134925807' />
    <tag k='type' v='straight' />
  </way>
  <way id='-35827489' action='modify'>
    <nd ref='-134925807' />
    <nd ref='-134925808' />
    <tag k='type' v='arc' />
  </way>
  <way id='-35827490' action='modify'>
    <nd ref='-134925808' />
    <nd ref='-134925809' />
    <tag k='type' v='straight' />
  </way>
  <relation id='-14229362' action='modify'>
    <member type='way' ref='-35827480' role='' />
    <member type='way' ref='-35827481' role='' />
    <member type='way' ref='-35827482' role='' />
    <member type='way' ref='-35827483' role='' />
    <member type='way' ref='-35827484' role='' />
    <member type='way' ref='-35827485' role='' />
    <member type='way' ref='-35827486' role='' />
    <member type='way' ref='-35827487' role='' />
    <member type='way' ref='-35827488' role='' />
    <member type='way' ref='-35827489' role='' />
    <member type='way' ref='-35827490' role='' />
    <tag k='key' v='path.dk.sht' />
    <tag k='name' v='DK SHT' />
    <tag k='type' v='path' />
  </relation>
</osm>
