<?xml version='1.0' encoding='UTF-8'?>
<osm version='0.6' upload='false' generator='JOSM'>
  <node id='-172512733' action='modify' lat='56.16415143408' lon='9.54418978431'>
    <tag k='name' v='sil' />
  </node>
  <node id='-172512734' action='modify' lat='56.16400091214' lon='9.54034119711' />
  <node id='-172512735' action='modify' lat='56.1638903929' lon='9.5371252285' />
  <node id='-172512736' action='modify' lat='56.16382766561' lon='9.53556552396' />
  <node id='-172512737' action='modify' lat='56.16377388603' lon='9.53425631138' />
  <node id='-172512738' action='modify' lat='56.16371988319' lon='9.53240809886'>
    <tag k='name' v='sil.yh' />
  </node>
  <node id='-172512739' action='modify' lat='56.16369362266' lon='9.53172996573' />
  <node id='-172512740' action='modify' lat='56.16351402765' lon='9.52729225024' />
  <node id='-172512741' action='modify' lat='56.16048953026' lon='9.5181754218' />
  <node id='-172512742' action='modify' lat='56.15804511429' lon='9.51563134655' />
  <node id='-172512743' action='modify' lat='56.15708015077' lon='9.51452225313' />
  <node id='-172512744' action='modify' lat='56.15697708048' lon='9.51438546047' />
  <node id='-172512745' action='modify' lat='56.15519048558' lon='9.5083665821'>
    <tag k='name' v='lys' />
  </node>
  <node id='-172512746' action='modify' lat='56.15634820157' lon='9.50146793246' />
  <node id='-172512747' action='modify' lat='56.15946712683' lon='9.49584065795' />
  <node id='-172512748' action='modify' lat='56.16039618002' lon='9.49444055021' />
  <node id='-172512749' action='modify' lat='56.16410023208' lon='9.48931753099' />
  <node id='-172512750' action='modify' lat='56.16584161352' lon='9.48765455604' />
  <node id='-172512751' action='modify' lat='56.17176110943' lon='9.483786816' />
  <node id='-172512752' action='modify' lat='56.17623148836' lon='9.48468267381' />
  <node id='-172512753' action='modify' lat='56.17712441799' lon='9.48586777694'>
    <tag k='name' v='hvi' />
  </node>
  <node id='-172512754' action='modify' lat='56.17802606319' lon='9.48706447542' />
  <node id='-172512755' action='modify' lat='56.18244794362' lon='9.48758482397' />
  <node id='-172512756' action='modify' lat='56.18444225102' lon='9.48593258321' />
  <node id='-172512757' action='modify' lat='56.18970517096' lon='9.48583870858' />
  <node id='-172512758' action='modify' lat='56.19131290794' lon='9.48673127872'>
    <tag k='name' v='obo' />
  </node>
  <node id='-172512759' action='modify' lat='56.19777278619' lon='9.49031799763' />
  <node id='-172512760' action='modify' lat='56.19930821666' lon='9.49145793647' />
  <node id='-172512761' action='modify' lat='56.20467353375' lon='9.49642270535' />
  <node id='-172512762' action='modify' lat='56.20750509205' lon='9.49800520867' />
  <node id='-172512763' action='modify' lat='56.21009458852' lon='9.49860677763'>
    <tag k='name' v='ska' />
  </node>
  <node id='-172512764' action='modify' lat='56.21282749766' lon='9.49924170703' />
  <node id='-172512765' action='modify' lat='56.22155834184' lon='9.50448006123' />
  <node id='-172512766' action='modify' lat='56.22221896538' lon='9.50508892268' />
  <node id='-172512767' action='modify' lat='56.22589388838' lon='9.5092943167'>
    <tag k='name' v='ore' />
  </node>
  <node id='-172512768' action='modify' lat='56.22782933185' lon='9.5120733963' />
  <node id='-172512769' action='modify' lat='56.22807982211' lon='9.51244220003' />
  <node id='-172512770' action='modify' lat='56.23016046886' lon='9.51636761159' />
  <node id='-172512771' action='modify' lat='56.23125777588' lon='9.51897471875' />
  <node id='-172512772' action='modify' lat='56.23385630018' lon='9.5230060789' />
  <node id='-172512773' action='modify' lat='56.23575104103' lon='9.52525913179' />
  <node id='-172512774' action='modify' lat='56.23737290222' lon='9.52689527392' />
  <node id='-172512775' action='modify' lat='56.24077105087' lon='9.52995232701' />
  <node id='-172512776' action='modify' lat='56.24336445639' lon='9.53076235816' />
  <node id='-172512777' action='modify' lat='56.24369942541' lon='9.53063160047' />
  <node id='-172512778' action='modify' lat='56.24540813246' lon='9.53068792552'>
    <tag k='name' v='lem' />
  </node>
  <node id='-172512779' action='modify' lat='56.24664956074' lon='9.5313075158' />
  <node id='-172512780' action='modify' lat='56.24853025535' lon='9.53299998969' />
  <node id='-172512781' action='modify' lat='56.24917327822' lon='9.53346669137' />
  <node id='-172512782' action='modify' lat='56.25088173877' lon='9.53451275557' />
  <node id='-172512783' action='modify' lat='56.25236736074' lon='9.53602552146' />
  <node id='-172512784' action='modify' lat='56.25491006863' lon='9.53987315163' />
  <node id='-172512785' action='modify' lat='56.2594571705' lon='9.54041361541' />
  <node id='-172512786' action='modify' lat='56.26152866301' lon='9.53830003604' />
  <node id='-172512787' action='modify' lat='56.26648459705' lon='9.52226578921' />
  <node id='-172512788' action='modify' lat='56.26641596102' lon='9.51966405659'>
    <tag k='name' v='hig' />
  </node>
  <node id='-172512789' action='modify' lat='56.26627755556' lon='9.51441764295' />
  <node id='-172512790' action='modify' lat='56.27300513267' lon='9.49860602349' />
  <node id='-172512791' action='modify' lat='56.27579590394' lon='9.49774771661' />
  <node id='-172512792' action='modify' lat='56.27694104411' lon='9.49720322818'>
    <tag k='name' v='nor' />
  </node>
  <node id='-172512793' action='modify' lat='56.2775992236' lon='9.49685185879' />
  <node id='-172512794' action='modify' lat='56.2780459453' lon='9.49659168452' />
  <node id='-172512795' action='modify' lat='56.28044922001' lon='9.49505209386' />
  <node id='-172512796' action='modify' lat='56.28574958907' lon='9.49061035037' />
  <node id='-172512797' action='modify' lat='56.28892498567' lon='9.48290705413'>
    <tag k='name' v='hib' />
  </node>
  <node id='-172512798' action='modify' lat='56.28926737134' lon='9.47644024819' />
  <node id='-172512799' action='modify' lat='56.28752117383' lon='9.44477676809' />
  <node id='-172512800' action='modify' lat='56.28890563334' lon='9.43611860007' />
  <node id='-172512801' action='modify' lat='56.29074852621' lon='9.432883856' />
  <node id='-172512802' action='modify' lat='56.29185600552' lon='9.43144887418'>
    <tag k='name' v='kje' />
  </node>
  <node id='-172512803' action='modify' lat='56.29235168143' lon='9.43109750479' />
  <node id='-172512804' action='modify' lat='56.29312272006' lon='9.430740771' />
  <node id='-172512805' action='modify' lat='56.29557416383' lon='9.43032502592' />
  <node id='-172512806' action='modify' lat='56.29874726356' lon='9.4306361568' />
  <node id='-172512807' action='modify' lat='56.30016107758' lon='9.43049400777' />
  <node id='-172512808' action='modify' lat='56.30268764248' lon='9.42988371684'>
    <tag k='name' v='don' />
  </node>
  <node id='-172512809' action='modify' lat='56.30465816222' lon='9.42940771043' />
  <node id='-172512810' action='modify' lat='56.30558667848' lon='9.42903488606' />
  <node id='-172512811' action='modify' lat='56.31518004504' lon='9.42369459987' />
  <node id='-172512812' action='modify' lat='56.31996987286' lon='9.42602275729' />
  <node id='-172512813' action='modify' lat='56.32035733023' lon='9.42678602757'>
    <tag k='name' v='aun' />
  </node>
  <node id='-172512814' action='modify' lat='56.32209386507' lon='9.43020700336' />
  <node id='-172512815' action='modify' lat='56.32483048755' lon='9.43312524676' />
  <node id='-172512816' action='modify' lat='56.3308860547' lon='9.43578599811' />
  <node id='-172512817' action='modify' lat='56.3317797294' lon='9.43636000022'>
    <tag k='name' v='sjo' />
  </node>
  <node id='-172512818' action='modify' lat='56.33330384476' lon='9.4381222102' />
  <node id='-172512819' action='modify' lat='56.33754131144' lon='9.44397210002' />
  <node id='-172512820' action='modify' lat='56.33918115291' lon='9.44813489646' />
  <node id='-172512821' action='modify' lat='56.34021349276' lon='9.45249387444'>
    <tag k='name' v='bre' />
  </node>
  <node id='-172512822' action='modify' lat='56.3419329043' lon='9.45975422323' />
  <node id='-172512823' action='modify' lat='56.34253644905' lon='9.46174978673' />
  <node id='-172512824' action='modify' lat='56.34498323462' lon='9.46831046999' />
  <node id='-172512825' action='modify' lat='56.34572050984' lon='9.47090684831' />
  <node id='-172512826' action='modify' lat='56.34719799025' lon='9.47952746809' />
  <node id='-172512827' action='modify' lat='56.35012900228' lon='9.48436616778' />
  <node id='-172512828' action='modify' lat='56.35241182287' lon='9.48608278155'>
    <tag k='name' v='rod.xs' />
  </node>
  <node id='-172512829' action='modify' lat='56.35433189689' lon='9.49346691236'>
    <tag k='name' v='rod.ys' />
  </node>
  <node id='-172512830' action='modify' lat='56.35429697371' lon='9.49366673693' />
  <node id='-172512831' action='modify' lat='56.35323644503' lon='9.49790026959'>
    <tag k='name' v='rod' />
  </node>
  <node id='-172512846' action='modify' lat='56.35280470296' lon='9.49927702351' />
  <way id='-38117410' action='modify'>
    <nd ref='-172512733' />
    <nd ref='-172512734' />
    <tag k='type' v='straight' />
  </way>
  <way id='-38117411' action='modify'>
    <nd ref='-172512734' />
    <nd ref='-172512735' />
  </way>
  <way id='-38117412' action='modify'>
    <nd ref='-172512735' />
    <nd ref='-172512736' />
    <tag k='type' v='straight' />
  </way>
  <way id='-38117413' action='modify'>
    <nd ref='-172512736' />
    <nd ref='-172512737' />
  </way>
  <way id='-38117414' action='modify'>
    <nd ref='-172512737' />
    <nd ref='-172512738' />
    <tag k='type' v='straight' />
  </way>
  <way id='-38117415' action='modify'>
    <nd ref='-172512738' />
    <nd ref='-172512739' />
  </way>
  <way id='-38117416' action='modify'>
    <nd ref='-172512739' />
    <nd ref='-172512740' />
    <tag k='type' v='straight' />
  </way>
  <way id='-38117417' action='modify'>
    <nd ref='-172512740' />
    <nd ref='-172512741' />
  </way>
  <way id='-38117418' action='modify'>
    <nd ref='-172512741' />
    <nd ref='-172512742' />
    <tag k='type' v='straight' />
  </way>
  <way id='-38117419' action='modify'>
    <nd ref='-172512742' />
    <nd ref='-172512743' />
  </way>
  <way id='-38117420' action='modify'>
    <nd ref='-172512743' />
    <nd ref='-172512744' />
    <tag k='type' v='straight' />
  </way>
  <way id='-38117421' action='modify'>
    <nd ref='-172512744' />
    <nd ref='-172512745' />
    <nd ref='-172512746' />
  </way>
  <way id='-38117422' action='modify'>
    <nd ref='-172512746' />
    <nd ref='-172512747' />
    <tag k='type' v='straight' />
  </way>
  <way id='-38117423' action='modify'>
    <nd ref='-172512747' />
    <nd ref='-172512748' />
  </way>
  <way id='-38117424' action='modify'>
    <nd ref='-172512748' />
    <nd ref='-172512749' />
    <tag k='type' v='straight' />
  </way>
  <way id='-38117425' action='modify'>
    <nd ref='-172512749' />
    <nd ref='-172512750' />
  </way>
  <way id='-38117426' action='modify'>
    <nd ref='-172512750' />
    <nd ref='-172512751' />
    <tag k='type' v='straight' />
  </way>
  <way id='-38117427' action='modify'>
    <nd ref='-172512751' />
    <nd ref='-172512752' />
  </way>
  <way id='-38117428' action='modify'>
    <nd ref='-172512752' />
    <nd ref='-172512753' />
    <nd ref='-172512754' />
    <tag k='type' v='straight' />
  </way>
  <way id='-38117429' action='modify'>
    <nd ref='-172512754' />
    <nd ref='-172512755' />
  </way>
  <way id='-38117430' action='modify'>
    <nd ref='-172512755' />
    <nd ref='-172512756' />
    <tag k='type' v='straight' />
  </way>
  <way id='-38117431' action='modify'>
    <nd ref='-172512756' />
    <nd ref='-172512757' />
  </way>
  <way id='-38117432' action='modify'>
    <nd ref='-172512757' />
    <nd ref='-172512758' />
    <nd ref='-172512759' />
    <tag k='type' v='straight' />
  </way>
  <way id='-38117433' action='modify'>
    <nd ref='-172512759' />
    <nd ref='-172512760' />
  </way>
  <way id='-38117434' action='modify'>
    <nd ref='-172512760' />
    <nd ref='-172512761' />
    <tag k='type' v='straight' />
  </way>
  <way id='-38117435' action='modify'>
    <nd ref='-172512761' />
    <nd ref='-172512762' />
  </way>
  <way id='-38117436' action='modify'>
    <nd ref='-172512762' />
    <nd ref='-172512763' />
    <nd ref='-172512764' />
    <tag k='type' v='straight' />
  </way>
  <way id='-38117437' action='modify'>
    <nd ref='-172512764' />
    <nd ref='-172512765' />
  </way>
  <way id='-38117438' action='modify'>
    <nd ref='-172512765' />
    <nd ref='-172512766' />
    <tag k='type' v='straight' />
  </way>
  <way id='-38117439' action='modify'>
    <nd ref='-172512766' />
    <nd ref='-172512767' />
    <nd ref='-172512768' />
  </way>
  <way id='-38117440' action='modify'>
    <nd ref='-172512768' />
    <nd ref='-172512769' />
    <tag k='type' v='straight' />
  </way>
  <way id='-38117441' action='modify'>
    <nd ref='-172512769' />
    <nd ref='-172512770' />
  </way>
  <way id='-38117442' action='modify'>
    <nd ref='-172512770' />
    <nd ref='-172512771' />
    <tag k='type' v='straight' />
  </way>
  <way id='-38117443' action='modify'>
    <nd ref='-172512771' />
    <nd ref='-172512772' />
  </way>
  <way id='-38117444' action='modify'>
    <nd ref='-172512772' />
    <nd ref='-172512773' />
    <tag k='type' v='straight' />
  </way>
  <way id='-38117445' action='modify'>
    <nd ref='-172512773' />
    <nd ref='-172512774' />
  </way>
  <way id='-38117446' action='modify'>
    <nd ref='-172512774' />
    <nd ref='-172512775' />
    <tag k='type' v='straight' />
  </way>
  <way id='-38117447' action='modify'>
    <nd ref='-172512775' />
    <nd ref='-172512776' />
  </way>
  <way id='-38117448' action='modify'>
    <nd ref='-172512776' />
    <nd ref='-172512777' />
    <tag k='type' v='straight' />
  </way>
  <way id='-38117449' action='modify'>
    <nd ref='-172512777' />
    <nd ref='-172512778' />
    <nd ref='-172512779' />
  </way>
  <way id='-38117450' action='modify'>
    <nd ref='-172512779' />
    <nd ref='-172512780' />
    <tag k='type' v='straight' />
  </way>
  <way id='-38117451' action='modify'>
    <nd ref='-172512780' />
    <nd ref='-172512781' />
  </way>
  <way id='-38117452' action='modify'>
    <nd ref='-172512781' />
    <nd ref='-172512782' />
    <tag k='type' v='straight' />
  </way>
  <way id='-38117453' action='modify'>
    <nd ref='-172512782' />
    <nd ref='-172512783' />
  </way>
  <way id='-38117454' action='modify'>
    <nd ref='-172512783' />
    <nd ref='-172512784' />
    <tag k='type' v='straight' />
  </way>
  <way id='-38117455' action='modify'>
    <nd ref='-172512784' />
    <nd ref='-172512785' />
  </way>
  <way id='-38117456' action='modify'>
    <nd ref='-172512785' />
    <nd ref='-172512786' />
    <tag k='type' v='straight' />
  </way>
  <way id='-38117457' action='modify'>
    <nd ref='-172512786' />
    <nd ref='-172512787' />
  </way>
  <way id='-38117458' action='modify'>
    <nd ref='-172512787' />
    <nd ref='-172512788' />
    <nd ref='-172512789' />
    <tag k='type' v='straight' />
  </way>
  <way id='-38117459' action='modify'>
    <nd ref='-172512789' />
    <nd ref='-172512790' />
  </way>
  <way id='-38117460' action='modify'>
    <nd ref='-172512790' />
    <nd ref='-172512791' />
    <tag k='type' v='straight' />
  </way>
  <way id='-38117461' action='modify'>
    <nd ref='-172512791' />
    <nd ref='-172512792' />
    <nd ref='-172512793' />
  </way>
  <way id='-38117462' action='modify'>
    <nd ref='-172512793' />
    <nd ref='-172512794' />
    <tag k='type' v='straight' />
  </way>
  <way id='-38117463' action='modify'>
    <nd ref='-172512794' />
    <nd ref='-172512795' />
  </way>
  <way id='-38117464' action='modify'>
    <nd ref='-172512795' />
    <nd ref='-172512796' />
    <tag k='type' v='straight' />
  </way>
  <way id='-38117465' action='modify'>
    <nd ref='-172512796' />
    <nd ref='-172512797' />
    <nd ref='-172512798' />
  </way>
  <way id='-38117466' action='modify'>
    <nd ref='-172512798' />
    <nd ref='-172512799' />
    <tag k='type' v='straight' />
  </way>
  <way id='-38117467' action='modify'>
    <nd ref='-172512799' />
    <nd ref='-172512800' />
  </way>
  <way id='-38117468' action='modify'>
    <nd ref='-172512800' />
    <nd ref='-172512801' />
    <tag k='type' v='straight' />
  </way>
  <way id='-38117469' action='modify'>
    <nd ref='-172512801' />
    <nd ref='-172512802' />
    <nd ref='-172512803' />
  </way>
  <way id='-38117470' action='modify'>
    <nd ref='-172512803' />
    <nd ref='-172512804' />
    <tag k='type' v='straight' />
  </way>
  <way id='-38117471' action='modify'>
    <nd ref='-172512804' />
    <nd ref='-172512805' />
  </way>
  <way id='-38117472' action='modify'>
    <nd ref='-172512805' />
    <nd ref='-172512806' />
    <tag k='type' v='straight' />
  </way>
  <way id='-38117473' action='modify'>
    <nd ref='-172512806' />
    <nd ref='-172512807' />
  </way>
  <way id='-38117474' action='modify'>
    <nd ref='-172512807' />
    <nd ref='-172512808' />
    <nd ref='-172512809' />
    <tag k='type' v='straight' />
  </way>
  <way id='-38117475' action='modify'>
    <nd ref='-172512809' />
    <nd ref='-172512810' />
  </way>
  <way id='-38117476' action='modify'>
    <nd ref='-172512810' />
    <nd ref='-172512811' />
    <tag k='type' v='straight' />
  </way>
  <way id='-38117477' action='modify'>
    <nd ref='-172512811' />
    <nd ref='-172512812' />
  </way>
  <way id='-38117478' action='modify'>
    <nd ref='-172512812' />
    <nd ref='-172512813' />
    <nd ref='-172512814' />
    <tag k='type' v='straight' />
  </way>
  <way id='-38117479' action='modify'>
    <nd ref='-172512814' />
    <nd ref='-172512815' />
  </way>
  <way id='-38117480' action='modify'>
    <nd ref='-172512815' />
    <nd ref='-172512816' />
    <tag k='type' v='straight' />
  </way>
  <way id='-38117481' action='modify'>
    <nd ref='-172512816' />
    <nd ref='-172512817' />
    <nd ref='-172512818' />
  </way>
  <way id='-38117482' action='modify'>
    <nd ref='-172512818' />
    <nd ref='-172512819' />
    <tag k='type' v='straight' />
  </way>
  <way id='-38117483' action='modify'>
    <nd ref='-172512819' />
    <nd ref='-172512820' />
  </way>
  <way id='-38117484' action='modify'>
    <nd ref='-172512820' />
    <nd ref='-172512821' />
    <nd ref='-172512822' />
    <tag k='type' v='straight' />
  </way>
  <way id='-38117485' action='modify'>
    <nd ref='-172512822' />
    <nd ref='-172512823' />
  </way>
  <way id='-38117486' action='modify'>
    <nd ref='-172512823' />
    <nd ref='-172512824' />
    <tag k='type' v='straight' />
  </way>
  <way id='-38117487' action='modify'>
    <nd ref='-172512824' />
    <nd ref='-172512825' />
  </way>
  <way id='-38117488' action='modify'>
    <nd ref='-172512825' />
    <nd ref='-172512826' />
    <tag k='type' v='straight' />
  </way>
  <way id='-38117489' action='modify'>
    <nd ref='-172512826' />
    <nd ref='-172512827' />
  </way>
  <way id='-38117490' action='modify'>
    <nd ref='-172512827' />
    <nd ref='-172512828' />
    <tag k='type' v='straight' />
  </way>
  <way id='-38117491' action='modify'>
    <nd ref='-172512828' />
    <nd ref='-172512829' />
  </way>
  <way id='-38117492' action='modify'>
    <nd ref='-172512829' />
    <nd ref='-172512830' />
    <tag k='type' v='straight' />
  </way>
  <way id='-38117493' action='modify'>
    <nd ref='-172512830' />
    <nd ref='-172512831' />
  </way>
  <way id='-38117494' action='modify'>
    <nd ref='-172512831' />
    <nd ref='-172512846' />
    <tag k='type' v='straight' />
  </way>
  <relation id='-14483595' action='modify'>
    <member type='way' ref='-38117410' role='' />
    <member type='way' ref='-38117411' role='' />
    <member type='way' ref='-38117412' role='' />
    <member type='way' ref='-38117413' role='' />
    <member type='way' ref='-38117414' role='' />
    <member type='way' ref='-38117415' role='' />
    <member type='way' ref='-38117416' role='' />
    <member type='way' ref='-38117417' role='' />
    <member type='way' ref='-38117418' role='' />
    <member type='way' ref='-38117419' role='' />
    <member type='way' ref='-38117420' role='' />
    <member type='way' ref='-38117421' role='' />
    <member type='way' ref='-38117422' role='' />
    <member type='way' ref='-38117423' role='' />
    <member type='way' ref='-38117424' role='' />
    <member type='way' ref='-38117425' role='' />
    <member type='way' ref='-38117426' role='' />
    <member type='way' ref='-38117427' role='' />
    <member type='way' ref='-38117428' role='' />
    <member type='way' ref='-38117429' role='' />
    <member type='way' ref='-38117430' role='' />
    <member type='way' ref='-38117431' role='' />
    <member type='way' ref='-38117432' role='' />
    <member type='way' ref='-38117433' role='' />
    <member type='way' ref='-38117434' role='' />
    <member type='way' ref='-38117435' role='' />
    <member type='way' ref='-38117436' role='' />
    <member type='way' ref='-38117437' role='' />
    <member type='way' ref='-38117438' role='' />
    <member type='way' ref='-38117439' role='' />
    <member type='way' ref='-38117440' role='' />
    <member type='way' ref='-38117441' role='' />
    <member type='way' ref='-38117442' role='' />
    <member type='way' ref='-38117443' role='' />
    <member type='way' ref='-38117444' role='' />
    <member type='way' ref='-38117445' role='' />
    <member type='way' ref='-38117446' role='' />
    <member type='way' ref='-38117447' role='' />
    <member type='way' ref='-38117448' role='' />
    <member type='way' ref='-38117449' role='' />
    <member type='way' ref='-38117450' role='' />
    <member type='way' ref='-38117451' role='' />
    <member type='way' ref='-38117452' role='' />
    <member type='way' ref='-38117453' role='' />
    <member type='way' ref='-38117454' role='' />
    <member type='way' ref='-38117455' role='' />
    <member type='way' ref='-38117456' role='' />
    <member type='way' ref='-38117457' role='' />
    <member type='way' ref='-38117458' role='' />
    <member type='way' ref='-38117459' role='' />
    <member type='way' ref='-38117460' role='' />
    <member type='way' ref='-38117461' role='' />
    <member type='way' ref='-38117462' role='' />
    <member type='way' ref='-38117463' role='' />
    <member type='way' ref='-38117464' role='' />
    <member type='way' ref='-38117465' role='' />
    <member type='way' ref='-38117466' role='' />
    <member type='way' ref='-38117467' role='' />
    <member type='way' ref='-38117468' role='' />
    <member type='way' ref='-38117469' role='' />
    <member type='way' ref='-38117470' role='' />
    <member type='way' ref='-38117471' role='' />
    <member type='way' ref='-38117472' role='' />
    <member type='way' ref='-38117473' role='' />
    <member type='way' ref='-38117474' role='' />
    <member type='way' ref='-38117475' role='' />
    <member type='way' ref='-38117476' role='' />
    <member type='way' ref='-38117477' role='' />
    <member type='way' ref='-38117478' role='' />
    <member type='way' ref='-38117479' role='' />
    <member type='way' ref='-38117480' role='' />
    <member type='way' ref='-38117481' role='' />
    <member type='way' ref='-38117482' role='' />
    <member type='way' ref='-38117483' role='' />
    <member type='way' ref='-38117484' role='' />
    <member type='way' ref='-38117485' role='' />
    <member type='way' ref='-38117486' role='' />
    <member type='way' ref='-38117487' role='' />
    <member type='way' ref='-38117488' role='' />
    <member type='way' ref='-38117489' role='' />
    <member type='way' ref='-38117490' role='' />
    <member type='way' ref='-38117491' role='' />
    <member type='way' ref='-38117492' role='' />
    <member type='way' ref='-38117493' role='' />
    <member type='way' ref='-38117494' role='' />
    <tag k='key' v='path.dk.skr' />
    <tag k='name' v='DK SKR' />
    <tag k='type' v='path' />
  </relation>
</osm>
