<?xml version='1.0' encoding='UTF-8'?>
<osm version='0.6' upload='false' generator='JOSM'>
  <node id='-151573580' action='modify' lat='54.93049145404' lon='10.76183963184'>
    <tag k='name' v='skr' />
  </node>
  <node id='-151573582' action='modify' lat='54.92990368306' lon='10.76511024892' />
  <node id='-151573583' action='modify' lat='54.92996224629' lon='10.77309786737' />
  <node id='-151573584' action='modify' lat='54.93013485321' lon='10.77454089582' />
  <node id='-151573585' action='modify' lat='54.9303290351' lon='10.77835499704' />
  <node id='-151573586' action='modify' lat='54.92976189805' lon='10.79345583379' />
  <node id='-151573587' action='modify' lat='54.929274892' lon='10.79811215132' />
  <node id='-151573588' action='modify' lat='54.92922926559' lon='10.79982101695'>
    <tag k='name' v='kro' />
  </node>
  <node id='-151573589' action='modify' lat='54.92893121276' lon='10.81098406971' />
  <node id='-151573590' action='modify' lat='54.92976651994' lon='10.81759571761' />
  <node id='-151573591' action='modify' lat='54.93198108751' lon='10.82536338687' />
  <node id='-151573592' action='modify' lat='54.93294115128' lon='10.82811534137' />
  <node id='-151573593' action='modify' lat='54.93438046628' lon='10.83120724542'>
    <tag k='name' v='spo' />
  </node>
  <node id='-151573594' action='modify' lat='54.9348165333' lon='10.83214401662'>
    <tag k='name' v='spo.f' />
  </node>
  <way id='-36820775' action='modify'>
    <nd ref='-151573580' />
    <nd ref='-151573582' />
    <tag k='type' v='straight' />
  </way>
  <way id='-36820776' action='modify'>
    <nd ref='-151573582' />
    <nd ref='-151573583' />
  </way>
  <way id='-36820777' action='modify'>
    <nd ref='-151573583' />
    <nd ref='-151573584' />
    <tag k='type' v='straight' />
  </way>
  <way id='-36820778' action='modify'>
    <nd ref='-151573584' />
    <nd ref='-151573585' />
  </way>
  <way id='-36820779' action='modify'>
    <nd ref='-151573585' />
    <nd ref='-151573586' />
    <tag k='type' v='straight' />
  </way>
  <way id='-36820780' action='modify'>
    <nd ref='-151573586' />
    <nd ref='-151573587' />
  </way>
  <way id='-36820781' action='modify'>
    <nd ref='-151573587' />
    <nd ref='-151573588' />
    <nd ref='-151573589' />
    <tag k='type' v='straight' />
  </way>
  <way id='-36820782' action='modify'>
    <nd ref='-151573589' />
    <nd ref='-151573590' />
  </way>
  <way id='-36820783' action='modify'>
    <nd ref='-151573590' />
    <nd ref='-151573591' />
    <tag k='type' v='straight' />
  </way>
  <way id='-36820784' action='modify'>
    <nd ref='-151573591' />
    <nd ref='-151573592' />
  </way>
  <way id='-36820785' action='modify'>
    <nd ref='-151573592' />
    <nd ref='-151573593' />
    <nd ref='-151573594' />
    <tag k='type' v='straight' />
  </way>
  <relation id='-14471258' action='modify'>
    <member type='way' ref='-36820775' role='' />
    <member type='way' ref='-36820776' role='' />
    <member type='way' ref='-36820777' role='' />
    <member type='way' ref='-36820778' role='' />
    <member type='way' ref='-36820779' role='' />
    <member type='way' ref='-36820780' role='' />
    <member type='way' ref='-36820781' role='' />
    <member type='way' ref='-36820782' role='' />
    <member type='way' ref='-36820783' role='' />
    <member type='way' ref='-36820784' role='' />
    <member type='way' ref='-36820785' role='' />
    <tag k='key' v='path.dk.sls' />
    <tag k='name' v='DK SLS' />
    <tag k='type' v='path' />
  </relation>
</osm>
