<?xml version='1.0' encoding='UTF-8'?>
<osm version='0.6' upload='false' generator='JOSM'>
  <node id='-184312587' action='modify' lat='54.91440300384' lon='9.7734855102' />
  <node id='-184312588' action='modify' lat='54.91447841699' lon='9.77218839696'>
    <tag k='name' v='son' />
  </node>
  <node id='-184312590' action='modify' lat='54.91309867926' lon='9.77878689229' />
  <node id='-184312592' action='modify' lat='54.91147669134' lon='9.780900473' />
  <node id='-184312593' action='modify' lat='54.91100333992' lon='9.78270694479' />
  <node id='-184312594' action='modify' lat='54.91113439805' lon='9.78450804815' />
  <node id='-184312595' action='modify' lat='54.91118749615' lon='9.78581330825' />
  <node id='-184312596' action='modify' lat='54.91117554262' lon='9.78763222222' />
  <node id='-184312597' action='modify' lat='54.91083730728' lon='9.78960413278' />
  <node id='-184312598' action='modify' lat='54.9105793766' lon='9.79035362292' />
  <node id='-184312599' action='modify' lat='54.91041183935' lon='9.7909727937' />
  <node id='-184312600' action='modify' lat='54.91029549445' lon='9.7915919417' />
  <node id='-184312601' action='modify' lat='54.91023365859' lon='9.79206514398' />
  <node id='-184312602' action='modify' lat='54.91021054627' lon='9.7924980217' />
  <node id='-184312603' action='modify' lat='54.91027249109' lon='9.79317962855' />
  <node id='-184312604' action='modify' lat='54.91037425575' lon='9.79383676976' />
  <node id='-184312605' action='modify' lat='54.91042194014' lon='9.79422497595'>
    <tag k='name' v='sob' />
  </node>
  <node id='-184312606' action='modify' lat='54.9104898971' lon='9.79477822512' />
  <node id='-184312607' action='modify' lat='54.91063175004' lon='9.79581087559' />
  <node id='-184312608' action='modify' lat='54.91076589312' lon='9.79658335179' />
  <node id='-184312609' action='modify' lat='54.91120378236' lon='9.79778498143' />
  <node id='-184312610' action='modify' lat='54.91389731315' lon='9.80198800296' />
  <node id='-184312611' action='modify' lat='54.91447392425' lon='9.80375826091' />
  <node id='-184312612' action='modify' lat='54.91813074135' lon='9.82141256064' />
  <node id='-184312613' action='modify' lat='54.9185546763' lon='9.82294946641' />
  <node id='-184312614' action='modify' lat='54.91905616198' lon='9.82443687631'>
    <tag k='name' v='sun' />
  </node>
  <node id='-184312615' action='modify' lat='54.9193794097' lon='9.82539564103' />
  <node id='-184312616' action='modify' lat='54.92056946402' lon='9.82762991846' />
  <node id='-184312617' action='modify' lat='54.92351361434' lon='9.83114361227' />
  <node id='-184312618' action='modify' lat='54.92450317041' lon='9.83285486162'>
    <tag k='name' v='spa' />
  </node>
  <node id='-184312619' action='modify' lat='54.92505805102' lon='9.83541905344' />
  <node id='-184312620' action='modify' lat='54.92553585875' lon='9.83880400121' />
  <node id='-184312621' action='modify' lat='54.92558055506' lon='9.84155326813' />
  <node id='-184312622' action='modify' lat='54.92548191146' lon='9.84332084388' />
  <node id='-184312623' action='modify' lat='54.92529695559' lon='9.84503074944' />
  <node id='-184312624' action='modify' lat='54.92366140159' lon='9.85509017868'>
    <tag k='name' v='vol' />
  </node>
  <node id='-184312625' action='modify' lat='54.92256410932' lon='9.86183881491' />
  <node id='-184312626' action='modify' lat='54.9239544507' lon='9.88014220119' />
  <node id='-184312627' action='modify' lat='54.92479294544' lon='9.88323210597' />
  <node id='-184312628' action='modify' lat='54.92553894444' lon='9.88869308352' />
  <node id='-184312629' action='modify' lat='54.92565608352' lon='9.89706157565' />
  <node id='-184312630' action='modify' lat='54.92548037169' lon='9.90027754962' />
  <node id='-184312631' action='modify' lat='54.92530356135' lon='9.90210071271'>
    <tag k='name' v='kir' />
  </node>
  <node id='-184312632' action='modify' lat='54.92527383586' lon='9.90240722358' />
  <node id='-184312633' action='modify' lat='54.9246388086' lon='9.90502774179' />
  <node id='-184312634' action='modify' lat='54.92446309541' lon='9.90562855661' />
  <node id='-184312635' action='modify' lat='54.92389587565' lon='9.90817129076' />
  <node id='-184312636' action='modify' lat='54.92275524648' lon='9.91538106858' />
  <node id='-184312637' action='modify' lat='54.9225671937' lon='9.91722106397' />
  <node id='-184312638' action='modify' lat='54.92242538283' lon='9.91947411954' />
  <node id='-184312639' action='modify' lat='54.92242846568' lon='9.92101370752' />
  <node id='-184312640' action='modify' lat='54.92318071046' lon='9.92680813122'>
    <tag k='name' v='maj' />
  </node>
  <node id='-184312641' action='modify' lat='54.92335331013' lon='9.92813765466' />
  <node id='-184312642' action='modify' lat='54.92353981785' lon='9.92968528926' />
  <node id='-184312643' action='modify' lat='54.92360455587' lon='9.9304094857' />
  <node id='-184312644' action='modify' lat='54.9237633177' lon='9.93182837427' />
  <node id='-184312645' action='modify' lat='54.9242164791' lon='9.93426382005' />
  <node id='-184312646' action='modify' lat='54.92436753177' lon='9.93889331281' />
  <node id='-184312647' action='modify' lat='54.92430587769' lon='9.94024514616' />
  <node id='-184312648' action='modify' lat='54.92445693002' lon='9.94323849142' />
  <node id='-184312649' action='modify' lat='54.92520601789' lon='9.94844734132' />
  <node id='-184312650' action='modify' lat='54.92542488455' lon='9.95032488763' />
  <node id='-184312651' action='modify' lat='54.92593043117' lon='9.95565175474' />
  <node id='-184312652' action='modify' lat='54.9258656969' lon='9.96111273229' />
  <node id='-184312653' action='modify' lat='54.92499787402' lon='9.96823681932'>
    <tag k='name' v='ota' />
  </node>
  <node id='-184312654' action='modify' lat='54.92296487805' lon='9.98492538393' />
  <node id='-184312655' action='modify' lat='54.92199686278' lon='9.98827010125' />
  <node id='-184312656' action='modify' lat='54.92179133569' lon='9.9887283857'>
    <tag k='name' v='nta' />
  </node>
  <node id='-184312657' action='modify' lat='54.92055096452' lon='9.99149411649' />
  <node id='-184312658' action='modify' lat='54.91916359479' lon='9.99411999643' />
  <node id='-184312659' action='modify' lat='54.91697453394' lon='9.99769269884' />
  <node id='-184312660' action='modify' lat='54.91540820325' lon='10.00126003683' />
  <node id='-184312661' action='modify' lat='54.91500119395' lon='10.00326096475' />
  <node id='-184312662' action='modify' lat='54.91477918715' lon='10.00450014532' />
  <node id='-184312663' action='modify' lat='54.91469116971' lon='10.00508988617'>
    <tag k='name' v='lmo' />
  </node>
  <node id='-184312664' action='modify' lat='54.91417791257' lon='10.00852882326' />
  <node id='-184312665' action='modify' lat='54.91393431672' lon='10.01000940263' />
  <node id='-184312666' action='modify' lat='54.91338544979' lon='10.01306175649' />
  <node id='-184312667' action='modify' lat='54.9131911861' lon='10.01491248071' />
  <node id='-184312668' action='modify' lat='54.91312026421' lon='10.01633941591' />
  <node id='-184312669' action='modify' lat='54.91296300216' lon='10.01741229951' />
  <node id='-184312670' action='modify' lat='54.91236170045' lon='10.02003013551' />
  <node id='-184312671' action='modify' lat='54.91196082765' lon='10.02309858263' />
  <node id='-184312672' action='modify' lat='54.91188681993' lon='10.02674638689' />
  <node id='-184312673' action='modify' lat='54.91208417356' lon='10.02940177381' />
  <node id='-184312674' action='modify' lat='54.91264409006' lon='10.03226521079'>
    <tag k='name' v='sar' />
  </node>
  <node id='-184312675' action='modify' lat='54.9126978138' lon='10.03253995836' />
  <node id='-184312676' action='modify' lat='54.91362442213' lon='10.03505319089' />
  <node id='-184312677' action='modify' lat='54.9147267687' lon='10.03668128908' />
  <node id='-184312678' action='modify' lat='54.91659837347' lon='10.03816186845' />
  <node id='-184312679' action='modify' lat='54.92226815714' lon='10.04054367006' />
  <node id='-184312680' action='modify' lat='54.92351361434' lon='10.04084944189' />
  <node id='-184312681' action='modify' lat='54.92571773245' lon='10.04098355234' />
  <node id='-184312682' action='modify' lat='54.92655618889' lon='10.0411578986'>
    <tag k='name' v='mof' />
  </node>
  <node id='-184312683' action='modify' lat='54.92766896981' lon='10.04184722364' />
  <node id='-184312684' action='modify' lat='54.9284919752' lon='10.04256605566' />
  <node id='-184312685' action='modify' lat='54.93023194273' lon='10.04333048791' />
  <node id='-184312686' action='modify' lat='54.93088229271' lon='10.04337608546' />
  <node id='-184312687' action='modify' lat='54.93238329732' lon='10.04302739829'>
    <tag k='name' v='mom' />
  </node>
  <node id='-184312688' action='modify' lat='54.93330174889' lon='10.04216372699' />
  <node id='-184312689' action='modify' lat='54.93345584945' lon='10.04192232817'>
    <tag k='name' v='mom.f' />
  </node>
  <way id='-39023076' action='modify'>
    <nd ref='-184312588' />
    <nd ref='-184312587' />
    <tag k='type' v='straight' />
  </way>
  <way id='-39023077' action='modify'>
    <nd ref='-184312587' />
    <nd ref='-184312590' />
  </way>
  <way id='-39023078' action='modify'>
    <nd ref='-184312590' />
    <nd ref='-184312592' />
    <tag k='type' v='straight' />
  </way>
  <way id='-39023079' action='modify'>
    <nd ref='-184312592' />
    <nd ref='-184312593' />
  </way>
  <way id='-39023080' action='modify'>
    <nd ref='-184312593' />
    <nd ref='-184312594' />
    <tag k='type' v='straight' />
  </way>
  <way id='-39023081' action='modify'>
    <nd ref='-184312594' />
    <nd ref='-184312595' />
  </way>
  <way id='-39023082' action='modify'>
    <nd ref='-184312595' />
    <nd ref='-184312596' />
    <tag k='type' v='straight' />
  </way>
  <way id='-39023083' action='modify'>
    <nd ref='-184312596' />
    <nd ref='-184312597' />
  </way>
  <way id='-39023084' action='modify'>
    <nd ref='-184312597' />
    <nd ref='-184312598' />
    <tag k='type' v='straight' />
  </way>
  <way id='-39023085' action='modify'>
    <nd ref='-184312598' />
    <nd ref='-184312599' />
  </way>
  <way id='-39023086' action='modify'>
    <nd ref='-184312599' />
    <nd ref='-184312600' />
    <tag k='type' v='straight' />
  </way>
  <way id='-39023087' action='modify'>
    <nd ref='-184312600' />
    <nd ref='-184312601' />
  </way>
  <way id='-39023088' action='modify'>
    <nd ref='-184312601' />
    <nd ref='-184312602' />
    <tag k='type' v='straight' />
  </way>
  <way id='-39023089' action='modify'>
    <nd ref='-184312602' />
    <nd ref='-184312603' />
    <nd ref='-184312604' />
  </way>
  <way id='-39023090' action='modify'>
    <nd ref='-184312604' />
    <nd ref='-184312605' />
    <nd ref='-184312606' />
    <tag k='type' v='straight' />
  </way>
  <way id='-39023091' action='modify'>
    <nd ref='-184312606' />
    <nd ref='-184312607' />
  </way>
  <way id='-39023092' action='modify'>
    <nd ref='-184312607' />
    <nd ref='-184312608' />
    <tag k='type' v='straight' />
  </way>
  <way id='-39023093' action='modify'>
    <nd ref='-184312608' />
    <nd ref='-184312609' />
  </way>
  <way id='-39023094' action='modify'>
    <nd ref='-184312609' />
    <nd ref='-184312610' />
    <tag k='type' v='straight' />
  </way>
  <way id='-39023095' action='modify'>
    <nd ref='-184312610' />
    <nd ref='-184312611' />
  </way>
  <way id='-39023096' action='modify'>
    <nd ref='-184312611' />
    <nd ref='-184312612' />
    <tag k='type' v='straight' />
  </way>
  <way id='-39023097' action='modify'>
    <nd ref='-184312612' />
    <nd ref='-184312613' />
  </way>
  <way id='-39023098' action='modify'>
    <nd ref='-184312613' />
    <nd ref='-184312614' />
    <nd ref='-184312615' />
    <tag k='type' v='straight' />
  </way>
  <way id='-39023099' action='modify'>
    <nd ref='-184312615' />
    <nd ref='-184312616' />
  </way>
  <way id='-39023100' action='modify'>
    <nd ref='-184312616' />
    <nd ref='-184312617' />
    <tag k='type' v='straight' />
  </way>
  <way id='-39023101' action='modify'>
    <nd ref='-184312617' />
    <nd ref='-184312618' />
    <nd ref='-184312619' />
  </way>
  <way id='-39023102' action='modify'>
    <nd ref='-184312619' />
    <nd ref='-184312620' />
    <tag k='type' v='straight' />
  </way>
  <way id='-39023103' action='modify'>
    <nd ref='-184312620' />
    <nd ref='-184312621' />
  </way>
  <way id='-39023104' action='modify'>
    <nd ref='-184312621' />
    <nd ref='-184312622' />
    <tag k='type' v='straight' />
  </way>
  <way id='-39023105' action='modify'>
    <nd ref='-184312622' />
    <nd ref='-184312623' />
  </way>
  <way id='-39023106' action='modify'>
    <nd ref='-184312623' />
    <nd ref='-184312624' />
    <nd ref='-184312625' />
    <tag k='type' v='straight' />
  </way>
  <way id='-39023107' action='modify'>
    <nd ref='-184312625' />
    <nd ref='-184312626' />
  </way>
  <way id='-39023108' action='modify'>
    <nd ref='-184312626' />
    <nd ref='-184312627' />
    <tag k='type' v='straight' />
  </way>
  <way id='-39023109' action='modify'>
    <nd ref='-184312627' />
    <nd ref='-184312628' />
  </way>
  <way id='-39023110' action='modify'>
    <nd ref='-184312628' />
    <nd ref='-184312629' />
    <tag k='type' v='straight' />
  </way>
  <way id='-39023111' action='modify'>
    <nd ref='-184312629' />
    <nd ref='-184312630' />
  </way>
  <way id='-39023112' action='modify'>
    <nd ref='-184312630' />
    <nd ref='-184312631' />
    <nd ref='-184312632' />
    <tag k='type' v='straight' />
  </way>
  <way id='-39023113' action='modify'>
    <nd ref='-184312632' />
    <nd ref='-184312633' />
  </way>
  <way id='-39023114' action='modify'>
    <nd ref='-184312633' />
    <nd ref='-184312634' />
    <tag k='type' v='straight' />
  </way>
  <way id='-39023115' action='modify'>
    <nd ref='-184312634' />
    <nd ref='-184312635' />
  </way>
  <way id='-39023116' action='modify'>
    <nd ref='-184312635' />
    <nd ref='-184312636' />
    <tag k='type' v='straight' />
  </way>
  <way id='-39023117' action='modify'>
    <nd ref='-184312636' />
    <nd ref='-184312637' />
  </way>
  <way id='-39023118' action='modify'>
    <nd ref='-184312637' />
    <nd ref='-184312638' />
    <tag k='type' v='straight' />
  </way>
  <way id='-39023119' action='modify'>
    <nd ref='-184312638' />
    <nd ref='-184312639' />
  </way>
  <way id='-39023120' action='modify'>
    <nd ref='-184312639' />
    <nd ref='-184312640' />
    <nd ref='-184312641' />
    <tag k='type' v='straight' />
  </way>
  <way id='-39023121' action='modify'>
    <nd ref='-184312641' />
    <nd ref='-184312642' />
  </way>
  <way id='-39023122' action='modify'>
    <nd ref='-184312642' />
    <nd ref='-184312643' />
    <tag k='type' v='straight' />
  </way>
  <way id='-39023123' action='modify'>
    <nd ref='-184312643' />
    <nd ref='-184312644' />
  </way>
  <way id='-39023124' action='modify'>
    <nd ref='-184312644' />
    <nd ref='-184312645' />
    <tag k='type' v='straight' />
  </way>
  <way id='-39023125' action='modify'>
    <nd ref='-184312645' />
    <nd ref='-184312646' />
  </way>
  <way id='-39023126' action='modify'>
    <nd ref='-184312646' />
    <nd ref='-184312647' />
    <tag k='type' v='straight' />
  </way>
  <way id='-39023127' action='modify'>
    <nd ref='-184312647' />
    <nd ref='-184312648' />
  </way>
  <way id='-39023128' action='modify'>
    <nd ref='-184312648' />
    <nd ref='-184312649' />
    <tag k='type' v='straight' />
  </way>
  <way id='-39023129' action='modify'>
    <nd ref='-184312649' />
    <nd ref='-184312650' />
  </way>
  <way id='-39023130' action='modify'>
    <nd ref='-184312650' />
    <nd ref='-184312651' />
    <tag k='type' v='straight' />
  </way>
  <way id='-39023131' action='modify'>
    <nd ref='-184312651' />
    <nd ref='-184312652' />
  </way>
  <way id='-39023132' action='modify'>
    <nd ref='-184312652' />
    <nd ref='-184312653' />
    <nd ref='-184312654' />
    <tag k='type' v='straight' />
  </way>
  <way id='-39023133' action='modify'>
    <nd ref='-184312654' />
    <nd ref='-184312655' />
  </way>
  <way id='-39023134' action='modify'>
    <nd ref='-184312655' />
    <nd ref='-184312656' />
    <nd ref='-184312657' />
    <tag k='type' v='straight' />
  </way>
  <way id='-39023135' action='modify'>
    <nd ref='-184312657' />
    <nd ref='-184312658' />
  </way>
  <way id='-39023136' action='modify'>
    <nd ref='-184312658' />
    <nd ref='-184312659' />
    <tag k='type' v='straight' />
  </way>
  <way id='-39023137' action='modify'>
    <nd ref='-184312659' />
    <nd ref='-184312660' />
  </way>
  <way id='-39023138' action='modify'>
    <nd ref='-184312660' />
    <nd ref='-184312661' />
    <tag k='type' v='straight' />
  </way>
  <way id='-39023139' action='modify'>
    <nd ref='-184312661' />
    <nd ref='-184312662' />
  </way>
  <way id='-39023140' action='modify'>
    <nd ref='-184312662' />
    <nd ref='-184312663' />
    <nd ref='-184312664' />
    <tag k='type' v='straight' />
  </way>
  <way id='-39023141' action='modify'>
    <nd ref='-184312664' />
    <nd ref='-184312665' />
  </way>
  <way id='-39023142' action='modify'>
    <nd ref='-184312665' />
    <nd ref='-184312666' />
    <tag k='type' v='straight' />
  </way>
  <way id='-39023143' action='modify'>
    <nd ref='-184312666' />
    <nd ref='-184312667' />
  </way>
  <way id='-39023144' action='modify'>
    <nd ref='-184312667' />
    <nd ref='-184312668' />
    <tag k='type' v='straight' />
  </way>
  <way id='-39023145' action='modify'>
    <nd ref='-184312668' />
    <nd ref='-184312669' />
  </way>
  <way id='-39023146' action='modify'>
    <nd ref='-184312669' />
    <nd ref='-184312670' />
    <tag k='type' v='straight' />
  </way>
  <way id='-39023147' action='modify'>
    <nd ref='-184312670' />
    <nd ref='-184312671' />
  </way>
  <way id='-39023148' action='modify'>
    <nd ref='-184312671' />
    <nd ref='-184312672' />
    <tag k='type' v='straight' />
  </way>
  <way id='-39023149' action='modify'>
    <nd ref='-184312672' />
    <nd ref='-184312673' />
  </way>
  <way id='-39023150' action='modify'>
    <nd ref='-184312673' />
    <nd ref='-184312674' />
    <nd ref='-184312675' />
    <tag k='type' v='straight' />
  </way>
  <way id='-39023151' action='modify'>
    <nd ref='-184312675' />
    <nd ref='-184312676' />
  </way>
  <way id='-39023152' action='modify'>
    <nd ref='-184312676' />
    <nd ref='-184312677' />
    <tag k='type' v='straight' />
  </way>
  <way id='-39023153' action='modify'>
    <nd ref='-184312677' />
    <nd ref='-184312678' />
  </way>
  <way id='-39023154' action='modify'>
    <nd ref='-184312678' />
    <nd ref='-184312679' />
    <tag k='type' v='straight' />
  </way>
  <way id='-39023155' action='modify'>
    <nd ref='-184312679' />
    <nd ref='-184312680' />
  </way>
  <way id='-39023156' action='modify'>
    <nd ref='-184312680' />
    <nd ref='-184312681' />
    <tag k='type' v='straight' />
  </way>
  <way id='-39023157' action='modify'>
    <nd ref='-184312681' />
    <nd ref='-184312682' />
    <nd ref='-184312683' />
  </way>
  <way id='-39023158' action='modify'>
    <nd ref='-184312683' />
    <nd ref='-184312684' />
    <tag k='type' v='straight' />
  </way>
  <way id='-39023159' action='modify'>
    <nd ref='-184312684' />
    <nd ref='-184312685' />
  </way>
  <way id='-39023160' action='modify'>
    <nd ref='-184312685' />
    <nd ref='-184312686' />
    <tag k='type' v='straight' />
  </way>
  <way id='-39023161' action='modify'>
    <nd ref='-184312686' />
    <nd ref='-184312687' />
    <nd ref='-184312688' />
  </way>
  <way id='-39023162' action='modify'>
    <nd ref='-184312688' />
    <nd ref='-184312689' />
    <tag k='type' v='straight' />
  </way>
  <relation id='-14493080' action='modify'>
    <member type='way' ref='-39023076' role='' />
    <member type='way' ref='-39023077' role='' />
    <member type='way' ref='-39023078' role='' />
    <member type='way' ref='-39023079' role='' />
    <member type='way' ref='-39023080' role='' />
    <member type='way' ref='-39023081' role='' />
    <member type='way' ref='-39023082' role='' />
    <member type='way' ref='-39023083' role='' />
    <member type='way' ref='-39023084' role='' />
    <member type='way' ref='-39023085' role='' />
    <member type='way' ref='-39023086' role='' />
    <member type='way' ref='-39023087' role='' />
    <member type='way' ref='-39023088' role='' />
    <member type='way' ref='-39023089' role='' />
    <member type='way' ref='-39023090' role='' />
    <member type='way' ref='-39023091' role='' />
    <member type='way' ref='-39023092' role='' />
    <member type='way' ref='-39023093' role='' />
    <member type='way' ref='-39023094' role='' />
    <member type='way' ref='-39023095' role='' />
    <member type='way' ref='-39023096' role='' />
    <member type='way' ref='-39023097' role='' />
    <member type='way' ref='-39023098' role='' />
    <member type='way' ref='-39023099' role='' />
    <member type='way' ref='-39023100' role='' />
    <member type='way' ref='-39023101' role='' />
    <member type='way' ref='-39023102' role='' />
    <member type='way' ref='-39023103' role='' />
    <member type='way' ref='-39023104' role='' />
    <member type='way' ref='-39023105' role='' />
    <member type='way' ref='-39023106' role='' />
    <member type='way' ref='-39023107' role='' />
    <member type='way' ref='-39023108' role='' />
    <member type='way' ref='-39023109' role='' />
    <member type='way' ref='-39023110' role='' />
    <member type='way' ref='-39023111' role='' />
    <member type='way' ref='-39023112' role='' />
    <member type='way' ref='-39023113' role='' />
    <member type='way' ref='-39023114' role='' />
    <member type='way' ref='-39023115' role='' />
    <member type='way' ref='-39023116' role='' />
    <member type='way' ref='-39023117' role='' />
    <member type='way' ref='-39023118' role='' />
    <member type='way' ref='-39023119' role='' />
    <member type='way' ref='-39023120' role='' />
    <member type='way' ref='-39023121' role='' />
    <member type='way' ref='-39023122' role='' />
    <member type='way' ref='-39023123' role='' />
    <member type='way' ref='-39023124' role='' />
    <member type='way' ref='-39023125' role='' />
    <member type='way' ref='-39023126' role='' />
    <member type='way' ref='-39023127' role='' />
    <member type='way' ref='-39023128' role='' />
    <member type='way' ref='-39023129' role='' />
    <member type='way' ref='-39023130' role='' />
    <member type='way' ref='-39023131' role='' />
    <member type='way' ref='-39023132' role='' />
    <member type='way' ref='-39023133' role='' />
    <member type='way' ref='-39023134' role='' />
    <member type='way' ref='-39023135' role='' />
    <member type='way' ref='-39023136' role='' />
    <member type='way' ref='-39023137' role='' />
    <member type='way' ref='-39023138' role='' />
    <member type='way' ref='-39023139' role='' />
    <member type='way' ref='-39023140' role='' />
    <member type='way' ref='-39023141' role='' />
    <member type='way' ref='-39023142' role='' />
    <member type='way' ref='-39023143' role='' />
    <member type='way' ref='-39023144' role='' />
    <member type='way' ref='-39023145' role='' />
    <member type='way' ref='-39023146' role='' />
    <member type='way' ref='-39023147' role='' />
    <member type='way' ref='-39023148' role='' />
    <member type='way' ref='-39023149' role='' />
    <member type='way' ref='-39023150' role='' />
    <member type='way' ref='-39023151' role='' />
    <member type='way' ref='-39023152' role='' />
    <member type='way' ref='-39023153' role='' />
    <member type='way' ref='-39023154' role='' />
    <member type='way' ref='-39023155' role='' />
    <member type='way' ref='-39023156' role='' />
    <member type='way' ref='-39023157' role='' />
    <member type='way' ref='-39023158' role='' />
    <member type='way' ref='-39023159' role='' />
    <member type='way' ref='-39023160' role='' />
    <member type='way' ref='-39023161' role='' />
    <member type='way' ref='-39023162' role='' />
    <tag k='key' v='path.dk.smm' />
    <tag k='name' v='DK SMM' />
    <tag k='type' v='path' />
  </relation>
</osm>
