<?xml version='1.0' encoding='UTF-8'?>
<osm version='0.6' upload='false' generator='JOSM'>
  <node id='-138233539' action='modify' lat='55.71527705463' lon='12.57997609433'>
    <tag k='name' v='sva' />
  </node>
  <node id='-138233540' action='modify' lat='55.71656942968' lon='12.57649993149'>
    <tag k='name' v='sva.yf' />
  </node>
  <node id='-138233541' action='modify' lat='55.71708548136' lon='12.57231294572' />
  <node id='-138233542' action='modify' lat='55.71716102297' lon='12.56635307729' />
  <node id='-138233543' action='modify' lat='55.71585593918' lon='12.55993192912'>
    <tag k='name' v='ryp' />
  </node>
  <node id='-138233544' action='modify' lat='55.7154658339' lon='12.55937128723' />
  <node id='-138233545' action='modify' lat='55.71456684014' lon='12.55807041585' />
  <node id='-138233546' action='modify' lat='55.71409720957' lon='12.55736991678' />
  <node id='-138233547' action='modify' lat='55.71168538568' lon='12.54957049951' />
  <node id='-138233548' action='modify' lat='55.71396850526' lon='12.54575907916' />
  <node id='-138233549' action='modify' lat='55.71433113264' lon='12.54563033313' />
  <node id='-138233550' action='modify' lat='55.71556706232' lon='12.54492759436' />
  <node id='-138233551' action='modify' lat='55.71919454695' lon='12.54217296571' />
  <node id='-138233552' action='modify' lat='55.72007530559' lon='12.54151314229' />
  <node id='-138233553' action='modify' lat='55.72095566669' lon='12.54088751704' />
  <node id='-138233554' action='modify' lat='55.72108709486' lon='12.54080034725'>
    <tag k='name' v='emd' />
  </node>
  <node id='-138233555' action='modify' lat='55.72260114473' lon='12.54001110524' />
  <node id='-138233556' action='modify' lat='55.73123168474' lon='12.53673771312' />
  <node id='-138233557' action='modify' lat='55.73270437797' lon='12.53585636348' />
  <node id='-138233558' action='modify' lat='55.73319675169' lon='12.53548883064'>
    <tag k='name' v='dys' />
  </node>
  <node id='-138233559' action='modify' lat='55.73353801583' lon='12.53523409098' />
  <node id='-138233560' action='modify' lat='55.73822236704' lon='12.52746104926' />
  <node id='-138233561' action='modify' lat='55.73884547309' lon='12.52559822823'>
    <tag k='name' v='van' />
  </node>
  <node id='-138233562' action='modify' lat='55.74080440926' lon='12.51974165171' />
  <node id='-138233563' action='modify' lat='55.74122114392' lon='12.51845150918' />
  <node id='-138233564' action='modify' lat='55.74427016646' lon='12.50927306111'>
    <tag k='name' v='kil' />
  </node>
  <node id='-138233565' action='modify' lat='55.74499722146' lon='12.50708430737' />
  <node id='-138233566' action='modify' lat='55.74613103026' lon='12.50214099616' />
  <node id='-138233567' action='modify' lat='55.74729385835' lon='12.49266093947'>
    <tag k='name' v='bud' />
  </node>
  <node id='-138233568' action='modify' lat='55.74784149437' lon='12.48819619149' />
  <node id='-138233569' action='modify' lat='55.75231733199' lon='12.47827470034' />
  <node id='-138233570' action='modify' lat='55.75313545658' lon='12.47760414809' />
  <node id='-138233571' action='modify' lat='55.75527578253' lon='12.4751982066' />
  <node id='-138233572' action='modify' lat='55.75741021255' lon='12.47193492792'>
    <tag k='name' v='ste' />
  </node>
  <node id='-138233573' action='modify' lat='55.75839851569' lon='12.47042387456' />
  <node id='-138233574' action='modify' lat='55.76074228791' lon='12.46323823661' />
  <node id='-138233575' action='modify' lat='55.76150286278' lon='12.45497385428'>
    <tag k='name' v='bag' />
  </node>
  <node id='-138233576' action='modify' lat='55.76159192714' lon='12.45400607318' />
  <node id='-138233577' action='modify' lat='55.76267243627' lon='12.44933098286' />
  <node id='-138233578' action='modify' lat='55.76464775893' lon='12.44446813792' />
  <node id='-138233579' action='modify' lat='55.76559992226' lon='12.43632495135' />
  <node id='-138233580' action='modify' lat='55.76541705069' lon='12.43524575845'>
    <tag k='name' v='sko' />
  </node>
  <node id='-138233581' action='modify' lat='55.76510950823' lon='12.43343084782' />
  <node id='-138233582' action='modify' lat='55.7643640671' lon='12.43067621917' />
  <node id='-138233583' action='modify' lat='55.76335754805' lon='12.42796718806' />
  <node id='-138233584' action='modify' lat='55.76262867321' lon='12.42615937918' />
  <node id='-138233585' action='modify' lat='55.7620386217' lon='12.42481559247' />
  <node id='-138233586' action='modify' lat='55.76239023915' lon='12.41383731097' />
  <node id='-138233587' action='modify' lat='55.76526285107' lon='12.40787839418'>
    <tag k='name' v='har' />
  </node>
  <node id='-138233588' action='modify' lat='55.76746645859' lon='12.4033069557' />
  <node id='-138233589' action='modify' lat='55.76903549836' lon='12.39989946672' />
  <node id='-138233590' action='modify' lat='55.77313492403' lon='12.39138453931' />
  <node id='-138233591' action='modify' lat='55.77485476431' lon='12.38827854127' />
  <node id='-138233592' action='modify' lat='55.77582327254' lon='12.38678723305' />
  <node id='-138233593' action='modify' lat='55.77640800825' lon='12.38592332649'>
    <tag k='name' v='syv' />
  </node>
  <node id='-138233594' action='modify' lat='55.77666353199' lon='12.38557219237' />
  <node id='-138233595' action='modify' lat='55.77758674052' lon='12.38434910506' />
  <node id='-138233596' action='modify' lat='55.78025517291' lon='12.37885325879' />
  <node id='-138233597' action='modify' lat='55.78256014817' lon='12.3717284744'>
    <tag k='name' v='var' />
  </node>
  <node id='-138233598' action='modify' lat='55.78407573621' lon='12.3670434925' />
  <node id='-138233599' action='modify' lat='55.78990616196' lon='12.36027091473' />
  <node id='-138233600' action='modify' lat='55.79372125534' lon='12.36541002721' />
  <node id='-138233601' action='modify' lat='55.79483856964' lon='12.36916243762' />
  <node id='-138233602' action='modify' lat='55.79865921062' lon='12.37567484111' />
  <node id='-138233603' action='modify' lat='55.80240560777' lon='12.37853139371' />
  <node id='-138233605' action='modify' lat='55.80545089318' lon='12.379586505'>
    <tag k='name' v='fur' />
  </node>
  <node id='-138233606' action='modify' lat='55.8076605084' lon='12.37820751898' />
  <node id='-138233607' action='modify' lat='55.81111644333' lon='12.37467629657'>
    <tag k='name' v='far' />
  </node>
  <node id='-138233608' action='modify' lat='55.8122417641' lon='12.37352639303' />
  <node id='-138233609' action='modify' lat='55.81568771476' lon='12.36264466703' />
  <node id='-138233610' action='modify' lat='55.81548577388' lon='12.35935091436' />
  <node id='-138233611' action='modify' lat='55.81958768099' lon='12.34227060735' />
  <node id='-138233612' action='modify' lat='55.82126328058' lon='12.34005510271' />
  <node id='-138233613' action='modify' lat='55.82435210449' lon='12.33245371699' />
  <node id='-138233614' action='modify' lat='55.82611186937' lon='12.32388137698' />
  <node id='-138233615' action='modify' lat='55.82833556798' lon='12.31681643844' />
  <node id='-138233616' action='modify' lat='55.83080069382' lon='12.31188679145'>
    <tag k='name' v='vas' />
  </node>
  <node id='-138233617' action='modify' lat='55.83163773676' lon='12.31021283984' />
  <node id='-138233618' action='modify' lat='55.83431300797' lon='12.30050324857' />
  <node id='-138233619' action='modify' lat='55.83531016333' lon='12.28930770814' />
  <node id='-138233620' action='modify' lat='55.83539150116' lon='12.28792368829' />
  <node id='-138233621' action='modify' lat='55.83553039949' lon='12.27665364729'>
    <tag k='name' v='lyn' />
  </node>
  <node id='-138233622' action='modify' lat='55.83559936372' lon='12.27105795801' />
  <node id='-138233623' action='modify' lat='55.83535535103' lon='12.26640700758' />
  <node id='-138233624' action='modify' lat='55.83513844958' lon='12.26487814844' />
  <node id='-138233625' action='modify' lat='55.83599550302' lon='12.25629240006' />
  <node id='-138233626' action='modify' lat='55.83715227131' lon='12.25387841195' />
  <node id='-138233627' action='modify' lat='55.838509323' lon='12.24778174818' />
  <node id='-138233628' action='modify' lat='55.83856354378' lon='12.24496006429' />
  <node id='-138233629' action='modify' lat='55.83937684636' lon='12.23991751134' />
  <node id='-138233630' action='modify' lat='55.83960944901' lon='12.23925507278'>
    <tag k='name' v='ugg' />
  </node>
  <node id='-138233631' action='modify' lat='55.84009073127' lon='12.23788439691' />
  <node id='-138233632' action='modify' lat='55.84074737634' lon='12.23611949801' />
  <node id='-138233633' action='modify' lat='55.843187096' lon='12.23018645167' />
  <node id='-138233634' action='modify' lat='55.84365695035' lon='12.22867368579' />
  <node id='-138233635' action='modify' lat='55.84617930883' lon='12.21778409354'>
    <tag k='name' v='lin' />
  </node>
  <node id='-138233636' action='modify' lat='55.8463856076' lon='12.2168934238' />
  <node id='-138233637' action='modify' lat='55.84677109782' lon='12.21099256396' />
  <node id='-138233638' action='modify' lat='55.84616876768' lon='12.2066903007' />
  <node id='-138233639' action='modify' lat='55.84594590316' lon='12.19915865779' />
  <node id='-138233640' action='modify' lat='55.84638259293' lon='12.19352602422' />
  <node id='-138233641' action='modify' lat='55.84616876466' lon='12.18771099508' />
  <node id='-138233642' action='modify' lat='55.84537702416' lon='12.18268731095' />
  <node id='-138233643' action='modify' lat='55.84500737246' lon='12.17960684516' />
  <node id='-138233644' action='modify' lat='55.84433306831' lon='12.17561719471'>
    <tag k='name' v='sla' />
  </node>
  <way id='-36035364' action='modify'>
    <nd ref='-138233539' />
    <nd ref='-138233540' />
    <tag k='type' v='straight' />
  </way>
  <way id='-36035365' action='modify'>
    <nd ref='-138233540' />
    <nd ref='-138233541' />
  </way>
  <way id='-36035366' action='modify'>
    <nd ref='-138233541' />
    <nd ref='-138233542' />
    <tag k='type' v='straight' />
  </way>
  <way id='-36035367' action='modify'>
    <nd ref='-138233542' />
    <nd ref='-138233543' />
  </way>
  <way id='-36035368' action='modify'>
    <nd ref='-138233543' />
    <nd ref='-138233544' />
    <tag k='type' v='straight' />
  </way>
  <way id='-36035369' action='modify'>
    <nd ref='-138233544' />
    <nd ref='-138233545' />
  </way>
  <way id='-36035370' action='modify'>
    <nd ref='-138233545' />
    <nd ref='-138233546' />
    <tag k='type' v='straight' />
  </way>
  <way id='-36035371' action='modify'>
    <nd ref='-138233546' />
    <nd ref='-138233547' />
    <nd ref='-138233548' />
  </way>
  <way id='-36035372' action='modify'>
    <nd ref='-138233548' />
    <nd ref='-138233549' />
    <tag k='type' v='straight' />
  </way>
  <way id='-36035373' action='modify'>
    <nd ref='-138233549' />
    <nd ref='-138233550' />
  </way>
  <way id='-36035374' action='modify'>
    <nd ref='-138233550' />
    <nd ref='-138233551' />
    <tag k='type' v='straight' />
  </way>
  <way id='-36035375' action='modify'>
    <nd ref='-138233551' />
    <nd ref='-138233552' />
  </way>
  <way id='-36035376' action='modify'>
    <nd ref='-138233552' />
    <nd ref='-138233553' />
    <tag k='type' v='straight' />
  </way>
  <way id='-36035377' action='modify'>
    <nd ref='-138233553' />
    <nd ref='-138233554' />
    <nd ref='-138233555' />
  </way>
  <way id='-36035378' action='modify'>
    <nd ref='-138233555' />
    <nd ref='-138233556' />
    <tag k='type' v='straight' />
  </way>
  <way id='-36035379' action='modify'>
    <nd ref='-138233556' />
    <nd ref='-138233557' />
  </way>
  <way id='-36035380' action='modify'>
    <nd ref='-138233557' />
    <nd ref='-138233558' />
    <nd ref='-138233559' />
    <tag k='type' v='straight' />
  </way>
  <way id='-36035381' action='modify'>
    <nd ref='-138233559' />
    <nd ref='-138233560' />
  </way>
  <way id='-36035382' action='modify'>
    <nd ref='-138233560' />
    <nd ref='-138233561' />
    <nd ref='-138233562' />
    <tag k='type' v='straight' />
  </way>
  <way id='-36035383' action='modify'>
    <nd ref='-138233562' />
    <nd ref='-138233563' />
  </way>
  <way id='-36035384' action='modify'>
    <nd ref='-138233563' />
    <nd ref='-138233564' />
    <nd ref='-138233565' />
    <tag k='type' v='straight' />
  </way>
  <way id='-36035385' action='modify'>
    <nd ref='-138233565' />
    <nd ref='-138233566' />
  </way>
  <way id='-36035386' action='modify'>
    <nd ref='-138233566' />
    <nd ref='-138233567' />
    <nd ref='-138233568' />
    <tag k='type' v='straight' />
  </way>
  <way id='-36035387' action='modify'>
    <nd ref='-138233568' />
    <nd ref='-138233569' />
  </way>
  <way id='-36035388' action='modify'>
    <nd ref='-138233569' />
    <nd ref='-138233570' />
    <tag k='type' v='straight' />
  </way>
  <way id='-36035389' action='modify'>
    <nd ref='-138233570' />
    <nd ref='-138233571' />
  </way>
  <way id='-36035390' action='modify'>
    <nd ref='-138233571' />
    <nd ref='-138233572' />
    <nd ref='-138233573' />
    <tag k='type' v='straight' />
  </way>
  <way id='-36035391' action='modify'>
    <nd ref='-138233573' />
    <nd ref='-138233574' />
  </way>
  <way id='-36035392' action='modify'>
    <nd ref='-138233574' />
    <nd ref='-138233575' />
    <nd ref='-138233576' />
    <tag k='type' v='straight' />
  </way>
  <way id='-36035393' action='modify'>
    <nd ref='-138233576' />
    <nd ref='-138233577' />
  </way>
  <way id='-36035394' action='modify'>
    <nd ref='-138233577' />
    <nd ref='-138233578' />
    <tag k='type' v='straight' />
  </way>
  <way id='-36035395' action='modify'>
    <nd ref='-138233578' />
    <nd ref='-138233579' />
  </way>
  <way id='-36035396' action='modify'>
    <nd ref='-138233579' />
    <nd ref='-138233580' />
    <nd ref='-138233581' />
    <tag k='type' v='straight' />
  </way>
  <way id='-36035397' action='modify'>
    <nd ref='-138233581' />
    <nd ref='-138233582' />
  </way>
  <way id='-36035398' action='modify'>
    <nd ref='-138233582' />
    <nd ref='-138233583' />
    <tag k='type' v='straight' />
  </way>
  <way id='-36035399' action='modify'>
    <nd ref='-138233583' />
    <nd ref='-138233584' />
  </way>
  <way id='-36035400' action='modify'>
    <nd ref='-138233584' />
    <nd ref='-138233585' />
    <tag k='type' v='straight' />
  </way>
  <way id='-36035401' action='modify'>
    <nd ref='-138233585' />
    <nd ref='-138233586' />
  </way>
  <way id='-36035402' action='modify'>
    <nd ref='-138233586' />
    <nd ref='-138233587' />
    <nd ref='-138233588' />
    <tag k='type' v='straight' />
  </way>
  <way id='-36035403' action='modify'>
    <nd ref='-138233588' />
    <nd ref='-138233589' />
  </way>
  <way id='-36035404' action='modify'>
    <nd ref='-138233589' />
    <nd ref='-138233590' />
    <tag k='type' v='straight' />
  </way>
  <way id='-36035405' action='modify'>
    <nd ref='-138233590' />
    <nd ref='-138233591' />
  </way>
  <way id='-36035406' action='modify'>
    <nd ref='-138233591' />
    <nd ref='-138233592' />
    <tag k='type' v='straight' />
  </way>
  <way id='-36035407' action='modify'>
    <nd ref='-138233592' />
    <nd ref='-138233593' />
    <nd ref='-138233594' />
  </way>
  <way id='-36035408' action='modify'>
    <nd ref='-138233594' />
    <nd ref='-138233595' />
    <tag k='type' v='straight' />
  </way>
  <way id='-36035409' action='modify'>
    <nd ref='-138233595' />
    <nd ref='-138233596' />
  </way>
  <way id='-36035410' action='modify'>
    <nd ref='-138233596' />
    <nd ref='-138233597' />
    <nd ref='-138233598' />
    <tag k='type' v='straight' />
  </way>
  <way id='-36035411' action='modify'>
    <nd ref='-138233598' />
    <nd ref='-138233599' />
    <nd ref='-138233600' />
  </way>
  <way id='-36035412' action='modify'>
    <nd ref='-138233600' />
    <nd ref='-138233601' />
    <tag k='type' v='straight' />
  </way>
  <way id='-36035413' action='modify'>
    <nd ref='-138233601' />
    <nd ref='-138233602' />
  </way>
  <way id='-36035414' action='modify'>
    <nd ref='-138233602' />
    <nd ref='-138233603' />
    <tag k='type' v='straight' />
  </way>
  <way id='-36035415' action='modify'>
    <nd ref='-138233603' />
    <nd ref='-138233605' />
    <nd ref='-138233606' />
  </way>
  <way id='-36035416' action='modify'>
    <nd ref='-138233606' />
    <nd ref='-138233607' />
    <nd ref='-138233608' />
    <tag k='type' v='straight' />
  </way>
  <way id='-36035417' action='modify'>
    <nd ref='-138233608' />
    <nd ref='-138233609' />
  </way>
  <way id='-36035418' action='modify'>
    <nd ref='-138233609' />
    <nd ref='-138233610' />
    <tag k='type' v='straight' />
  </way>
  <way id='-36035419' action='modify'>
    <nd ref='-138233610' />
    <nd ref='-138233611' />
  </way>
  <way id='-36035420' action='modify'>
    <nd ref='-138233611' />
    <nd ref='-138233612' />
    <tag k='type' v='straight' />
  </way>
  <way id='-36035421' action='modify'>
    <nd ref='-138233612' />
    <nd ref='-138233613' />
  </way>
  <way id='-36035422' action='modify'>
    <nd ref='-138233613' />
    <nd ref='-138233614' />
    <tag k='type' v='straight' />
  </way>
  <way id='-36035423' action='modify'>
    <nd ref='-138233614' />
    <nd ref='-138233615' />
  </way>
  <way id='-36035424' action='modify'>
    <nd ref='-138233615' />
    <nd ref='-138233616' />
    <nd ref='-138233617' />
    <tag k='type' v='straight' />
  </way>
  <way id='-36035425' action='modify'>
    <nd ref='-138233617' />
    <nd ref='-138233618' />
  </way>
  <way id='-36035426' action='modify'>
    <nd ref='-138233618' />
    <nd ref='-138233619' />
    <tag k='type' v='straight' />
  </way>
  <way id='-36035427' action='modify'>
    <nd ref='-138233619' />
    <nd ref='-138233620' />
  </way>
  <way id='-36035428' action='modify'>
    <nd ref='-138233620' />
    <nd ref='-138233621' />
    <nd ref='-138233622' />
    <tag k='type' v='straight' />
  </way>
  <way id='-36035429' action='modify'>
    <nd ref='-138233622' />
    <nd ref='-138233623' />
  </way>
  <way id='-36035430' action='modify'>
    <nd ref='-138233623' />
    <nd ref='-138233624' />
    <tag k='type' v='straight' />
  </way>
  <way id='-36035431' action='modify'>
    <nd ref='-138233624' />
    <nd ref='-138233625' />
  </way>
  <way id='-36035432' action='modify'>
    <nd ref='-138233625' />
    <nd ref='-138233626' />
    <tag k='type' v='straight' />
  </way>
  <way id='-36035433' action='modify'>
    <nd ref='-138233626' />
    <nd ref='-138233627' />
  </way>
  <way id='-36035434' action='modify'>
    <nd ref='-138233627' />
    <nd ref='-138233628' />
    <tag k='type' v='straight' />
  </way>
  <way id='-36035435' action='modify'>
    <nd ref='-138233628' />
    <nd ref='-138233629' />
  </way>
  <way id='-36035436' action='modify'>
    <nd ref='-138233629' />
    <nd ref='-138233630' />
    <nd ref='-138233631' />
    <tag k='type' v='straight' />
  </way>
  <way id='-36035437' action='modify'>
    <nd ref='-138233631' />
    <nd ref='-138233632' />
  </way>
  <way id='-36035438' action='modify'>
    <nd ref='-138233632' />
    <nd ref='-138233633' />
    <tag k='type' v='straight' />
  </way>
  <way id='-36035439' action='modify'>
    <nd ref='-138233633' />
    <nd ref='-138233634' />
  </way>
  <way id='-36035440' action='modify'>
    <nd ref='-138233634' />
    <nd ref='-138233635' />
    <nd ref='-138233636' />
    <tag k='type' v='straight' />
  </way>
  <way id='-36035441' action='modify'>
    <nd ref='-138233636' />
    <nd ref='-138233637' />
  </way>
  <way id='-36035442' action='modify'>
    <nd ref='-138233637' />
    <nd ref='-138233638' />
    <tag k='type' v='straight' />
  </way>
  <way id='-36035443' action='modify'>
    <nd ref='-138233638' />
    <nd ref='-138233639' />
  </way>
  <way id='-36035444' action='modify'>
    <nd ref='-138233639' />
    <nd ref='-138233640' />
    <tag k='type' v='straight' />
  </way>
  <way id='-36035445' action='modify'>
    <nd ref='-138233640' />
    <nd ref='-138233641' />
  </way>
  <way id='-36035446' action='modify'>
    <nd ref='-138233641' />
    <nd ref='-138233642' />
    <tag k='type' v='straight' />
  </way>
  <way id='-36035447' action='modify'>
    <nd ref='-138233642' />
    <nd ref='-138233643' />
  </way>
  <way id='-36035448' action='modify'>
    <nd ref='-138233643' />
    <nd ref='-138233644' />
    <tag k='type' v='straight' />
  </way>
  <relation id='-14457028' action='modify'>
    <member type='way' ref='-36035364' role='' />
    <member type='way' ref='-36035365' role='' />
    <member type='way' ref='-36035366' role='' />
    <member type='way' ref='-36035367' role='' />
    <member type='way' ref='-36035368' role='' />
    <member type='way' ref='-36035369' role='' />
    <member type='way' ref='-36035370' role='' />
    <member type='way' ref='-36035371' role='' />
    <member type='way' ref='-36035372' role='' />
    <member type='way' ref='-36035373' role='' />
    <member type='way' ref='-36035374' role='' />
    <member type='way' ref='-36035375' role='' />
    <member type='way' ref='-36035376' role='' />
    <member type='way' ref='-36035377' role='' />
    <member type='way' ref='-36035378' role='' />
    <member type='way' ref='-36035379' role='' />
    <member type='way' ref='-36035380' role='' />
    <member type='way' ref='-36035381' role='' />
    <member type='way' ref='-36035382' role='' />
    <member type='way' ref='-36035383' role='' />
    <member type='way' ref='-36035384' role='' />
    <member type='way' ref='-36035385' role='' />
    <member type='way' ref='-36035386' role='' />
    <member type='way' ref='-36035387' role='' />
    <member type='way' ref='-36035388' role='' />
    <member type='way' ref='-36035389' role='' />
    <member type='way' ref='-36035390' role='' />
    <member type='way' ref='-36035391' role='' />
    <member type='way' ref='-36035392' role='' />
    <member type='way' ref='-36035393' role='' />
    <member type='way' ref='-36035394' role='' />
    <member type='way' ref='-36035395' role='' />
    <member type='way' ref='-36035396' role='' />
    <member type='way' ref='-36035397' role='' />
    <member type='way' ref='-36035398' role='' />
    <member type='way' ref='-36035399' role='' />
    <member type='way' ref='-36035400' role='' />
    <member type='way' ref='-36035401' role='' />
    <member type='way' ref='-36035402' role='' />
    <member type='way' ref='-36035403' role='' />
    <member type='way' ref='-36035404' role='' />
    <member type='way' ref='-36035405' role='' />
    <member type='way' ref='-36035406' role='' />
    <member type='way' ref='-36035407' role='' />
    <member type='way' ref='-36035408' role='' />
    <member type='way' ref='-36035409' role='' />
    <member type='way' ref='-36035410' role='' />
    <member type='way' ref='-36035411' role='' />
    <member type='way' ref='-36035412' role='' />
    <member type='way' ref='-36035413' role='' />
    <member type='way' ref='-36035414' role='' />
    <member type='way' ref='-36035415' role='' />
    <member type='way' ref='-36035416' role='' />
    <member type='way' ref='-36035417' role='' />
    <member type='way' ref='-36035418' role='' />
    <member type='way' ref='-36035419' role='' />
    <member type='way' ref='-36035420' role='' />
    <member type='way' ref='-36035421' role='' />
    <member type='way' ref='-36035422' role='' />
    <member type='way' ref='-36035423' role='' />
    <member type='way' ref='-36035424' role='' />
    <member type='way' ref='-36035425' role='' />
    <member type='way' ref='-36035426' role='' />
    <member type='way' ref='-36035427' role='' />
    <member type='way' ref='-36035428' role='' />
    <member type='way' ref='-36035429' role='' />
    <member type='way' ref='-36035430' role='' />
    <member type='way' ref='-36035431' role='' />
    <member type='way' ref='-36035432' role='' />
    <member type='way' ref='-36035433' role='' />
    <member type='way' ref='-36035434' role='' />
    <member type='way' ref='-36035435' role='' />
    <member type='way' ref='-36035436' role='' />
    <member type='way' ref='-36035437' role='' />
    <member type='way' ref='-36035438' role='' />
    <member type='way' ref='-36035439' role='' />
    <member type='way' ref='-36035440' role='' />
    <member type='way' ref='-36035441' role='' />
    <member type='way' ref='-36035442' role='' />
    <member type='way' ref='-36035443' role='' />
    <member type='way' ref='-36035444' role='' />
    <member type='way' ref='-36035445' role='' />
    <member type='way' ref='-36035446' role='' />
    <member type='way' ref='-36035447' role='' />
    <member type='way' ref='-36035448' role='' />
    <tag k='key' v='path.dk.sms' />
    <tag k='name' v='DK SMS' />
    <tag k='type' v='path' />
  </relation>
</osm>
