<?xml version='1.0' encoding='UTF-8'?>
<osm version='0.6' upload='false' generator='JOSM'>
  <node id='-148546073' action='modify' lat='55.0588920016' lon='10.61205485336'>
    <tag k='name' v='sve' />
  </node>
  <node id='-148546074' action='modify' lat='55.05907623843' lon='10.61211772196' />
  <node id='-148546075' action='modify' lat='55.05943493618' lon='10.61225384407' />
  <node id='-148546076' action='modify' lat='55.06154432476' lon='10.61307846846' />
  <node id='-148546077' action='modify' lat='55.06309585619' lon='10.61500309825' />
  <node id='-148546078' action='modify' lat='55.06357509512' lon='10.61739562869' />
  <node id='-148546079' action='modify' lat='55.06274870851' lon='10.62151014268' />
  <node id='-148546080' action='modify' lat='55.0620636267' lon='10.62339305341' />
  <node id='-148546081' action='modify' lat='55.0613969648' lon='10.62607526511' />
  <node id='-148546082' action='modify' lat='55.06111585813' lon='10.62789916724' />
  <node id='-148546083' action='modify' lat='55.06100986812' lon='10.63144504488' />
  <node id='-148546084' action='modify' lat='55.06119112886' lon='10.63361226976' />
  <node id='-148546085' action='modify' lat='55.06118498444' lon='10.63575267255' />
  <node id='-148546086' action='modify' lat='55.06090538092' lon='10.63853309262'>
    <tag k='name' v='chr' />
  </node>
  <node id='-148546087' action='modify' lat='55.06040924403' lon='10.64346670568' />
  <node id='-148546088' action='modify' lat='55.0612587174' lon='10.65067111909' />
  <node id='-148546089' action='modify' lat='55.0654735591' lon='10.66326677263' />
  <node id='-148546090' action='modify' lat='55.06607257128' lon='10.66535353124' />
  <node id='-148546091' action='modify' lat='55.06630910182' lon='10.6663244909' />
  <node id='-148546092' action='modify' lat='55.06951287784' lon='10.6702512449' />
  <node id='-148546093' action='modify' lat='55.07087970326' lon='10.6705194658' />
  <node id='-148546094' action='modify' lat='55.07172741871' lon='10.67056238115' />
  <node id='-148546095' action='modify' lat='55.07336709626' lon='10.67042641523'>
    <tag k='name' v='hol' />
  </node>
  <node id='-148546096' action='modify' lat='55.07480023668' lon='10.67030757129' />
  <node id='-148546097' action='modify' lat='55.07742446057' lon='10.67209124029' />
  <node id='-148546098' action='modify' lat='55.08993423169' lon='10.69029353485'>
    <tag k='name' v='ska' />
  </node>
  <node id='-148546099' action='modify' lat='55.09086994708' lon='10.69165527284' />
  <node id='-148546100' action='modify' lat='55.0925890713' lon='10.69338797987' />
  <node id='-148546101' action='modify' lat='55.0950693917' lon='10.69484173715' />
  <node id='-148546102' action='modify' lat='55.09611611441' lon='10.69560348451' />
  <node id='-148546103' action='modify' lat='55.10153039487' lon='10.69980382383' />
  <node id='-148546104' action='modify' lat='55.1027641589' lon='10.70106446207' />
  <node id='-148546105' action='modify' lat='55.10801183407' lon='10.70808648527' />
  <node id='-148546106' action='modify' lat='55.11009167565' lon='10.71014582443'>
    <tag k='name' v='vej' />
  </node>
  <node id='-148546107' action='modify' lat='55.11143319263' lon='10.71098863542' />
  <node id='-148546108' action='modify' lat='55.11517333821' lon='10.71304320753' />
  <node id='-148546109' action='modify' lat='55.1182873022' lon='10.71440576971' />
  <node id='-148546110' action='modify' lat='55.12484574697' lon='10.71899515274'>
    <tag k='name' v='our' />
  </node>
  <node id='-148546111' action='modify' lat='55.12632112842' lon='10.7200276798' />
  <node id='-148546112' action='modify' lat='55.13163011279' lon='10.72113811433' />
  <node id='-148546113' action='modify' lat='55.13244587335' lon='10.72091817319' />
  <node id='-148546114' action='modify' lat='55.1372358333' lon='10.716326226' />
  <node id='-148546115' action='modify' lat='55.14024689478' lon='10.71065067172' />
  <node id='-148546116' action='modify' lat='55.14084938183' lon='10.70929884642' />
  <node id='-148546117' action='modify' lat='55.14118205144' lon='10.70803820819' />
  <node id='-148546118' action='modify' lat='55.14951475181' lon='10.70255040586' />
  <node id='-148546119' action='modify' lat='55.15024125124' lon='10.70299028814' />
  <node id='-148546120' action='modify' lat='55.15318083327' lon='10.70329605997'>
    <tag k='name' v='gud' />
  </node>
  <node id='-148546121' action='modify' lat='55.1545356042' lon='10.70251017272' />
  <node id='-148546122' action='modify' lat='55.15547656055' lon='10.70189058244' />
  <node id='-148546123' action='modify' lat='55.16231698308' lon='10.70832788408' />
  <node id='-148546124' action='modify' lat='55.16586851391' lon='10.72593926847' />
  <node id='-148546125' action='modify' lat='55.16937530037' lon='10.73179453343'>
    <tag k='name' v='hes' />
  </node>
  <node id='-148546126' action='modify' lat='55.17224760485' lon='10.73234974802' />
  <node id='-148546127' action='modify' lat='55.18155704247' lon='10.73024152637' />
  <node id='-148546128' action='modify' lat='55.18431974015' lon='10.72994111896' />
  <node id='-148546129' action='modify' lat='55.19155483067' lon='10.73115884721'>
    <tag k='name' v='ryg' />
  </node>
  <node id='-148546130' action='modify' lat='55.19619072318' lon='10.72879850596' />
  <node id='-148546131' action='modify' lat='55.19816096938' lon='10.72542964876' />
  <node id='-148546132' action='modify' lat='55.2024118941' lon='10.72335630387' />
  <node id='-148546133' action='modify' lat='55.2043892553' lon='10.72410105648'>
    <tag k='name' v='glo' />
  </node>
  <node id='-148546134' action='modify' lat='55.21503647604' lon='10.72811185777' />
  <node id='-148546135' action='modify' lat='55.21865369112' lon='10.72888165444'>
    <tag k='name' v='oks' />
  </node>
  <node id='-148546136' action='modify' lat='55.22330173416' lon='10.72864292979' />
  <node id='-148546137' action='modify' lat='55.23003262447' lon='10.72753785968' />
  <node id='-148546138' action='modify' lat='55.23248299459' lon='10.72890579164' />
  <node id='-148546139' action='modify' lat='55.23310703556' lon='10.72952269971' />
  <node id='-148546140' action='modify' lat='55.23536451372' lon='10.73076188028' />
  <node id='-148546141' action='modify' lat='55.23858694104' lon='10.73192833301'>
    <tag k='name' v='fro' />
  </node>
  <node id='-148546142' action='modify' lat='55.24167743395' lon='10.73304711699' />
  <node id='-148546143' action='modify' lat='55.24267749433' lon='10.73317855328' />
  <node id='-148546144' action='modify' lat='55.2471117347' lon='10.73353527904' />
  <node id='-148546145' action='modify' lat='55.24895255872' lon='10.73437749803' />
  <node id='-148546146' action='modify' lat='55.25244133428' lon='10.7371938175' />
  <node id='-148546147' action='modify' lat='55.25370100972' lon='10.738534922' />
  <node id='-148546148' action='modify' lat='55.25426662769' lon='10.73924302518' />
  <node id='-148546149' action='modify' lat='55.25659628044' lon='10.74091671824'>
    <tag k='name' v='slu' />
  </node>
  <node id='-148546150' action='modify' lat='55.26179622318' lon='10.74238657415' />
  <node id='-148546151' action='modify' lat='55.26622832635' lon='10.74033736646' />
  <node id='-148546152' action='modify' lat='55.26677542756' lon='10.73966144979' />
  <node id='-148546153' action='modify' lat='55.26868869431' lon='10.73810576856' />
  <node id='-148546154' action='modify' lat='55.27531412304' lon='10.73578833461' />
  <node id='-148546155' action='modify' lat='55.27761808956' lon='10.73537260026'>
    <tag k='name' v='kog' />
  </node>
  <node id='-148546156' action='modify' lat='55.28033746361' lon='10.73588489413' />
  <node id='-148546157' action='modify' lat='55.28251893548' lon='10.736678828' />
  <node id='-148546158' action='modify' lat='55.283496584' lon='10.73678075731' />
  <node id='-148546159' action='modify' lat='55.28660658101' lon='10.73653935313' />
  <node id='-148546160' action='modify' lat='55.28814010021' lon='10.73628186643' />
  <node id='-148546161' action='modify' lat='55.28953915846' lon='10.73577761114' />
  <node id='-148546162' action='modify' lat='55.29048303672' lon='10.7351124233' />
  <node id='-148546163' action='modify' lat='55.29126805752' lon='10.73427557409' />
  <node id='-148546164' action='modify' lat='55.29287317665' lon='10.73307126492'>
    <tag k='name' v='byn' />
  </node>
  <node id='-148546165' action='modify' lat='55.29783474692' lon='10.73642133594' />
  <node id='-148546166' action='modify' lat='55.29970223163' lon='10.7419601056' />
  <node id='-148546167' action='modify' lat='55.29988851764' lon='10.74282109469' />
  <node id='-148546168' action='modify' lat='55.30041836067' lon='10.75116812646' />
  <node id='-148546169' action='modify' lat='55.30018321575' lon='10.75457453191' />
  <node id='-148546170' action='modify' lat='55.30029009998' lon='10.75933277071' />
  <node id='-148546171' action='modify' lat='55.30208571197' lon='10.76978802145' />
  <node id='-148546172' action='modify' lat='55.30544158145' lon='10.77996431708'>
    <tag k='name' v='nys.yh' />
  </node>
  <node id='-148546173' action='modify' lat='55.30942535' lon='10.78639893651' />
  <node id='-148546174' action='modify' lat='55.31022830913' lon='10.79007223114' />
  <node id='-148546175' action='modify' lat='55.31018327638' lon='10.79070389137'>
    <tag k='name' v='nys' />
  </node>
  <node id='-148546176' action='modify' lat='55.30934596325' lon='10.79380318388' />
  <node id='-148546177' action='modify' lat='55.30893226145' lon='10.79421892628' />
  <node id='-148546178' action='modify' lat='55.30942788131' lon='10.79834211136' />
  <node id='-148546179' action='modify' lat='55.3111576437' lon='10.79890505865'>
    <tag k='name' v='nyf' />
  </node>
  <way id='-36626605' action='modify'>
    <nd ref='-148546073' />
    <nd ref='-148546074' />
    <tag k='type' v='straight' />
  </way>
  <way id='-36626606' action='modify'>
    <nd ref='-148546074' />
    <nd ref='-148546075' />
  </way>
  <way id='-36626607' action='modify'>
    <nd ref='-148546075' />
    <nd ref='-148546076' />
    <tag k='type' v='straight' />
  </way>
  <way id='-36626608' action='modify'>
    <nd ref='-148546076' />
    <nd ref='-148546077' />
    <nd ref='-148546078' />
    <nd ref='-148546079' />
  </way>
  <way id='-36626609' action='modify'>
    <nd ref='-148546079' />
    <nd ref='-148546080' />
    <tag k='type' v='straight' />
  </way>
  <way id='-36626610' action='modify'>
    <nd ref='-148546080' />
    <nd ref='-148546081' />
  </way>
  <way id='-36626611' action='modify'>
    <nd ref='-148546081' />
    <nd ref='-148546082' />
    <tag k='type' v='straight' />
  </way>
  <way id='-36626612' action='modify'>
    <nd ref='-148546082' />
    <nd ref='-148546083' />
  </way>
  <way id='-36626613' action='modify'>
    <nd ref='-148546083' />
    <nd ref='-148546084' />
    <tag k='type' v='straight' />
  </way>
  <way id='-36626614' action='modify'>
    <nd ref='-148546084' />
    <nd ref='-148546085' />
  </way>
  <way id='-36626615' action='modify'>
    <nd ref='-148546085' />
    <nd ref='-148546086' />
    <nd ref='-148546087' />
    <tag k='type' v='straight' />
  </way>
  <way id='-36626616' action='modify'>
    <nd ref='-148546087' />
    <nd ref='-148546088' />
  </way>
  <way id='-36626617' action='modify'>
    <nd ref='-148546088' />
    <nd ref='-148546089' />
    <tag k='type' v='straight' />
  </way>
  <way id='-36626618' action='modify'>
    <nd ref='-148546089' />
    <nd ref='-148546090' />
  </way>
  <way id='-36626619' action='modify'>
    <nd ref='-148546090' />
    <nd ref='-148546091' />
    <tag k='type' v='straight' />
  </way>
  <way id='-36626620' action='modify'>
    <nd ref='-148546091' />
    <nd ref='-148546092' />
  </way>
  <way id='-36626621' action='modify'>
    <nd ref='-148546092' />
    <nd ref='-148546093' />
    <tag k='type' v='straight' />
  </way>
  <way id='-36626622' action='modify'>
    <nd ref='-148546093' />
    <nd ref='-148546094' />
  </way>
  <way id='-36626623' action='modify'>
    <nd ref='-148546094' />
    <nd ref='-148546095' />
    <nd ref='-148546096' />
    <tag k='type' v='straight' />
  </way>
  <way id='-36626624' action='modify'>
    <nd ref='-148546096' />
    <nd ref='-148546097' />
  </way>
  <way id='-36626625' action='modify'>
    <nd ref='-148546097' />
    <nd ref='-148546098' />
    <nd ref='-148546099' />
    <tag k='type' v='straight' />
  </way>
  <way id='-36626626' action='modify'>
    <nd ref='-148546099' />
    <nd ref='-148546100' />
  </way>
  <way id='-36626627' action='modify'>
    <nd ref='-148546100' />
    <nd ref='-148546101' />
    <tag k='type' v='straight' />
  </way>
  <way id='-36626628' action='modify'>
    <nd ref='-148546101' />
    <nd ref='-148546102' />
  </way>
  <way id='-36626629' action='modify'>
    <nd ref='-148546102' />
    <nd ref='-148546103' />
    <tag k='type' v='straight' />
  </way>
  <way id='-36626630' action='modify'>
    <nd ref='-148546103' />
    <nd ref='-148546104' />
  </way>
  <way id='-36626631' action='modify'>
    <nd ref='-148546104' />
    <nd ref='-148546105' />
    <tag k='type' v='straight' />
  </way>
  <way id='-36626632' action='modify'>
    <nd ref='-148546105' />
    <nd ref='-148546106' />
    <nd ref='-148546107' />
  </way>
  <way id='-36626633' action='modify'>
    <nd ref='-148546107' />
    <nd ref='-148546108' />
    <tag k='type' v='straight' />
  </way>
  <way id='-36626634' action='modify'>
    <nd ref='-148546108' />
    <nd ref='-148546109' />
  </way>
  <way id='-36626635' action='modify'>
    <nd ref='-148546109' />
    <nd ref='-148546110' />
    <nd ref='-148546111' />
    <tag k='type' v='straight' />
  </way>
  <way id='-36626636' action='modify'>
    <nd ref='-148546111' />
    <nd ref='-148546112' />
  </way>
  <way id='-36626637' action='modify'>
    <nd ref='-148546112' />
    <nd ref='-148546113' />
    <tag k='type' v='straight' />
  </way>
  <way id='-36626638' action='modify'>
    <nd ref='-148546113' />
    <nd ref='-148546114' />
  </way>
  <way id='-36626639' action='modify'>
    <nd ref='-148546114' />
    <nd ref='-148546115' />
    <tag k='type' v='straight' />
  </way>
  <way id='-36626640' action='modify'>
    <nd ref='-148546115' />
    <nd ref='-148546116' />
  </way>
  <way id='-36626641' action='modify'>
    <nd ref='-148546116' />
    <nd ref='-148546117' />
    <tag k='type' v='straight' />
  </way>
  <way id='-36626642' action='modify'>
    <nd ref='-148546117' />
    <nd ref='-148546118' />
  </way>
  <way id='-36626643' action='modify'>
    <nd ref='-148546118' />
    <nd ref='-148546119' />
    <tag k='type' v='straight' />
  </way>
  <way id='-36626644' action='modify'>
    <nd ref='-148546119' />
    <nd ref='-148546120' />
    <nd ref='-148546121' />
  </way>
  <way id='-36626645' action='modify'>
    <nd ref='-148546121' />
    <nd ref='-148546122' />
    <tag k='type' v='straight' />
  </way>
  <way id='-36626646' action='modify'>
    <nd ref='-148546122' />
    <nd ref='-148546123' />
  </way>
  <way id='-36626647' action='modify'>
    <nd ref='-148546123' />
    <nd ref='-148546124' />
    <tag k='type' v='straight' />
  </way>
  <way id='-36626648' action='modify'>
    <nd ref='-148546124' />
    <nd ref='-148546125' />
    <nd ref='-148546126' />
  </way>
  <way id='-36626649' action='modify'>
    <nd ref='-148546126' />
    <nd ref='-148546127' />
    <tag k='type' v='straight' />
  </way>
  <way id='-36626650' action='modify'>
    <nd ref='-148546127' />
    <nd ref='-148546128' />
  </way>
  <way id='-36626651' action='modify'>
    <nd ref='-148546128' />
    <nd ref='-148546129' />
    <tag k='type' v='straight' />
  </way>
  <way id='-36626652' action='modify'>
    <nd ref='-148546129' />
    <nd ref='-148546130' />
  </way>
  <way id='-36626653' action='modify'>
    <nd ref='-148546130' />
    <nd ref='-148546131' />
    <tag k='type' v='straight' />
  </way>
  <way id='-36626654' action='modify'>
    <nd ref='-148546131' />
    <nd ref='-148546132' />
  </way>
  <way id='-36626655' action='modify'>
    <nd ref='-148546132' />
    <nd ref='-148546133' />
    <nd ref='-148546134' />
    <tag k='type' v='straight' />
  </way>
  <way id='-36626656' action='modify'>
    <nd ref='-148546134' />
    <nd ref='-148546135' />
    <nd ref='-148546136' />
  </way>
  <way id='-36626657' action='modify'>
    <nd ref='-148546136' />
    <nd ref='-148546137' />
    <tag k='type' v='straight' />
  </way>
  <way id='-36626658' action='modify'>
    <nd ref='-148546137' />
    <nd ref='-148546138' />
  </way>
  <way id='-36626659' action='modify'>
    <nd ref='-148546138' />
    <nd ref='-148546139' />
    <tag k='type' v='straight' />
  </way>
  <way id='-36626660' action='modify'>
    <nd ref='-148546139' />
    <nd ref='-148546140' />
  </way>
  <way id='-36626661' action='modify'>
    <nd ref='-148546140' />
    <nd ref='-148546141' />
    <nd ref='-148546142' />
    <tag k='type' v='straight' />
  </way>
  <way id='-36626662' action='modify'>
    <nd ref='-148546142' />
    <nd ref='-148546143' />
  </way>
  <way id='-36626663' action='modify'>
    <nd ref='-148546143' />
    <nd ref='-148546144' />
    <tag k='type' v='straight' />
  </way>
  <way id='-36626664' action='modify'>
    <nd ref='-148546144' />
    <nd ref='-148546145' />
  </way>
  <way id='-36626665' action='modify'>
    <nd ref='-148546145' />
    <nd ref='-148546146' />
    <tag k='type' v='straight' />
  </way>
  <way id='-36626666' action='modify'>
    <nd ref='-148546146' />
    <nd ref='-148546147' />
  </way>
  <way id='-36626667' action='modify'>
    <nd ref='-148546147' />
    <nd ref='-148546148' />
    <tag k='type' v='straight' />
  </way>
  <way id='-36626668' action='modify'>
    <nd ref='-148546148' />
    <nd ref='-148546149' />
  </way>
  <way id='-36626669' action='modify'>
    <nd ref='-148546149' />
    <nd ref='-148546150' />
    <tag k='type' v='straight' />
  </way>
  <way id='-36626670' action='modify'>
    <nd ref='-148546150' />
    <nd ref='-148546151' />
  </way>
  <way id='-36626671' action='modify'>
    <nd ref='-148546151' />
    <nd ref='-148546152' />
    <tag k='type' v='straight' />
  </way>
  <way id='-36626672' action='modify'>
    <nd ref='-148546152' />
    <nd ref='-148546153' />
  </way>
  <way id='-36626673' action='modify'>
    <nd ref='-148546153' />
    <nd ref='-148546154' />
    <tag k='type' v='straight' />
  </way>
  <way id='-36626674' action='modify'>
    <nd ref='-148546154' />
    <nd ref='-148546155' />
    <nd ref='-148546156' />
  </way>
  <way id='-36626675' action='modify'>
    <nd ref='-148546156' />
    <nd ref='-148546157' />
    <tag k='type' v='straight' />
  </way>
  <way id='-36626676' action='modify'>
    <nd ref='-148546157' />
    <nd ref='-148546158' />
  </way>
  <way id='-36626677' action='modify'>
    <nd ref='-148546158' />
    <nd ref='-148546159' />
    <tag k='type' v='straight' />
  </way>
  <way id='-36626678' action='modify'>
    <nd ref='-148546159' />
    <nd ref='-148546160' />
  </way>
  <way id='-36626679' action='modify'>
    <nd ref='-148546160' />
    <nd ref='-148546161' />
    <tag k='type' v='straight' />
  </way>
  <way id='-36626680' action='modify'>
    <nd ref='-148546161' />
    <nd ref='-148546162' />
  </way>
  <way id='-36626681' action='modify'>
    <nd ref='-148546162' />
    <nd ref='-148546163' />
    <tag k='type' v='straight' />
  </way>
  <way id='-36626682' action='modify'>
    <nd ref='-148546163' />
    <nd ref='-148546164' />
    <nd ref='-148546165' />
    <nd ref='-148546166' />
  </way>
  <way id='-36626683' action='modify'>
    <nd ref='-148546166' />
    <nd ref='-148546167' />
    <tag k='type' v='straight' />
  </way>
  <way id='-36626684' action='modify'>
    <nd ref='-148546167' />
    <nd ref='-148546168' />
  </way>
  <way id='-36626685' action='modify'>
    <nd ref='-148546168' />
    <nd ref='-148546169' />
    <tag k='type' v='straight' />
  </way>
  <way id='-36626686' action='modify'>
    <nd ref='-148546169' />
    <nd ref='-148546170' />
  </way>
  <way id='-36626687' action='modify'>
    <nd ref='-148546170' />
    <nd ref='-148546171' />
    <tag k='type' v='straight' />
  </way>
  <way id='-36626688' action='modify'>
    <nd ref='-148546171' />
    <nd ref='-148546172' />
  </way>
  <way id='-36626689' action='modify'>
    <nd ref='-148546172' />
    <nd ref='-148546173' />
    <tag k='type' v='straight' />
  </way>
  <way id='-36626690' action='modify'>
    <nd ref='-148546173' />
    <nd ref='-148546174' />
  </way>
  <way id='-36626691' action='modify'>
    <nd ref='-148546174' />
    <nd ref='-148546175' />
    <tag k='type' v='straight' />
  </way>
  <way id='-36626692' action='modify'>
    <nd ref='-148546175' />
    <nd ref='-148546176' />
  </way>
  <way id='-36626693' action='modify'>
    <nd ref='-148546176' />
    <nd ref='-148546177' />
    <tag k='type' v='straight' />
  </way>
  <way id='-36626694' action='modify'>
    <nd ref='-148546177' />
    <nd ref='-148546178' />
  </way>
  <way id='-36626695' action='modify'>
    <nd ref='-148546178' />
    <nd ref='-148546179' />
    <tag k='type' v='straight' />
  </way>
  <relation id='-14469486' action='modify'>
    <member type='way' ref='-36626605' role='' />
    <member type='way' ref='-36626606' role='' />
    <member type='way' ref='-36626607' role='' />
    <member type='way' ref='-36626608' role='' />
    <member type='way' ref='-36626609' role='' />
    <member type='way' ref='-36626610' role='' />
    <member type='way' ref='-36626611' role='' />
    <member type='way' ref='-36626612' role='' />
    <member type='way' ref='-36626613' role='' />
    <member type='way' ref='-36626614' role='' />
    <member type='way' ref='-36626615' role='' />
    <member type='way' ref='-36626616' role='' />
    <member type='way' ref='-36626617' role='' />
    <member type='way' ref='-36626618' role='' />
    <member type='way' ref='-36626619' role='' />
    <member type='way' ref='-36626620' role='' />
    <member type='way' ref='-36626621' role='' />
    <member type='way' ref='-36626622' role='' />
    <member type='way' ref='-36626623' role='' />
    <member type='way' ref='-36626624' role='' />
    <member type='way' ref='-36626625' role='' />
    <member type='way' ref='-36626626' role='' />
    <member type='way' ref='-36626627' role='' />
    <member type='way' ref='-36626628' role='' />
    <member type='way' ref='-36626629' role='' />
    <member type='way' ref='-36626630' role='' />
    <member type='way' ref='-36626631' role='' />
    <member type='way' ref='-36626632' role='' />
    <member type='way' ref='-36626633' role='' />
    <member type='way' ref='-36626634' role='' />
    <member type='way' ref='-36626635' role='' />
    <member type='way' ref='-36626636' role='' />
    <member type='way' ref='-36626637' role='' />
    <member type='way' ref='-36626638' role='' />
    <member type='way' ref='-36626639' role='' />
    <member type='way' ref='-36626640' role='' />
    <member type='way' ref='-36626641' role='' />
    <member type='way' ref='-36626642' role='' />
    <member type='way' ref='-36626643' role='' />
    <member type='way' ref='-36626644' role='' />
    <member type='way' ref='-36626645' role='' />
    <member type='way' ref='-36626646' role='' />
    <member type='way' ref='-36626647' role='' />
    <member type='way' ref='-36626648' role='' />
    <member type='way' ref='-36626649' role='' />
    <member type='way' ref='-36626650' role='' />
    <member type='way' ref='-36626651' role='' />
    <member type='way' ref='-36626652' role='' />
    <member type='way' ref='-36626653' role='' />
    <member type='way' ref='-36626654' role='' />
    <member type='way' ref='-36626655' role='' />
    <member type='way' ref='-36626656' role='' />
    <member type='way' ref='-36626657' role='' />
    <member type='way' ref='-36626658' role='' />
    <member type='way' ref='-36626659' role='' />
    <member type='way' ref='-36626660' role='' />
    <member type='way' ref='-36626661' role='' />
    <member type='way' ref='-36626662' role='' />
    <member type='way' ref='-36626663' role='' />
    <member type='way' ref='-36626664' role='' />
    <member type='way' ref='-36626665' role='' />
    <member type='way' ref='-36626666' role='' />
    <member type='way' ref='-36626667' role='' />
    <member type='way' ref='-36626668' role='' />
    <member type='way' ref='-36626669' role='' />
    <member type='way' ref='-36626670' role='' />
    <member type='way' ref='-36626671' role='' />
    <member type='way' ref='-36626672' role='' />
    <member type='way' ref='-36626673' role='' />
    <member type='way' ref='-36626674' role='' />
    <member type='way' ref='-36626675' role='' />
    <member type='way' ref='-36626676' role='' />
    <member type='way' ref='-36626677' role='' />
    <member type='way' ref='-36626678' role='' />
    <member type='way' ref='-36626679' role='' />
    <member type='way' ref='-36626680' role='' />
    <member type='way' ref='-36626681' role='' />
    <member type='way' ref='-36626682' role='' />
    <member type='way' ref='-36626683' role='' />
    <member type='way' ref='-36626684' role='' />
    <member type='way' ref='-36626685' role='' />
    <member type='way' ref='-36626686' role='' />
    <member type='way' ref='-36626687' role='' />
    <member type='way' ref='-36626688' role='' />
    <member type='way' ref='-36626689' role='' />
    <member type='way' ref='-36626690' role='' />
    <member type='way' ref='-36626691' role='' />
    <member type='way' ref='-36626692' role='' />
    <member type='way' ref='-36626693' role='' />
    <member type='way' ref='-36626694' role='' />
    <member type='way' ref='-36626695' role='' />
    <tag k='key' v='path.dk.snb' />
    <tag k='name' v='DK SNB' />
    <tag k='type' v='path' />
  </relation>
</osm>
