<?xml version='1.0' encoding='UTF-8'?>
<osm version='0.6' upload='false' generator='JOSM'>
  <node id='-144972024' action='modify' lat='54.89147708297' lon='12.0440089649'>
    <tag k='name' v='stu' />
  </node>
  <node id='-144972025' action='modify' lat='54.89025223147' lon='12.04923927248' />
  <node id='-144972026' action='modify' lat='54.88639848848' lon='12.05516158998' />
  <node id='-144972027' action='modify' lat='54.87460047312' lon='12.05991446435' />
  <node id='-144972028' action='modify' lat='54.8698469615' lon='12.05953359067' />
  <node id='-144972029' action='modify' lat='54.85775790961' lon='12.0539868797'>
    <tag k='name' v='ast' />
  </node>
  <node id='-144972030' action='modify' lat='54.85293967723' lon='12.05177663684' />
  <node id='-144972031' action='modify' lat='54.84431039775' lon='12.0528763479' />
  <node id='-144972032' action='modify' lat='54.83766268173' lon='12.05777942598' />
  <node id='-144972033' action='modify' lat='54.8351169869' lon='12.05942629695'>
    <tag k='name' v='sar' />
  </node>
  <node id='-144972034' action='modify' lat='54.82911047773' lon='12.06048309267' />
  <node id='-144972035' action='modify' lat='54.82623976906' lon='12.06009685457' />
  <node id='-144972036' action='modify' lat='54.82306908289' lon='12.05896496236' />
  <node id='-144972037' action='modify' lat='54.82100306981' lon='12.057703688'>
    <tag k='name' v='hor' />
  </node>
  <node id='-144972038' action='modify' lat='54.81936963436' lon='12.05670654237' />
  <node id='-144972039' action='modify' lat='54.81553384162' lon='12.05227016866' />
  <node id='-144972040' action='modify' lat='54.81016362813' lon='12.04107031532'>
    <tag k='name' v='mee' />
  </node>
  <node id='-144972041' action='modify' lat='54.7994536086' lon='12.01873846909'>
    <tag k='name' v='kar' />
  </node>
  <node id='-144972042' action='modify' lat='54.79694935461' lon='12.01351761281' />
  <node id='-144972043' action='modify' lat='54.78741728064' lon='12.00165151477' />
  <node id='-144972044' action='modify' lat='54.77856979952' lon='11.99477433085' />
  <node id='-144972045' action='modify' lat='54.77583163479' lon='11.99300407827' />
  <node id='-144972046' action='modify' lat='54.76818691428' lon='11.98909350865'>
    <tag k='name' v='ege' />
  </node>
  <node id='-144972047' action='modify' lat='54.76647717484' lon='11.98821901202' />
  <node id='-144972048' action='modify' lat='54.76382485143' lon='11.98754846513' />
  <node id='-144972049' action='modify' lat='54.74729732442' lon='11.98626636386' />
  <node id='-144972050' action='modify' lat='54.74250403849' lon='11.98100923419' />
  <node id='-144972051' action='modify' lat='54.74147086945' lon='11.97771351042'>
    <tag k='name' v='sor' />
  </node>
  <node id='-144972052' action='modify' lat='54.74109814808' lon='11.97652458072' />
  <node id='-144972053' action='modify' lat='54.74002356588' lon='11.96945428312' />
  <node id='-144972054' action='modify' lat='54.73993375827' lon='11.96387528837' />
  <node id='-144972055' action='modify' lat='54.74013195411' lon='11.95986270368'>
    <tag k='name' v='ide' />
  </node>
  <node id='-144972056' action='modify' lat='54.74182586968' lon='11.9526100105' />
  <node id='-144972057' action='modify' lat='54.74496887084' lon='11.94435417116' />
  <node id='-144972058' action='modify' lat='54.74833146028' lon='11.93733750701' />
  <node id='-144972059' action='modify' lat='54.75824352514' lon='11.91950228763'>
    <tag k='name' v='sve' />
  </node>
  <node id='-144972060' action='modify' lat='54.75969901824' lon='11.91688298643' />
  <node id='-144972061' action='modify' lat='54.76259921647' lon='11.90953373373' />
  <node id='-144972062' action='modify' lat='54.76626945093' lon='11.89593439654' />
  <node id='-144972063' action='modify' lat='54.767348028' lon='11.89182907626' />
  <node id='-144972064' action='modify' lat='54.76896530488' lon='11.88518464029' />
  <node id='-144972065' action='modify' lat='54.7680679' lon='11.87905900441' />
  <node id='-144972066' action='modify' lat='54.76691618704' lon='11.87783990267'>
    <tag k='name' v='nyk' />
  </node>
  <node id='-144972067' action='modify' lat='54.76564402814' lon='11.87649334781' />
  <node id='-144972068' action='modify' lat='54.76398707247' lon='11.874642137' />
  <node id='-144972069' action='modify' lat='54.7631884636' lon='11.87377781797' />
  <node id='-144972070' action='modify' lat='54.76111045646' lon='11.86724065661' />
  <node id='-144972071' action='modify' lat='54.75981664281' lon='11.84471010089' />
  <node id='-144972072' action='modify' lat='54.75969901824' lon='11.83650791109' />
  <node id='-144972073' action='modify' lat='54.75979110118' lon='11.83501392469'>
    <tag k='name' v='oto' />
  </node>
  <node id='-144972074' action='modify' lat='54.75966187764' lon='11.83077334285' />
  <node id='-144972075' action='modify' lat='54.75792846733' lon='11.80491684794' />
  <node id='-144972076' action='modify' lat='54.75477408612' lon='11.79421483934' />
  <node id='-144972077' action='modify' lat='54.7545973823' lon='11.79392747022'>
    <tag k='name' v='tor' />
  </node>
  <node id='-144972078' action='modify' lat='54.75125104556' lon='11.78848564088' />
  <node id='-144972079' action='modify' lat='54.74941820025' lon='11.78600191534' />
  <node id='-144972080' action='modify' lat='54.7488825727' lon='11.78536891401' />
  <node id='-144972081' action='modify' lat='54.74501531731' lon='11.78195714414' />
  <node id='-144972082' action='modify' lat='54.74375750663' lon='11.7812335128'>
    <tag k='name' v='fli' />
  </node>
  <node id='-144972083' action='modify' lat='54.73923387143' lon='11.77863120496' />
  <node id='-144972084' action='modify' lat='54.73272992299' lon='11.7761635673'>
    <tag k='name' v='fug' />
  </node>
  <node id='-144972085' action='modify' lat='54.72241540144' lon='11.77457706235'>
    <tag k='name' v='slo' />
  </node>
  <node id='-144972086' action='modify' lat='54.71532516754' lon='11.77348672807' />
  <node id='-144972087' action='modify' lat='54.71089688527' lon='11.77101909578' />
  <node id='-144972088' action='modify' lat='54.70807729741' lon='11.76744243798'>
    <tag k='name' v='fre' />
  </node>
  <node id='-144972089' action='modify' lat='54.70710348638' lon='11.76620721281' />
  <node id='-144972090' action='modify' lat='54.70429849842' lon='11.75938903749' />
  <node id='-144972091' action='modify' lat='54.70393821115' lon='11.75742512384'>
    <tag k='name' v='frm' />
  </node>
  <node id='-144972092' action='modify' lat='54.70040218777' lon='11.73815130651' />
  <node id='-144972093' action='modify' lat='54.6958234701' lon='11.73278688312' />
  <node id='-144972094' action='modify' lat='54.69475315199' lon='11.73290668392'>
    <tag k='name' v='ket' />
  </node>
  <node id='-144972095' action='modify' lat='54.68997609237' lon='11.73344134212' />
  <node id='-144972096' action='modify' lat='54.68663967115' lon='11.73324822307' />
  <node id='-144972097' action='modify' lat='54.67453819215' lon='11.73059820056' />
  <node id='-144972098' action='modify' lat='54.66989761154' lon='11.7314135921' />
  <node id='-144972099' action='modify' lat='54.66770399604' lon='11.73291409853'>
    <tag k='name' v='nys' />
  </node>
  <node id='-144972100' action='modify' lat='54.66610968269' lon='11.73400461137' />
  <node id='-144972101' action='modify' lat='54.66475698806' lon='11.73537790239' />
  <node id='-144972102' action='modify' lat='54.66383551662' lon='11.736810202' />
  <node id='-144972103' action='modify' lat='54.66068932838' lon='11.73593043208' />
  <node id='-144972104' action='modify' lat='54.66189322214' lon='11.73095762193' />
  <node id='-144972105' action='modify' lat='54.66280232681' lon='11.73046945989'>
    <tag k='name' v='nys.f' />
  </node>
  <way id='-36418674' action='modify'>
    <nd ref='-144972024' />
    <nd ref='-144972025' />
    <tag k='type' v='straight' />
  </way>
  <way id='-36418675' action='modify'>
    <nd ref='-144972025' />
    <nd ref='-144972026' />
  </way>
  <way id='-36418676' action='modify'>
    <nd ref='-144972026' />
    <nd ref='-144972027' />
    <tag k='type' v='straight' />
  </way>
  <way id='-36418677' action='modify'>
    <nd ref='-144972027' />
    <nd ref='-144972028' />
  </way>
  <way id='-36418678' action='modify'>
    <nd ref='-144972028' />
    <nd ref='-144972029' />
    <nd ref='-144972030' />
    <tag k='type' v='straight' />
  </way>
  <way id='-36418679' action='modify'>
    <nd ref='-144972030' />
    <nd ref='-144972031' />
  </way>
  <way id='-36418680' action='modify'>
    <nd ref='-144972031' />
    <nd ref='-144972032' />
    <tag k='type' v='straight' />
  </way>
  <way id='-36418681' action='modify'>
    <nd ref='-144972032' />
    <nd ref='-144972033' />
    <nd ref='-144972034' />
  </way>
  <way id='-36418682' action='modify'>
    <nd ref='-144972034' />
    <nd ref='-144972035' />
    <tag k='type' v='straight' />
  </way>
  <way id='-36418683' action='modify'>
    <nd ref='-144972035' />
    <nd ref='-144972036' />
  </way>
  <way id='-36418684' action='modify'>
    <nd ref='-144972036' />
    <nd ref='-144972037' />
    <nd ref='-144972038' />
    <tag k='type' v='straight' />
  </way>
  <way id='-36418685' action='modify'>
    <nd ref='-144972038' />
    <nd ref='-144972039' />
  </way>
  <way id='-36418686' action='modify'>
    <nd ref='-144972039' />
    <nd ref='-144972040' />
    <nd ref='-144972041' />
    <nd ref='-144972042' />
    <tag k='type' v='straight' />
  </way>
  <way id='-36418687' action='modify'>
    <nd ref='-144972042' />
    <nd ref='-144972043' />
  </way>
  <way id='-36418688' action='modify'>
    <nd ref='-144972043' />
    <nd ref='-144972044' />
    <tag k='type' v='straight' />
  </way>
  <way id='-36418689' action='modify'>
    <nd ref='-144972044' />
    <nd ref='-144972045' />
  </way>
  <way id='-36418690' action='modify'>
    <nd ref='-144972045' />
    <nd ref='-144972046' />
    <nd ref='-144972047' />
    <tag k='type' v='straight' />
  </way>
  <way id='-36418691' action='modify'>
    <nd ref='-144972047' />
    <nd ref='-144972048' />
  </way>
  <way id='-36418692' action='modify'>
    <nd ref='-144972048' />
    <nd ref='-144972049' />
    <tag k='type' v='straight' />
  </way>
  <way id='-36418693' action='modify'>
    <nd ref='-144972049' />
    <nd ref='-144972050' />
  </way>
  <way id='-36418694' action='modify'>
    <nd ref='-144972050' />
    <nd ref='-144972051' />
    <nd ref='-144972052' />
    <tag k='type' v='straight' />
  </way>
  <way id='-36418695' action='modify'>
    <nd ref='-144972052' />
    <nd ref='-144972053' />
  </way>
  <way id='-36418696' action='modify'>
    <nd ref='-144972053' />
    <nd ref='-144972054' />
    <tag k='type' v='straight' />
  </way>
  <way id='-36418697' action='modify'>
    <nd ref='-144972054' />
    <nd ref='-144972055' />
    <nd ref='-144972056' />
  </way>
  <way id='-36418698' action='modify'>
    <nd ref='-144972056' />
    <nd ref='-144972057' />
    <tag k='type' v='straight' />
  </way>
  <way id='-36418699' action='modify'>
    <nd ref='-144972057' />
    <nd ref='-144972058' />
  </way>
  <way id='-36418700' action='modify'>
    <nd ref='-144972058' />
    <nd ref='-144972059' />
    <nd ref='-144972060' />
    <tag k='type' v='straight' />
  </way>
  <way id='-36418701' action='modify'>
    <nd ref='-144972060' />
    <nd ref='-144972061' />
  </way>
  <way id='-36418702' action='modify'>
    <nd ref='-144972061' />
    <nd ref='-144972062' />
    <tag k='type' v='straight' />
  </way>
  <way id='-36418703' action='modify'>
    <nd ref='-144972062' />
    <nd ref='-144972063' />
  </way>
  <way id='-36418704' action='modify'>
    <nd ref='-144972063' />
    <nd ref='-144972064' />
    <tag k='type' v='straight' />
  </way>
  <way id='-36418705' action='modify'>
    <nd ref='-144972064' />
    <nd ref='-144972065' />
  </way>
  <way id='-36418706' action='modify'>
    <nd ref='-144972065' />
    <nd ref='-144972066' />
    <nd ref='-144972067' />
    <tag k='type' v='straight' />
  </way>
  <way id='-36418707' action='modify'>
    <nd ref='-144972067' />
    <nd ref='-144972068' />
  </way>
  <way id='-36418708' action='modify'>
    <nd ref='-144972068' />
    <nd ref='-144972069' />
    <tag k='type' v='straight' />
  </way>
  <way id='-36418709' action='modify'>
    <nd ref='-144972069' />
    <nd ref='-144972070' />
  </way>
  <way id='-36418710' action='modify'>
    <nd ref='-144972070' />
    <nd ref='-144972071' />
    <tag k='type' v='straight' />
  </way>
  <way id='-36418711' action='modify'>
    <nd ref='-144972071' />
    <nd ref='-144972072' />
  </way>
  <way id='-36418712' action='modify'>
    <nd ref='-144972072' />
    <nd ref='-144972073' />
    <tag k='type' v='straight' />
  </way>
  <way id='-36418713' action='modify'>
    <nd ref='-144972073' />
    <nd ref='-144972074' />
  </way>
  <way id='-36418714' action='modify'>
    <nd ref='-144972074' />
    <nd ref='-144972075' />
    <tag k='type' v='straight' />
  </way>
  <way id='-36418715' action='modify'>
    <nd ref='-144972075' />
    <nd ref='-144972076' />
  </way>
  <way id='-36418716' action='modify'>
    <nd ref='-144972076' />
    <nd ref='-144972077' />
    <nd ref='-144972078' />
    <tag k='type' v='straight' />
  </way>
  <way id='-36418717' action='modify'>
    <nd ref='-144972078' />
    <nd ref='-144972079' />
  </way>
  <way id='-36418718' action='modify'>
    <nd ref='-144972079' />
    <nd ref='-144972080' />
    <tag k='type' v='straight' />
  </way>
  <way id='-36418719' action='modify'>
    <nd ref='-144972080' />
    <nd ref='-144972081' />
  </way>
  <way id='-36418720' action='modify'>
    <nd ref='-144972081' />
    <nd ref='-144972082' />
    <nd ref='-144972083' />
    <tag k='type' v='straight' />
  </way>
  <way id='-36418721' action='modify'>
    <nd ref='-144972083' />
    <nd ref='-144972084' />
  </way>
  <way id='-36418722' action='modify'>
    <nd ref='-144972084' />
    <nd ref='-144972085' />
    <nd ref='-144972086' />
    <tag k='type' v='straight' />
  </way>
  <way id='-36418723' action='modify'>
    <nd ref='-144972086' />
    <nd ref='-144972087' />
  </way>
  <way id='-36418724' action='modify'>
    <nd ref='-144972087' />
    <nd ref='-144972088' />
    <nd ref='-144972089' />
    <tag k='type' v='straight' />
  </way>
  <way id='-36418725' action='modify'>
    <nd ref='-144972089' />
    <nd ref='-144972090' />
  </way>
  <way id='-36418726' action='modify'>
    <nd ref='-144972090' />
    <nd ref='-144972091' />
    <nd ref='-144972092' />
    <tag k='type' v='straight' />
  </way>
  <way id='-36418727' action='modify'>
    <nd ref='-144972092' />
    <nd ref='-144972093' />
  </way>
  <way id='-36418728' action='modify'>
    <nd ref='-144972093' />
    <nd ref='-144972094' />
    <nd ref='-144972095' />
    <tag k='type' v='straight' />
  </way>
  <way id='-36418729' action='modify'>
    <nd ref='-144972095' />
    <nd ref='-144972096' />
  </way>
  <way id='-36418730' action='modify'>
    <nd ref='-144972096' />
    <nd ref='-144972097' />
    <tag k='type' v='straight' />
  </way>
  <way id='-36418731' action='modify'>
    <nd ref='-144972097' />
    <nd ref='-144972098' />
  </way>
  <way id='-36418732' action='modify'>
    <nd ref='-144972098' />
    <nd ref='-144972099' />
    <nd ref='-144972100' />
    <tag k='type' v='straight' />
  </way>
  <way id='-36418733' action='modify'>
    <nd ref='-144972100' />
    <nd ref='-144972101' />
  </way>
  <way id='-36418734' action='modify'>
    <nd ref='-144972101' />
    <nd ref='-144972102' />
    <tag k='type' v='straight' />
  </way>
  <way id='-36418735' action='modify'>
    <nd ref='-144972102' />
    <nd ref='-144972103' />
    <nd ref='-144972104' />
  </way>
  <way id='-36418736' action='modify'>
    <nd ref='-144972104' />
    <nd ref='-144972105' />
    <tag k='type' v='straight' />
  </way>
  <relation id='-14467958' action='modify'>
    <member type='way' ref='-36418674' role='' />
    <member type='way' ref='-36418675' role='' />
    <member type='way' ref='-36418676' role='' />
    <member type='way' ref='-36418677' role='' />
    <member type='way' ref='-36418678' role='' />
    <member type='way' ref='-36418679' role='' />
    <member type='way' ref='-36418680' role='' />
    <member type='way' ref='-36418681' role='' />
    <member type='way' ref='-36418682' role='' />
    <member type='way' ref='-36418683' role='' />
    <member type='way' ref='-36418684' role='' />
    <member type='way' ref='-36418685' role='' />
    <member type='way' ref='-36418686' role='' />
    <member type='way' ref='-36418687' role='' />
    <member type='way' ref='-36418688' role='' />
    <member type='way' ref='-36418689' role='' />
    <member type='way' ref='-36418690' role='' />
    <member type='way' ref='-36418691' role='' />
    <member type='way' ref='-36418692' role='' />
    <member type='way' ref='-36418693' role='' />
    <member type='way' ref='-36418694' role='' />
    <member type='way' ref='-36418695' role='' />
    <member type='way' ref='-36418696' role='' />
    <member type='way' ref='-36418697' role='' />
    <member type='way' ref='-36418698' role='' />
    <member type='way' ref='-36418699' role='' />
    <member type='way' ref='-36418700' role='' />
    <member type='way' ref='-36418701' role='' />
    <member type='way' ref='-36418702' role='' />
    <member type='way' ref='-36418703' role='' />
    <member type='way' ref='-36418704' role='' />
    <member type='way' ref='-36418705' role='' />
    <member type='way' ref='-36418706' role='' />
    <member type='way' ref='-36418707' role='' />
    <member type='way' ref='-36418708' role='' />
    <member type='way' ref='-36418709' role='' />
    <member type='way' ref='-36418710' role='' />
    <member type='way' ref='-36418711' role='' />
    <member type='way' ref='-36418712' role='' />
    <member type='way' ref='-36418713' role='' />
    <member type='way' ref='-36418714' role='' />
    <member type='way' ref='-36418715' role='' />
    <member type='way' ref='-36418716' role='' />
    <member type='way' ref='-36418717' role='' />
    <member type='way' ref='-36418718' role='' />
    <member type='way' ref='-36418719' role='' />
    <member type='way' ref='-36418720' role='' />
    <member type='way' ref='-36418721' role='' />
    <member type='way' ref='-36418722' role='' />
    <member type='way' ref='-36418723' role='' />
    <member type='way' ref='-36418724' role='' />
    <member type='way' ref='-36418725' role='' />
    <member type='way' ref='-36418726' role='' />
    <member type='way' ref='-36418727' role='' />
    <member type='way' ref='-36418728' role='' />
    <member type='way' ref='-36418729' role='' />
    <member type='way' ref='-36418730' role='' />
    <member type='way' ref='-36418731' role='' />
    <member type='way' ref='-36418732' role='' />
    <member type='way' ref='-36418733' role='' />
    <member type='way' ref='-36418734' role='' />
    <member type='way' ref='-36418735' role='' />
    <member type='way' ref='-36418736' role='' />
    <tag k='key' v='path.dk.snn' />
    <tag k='name' v='DK SNN' />
    <tag k='type' v='path' />
  </relation>
</osm>
