<?xml version='1.0' encoding='UTF-8'?>
<osm version='0.6' upload='false' generator='JOSM'>
  <node id='-142899224' action='modify' lat='55.40760480846' lon='11.35046871781' />
  <node id='-142899225' action='modify' lat='55.40754298026' lon='11.34994445015' />
  <node id='-142899226' action='modify' lat='55.40743076735' lon='11.34890109032'>
    <tag k='name' v='sla' />
  </node>
  <node id='-142899227' action='modify' lat='55.4073231885' lon='11.34703818911' />
  <node id='-142899228' action='modify' lat='55.40713809908' lon='11.34029316068'>
    <tag k='name' v='sla.yn' />
  </node>
  <node id='-142899229' action='modify' lat='55.40248597192' lon='11.33119312763' />
  <node id='-142899230' action='modify' lat='55.39644383852' lon='11.33663803071'>
    <tag k='name' v='sla.xn' />
  </node>
  <node id='-142899231' action='modify' lat='55.39342319245' lon='11.34698599309' />
  <node id='-142899232' action='modify' lat='55.39154945792' lon='11.35145186305' />
  <node id='-142899233' action='modify' lat='55.37454464476' lon='11.37864946246' />
  <node id='-142899234' action='modify' lat='55.36734434744' lon='11.3848507297' />
  <node id='-142899235' action='modify' lat='55.3606001205' lon='11.38669608951' />
  <node id='-142899236' action='modify' lat='55.35720012799' lon='11.38862192094' />
  <node id='-142899237' action='modify' lat='55.35587359551' lon='11.3899469322' />
  <node id='-142899238' action='modify' lat='55.35482300971' lon='11.39089107245'>
    <tag k='name' v='slu' />
  </node>
  <node id='-142899239' action='modify' lat='55.35209959471' lon='11.39260500401' />
  <node id='-142899240' action='modify' lat='55.35168176419' lon='11.39275788993' />
  <node id='-142899241' action='modify' lat='55.35008512301' lon='11.39307975501' />
  <node id='-142899242' action='modify' lat='55.34123914419' lon='11.39374226063' />
  <node id='-142899243' action='modify' lat='55.33214555582' lon='11.39730423152' />
  <node id='-142899244' action='modify' lat='55.32812364344' lon='11.40024237648'>
    <tag k='name' v='fla' />
  </node>
  <node id='-142899245' action='modify' lat='55.30980622128' lon='11.41362011164' />
  <node id='-142899246' action='modify' lat='55.30576981972' lon='11.41508191556' />
  <node id='-142899247' action='modify' lat='55.30077718151' lon='11.41523480147' />
  <node id='-142899248' action='modify' lat='55.29664212961' lon='11.41724109381' />
  <node id='-142899249' action='modify' lat='55.29356359825' lon='11.42057009395'>
    <tag k='name' v='dal' />
  </node>
  <node id='-142899251' action='modify' lat='55.28028857313' lon='11.43492221564' />
  <node id='-142899252' action='modify' lat='55.27688016035' lon='11.44238144025' />
  <node id='-142899253' action='modify' lat='55.27440280394' lon='11.45400801431'>
    <tag k='name' v='hol' />
  </node>
  <node id='-142899254' action='modify' lat='55.26693053779' lon='11.48907199368' />
  <node id='-142899255' action='modify' lat='55.26598992006' lon='11.49639978871' />
  <node id='-142899256' action='modify' lat='55.2645186444' lon='11.52102613218'>
    <tag k='name' v='san' />
  </node>
  <node id='-142899257' action='modify' lat='55.26225409985' lon='11.55892849924' />
  <node id='-142899258' action='modify' lat='55.2620929393' lon='11.56163016093' />
  <node id='-142899259' action='modify' lat='55.25984520929' lon='11.59878278165'>
    <tag k='name' v='hyl' />
  </node>
  <node id='-142899260' action='modify' lat='55.25525453245' lon='11.67465532804'>
    <tag k='name' v='fod' />
  </node>
  <node id='-142899261' action='modify' lat='55.25273052692' lon='11.71636716946'>
    <tag k='name' v='lad' />
  </node>
  <node id='-142899262' action='modify' lat='55.25095229751' lon='11.74575268686' />
  <node id='-142899263' action='modify' lat='55.24424858267' lon='11.76002002626' />
  <node id='-142899264' action='modify' lat='55.23881181522' lon='11.76155956754' />
  <node id='-142899265' action='modify' lat='55.23385802222' lon='11.76479367256' />
  <node id='-142899266' action='modify' lat='55.23131137101' lon='11.76736591101'>
    <tag k='name' v='nas' />
  </node>
  <way id='-36295287' action='modify'>
    <nd ref='-142899224' />
    <nd ref='-142899225' />
    <tag k='type' v='straight' />
  </way>
  <way id='-36295288' action='modify'>
    <nd ref='-142899225' />
    <nd ref='-142899226' />
    <nd ref='-142899227' />
    <tag k='type' v='arc' />
  </way>
  <way id='-36295289' action='modify'>
    <nd ref='-142899227' />
    <nd ref='-142899228' />
    <tag k='type' v='straight' />
  </way>
  <way id='-36295290' action='modify'>
    <nd ref='-142899228' />
    <nd ref='-142899229' />
    <nd ref='-142899230' />
  </way>
  <way id='-36295291' action='modify'>
    <nd ref='-142899230' />
    <nd ref='-142899231' />
    <tag k='type' v='straight' />
  </way>
  <way id='-36295292' action='modify'>
    <nd ref='-142899231' />
    <nd ref='-142899232' />
  </way>
  <way id='-36295293' action='modify'>
    <nd ref='-142899232' />
    <nd ref='-142899233' />
    <tag k='type' v='straight' />
  </way>
  <way id='-36295294' action='modify'>
    <nd ref='-142899233' />
    <nd ref='-142899234' />
  </way>
  <way id='-36295295' action='modify'>
    <nd ref='-142899234' />
    <nd ref='-142899235' />
    <tag k='type' v='straight' />
  </way>
  <way id='-36295296' action='modify'>
    <nd ref='-142899235' />
    <nd ref='-142899236' />
  </way>
  <way id='-36295297' action='modify'>
    <nd ref='-142899236' />
    <nd ref='-142899237' />
    <tag k='type' v='straight' />
  </way>
  <way id='-36295298' action='modify'>
    <nd ref='-142899237' />
    <nd ref='-142899238' />
    <nd ref='-142899239' />
  </way>
  <way id='-36295299' action='modify'>
    <nd ref='-142899239' />
    <nd ref='-142899240' />
    <tag k='type' v='straight' />
  </way>
  <way id='-36295300' action='modify'>
    <nd ref='-142899240' />
    <nd ref='-142899241' />
  </way>
  <way id='-36295301' action='modify'>
    <nd ref='-142899241' />
    <nd ref='-142899242' />
    <tag k='type' v='straight' />
  </way>
  <way id='-36295302' action='modify'>
    <nd ref='-142899242' />
    <nd ref='-142899243' />
  </way>
  <way id='-36295303' action='modify'>
    <nd ref='-142899243' />
    <nd ref='-142899244' />
    <nd ref='-142899245' />
    <tag k='type' v='straight' />
  </way>
  <way id='-36295304' action='modify'>
    <nd ref='-142899245' />
    <nd ref='-142899246' />
  </way>
  <way id='-36295305' action='modify'>
    <nd ref='-142899246' />
    <nd ref='-142899247' />
    <tag k='type' v='straight' />
  </way>
  <way id='-36295306' action='modify'>
    <nd ref='-142899247' />
    <nd ref='-142899248' />
  </way>
  <way id='-36295307' action='modify'>
    <nd ref='-142899248' />
    <nd ref='-142899249' />
    <nd ref='-142899251' />
    <tag k='type' v='straight' />
  </way>
  <way id='-36295308' action='modify'>
    <nd ref='-142899251' />
    <nd ref='-142899252' />
  </way>
  <way id='-36295309' action='modify'>
    <nd ref='-142899252' />
    <nd ref='-142899253' />
    <nd ref='-142899254' />
    <tag k='type' v='straight' />
  </way>
  <way id='-36295310' action='modify'>
    <nd ref='-142899254' />
    <nd ref='-142899255' />
  </way>
  <way id='-36295311' action='modify'>
    <nd ref='-142899255' />
    <nd ref='-142899256' />
    <nd ref='-142899257' />
    <tag k='type' v='straight' />
  </way>
  <way id='-36295312' action='modify'>
    <nd ref='-142899257' />
    <nd ref='-142899258' />
  </way>
  <way id='-36295313' action='modify'>
    <nd ref='-142899258' />
    <nd ref='-142899259' />
    <nd ref='-142899260' />
    <nd ref='-142899261' />
    <nd ref='-142899262' />
    <tag k='type' v='straight' />
  </way>
  <way id='-36295314' action='modify'>
    <nd ref='-142899262' />
    <nd ref='-142899263' />
  </way>
  <way id='-36295315' action='modify'>
    <nd ref='-142899263' />
    <nd ref='-142899264' />
    <tag k='type' v='straight' />
  </way>
  <way id='-36295319' action='modify'>
    <nd ref='-142899264' />
    <nd ref='-142899265' />
  </way>
  <way id='-36295320' action='modify'>
    <nd ref='-142899265' />
    <nd ref='-142899266' />
    <tag k='type' v='straight' />
  </way>
  <relation id='-14466961' action='modify'>
    <member type='way' ref='-36295287' role='' />
    <member type='way' ref='-36295288' role='' />
    <member type='way' ref='-36295289' role='' />
    <member type='way' ref='-36295290' role='' />
    <member type='way' ref='-36295291' role='' />
    <member type='way' ref='-36295292' role='' />
    <member type='way' ref='-36295293' role='' />
    <member type='way' ref='-36295294' role='' />
    <member type='way' ref='-36295295' role='' />
    <member type='way' ref='-36295296' role='' />
    <member type='way' ref='-36295297' role='' />
    <member type='way' ref='-36295298' role='' />
    <member type='way' ref='-36295299' role='' />
    <member type='way' ref='-36295300' role='' />
    <member type='way' ref='-36295301' role='' />
    <member type='way' ref='-36295302' role='' />
    <member type='way' ref='-36295303' role='' />
    <member type='way' ref='-36295304' role='' />
    <member type='way' ref='-36295305' role='' />
    <member type='way' ref='-36295306' role='' />
    <member type='way' ref='-36295307' role='' />
    <member type='way' ref='-36295308' role='' />
    <member type='way' ref='-36295309' role='' />
    <member type='way' ref='-36295310' role='' />
    <member type='way' ref='-36295311' role='' />
    <member type='way' ref='-36295312' role='' />
    <member type='way' ref='-36295313' role='' />
    <member type='way' ref='-36295314' role='' />
    <member type='way' ref='-36295315' role='' />
    <member type='way' ref='-36295319' role='' />
    <member type='way' ref='-36295320' role='' />
    <tag k='key' v='path.dk.snv' />
    <tag k='name' v='DK SNV' />
    <tag k='type' v='path' />
  </relation>
</osm>
