<?xml version='1.0' encoding='UTF-8'?>
<osm version='0.6' upload='false' generator='JOSM'>
  <node id='-141778913' action='modify' lat='55.42018778852' lon='11.57265223447' />
  <node id='-141778914' action='modify' lat='55.41967802377' lon='11.56911018281'>
    <tag k='name' v='sor' />
  </node>
  <node id='-141778915' action='modify' lat='55.42671828' lon='11.5752982986' />
  <node id='-141778916' action='modify' lat='55.43115631639' lon='11.5640222919' />
  <node id='-141778917' action='modify' lat='55.43424560139' lon='11.56147955775' />
  <node id='-141778918' action='modify' lat='55.43493376213' lon='11.56150548179'>
    <tag k='name' v='sob' />
  </node>
  <node id='-141778919' action='modify' lat='55.44164977027' lon='11.56175850749' />
  <node id='-141778920' action='modify' lat='55.44295516714' lon='11.56188189447' />
  <node id='-141778921' action='modify' lat='55.45310173658' lon='11.5632498157' />
  <node id='-141778922' action='modify' lat='55.4582718263' lon='11.56527897114'>
    <tag k='name' v='ped' />
  </node>
  <node id='-141778923' action='modify' lat='55.45979977845' lon='11.56653283954' />
  <node id='-141778924' action='modify' lat='55.46237283815' lon='11.57007335544' />
  <node id='-141778925' action='modify' lat='55.4669649979' lon='11.57183288455' />
  <node id='-141778926' action='modify' lat='55.47457281655' lon='11.56918286204' />
  <node id='-141778927' action='modify' lat='55.4797350802' lon='11.57028793216' />
  <node id='-141778928' action='modify' lat='55.4810118609' lon='11.57104967952' />
  <node id='-141778929' action='modify' lat='55.48682373023' lon='11.57016991496' />
  <node id='-141778930' action='modify' lat='55.48727356721' lon='11.56977294803' />
  <node id='-141778931' action='modify' lat='55.48785437141' lon='11.56918682517'>
    <tag k='name' v='doj' />
  </node>
  <node id='-141778932' action='modify' lat='55.48874461986' lon='11.56822799563' />
  <node id='-141778933' action='modify' lat='55.4891032566' lon='11.56777738452' />
  <node id='-141778934' action='modify' lat='55.49061071092' lon='11.56287430644' />
  <node id='-141778935' action='modify' lat='55.49078698206' lon='11.56201599956' />
  <node id='-141778936' action='modify' lat='55.49353427845' lon='11.55567525744' />
  <node id='-141778937' action='modify' lat='55.49998237852' lon='11.55058978915' />
  <node id='-141778938' action='modify' lat='55.50302070248' lon='11.5437018764' />
  <node id='-141778939' action='modify' lat='55.50449724328' lon='11.53000115275' />
  <node id='-141778940' action='modify' lat='55.5051944794' lon='11.527694453' />
  <node id='-141778941' action='modify' lat='55.50562421593' lon='11.52675065174'>
    <tag k='name' v='mun' />
  </node>
  <node id='-141778942' action='modify' lat='55.50715092791' lon='11.52339755416' />
  <node id='-141778943' action='modify' lat='55.5114903118' lon='11.5226948154' />
  <node id='-141778944' action='modify' lat='55.52471359654' lon='11.53610586047' />
  <node id='-141778945' action='modify' lat='55.52686340291' lon='11.53790830493' />
  <node id='-141778946' action='modify' lat='55.5302032645' lon='11.54009698749' />
  <node id='-141778947' action='modify' lat='55.53170289701' lon='11.54307107114' />
  <node id='-141778948' action='modify' lat='55.53235565382' lon='11.54640735849' />
  <node id='-141778953' action='modify' lat='55.53255162009' lon='11.54732286662'>
    <tag k='name' v='ved' />
  </node>
  <node id='-141778954' action='modify' lat='55.53259108713' lon='11.54748916358' />
  <way id='-36236903' action='modify'>
    <nd ref='-141778914' />
    <nd ref='-141778913' />
    <tag k='type' v='straight' />
  </way>
  <way id='-36236904' action='modify'>
    <nd ref='-141778913' />
    <nd ref='-141778915' />
  </way>
  <way id='-36236905' action='modify'>
    <nd ref='-141778915' />
    <nd ref='-141778916' />
    <tag k='type' v='straight' />
  </way>
  <way id='-36236906' action='modify'>
    <nd ref='-141778916' />
    <nd ref='-141778917' />
  </way>
  <way id='-36236907' action='modify'>
    <nd ref='-141778917' />
    <nd ref='-141778918' />
    <nd ref='-141778919' />
    <tag k='type' v='straight' />
  </way>
  <way id='-36236908' action='modify'>
    <nd ref='-141778919' />
    <nd ref='-141778920' />
  </way>
  <way id='-36236909' action='modify'>
    <nd ref='-141778920' />
    <nd ref='-141778921' />
    <tag k='type' v='straight' />
  </way>
  <way id='-36236910' action='modify'>
    <nd ref='-141778921' />
    <nd ref='-141778922' />
    <nd ref='-141778923' />
  </way>
  <way id='-36236911' action='modify'>
    <nd ref='-141778923' />
    <nd ref='-141778924' />
    <tag k='type' v='straight' />
  </way>
  <way id='-36236912' action='modify'>
    <nd ref='-141778924' />
    <nd ref='-141778925' />
  </way>
  <way id='-36236913' action='modify'>
    <nd ref='-141778925' />
    <nd ref='-141778926' />
    <tag k='type' v='straight' />
  </way>
  <way id='-36236914' action='modify'>
    <nd ref='-141778926' />
    <nd ref='-141778927' />
  </way>
  <way id='-36236915' action='modify'>
    <nd ref='-141778927' />
    <nd ref='-141778928' />
    <tag k='type' v='straight' />
  </way>
  <way id='-36236916' action='modify'>
    <nd ref='-141778928' />
    <nd ref='-141778929' />
  </way>
  <way id='-36236917' action='modify'>
    <nd ref='-141778929' />
    <nd ref='-141778930' />
    <tag k='type' v='straight' />
  </way>
  <way id='-36236918' action='modify'>
    <nd ref='-141778930' />
    <nd ref='-141778931' />
    <nd ref='-141778932' />
  </way>
  <way id='-36236919' action='modify'>
    <nd ref='-141778932' />
    <nd ref='-141778933' />
    <tag k='type' v='straight' />
  </way>
  <way id='-36236920' action='modify'>
    <nd ref='-141778933' />
    <nd ref='-141778934' />
  </way>
  <way id='-36236921' action='modify'>
    <nd ref='-141778934' />
    <nd ref='-141778935' />
    <tag k='type' v='straight' />
  </way>
  <way id='-36236922' action='modify'>
    <nd ref='-141778935' />
    <nd ref='-141778936' />
  </way>
  <way id='-36236923' action='modify'>
    <nd ref='-141778936' />
    <nd ref='-141778937' />
    <tag k='type' v='straight' />
  </way>
  <way id='-36236924' action='modify'>
    <nd ref='-141778937' />
    <nd ref='-141778938' />
  </way>
  <way id='-36236925' action='modify'>
    <nd ref='-141778938' />
    <nd ref='-141778939' />
    <tag k='type' v='straight' />
  </way>
  <way id='-36236926' action='modify'>
    <nd ref='-141778939' />
    <nd ref='-141778940' />
  </way>
  <way id='-36236927' action='modify'>
    <nd ref='-141778940' />
    <nd ref='-141778941' />
    <nd ref='-141778942' />
    <tag k='type' v='straight' />
  </way>
  <way id='-36236928' action='modify'>
    <nd ref='-141778942' />
    <nd ref='-141778943' />
  </way>
  <way id='-36236929' action='modify'>
    <nd ref='-141778943' />
    <nd ref='-141778944' />
    <tag k='type' v='straight' />
  </way>
  <way id='-36236930' action='modify'>
    <nd ref='-141778944' />
    <nd ref='-141778945' />
  </way>
  <way id='-36236931' action='modify'>
    <nd ref='-141778945' />
    <nd ref='-141778946' />
    <tag k='type' v='straight' />
  </way>
  <way id='-36236932' action='modify'>
    <nd ref='-141778946' />
    <nd ref='-141778947' />
  </way>
  <way id='-36236933' action='modify'>
    <nd ref='-141778947' />
    <nd ref='-141778948' />
    <tag k='type' v='straight' />
  </way>
  <way id='-36236938' action='modify'>
    <nd ref='-141778948' />
    <nd ref='-141778953' />
  </way>
  <way id='-36236939' action='modify'>
    <nd ref='-141778953' />
    <nd ref='-141778954' />
    <tag k='type' v='straight' />
  </way>
  <relation id='-14466659' action='modify'>
    <member type='way' ref='-36236903' role='' />
    <member type='way' ref='-36236904' role='' />
    <member type='way' ref='-36236905' role='' />
    <member type='way' ref='-36236906' role='' />
    <member type='way' ref='-36236907' role='' />
    <member type='way' ref='-36236908' role='' />
    <member type='way' ref='-36236909' role='' />
    <member type='way' ref='-36236910' role='' />
    <member type='way' ref='-36236911' role='' />
    <member type='way' ref='-36236912' role='' />
    <member type='way' ref='-36236913' role='' />
    <member type='way' ref='-36236914' role='' />
    <member type='way' ref='-36236915' role='' />
    <member type='way' ref='-36236916' role='' />
    <member type='way' ref='-36236917' role='' />
    <member type='way' ref='-36236918' role='' />
    <member type='way' ref='-36236919' role='' />
    <member type='way' ref='-36236920' role='' />
    <member type='way' ref='-36236921' role='' />
    <member type='way' ref='-36236922' role='' />
    <member type='way' ref='-36236923' role='' />
    <member type='way' ref='-36236924' role='' />
    <member type='way' ref='-36236925' role='' />
    <member type='way' ref='-36236926' role='' />
    <member type='way' ref='-36236927' role='' />
    <member type='way' ref='-36236928' role='' />
    <member type='way' ref='-36236929' role='' />
    <member type='way' ref='-36236930' role='' />
    <member type='way' ref='-36236931' role='' />
    <member type='way' ref='-36236932' role='' />
    <member type='way' ref='-36236933' role='' />
    <member type='way' ref='-36236938' role='' />
    <member type='way' ref='-36236939' role='' />
    <tag k='key' v='path.dk.srv' />
    <tag k='name' v='DK SRV' />
    <tag k='type' v='path' />
  </relation>
</osm>
