<?xml version='1.0' encoding='UTF-8'?>
<osm version='0.6' upload='false' generator='JOSM'>
  <node id='-184313516' action='modify' lat='54.91042194014' lon='9.79422497595'>
    <tag k='name' v='sob' />
  </node>
  <node id='-184313517' action='modify' lat='54.9104898971' lon='9.79477822512' />
  <node id='-184313518' action='modify' lat='54.91063175004' lon='9.79581087559' />
  <node id='-184313519' action='modify' lat='54.91076589312' lon='9.79658335179' />
  <node id='-184313520' action='modify' lat='54.91120378236' lon='9.79778498143' />
  <node id='-184313521' action='modify' lat='54.91389731315' lon='9.80198800296' />
  <node id='-184313522' action='modify' lat='54.91447392425' lon='9.80375826091' />
  <node id='-184313523' action='modify' lat='54.91813074135' lon='9.82141256064' />
  <node id='-184313524' action='modify' lat='54.9185546763' lon='9.82294946641' />
  <node id='-184313525' action='modify' lat='54.91905616198' lon='9.82443687631'>
    <tag k='name' v='sun' />
  </node>
  <node id='-184313526' action='modify' lat='54.9193794097' lon='9.82539564103' />
  <node id='-184313527' action='modify' lat='54.92056946402' lon='9.82762991846' />
  <node id='-184313528' action='modify' lat='54.92351361434' lon='9.83114361227' />
  <node id='-184313529' action='modify' lat='54.92450317041' lon='9.83285486162'>
    <tag k='name' v='spa' />
  </node>
  <node id='-184313530' action='modify' lat='54.92505805102' lon='9.83541905344' />
  <node id='-184313531' action='modify' lat='54.92553585875' lon='9.83880400121' />
  <node id='-184313532' action='modify' lat='54.92558055506' lon='9.84155326813' />
  <node id='-184313533' action='modify' lat='54.92548191146' lon='9.84332084388' />
  <node id='-184313534' action='modify' lat='54.92531853246' lon='9.84567582339' />
  <node id='-184313535' action='modify' lat='54.925301578' lon='9.84699815243' />
  <node id='-184313536' action='modify' lat='54.92542642432' lon='9.84857260913' />
  <node id='-184313537' action='modify' lat='54.9260198244' lon='9.85158741206' />
  <node id='-184313538' action='modify' lat='54.92645754768' lon='9.85461294383' />
  <node id='-184313539' action='modify' lat='54.92659233467' lon='9.85666277089'>
    <tag k='name' v='vol' />
  </node>
  <node id='-184313541' action='modify' lat='54.92693265814' lon='9.86183840716' />
  <node id='-184313542' action='modify' lat='54.92683669851' lon='9.86473291844' />
  <node id='-184313543' action='modify' lat='54.92586569998' lon='9.87582920909' />
  <node id='-184313544' action='modify' lat='54.92552661399' lon='9.87780331492' />
  <node id='-184313545' action='modify' lat='54.92515053346' lon='9.87930535197' />
  <node id='-184313546' action='modify' lat='54.925014897' lon='9.88206266284' />
  <node id='-184313547' action='modify' lat='54.9253663178' lon='9.88635419726' />
  <node id='-184313548' action='modify' lat='54.92553894444' lon='9.88869308352' />
  <node id='-184313549' action='modify' lat='54.92565608352' lon='9.89706157565' />
  <node id='-184313550' action='modify' lat='54.92548037169' lon='9.90027754962' />
  <node id='-184313551' action='modify' lat='54.92530356135' lon='9.90210071271'>
    <tag k='name' v='kir' />
  </node>
  <node id='-184313552' action='modify' lat='54.92527383586' lon='9.90240722358' />
  <node id='-184313553' action='modify' lat='54.9246388086' lon='9.90502774179' />
  <node id='-184313554' action='modify' lat='54.92446309541' lon='9.90562855661' />
  <node id='-184313555' action='modify' lat='54.92389587565' lon='9.90817129076' />
  <node id='-184313556' action='modify' lat='54.92275524648' lon='9.91538106858' />
  <node id='-184313557' action='modify' lat='54.9225671937' lon='9.91722106397' />
  <node id='-184313558' action='modify' lat='54.92242538283' lon='9.91947411954' />
  <node id='-184313559' action='modify' lat='54.92242846568' lon='9.92101370752' />
  <node id='-184313560' action='modify' lat='54.92318071046' lon='9.92680813122'>
    <tag k='name' v='maj' />
  </node>
  <node id='-184313561' action='modify' lat='54.92335331013' lon='9.92813765466' />
  <node id='-184313562' action='modify' lat='54.92353981785' lon='9.92968528926' />
  <node id='-184313563' action='modify' lat='54.92360455587' lon='9.9304094857' />
  <node id='-184313564' action='modify' lat='54.9237633177' lon='9.93182837427' />
  <node id='-184313565' action='modify' lat='54.9242164791' lon='9.93426382005' />
  <node id='-184313566' action='modify' lat='54.92436753177' lon='9.93889331281' />
  <node id='-184313567' action='modify' lat='54.92430587769' lon='9.94024514616' />
  <node id='-184313568' action='modify' lat='54.92459565413' lon='9.94322775722' />
  <node id='-184313569' action='modify' lat='54.92522616806' lon='9.94611225906'>
    <tag k='name' v='bjo' />
  </node>
  <node id='-184313570' action='modify' lat='54.92557593577' lon='9.94771241069' />
  <node id='-184313571' action='modify' lat='54.9258841955' lon='9.94998692393' />
  <node id='-184313572' action='modify' lat='54.92614313184' lon='9.95447157741' />
  <node id='-184313573' action='modify' lat='54.92635890778' lon='9.95634376466' />
  <node id='-184313574' action='modify' lat='54.92737613612' lon='9.96135949552' />
  <node id='-184313575' action='modify' lat='54.92753026246' lon='9.96541499019' />
  <node id='-184313576' action='modify' lat='54.92743470303' lon='9.96723353326' />
  <node id='-184313577' action='modify' lat='54.9272805794' lon='9.96939002931' />
  <node id='-184313578' action='modify' lat='54.92723964923' lon='9.96986162422'>
    <tag k='name' v='tan' />
  </node>
  <node id='-184313579' action='modify' lat='54.92683361754' lon='9.97453987062' />
  <node id='-184313580' action='modify' lat='54.92633425046' lon='9.97695921779' />
  <node id='-184313581' action='modify' lat='54.92437370025' lon='9.98280643344' />
  <node id='-184313582' action='modify' lat='54.92389837181' lon='9.9840300041' />
  <node id='-184313584' action='modify' lat='54.92179133569' lon='9.9887283857'>
    <tag k='name' v='nta' />
  </node>
  <node id='-184313585' action='modify' lat='54.92055096452' lon='9.99149411649' />
  <node id='-184313586' action='modify' lat='54.91916359479' lon='9.99411999643' />
  <node id='-184313587' action='modify' lat='54.91697453394' lon='9.99769269884' />
  <node id='-184313588' action='modify' lat='54.91540820325' lon='10.00126003683' />
  <node id='-184313589' action='modify' lat='54.91500119395' lon='10.00326096475' />
  <node id='-184313590' action='modify' lat='54.91477918715' lon='10.00450014532' />
  <node id='-184313591' action='modify' lat='54.91469116971' lon='10.00508988617'>
    <tag k='name' v='lmo' />
  </node>
  <node id='-184313592' action='modify' lat='54.91417791257' lon='10.00852882326' />
  <node id='-184313593' action='modify' lat='54.91228460984' lon='10.01129686296' />
  <node id='-184313594' action='modify' lat='54.90849773719' lon='10.01321732461' />
  <node id='-184313595' action='modify' lat='54.90688173195' lon='10.01320123136' />
  <node id='-184313596' action='modify' lat='54.9025391675' lon='10.0111895746' />
  <node id='-184313597' action='modify' lat='54.90110490803' lon='10.00931202829' />
  <node id='-184313598' action='modify' lat='54.9002077382' lon='10.0069325132'>
    <tag k='name' v='lys' />
  </node>
  <node id='-184313599' action='modify' lat='54.89984179206' lon='10.00596194923' />
  <node id='-184313600' action='modify' lat='54.89943770842' lon='10.00417023629' />
  <node id='-184313601' action='modify' lat='54.89760078494' lon='9.99343870997' />
  <node id='-184313602' action='modify' lat='54.89634835602' lon='9.99214052081' />
  <node id='-184313603' action='modify' lat='54.89616314924' lon='9.99217991725'>
    <tag k='name' v='fje' />
  </node>
  <node id='-184313604' action='modify' lat='54.88461623079' lon='9.99476055338'>
    <tag k='name' v='sko' />
  </node>
  <node id='-184313605' action='modify' lat='54.88414593305' lon='9.99486564517'>
    <tag k='name' v='sko.f' />
  </node>
  <way id='-39023884' action='modify'>
    <nd ref='-184313516' />
    <nd ref='-184313517' />
    <tag k='type' v='straight' />
  </way>
  <way id='-39023885' action='modify'>
    <nd ref='-184313517' />
    <nd ref='-184313518' />
  </way>
  <way id='-39023886' action='modify'>
    <nd ref='-184313518' />
    <nd ref='-184313519' />
    <tag k='type' v='straight' />
  </way>
  <way id='-39023887' action='modify'>
    <nd ref='-184313519' />
    <nd ref='-184313520' />
  </way>
  <way id='-39023888' action='modify'>
    <nd ref='-184313520' />
    <nd ref='-184313521' />
    <tag k='type' v='straight' />
  </way>
  <way id='-39023889' action='modify'>
    <nd ref='-184313521' />
    <nd ref='-184313522' />
  </way>
  <way id='-39023890' action='modify'>
    <nd ref='-184313522' />
    <nd ref='-184313523' />
    <tag k='type' v='straight' />
  </way>
  <way id='-39023891' action='modify'>
    <nd ref='-184313523' />
    <nd ref='-184313524' />
  </way>
  <way id='-39023892' action='modify'>
    <nd ref='-184313524' />
    <nd ref='-184313525' />
    <nd ref='-184313526' />
    <tag k='type' v='straight' />
  </way>
  <way id='-39023893' action='modify'>
    <nd ref='-184313526' />
    <nd ref='-184313527' />
  </way>
  <way id='-39023894' action='modify'>
    <nd ref='-184313527' />
    <nd ref='-184313528' />
    <tag k='type' v='straight' />
  </way>
  <way id='-39023895' action='modify'>
    <nd ref='-184313528' />
    <nd ref='-184313529' />
    <nd ref='-184313530' />
  </way>
  <way id='-39023896' action='modify'>
    <nd ref='-184313530' />
    <nd ref='-184313531' />
    <tag k='type' v='straight' />
  </way>
  <way id='-39023897' action='modify'>
    <nd ref='-184313531' />
    <nd ref='-184313532' />
  </way>
  <way id='-39023898' action='modify'>
    <nd ref='-184313532' />
    <nd ref='-184313533' />
    <tag k='type' v='straight' />
  </way>
  <way id='-39023899' action='modify'>
    <nd ref='-184313533' />
    <nd ref='-184313534' />
  </way>
  <way id='-39023900' action='modify'>
    <nd ref='-184313534' />
    <nd ref='-184313535' />
    <tag k='type' v='straight' />
  </way>
  <way id='-39023901' action='modify'>
    <nd ref='-184313535' />
    <nd ref='-184313536' />
  </way>
  <way id='-39023902' action='modify'>
    <nd ref='-184313536' />
    <nd ref='-184313537' />
    <tag k='type' v='straight' />
  </way>
  <way id='-39023903' action='modify'>
    <nd ref='-184313537' />
    <nd ref='-184313538' />
  </way>
  <way id='-39023904' action='modify'>
    <nd ref='-184313538' />
    <nd ref='-184313539' />
    <nd ref='-184313541' />
    <tag k='type' v='straight' />
  </way>
  <way id='-39023905' action='modify'>
    <nd ref='-184313541' />
    <nd ref='-184313542' />
  </way>
  <way id='-39023906' action='modify'>
    <nd ref='-184313542' />
    <nd ref='-184313543' />
    <tag k='type' v='straight' />
  </way>
  <way id='-39023907' action='modify'>
    <nd ref='-184313543' />
    <nd ref='-184313544' />
  </way>
  <way id='-39023908' action='modify'>
    <nd ref='-184313544' />
    <nd ref='-184313545' />
    <tag k='type' v='straight' />
  </way>
  <way id='-39023909' action='modify'>
    <nd ref='-184313545' />
    <nd ref='-184313546' />
  </way>
  <way id='-39023910' action='modify'>
    <nd ref='-184313546' />
    <nd ref='-184313547' />
    <tag k='type' v='straight' />
  </way>
  <way id='-39023911' action='modify'>
    <nd ref='-184313547' />
    <nd ref='-184313548' />
  </way>
  <way id='-39023912' action='modify'>
    <nd ref='-184313548' />
    <nd ref='-184313549' />
    <tag k='type' v='straight' />
  </way>
  <way id='-39023913' action='modify'>
    <nd ref='-184313549' />
    <nd ref='-184313550' />
  </way>
  <way id='-39023914' action='modify'>
    <nd ref='-184313550' />
    <nd ref='-184313551' />
    <nd ref='-184313552' />
    <tag k='type' v='straight' />
  </way>
  <way id='-39023915' action='modify'>
    <nd ref='-184313552' />
    <nd ref='-184313553' />
  </way>
  <way id='-39023916' action='modify'>
    <nd ref='-184313553' />
    <nd ref='-184313554' />
    <tag k='type' v='straight' />
  </way>
  <way id='-39023917' action='modify'>
    <nd ref='-184313554' />
    <nd ref='-184313555' />
  </way>
  <way id='-39023918' action='modify'>
    <nd ref='-184313555' />
    <nd ref='-184313556' />
    <tag k='type' v='straight' />
  </way>
  <way id='-39023919' action='modify'>
    <nd ref='-184313556' />
    <nd ref='-184313557' />
  </way>
  <way id='-39023920' action='modify'>
    <nd ref='-184313557' />
    <nd ref='-184313558' />
    <tag k='type' v='straight' />
  </way>
  <way id='-39023921' action='modify'>
    <nd ref='-184313558' />
    <nd ref='-184313559' />
  </way>
  <way id='-39023922' action='modify'>
    <nd ref='-184313559' />
    <nd ref='-184313560' />
    <nd ref='-184313561' />
    <tag k='type' v='straight' />
  </way>
  <way id='-39023923' action='modify'>
    <nd ref='-184313561' />
    <nd ref='-184313562' />
  </way>
  <way id='-39023924' action='modify'>
    <nd ref='-184313562' />
    <nd ref='-184313563' />
    <tag k='type' v='straight' />
  </way>
  <way id='-39023925' action='modify'>
    <nd ref='-184313563' />
    <nd ref='-184313564' />
  </way>
  <way id='-39023926' action='modify'>
    <nd ref='-184313564' />
    <nd ref='-184313565' />
    <tag k='type' v='straight' />
  </way>
  <way id='-39023927' action='modify'>
    <nd ref='-184313565' />
    <nd ref='-184313566' />
  </way>
  <way id='-39023928' action='modify'>
    <nd ref='-184313566' />
    <nd ref='-184313567' />
    <tag k='type' v='straight' />
  </way>
  <way id='-39023929' action='modify'>
    <nd ref='-184313567' />
    <nd ref='-184313568' />
  </way>
  <way id='-39023930' action='modify'>
    <nd ref='-184313568' />
    <nd ref='-184313569' />
    <nd ref='-184313570' />
    <tag k='type' v='straight' />
  </way>
  <way id='-39023931' action='modify'>
    <nd ref='-184313570' />
    <nd ref='-184313571' />
  </way>
  <way id='-39023932' action='modify'>
    <nd ref='-184313571' />
    <nd ref='-184313572' />
    <tag k='type' v='straight' />
  </way>
  <way id='-39023933' action='modify'>
    <nd ref='-184313572' />
    <nd ref='-184313573' />
  </way>
  <way id='-39023934' action='modify'>
    <nd ref='-184313573' />
    <nd ref='-184313574' />
    <tag k='type' v='straight' />
  </way>
  <way id='-39023935' action='modify'>
    <nd ref='-184313574' />
    <nd ref='-184313575' />
  </way>
  <way id='-39023936' action='modify'>
    <nd ref='-184313575' />
    <nd ref='-184313576' />
    <tag k='type' v='straight' />
  </way>
  <way id='-39023937' action='modify'>
    <nd ref='-184313576' />
    <nd ref='-184313577' />
  </way>
  <way id='-39023938' action='modify'>
    <nd ref='-184313577' />
    <nd ref='-184313578' />
    <nd ref='-184313579' />
    <tag k='type' v='straight' />
  </way>
  <way id='-39023939' action='modify'>
    <nd ref='-184313579' />
    <nd ref='-184313580' />
  </way>
  <way id='-39023940' action='modify'>
    <nd ref='-184313580' />
    <nd ref='-184313581' />
    <tag k='type' v='straight' />
  </way>
  <way id='-39023941' action='modify'>
    <nd ref='-184313581' />
    <nd ref='-184313582' />
  </way>
  <way id='-39023943' action='modify'>
    <nd ref='-184313582' />
    <nd ref='-184313584' />
    <nd ref='-184313585' />
    <tag k='type' v='straight' />
  </way>
  <way id='-39023944' action='modify'>
    <nd ref='-184313585' />
    <nd ref='-184313586' />
  </way>
  <way id='-39023945' action='modify'>
    <nd ref='-184313586' />
    <nd ref='-184313587' />
    <tag k='type' v='straight' />
  </way>
  <way id='-39023946' action='modify'>
    <nd ref='-184313587' />
    <nd ref='-184313588' />
  </way>
  <way id='-39023947' action='modify'>
    <nd ref='-184313588' />
    <nd ref='-184313589' />
    <tag k='type' v='straight' />
  </way>
  <way id='-39023948' action='modify'>
    <nd ref='-184313589' />
    <nd ref='-184313590' />
  </way>
  <way id='-39023949' action='modify'>
    <nd ref='-184313590' />
    <nd ref='-184313591' />
    <nd ref='-184313592' />
    <tag k='type' v='straight' />
  </way>
  <way id='-39023950' action='modify'>
    <nd ref='-184313592' />
    <nd ref='-184313593' />
  </way>
  <way id='-39023951' action='modify'>
    <nd ref='-184313593' />
    <nd ref='-184313594' />
    <tag k='type' v='straight' />
  </way>
  <way id='-39023952' action='modify'>
    <nd ref='-184313594' />
    <nd ref='-184313595' />
  </way>
  <way id='-39023953' action='modify'>
    <nd ref='-184313595' />
    <nd ref='-184313596' />
    <tag k='type' v='straight' />
  </way>
  <way id='-39023954' action='modify'>
    <nd ref='-184313596' />
    <nd ref='-184313597' />
  </way>
  <way id='-39023955' action='modify'>
    <nd ref='-184313597' />
    <nd ref='-184313598' />
    <nd ref='-184313599' />
    <tag k='type' v='straight' />
  </way>
  <way id='-39023956' action='modify'>
    <nd ref='-184313599' />
    <nd ref='-184313600' />
  </way>
  <way id='-39023957' action='modify'>
    <nd ref='-184313600' />
    <nd ref='-184313601' />
    <tag k='type' v='straight' />
  </way>
  <way id='-39023958' action='modify'>
    <nd ref='-184313601' />
    <nd ref='-184313602' />
  </way>
  <way id='-39023959' action='modify'>
    <nd ref='-184313602' />
    <nd ref='-184313603' />
    <nd ref='-184313604' />
    <nd ref='-184313605' />
    <tag k='type' v='straight' />
  </way>
  <relation id='-14493140' action='modify'>
    <member type='way' ref='-39023884' role='' />
    <member type='way' ref='-39023885' role='' />
    <member type='way' ref='-39023886' role='' />
    <member type='way' ref='-39023887' role='' />
    <member type='way' ref='-39023888' role='' />
    <member type='way' ref='-39023889' role='' />
    <member type='way' ref='-39023890' role='' />
    <member type='way' ref='-39023891' role='' />
    <member type='way' ref='-39023892' role='' />
    <member type='way' ref='-39023893' role='' />
    <member type='way' ref='-39023894' role='' />
    <member type='way' ref='-39023895' role='' />
    <member type='way' ref='-39023896' role='' />
    <member type='way' ref='-39023897' role='' />
    <member type='way' ref='-39023898' role='' />
    <member type='way' ref='-39023899' role='' />
    <member type='way' ref='-39023900' role='' />
    <member type='way' ref='-39023901' role='' />
    <member type='way' ref='-39023902' role='' />
    <member type='way' ref='-39023903' role='' />
    <member type='way' ref='-39023904' role='' />
    <member type='way' ref='-39023905' role='' />
    <member type='way' ref='-39023906' role='' />
    <member type='way' ref='-39023907' role='' />
    <member type='way' ref='-39023908' role='' />
    <member type='way' ref='-39023909' role='' />
    <member type='way' ref='-39023910' role='' />
    <member type='way' ref='-39023911' role='' />
    <member type='way' ref='-39023912' role='' />
    <member type='way' ref='-39023913' role='' />
    <member type='way' ref='-39023914' role='' />
    <member type='way' ref='-39023915' role='' />
    <member type='way' ref='-39023916' role='' />
    <member type='way' ref='-39023917' role='' />
    <member type='way' ref='-39023918' role='' />
    <member type='way' ref='-39023919' role='' />
    <member type='way' ref='-39023920' role='' />
    <member type='way' ref='-39023921' role='' />
    <member type='way' ref='-39023922' role='' />
    <member type='way' ref='-39023923' role='' />
    <member type='way' ref='-39023924' role='' />
    <member type='way' ref='-39023925' role='' />
    <member type='way' ref='-39023926' role='' />
    <member type='way' ref='-39023927' role='' />
    <member type='way' ref='-39023928' role='' />
    <member type='way' ref='-39023929' role='' />
    <member type='way' ref='-39023930' role='' />
    <member type='way' ref='-39023931' role='' />
    <member type='way' ref='-39023932' role='' />
    <member type='way' ref='-39023933' role='' />
    <member type='way' ref='-39023934' role='' />
    <member type='way' ref='-39023935' role='' />
    <member type='way' ref='-39023936' role='' />
    <member type='way' ref='-39023937' role='' />
    <member type='way' ref='-39023938' role='' />
    <member type='way' ref='-39023939' role='' />
    <member type='way' ref='-39023940' role='' />
    <member type='way' ref='-39023941' role='' />
    <member type='way' ref='-39023943' role='' />
    <member type='way' ref='-39023944' role='' />
    <member type='way' ref='-39023945' role='' />
    <member type='way' ref='-39023946' role='' />
    <member type='way' ref='-39023947' role='' />
    <member type='way' ref='-39023948' role='' />
    <member type='way' ref='-39023949' role='' />
    <member type='way' ref='-39023950' role='' />
    <member type='way' ref='-39023951' role='' />
    <member type='way' ref='-39023952' role='' />
    <member type='way' ref='-39023953' role='' />
    <member type='way' ref='-39023954' role='' />
    <member type='way' ref='-39023955' role='' />
    <member type='way' ref='-39023956' role='' />
    <member type='way' ref='-39023957' role='' />
    <member type='way' ref='-39023958' role='' />
    <member type='way' ref='-39023959' role='' />
    <tag k='key' v='path.dk.ssb' />
    <tag k='name' v='DK SSB' />
    <tag k='type' v='path' />
  </relation>
</osm>
