<?xml version='1.0' encoding='UTF-8'?>
<osm version='0.6' upload='false' generator='JOSM'>
  <node id='-146857756' action='modify' lat='55.36266289959' lon='11.17017743443'>
    <tag k='name' v='sve' />
  </node>
  <node id='-146857757' action='modify' lat='55.36265832648' lon='11.16653494318' />
  <node id='-146857758' action='modify' lat='55.36180537169' lon='11.15822699499' />
  <node id='-146857759' action='modify' lat='55.36164961575' lon='11.15748823133' />
  <node id='-146857760' action='modify' lat='55.35207977531' lon='11.142690171' />
  <node id='-146857761' action='modify' lat='55.34606502765' lon='11.14010452151' />
  <node id='-146857762' action='modify' lat='55.34232517531' lon='11.13907455325' />
  <node id='-146857763' action='modify' lat='55.33925005665' lon='11.13869904399' />
  <node id='-146857764' action='modify' lat='55.33630131383' lon='11.13681882352'>
    <tag k='name' v='kor' />
  </node>
  <node id='-146857765' action='modify' lat='55.33550955625' lon='11.135593054' />
  <way id='-36532137' action='modify'>
    <nd ref='-146857756' />
    <nd ref='-146857757' />
    <tag k='type' v='straight' />
  </way>
  <way id='-36532138' action='modify'>
    <nd ref='-146857757' />
    <nd ref='-146857758' />
    <tag k='type' v='arc' />
  </way>
  <way id='-36532139' action='modify'>
    <nd ref='-146857758' />
    <nd ref='-146857759' />
    <tag k='type' v='straight' />
  </way>
  <way id='-36532140' action='modify'>
    <nd ref='-146857759' />
    <nd ref='-146857760' />
  </way>
  <way id='-36532141' action='modify'>
    <nd ref='-146857760' />
    <nd ref='-146857761' />
    <tag k='type' v='straight' />
  </way>
  <way id='-36532142' action='modify'>
    <nd ref='-146857761' />
    <nd ref='-146857762' />
  </way>
  <way id='-36532143' action='modify'>
    <nd ref='-146857762' />
    <nd ref='-146857763' />
    <tag k='type' v='straight' />
  </way>
  <way id='-36532144' action='modify'>
    <nd ref='-146857763' />
    <nd ref='-146857764' />
  </way>
  <way id='-36532145' action='modify'>
    <nd ref='-146857764' />
    <nd ref='-146857765' />
    <tag k='type' v='straight' />
  </way>
  <relation id='-14468899' action='modify'>
    <member type='way' ref='-36532137' role='' />
    <member type='way' ref='-36532138' role='' />
    <member type='way' ref='-36532139' role='' />
    <member type='way' ref='-36532140' role='' />
    <member type='way' ref='-36532141' role='' />
    <member type='way' ref='-36532142' role='' />
    <member type='way' ref='-36532143' role='' />
    <member type='way' ref='-36532144' role='' />
    <member type='way' ref='-36532145' role='' />
    <tag k='key' v='path.dk.ssk' />
    <tag k='name' v='DK SSK' />
    <tag k='type' v='path' />
  </relation>
</osm>
