<?xml version='1.0' encoding='UTF-8'?>
<osm version='0.6' upload='false' generator='JOSM'>
  <node id='-164352400' action='modify' lat='56.49164446712' lon='8.60066955657'>
    <tag k='name' v='str' />
  </node>
  <node id='-164352402' action='modify' lat='56.49212745171' lon='8.59654155937' />
  <node id='-164352403' action='modify' lat='56.49234295768' lon='8.59469487995'>
    <tag k='name' v='sha' />
  </node>
  <node id='-164352404' action='modify' lat='56.49272039509' lon='8.5920124352' />
  <node id='-164352405' action='modify' lat='56.49312513316' lon='8.58918562464' />
  <node id='-164352406' action='modify' lat='56.49666490101' lon='8.58303934202' />
  <node id='-164352407' action='modify' lat='56.50138383042' lon='8.58165263996' />
  <node id='-164352408' action='modify' lat='56.50431260232' lon='8.57935666904'>
    <tag k='name' v='bre' />
  </node>
  <node id='-164352409' action='modify' lat='56.50715900085' lon='8.57525154814' />
  <node id='-164352410' action='modify' lat='56.51100048555' lon='8.57144482367' />
  <node id='-164352411' action='modify' lat='56.51373835171' lon='8.56965243682' />
  <node id='-164352412' action='modify' lat='56.51540465285' lon='8.56798544459' />
  <node id='-164352413' action='modify' lat='56.52686404076' lon='8.55199411377' />
  <node id='-164352414' action='modify' lat='56.53140078535' lon='8.54984465953' />
  <node id='-164352415' action='modify' lat='56.5401416079' lon='8.55234842541'>
    <tag k='name' v='hum' />
  </node>
  <node id='-164352416' action='modify' lat='56.54290727685' lon='8.55314075813' />
  <node id='-164352417' action='modify' lat='56.54967742884' lon='8.55866879158' />
  <node id='-164352418' action='modify' lat='56.55186735035' lon='8.56193706259' />
  <node id='-164352419' action='modify' lat='56.55392446718' lon='8.56398358807' />
  <node id='-164352420' action='modify' lat='56.55881179597' lon='8.56681667201' />
  <node id='-164352421' action='modify' lat='56.56224640725' lon='8.56688976154' />
  <node id='-164352422' action='modify' lat='56.56611777665' lon='8.5648861514' />
  <node id='-164352423' action='modify' lat='56.57104822953' lon='8.56401175126' />
  <node id='-164352424' action='modify' lat='56.57394650092' lon='8.56448247895' />
  <node id='-164352425' action='modify' lat='56.57595558618' lon='8.56394093857'>
    <tag k='name' v='ods' />
  </node>
  <node id='-164352426' action='modify' lat='56.57765637787' lon='8.56096476182' />
  <node id='-164352427' action='modify' lat='56.5792120244' lon='8.55561643705' />
  <node id='-164352428' action='modify' lat='56.58042857517' lon='8.55238169298' />
  <node id='-164352429' action='modify' lat='56.58135481162' lon='8.55041831598' />
  <node id='-164352430' action='modify' lat='56.58264293631' lon='8.54691065814'>
    <tag k='name' v='odn' />
  </node>
  <node id='-164352431' action='modify' lat='56.58297308575' lon='8.54413121805' />
  <node id='-164352432' action='modify' lat='56.58298785745' lon='8.54378387198' />
  <node id='-164352433' action='modify' lat='56.58302626383' lon='8.5417668508' />
  <node id='-164352434' action='modify' lat='56.58302626383' lon='8.54023530945' />
  <node id='-164352435' action='modify' lat='56.5841762214' lon='8.53480249509' />
  <node id='-164352436' action='modify' lat='56.58647824714' lon='8.53021055326' />
  <node id='-164352437' action='modify' lat='56.58943736656' lon='8.5276034461' />
  <node id='-164352438' action='modify' lat='56.59878435787' lon='8.52641656861' />
  <node id='-164352439' action='modify' lat='56.60257595291' lon='8.52953195438' />
  <node id='-164352440' action='modify' lat='56.60298048537' lon='8.53047072753' />
  <node id='-164352441' action='modify' lat='56.60448710919' lon='8.53289142117' />
  <node id='-164352442' action='modify' lat='56.6122370202' lon='8.5414632017'>
    <tag k='name' v='ugl' />
  </node>
  <node id='-164352443' action='modify' lat='56.61700799448' lon='8.54674100742' />
  <node id='-164352444' action='modify' lat='56.619862529' lon='8.54922406308' />
  <node id='-164352445' action='modify' lat='56.625219411' lon='8.5526861237' />
  <node id='-164352446' action='modify' lat='56.62968554164' lon='8.55335399374' />
  <node id='-164352447' action='modify' lat='56.6377378478' lon='8.55079516634' />
  <node id='-164352448' action='modify' lat='56.6401398564' lon='8.54855820403' />
  <node id='-164352449' action='modify' lat='56.64513144461' lon='8.53940516576' />
  <node id='-164352450' action='modify' lat='56.64701058502' lon='8.53503115408' />
  <node id='-164352451' action='modify' lat='56.64997582251' lon='8.52617115794'>
    <tag k='name' v='hvi' />
  </node>
  <node id='-164352452' action='modify' lat='56.65521363224' lon='8.51051911578' />
  <node id='-164352453' action='modify' lat='56.65650145098' lon='8.50247584216' />
  <node id='-164352454' action='modify' lat='56.65671522359' lon='8.47936257586' />
  <node id='-164352455' action='modify' lat='56.65826024485' lon='8.47062393889' />
  <node id='-164352456' action='modify' lat='56.66310129448' lon='8.45789149269' />
  <node id='-164352457' action='modify' lat='56.66413863401' lon='8.4531178312' />
  <node id='-164352458' action='modify' lat='56.6643460301' lon='8.45082181211'>
    <tag k='name' v='lyn' />
  </node>
  <node id='-164352459' action='modify' lat='56.66675378211' lon='8.42416539654' />
  <node id='-164352460' action='modify' lat='56.66763221301' lon='8.41860517725' />
  <node id='-164352461' action='modify' lat='56.66972651012' lon='8.40944006905' />
  <node id='-164352462' action='modify' lat='56.6719702707' lon='8.40428016946' />
  <node id='-164352463' action='modify' lat='56.67434431129' lon='8.40123385057' />
  <node id='-164352464' action='modify' lat='56.67674988225' lon='8.39874945514' />
  <node id='-164352465' action='modify' lat='56.68176461808' lon='8.39481934771' />
  <node id='-164352466' action='modify' lat='56.6843104068' lon='8.39463494651' />
  <node id='-164352467' action='modify' lat='56.68753585747' lon='8.39655473694' />
  <node id='-164352468' action='modify' lat='56.68987724788' lon='8.39659631118' />
  <node id='-164352469' action='modify' lat='56.69045318256' lon='8.39626639947' />
  <node id='-164352470' action='modify' lat='56.69433866969' lon='8.39776944336' />
  <node id='-164352471' action='modify' lat='56.69801463812' lon='8.40279221401' />
  <node id='-164352472' action='modify' lat='56.7015967414' lon='8.40434789523' />
  <node id='-164352473' action='modify' lat='56.70463371502' lon='8.40356200799' />
  <node id='-164352474' action='modify' lat='56.70679957169' lon='8.40218335256' />
  <node id='-164352475' action='modify' lat='56.70968301538' lon='8.39932277665' />
  <node id='-164352476' action='modify' lat='56.71324707922' lon='8.39837729797' />
  <node id='-164352477' action='modify' lat='56.7141467361' lon='8.39869397728'>
    <tag k='name' v='ydb' />
  </node>
  <node id='-164352478' action='modify' lat='56.71750260904' lon='8.3998753117' />
  <node id='-164352479' action='modify' lat='56.72000035577' lon='8.40303763613' />
  <node id='-164352480' action='modify' lat='56.72056552706' lon='8.40465366706' />
  <node id='-164352481' action='modify' lat='56.72294680658' lon='8.40816333756' />
  <node id='-164352482' action='modify' lat='56.72951956186' lon='8.4122744941' />
  <node id='-164352483' action='modify' lat='56.73225928133' lon='8.4126976119' />
  <node id='-164352484' action='modify' lat='56.7342705377' lon='8.41212496027' />
  <node id='-164352485' action='modify' lat='56.737590273' lon='8.41268017754' />
  <node id='-164352486' action='modify' lat='56.74455024617' lon='8.41707497701' />
  <node id='-164352487' action='modify' lat='56.74690573923' lon='8.41759934887' />
  <node id='-164352488' action='modify' lat='56.74796614091' lon='8.41745048627' />
  <node id='-164352489' action='modify' lat='56.74981405095' lon='8.41760001943' />
  <node id='-164352490' action='modify' lat='56.75115403929' lon='8.41800152349'>
    <tag k='name' v='hur' />
  </node>
  <node id='-164352491' action='modify' lat='56.76143843063' lon='8.42108353838' />
  <node id='-164352492' action='modify' lat='56.76652641071' lon='8.41811701521' />
  <node id='-164352493' action='modify' lat='56.77150199705' lon='8.40885668859' />
  <node id='-164352494' action='modify' lat='56.77489596767' lon='8.40362973444' />
  <node id='-164352495' action='modify' lat='56.77774590232' lon='8.39998394117' />
  <node id='-164352496' action='modify' lat='56.78049055477' lon='8.39804068141' />
  <node id='-164352497' action='modify' lat='56.78680018079' lon='8.39674517378' />
  <node id='-164352498' action='modify' lat='56.7909673235' lon='8.39886344902' />
  <node id='-164352499' action='modify' lat='56.79287261104' lon='8.40159728989' />
  <node id='-164352500' action='modify' lat='56.79631201856' lon='8.40380139582' />
  <node id='-164352501' action='modify' lat='56.80247689864' lon='8.40406223997' />
  <node id='-164352502' action='modify' lat='56.80659641136' lon='8.40764164891'>
    <tag k='name' v='bed' />
  </node>
  <node id='-164352503' action='modify' lat='56.80770909075' lon='8.41131560437' />
  <node id='-164352504' action='modify' lat='56.80864590395' lon='8.41666862234' />
  <node id='-164352505' action='modify' lat='56.81072630035' lon='8.42208668556' />
  <node id='-164352506' action='modify' lat='56.81626214542' lon='8.42992275819' />
  <node id='-164352507' action='modify' lat='56.81788686506' lon='8.43350652572' />
  <node id='-164352508' action='modify' lat='56.82404049217' lon='8.45561161503'>
    <tag k='name' v='has' />
  </node>
  <node id='-164352509' action='modify' lat='56.82719452657' lon='8.46170827612' />
  <node id='-164352510' action='modify' lat='56.835874455' lon='8.47128912672' />
  <node id='-164352511' action='modify' lat='56.83826970231' lon='8.47653418645' />
  <node id='-164352512' action='modify' lat='56.83877954374' lon='8.47873762116' />
  <node id='-164352513' action='modify' lat='56.84119917818' lon='8.48316796057' />
  <node id='-164352514' action='modify' lat='56.85126434188' lon='8.49082844425'>
    <tag k='name' v='hor' />
  </node>
  <node id='-164352515' action='modify' lat='56.8530339528' lon='8.49217548832' />
  <node id='-164352516' action='modify' lat='56.85520555877' lon='8.49503271215' />
  <node id='-164352517' action='modify' lat='56.86420265169' lon='8.51382359728' />
  <node id='-164352518' action='modify' lat='56.87057735196' lon='8.52038226955' />
  <node id='-164352519' action='modify' lat='56.88112274443' lon='8.52386176452' />
  <node id='-164352520' action='modify' lat='56.88389133743' lon='8.52327972516' />
  <node id='-164352521' action='modify' lat='56.88442620105' lon='8.52283582024' />
  <node id='-164352522' action='modify' lat='56.88893450753' lon='8.52360829577' />
  <node id='-164352523' action='modify' lat='56.88952424327' lon='8.52450281247' />
  <node id='-164352524' action='modify' lat='56.89226584225' lon='8.52723330226'>
    <tag k='name' v='sne' />
  </node>
  <node id='-164352525' action='modify' lat='56.89438243246' lon='8.52847650513' />
  <node id='-164352526' action='modify' lat='56.89839919138' lon='8.53161603078' />
  <node id='-164352527' action='modify' lat='56.90193510524' lon='8.53505059943' />
  <node id='-164352528' action='modify' lat='56.90377067499' lon='8.53750347957' />
  <node id='-164352529' action='modify' lat='56.90415970991' lon='8.53818912026' />
  <node id='-164352530' action='modify' lat='56.90658884777' lon='8.54045390949' />
  <node id='-164352531' action='modify' lat='56.90866618494' lon='8.54084282979' />
  <node id='-164352532' action='modify' lat='56.91115927629' lon='8.54279279575' />
  <node id='-164352533' action='modify' lat='56.91145506815' lon='8.54325279459' />
  <node id='-164352534' action='modify' lat='56.91337765776' lon='8.54504048757' />
  <node id='-164352535' action='modify' lat='56.91852042908' lon='8.54733914003' />
  <node id='-164352536' action='modify' lat='56.91892841134' lon='8.54755053748'>
    <tag k='name' v='tod' />
  </node>
  <node id='-164352537' action='modify' lat='56.92217850245' lon='8.55098158054' />
  <node id='-164352538' action='modify' lat='56.92794102539' lon='8.56093861096' />
  <node id='-164352539' action='modify' lat='56.9310903308' lon='8.56494985454' />
  <node id='-164352540' action='modify' lat='56.94092512192' lon='8.57371330127' />
  <node id='-164352541' action='modify' lat='56.94359601442' lon='8.57790961728' />
  <node id='-164352542' action='modify' lat='56.94485933627' lon='8.58156278595' />
  <node id='-164352543' action='modify' lat='56.94835245035' lon='8.58633175425' />
  <node id='-164352544' action='modify' lat='56.95178726108' lon='8.5880537428'>
    <tag k='name' v='sjo' />
  </node>
  <node id='-164352545' action='modify' lat='56.95237839766' lon='8.58835011587' />
  <node id='-164352546' action='modify' lat='56.95490842522' lon='8.59177328579' />
  <node id='-164352547' action='modify' lat='56.95696442672' lon='8.59775930509' />
  <node id='-164352548' action='modify' lat='56.95777465673' lon='8.6058542119' />
  <node id='-164352549' action='modify' lat='56.95701854011' lon='8.61287087068' />
  <node id='-164352550' action='modify' lat='56.95730080558' lon='8.61903190546' />
  <node id='-164352551' action='modify' lat='56.9601145723' lon='8.6335547255' />
  <node id='-164352552' action='modify' lat='56.96007325907' lon='8.64107496969' />
  <node id='-164352553' action='modify' lat='56.95834575593' lon='8.64903241262' />
  <node id='-164352554' action='modify' lat='56.95764595711' lon='8.65270703897' />
  <node id='-164352555' action='modify' lat='56.95619366811' lon='8.66157039866' />
  <node id='-164352558' action='modify' lat='56.95579365712' lon='8.66435855493' />
  <node id='-164352559' action='modify' lat='56.95528102251' lon='8.66850793228' />
  <node id='-164352560' action='modify' lat='56.95493767769' lon='8.67048673198' />
  <node id='-164352561' action='modify' lat='56.9528552364' lon='8.67949828371' />
  <node id='-164352562' action='modify' lat='56.95250492142' lon='8.6817567037' />
  <node id='-164352563' action='modify' lat='56.95239595011' lon='8.68322923645' />
  <node id='-164352564' action='modify' lat='56.95237693495' lon='8.68444159493' />
  <node id='-164352565' action='modify' lat='56.9525368733' lon='8.68818821361'>
    <tag k='name' v='thi' />
  </node>
  <node id='-164352568' action='modify' lat='56.95259315414' lon='8.68950661809'>
    <tag k='name' v='thi.f' />
  </node>
  <node id='-164352590' action='modify' lat='56.49224948584' lon='8.5954587222' />
  <node id='-164352591' action='modify' lat='56.49167989128' lon='8.60040070883' />
  <way id='-37581200' action='modify'>
    <nd ref='-164352400' />
    <nd ref='-164352591' />
    <tag k='type' v='straight' />
  </way>
  <way id='-37581201' action='modify'>
    <nd ref='-164352591' />
    <nd ref='-164352402' />
  </way>
  <way id='-37581202' action='modify'>
    <nd ref='-164352402' />
    <nd ref='-164352590' />
    <tag k='type' v='straight' />
  </way>
  <way id='-37581203' action='modify'>
    <nd ref='-164352590' />
    <nd ref='-164352403' />
    <nd ref='-164352404' />
  </way>
  <way id='-37581204' action='modify'>
    <nd ref='-164352404' />
    <nd ref='-164352405' />
    <tag k='type' v='straight' />
  </way>
  <way id='-37581205' action='modify'>
    <nd ref='-164352405' />
    <nd ref='-164352406' />
  </way>
  <way id='-37581206' action='modify'>
    <nd ref='-164352406' />
    <nd ref='-164352407' />
    <tag k='type' v='straight' />
  </way>
  <way id='-37581207' action='modify'>
    <nd ref='-164352407' />
    <nd ref='-164352408' />
  </way>
  <way id='-37581208' action='modify'>
    <nd ref='-164352408' />
    <nd ref='-164352409' />
    <tag k='type' v='straight' />
  </way>
  <way id='-37581209' action='modify'>
    <nd ref='-164352409' />
    <nd ref='-164352410' />
  </way>
  <way id='-37581210' action='modify'>
    <nd ref='-164352410' />
    <nd ref='-164352411' />
    <tag k='type' v='straight' />
  </way>
  <way id='-37581211' action='modify'>
    <nd ref='-164352411' />
    <nd ref='-164352412' />
  </way>
  <way id='-37581212' action='modify'>
    <nd ref='-164352412' />
    <nd ref='-164352413' />
    <tag k='type' v='straight' />
  </way>
  <way id='-37581213' action='modify'>
    <nd ref='-164352413' />
    <nd ref='-164352414' />
  </way>
  <way id='-37581214' action='modify'>
    <nd ref='-164352414' />
    <nd ref='-164352415' />
    <nd ref='-164352416' />
    <tag k='type' v='straight' />
  </way>
  <way id='-37581215' action='modify'>
    <nd ref='-164352416' />
    <nd ref='-164352417' />
  </way>
  <way id='-37581216' action='modify'>
    <nd ref='-164352417' />
    <nd ref='-164352418' />
    <tag k='type' v='straight' />
  </way>
  <way id='-37581217' action='modify'>
    <nd ref='-164352418' />
    <nd ref='-164352419' />
  </way>
  <way id='-37581218' action='modify'>
    <nd ref='-164352419' />
    <nd ref='-164352420' />
    <tag k='type' v='straight' />
  </way>
  <way id='-37581219' action='modify'>
    <nd ref='-164352420' />
    <nd ref='-164352421' />
  </way>
  <way id='-37581220' action='modify'>
    <nd ref='-164352421' />
    <nd ref='-164352422' />
    <tag k='type' v='straight' />
  </way>
  <way id='-37581221' action='modify'>
    <nd ref='-164352422' />
    <nd ref='-164352423' />
  </way>
  <way id='-37581222' action='modify'>
    <nd ref='-164352423' />
    <nd ref='-164352424' />
    <tag k='type' v='straight' />
  </way>
  <way id='-37581223' action='modify'>
    <nd ref='-164352424' />
    <nd ref='-164352425' />
    <nd ref='-164352426' />
  </way>
  <way id='-37581224' action='modify'>
    <nd ref='-164352426' />
    <nd ref='-164352427' />
    <tag k='type' v='straight' />
  </way>
  <way id='-37581225' action='modify'>
    <nd ref='-164352427' />
    <nd ref='-164352428' />
  </way>
  <way id='-37581226' action='modify'>
    <nd ref='-164352428' />
    <nd ref='-164352429' />
    <tag k='type' v='straight' />
  </way>
  <way id='-37581227' action='modify'>
    <nd ref='-164352429' />
    <nd ref='-164352430' />
    <nd ref='-164352431' />
  </way>
  <way id='-37581228' action='modify'>
    <nd ref='-164352431' />
    <nd ref='-164352432' />
    <tag k='type' v='straight' />
  </way>
  <way id='-37581229' action='modify'>
    <nd ref='-164352432' />
    <nd ref='-164352433' />
  </way>
  <way id='-37581230' action='modify'>
    <nd ref='-164352433' />
    <nd ref='-164352434' />
    <tag k='type' v='straight' />
  </way>
  <way id='-37581231' action='modify'>
    <nd ref='-164352434' />
    <nd ref='-164352435' />
  </way>
  <way id='-37581232' action='modify'>
    <nd ref='-164352435' />
    <nd ref='-164352436' />
    <tag k='type' v='straight' />
  </way>
  <way id='-37581233' action='modify'>
    <nd ref='-164352436' />
    <nd ref='-164352437' />
  </way>
  <way id='-37581234' action='modify'>
    <nd ref='-164352437' />
    <nd ref='-164352438' />
    <tag k='type' v='straight' />
  </way>
  <way id='-37581235' action='modify'>
    <nd ref='-164352438' />
    <nd ref='-164352439' />
  </way>
  <way id='-37581236' action='modify'>
    <nd ref='-164352439' />
    <nd ref='-164352440' />
    <tag k='type' v='straight' />
  </way>
  <way id='-37581237' action='modify'>
    <nd ref='-164352440' />
    <nd ref='-164352441' />
  </way>
  <way id='-37581238' action='modify'>
    <nd ref='-164352441' />
    <nd ref='-164352442' />
    <nd ref='-164352443' />
    <tag k='type' v='straight' />
  </way>
  <way id='-37581239' action='modify'>
    <nd ref='-164352443' />
    <nd ref='-164352444' />
  </way>
  <way id='-37581240' action='modify'>
    <nd ref='-164352444' />
    <nd ref='-164352445' />
    <tag k='type' v='straight' />
  </way>
  <way id='-37581241' action='modify'>
    <nd ref='-164352445' />
    <nd ref='-164352446' />
  </way>
  <way id='-37581242' action='modify'>
    <nd ref='-164352446' />
    <nd ref='-164352447' />
    <tag k='type' v='straight' />
  </way>
  <way id='-37581243' action='modify'>
    <nd ref='-164352447' />
    <nd ref='-164352448' />
  </way>
  <way id='-37581244' action='modify'>
    <nd ref='-164352448' />
    <nd ref='-164352449' />
    <tag k='type' v='straight' />
  </way>
  <way id='-37581245' action='modify'>
    <nd ref='-164352449' />
    <nd ref='-164352450' />
  </way>
  <way id='-37581246' action='modify'>
    <nd ref='-164352450' />
    <nd ref='-164352451' />
    <nd ref='-164352452' />
    <tag k='type' v='straight' />
  </way>
  <way id='-37581247' action='modify'>
    <nd ref='-164352452' />
    <nd ref='-164352453' />
  </way>
  <way id='-37581248' action='modify'>
    <nd ref='-164352453' />
    <nd ref='-164352454' />
    <tag k='type' v='straight' />
  </way>
  <way id='-37581249' action='modify'>
    <nd ref='-164352454' />
    <nd ref='-164352455' />
  </way>
  <way id='-37581250' action='modify'>
    <nd ref='-164352455' />
    <nd ref='-164352456' />
    <tag k='type' v='straight' />
  </way>
  <way id='-37581251' action='modify'>
    <nd ref='-164352456' />
    <nd ref='-164352457' />
  </way>
  <way id='-37581252' action='modify'>
    <nd ref='-164352457' />
    <nd ref='-164352458' />
    <nd ref='-164352459' />
    <tag k='type' v='straight' />
  </way>
  <way id='-37581253' action='modify'>
    <nd ref='-164352459' />
    <nd ref='-164352460' />
  </way>
  <way id='-37581254' action='modify'>
    <nd ref='-164352460' />
    <nd ref='-164352461' />
    <tag k='type' v='straight' />
  </way>
  <way id='-37581255' action='modify'>
    <nd ref='-164352461' />
    <nd ref='-164352462' />
  </way>
  <way id='-37581256' action='modify'>
    <nd ref='-164352462' />
    <nd ref='-164352463' />
    <tag k='type' v='straight' />
  </way>
  <way id='-37581257' action='modify'>
    <nd ref='-164352463' />
    <nd ref='-164352464' />
  </way>
  <way id='-37581258' action='modify'>
    <nd ref='-164352464' />
    <nd ref='-164352465' />
    <tag k='type' v='straight' />
  </way>
  <way id='-37581259' action='modify'>
    <nd ref='-164352465' />
    <nd ref='-164352466' />
  </way>
  <way id='-37581260' action='modify'>
    <nd ref='-164352466' />
    <nd ref='-164352467' />
    <tag k='type' v='straight' />
  </way>
  <way id='-37581261' action='modify'>
    <nd ref='-164352467' />
    <nd ref='-164352468' />
  </way>
  <way id='-37581262' action='modify'>
    <nd ref='-164352468' />
    <nd ref='-164352469' />
    <tag k='type' v='straight' />
  </way>
  <way id='-37581263' action='modify'>
    <nd ref='-164352469' />
    <nd ref='-164352470' />
  </way>
  <way id='-37581264' action='modify'>
    <nd ref='-164352470' />
    <nd ref='-164352471' />
    <tag k='type' v='straight' />
  </way>
  <way id='-37581265' action='modify'>
    <nd ref='-164352471' />
    <nd ref='-164352472' />
  </way>
  <way id='-37581266' action='modify'>
    <nd ref='-164352472' />
    <nd ref='-164352473' />
    <tag k='type' v='straight' />
  </way>
  <way id='-37581267' action='modify'>
    <nd ref='-164352473' />
    <nd ref='-164352474' />
  </way>
  <way id='-37581268' action='modify'>
    <nd ref='-164352474' />
    <nd ref='-164352475' />
    <tag k='type' v='straight' />
  </way>
  <way id='-37581269' action='modify'>
    <nd ref='-164352475' />
    <nd ref='-164352476' />
  </way>
  <way id='-37581270' action='modify'>
    <nd ref='-164352476' />
    <nd ref='-164352477' />
    <nd ref='-164352478' />
    <tag k='type' v='straight' />
  </way>
  <way id='-37581271' action='modify'>
    <nd ref='-164352478' />
    <nd ref='-164352479' />
  </way>
  <way id='-37581272' action='modify'>
    <nd ref='-164352479' />
    <nd ref='-164352480' />
    <tag k='type' v='straight' />
  </way>
  <way id='-37581273' action='modify'>
    <nd ref='-164352480' />
    <nd ref='-164352481' />
  </way>
  <way id='-37581274' action='modify'>
    <nd ref='-164352481' />
    <nd ref='-164352482' />
    <tag k='type' v='straight' />
  </way>
  <way id='-37581275' action='modify'>
    <nd ref='-164352482' />
    <nd ref='-164352483' />
  </way>
  <way id='-37581276' action='modify'>
    <nd ref='-164352483' />
    <nd ref='-164352484' />
    <tag k='type' v='straight' />
  </way>
  <way id='-37581277' action='modify'>
    <nd ref='-164352484' />
    <nd ref='-164352485' />
  </way>
  <way id='-37581278' action='modify'>
    <nd ref='-164352485' />
    <nd ref='-164352486' />
    <tag k='type' v='straight' />
  </way>
  <way id='-37581279' action='modify'>
    <nd ref='-164352486' />
    <nd ref='-164352487' />
  </way>
  <way id='-37581280' action='modify'>
    <nd ref='-164352487' />
    <nd ref='-164352488' />
    <tag k='type' v='straight' />
  </way>
  <way id='-37581281' action='modify'>
    <nd ref='-164352488' />
    <nd ref='-164352489' />
  </way>
  <way id='-37581282' action='modify'>
    <nd ref='-164352489' />
    <nd ref='-164352490' />
    <nd ref='-164352491' />
    <tag k='type' v='straight' />
  </way>
  <way id='-37581283' action='modify'>
    <nd ref='-164352491' />
    <nd ref='-164352492' />
  </way>
  <way id='-37581284' action='modify'>
    <nd ref='-164352492' />
    <nd ref='-164352493' />
    <tag k='type' v='straight' />
  </way>
  <way id='-37581285' action='modify'>
    <nd ref='-164352493' />
    <nd ref='-164352494' />
  </way>
  <way id='-37581286' action='modify'>
    <nd ref='-164352494' />
    <nd ref='-164352495' />
    <tag k='type' v='straight' />
  </way>
  <way id='-37581287' action='modify'>
    <nd ref='-164352495' />
    <nd ref='-164352496' />
  </way>
  <way id='-37581288' action='modify'>
    <nd ref='-164352496' />
    <nd ref='-164352497' />
    <tag k='type' v='straight' />
  </way>
  <way id='-37581289' action='modify'>
    <nd ref='-164352497' />
    <nd ref='-164352498' />
  </way>
  <way id='-37581290' action='modify'>
    <nd ref='-164352498' />
    <nd ref='-164352499' />
    <tag k='type' v='straight' />
  </way>
  <way id='-37581291' action='modify'>
    <nd ref='-164352499' />
    <nd ref='-164352500' />
  </way>
  <way id='-37581292' action='modify'>
    <nd ref='-164352500' />
    <nd ref='-164352501' />
    <tag k='type' v='straight' />
  </way>
  <way id='-37581293' action='modify'>
    <nd ref='-164352501' />
    <nd ref='-164352502' />
    <nd ref='-164352503' />
  </way>
  <way id='-37581294' action='modify'>
    <nd ref='-164352503' />
    <nd ref='-164352504' />
    <tag k='type' v='straight' />
  </way>
  <way id='-37581295' action='modify'>
    <nd ref='-164352504' />
    <nd ref='-164352505' />
  </way>
  <way id='-37581296' action='modify'>
    <nd ref='-164352505' />
    <nd ref='-164352506' />
    <tag k='type' v='straight' />
  </way>
  <way id='-37581297' action='modify'>
    <nd ref='-164352506' />
    <nd ref='-164352507' />
  </way>
  <way id='-37581298' action='modify'>
    <nd ref='-164352507' />
    <nd ref='-164352508' />
    <tag k='type' v='straight' />
  </way>
  <way id='-37581299' action='modify'>
    <nd ref='-164352508' />
    <nd ref='-164352509' />
  </way>
  <way id='-37581300' action='modify'>
    <nd ref='-164352509' />
    <nd ref='-164352510' />
    <tag k='type' v='straight' />
  </way>
  <way id='-37581301' action='modify'>
    <nd ref='-164352510' />
    <nd ref='-164352511' />
  </way>
  <way id='-37581302' action='modify'>
    <nd ref='-164352511' />
    <nd ref='-164352512' />
    <tag k='type' v='straight' />
  </way>
  <way id='-37581303' action='modify'>
    <nd ref='-164352512' />
    <nd ref='-164352513' />
  </way>
  <way id='-37581304' action='modify'>
    <nd ref='-164352513' />
    <nd ref='-164352514' />
    <nd ref='-164352515' />
    <tag k='type' v='straight' />
  </way>
  <way id='-37581305' action='modify'>
    <nd ref='-164352515' />
    <nd ref='-164352516' />
  </way>
  <way id='-37581306' action='modify'>
    <nd ref='-164352516' />
    <nd ref='-164352517' />
    <tag k='type' v='straight' />
  </way>
  <way id='-37581307' action='modify'>
    <nd ref='-164352517' />
    <nd ref='-164352518' />
  </way>
  <way id='-37581308' action='modify'>
    <nd ref='-164352518' />
    <nd ref='-164352519' />
    <tag k='type' v='straight' />
  </way>
  <way id='-37581309' action='modify'>
    <nd ref='-164352519' />
    <nd ref='-164352520' />
  </way>
  <way id='-37581310' action='modify'>
    <nd ref='-164352520' />
    <nd ref='-164352521' />
    <tag k='type' v='straight' />
  </way>
  <way id='-37581311' action='modify'>
    <nd ref='-164352521' />
    <nd ref='-164352522' />
  </way>
  <way id='-37581312' action='modify'>
    <nd ref='-164352522' />
    <nd ref='-164352523' />
    <tag k='type' v='straight' />
  </way>
  <way id='-37581313' action='modify'>
    <nd ref='-164352523' />
    <nd ref='-164352524' />
  </way>
  <way id='-37581314' action='modify'>
    <nd ref='-164352524' />
    <nd ref='-164352525' />
    <tag k='type' v='straight' />
  </way>
  <way id='-37581315' action='modify'>
    <nd ref='-164352525' />
    <nd ref='-164352526' />
  </way>
  <way id='-37581316' action='modify'>
    <nd ref='-164352526' />
    <nd ref='-164352527' />
    <tag k='type' v='straight' />
  </way>
  <way id='-37581317' action='modify'>
    <nd ref='-164352527' />
    <nd ref='-164352528' />
  </way>
  <way id='-37581318' action='modify'>
    <nd ref='-164352528' />
    <nd ref='-164352529' />
    <tag k='type' v='straight' />
  </way>
  <way id='-37581319' action='modify'>
    <nd ref='-164352529' />
    <nd ref='-164352530' />
  </way>
  <way id='-37581320' action='modify'>
    <nd ref='-164352530' />
    <nd ref='-164352531' />
    <tag k='type' v='straight' />
  </way>
  <way id='-37581321' action='modify'>
    <nd ref='-164352531' />
    <nd ref='-164352532' />
  </way>
  <way id='-37581322' action='modify'>
    <nd ref='-164352532' />
    <nd ref='-164352533' />
    <tag k='type' v='straight' />
  </way>
  <way id='-37581323' action='modify'>
    <nd ref='-164352533' />
    <nd ref='-164352534' />
  </way>
  <way id='-37581324' action='modify'>
    <nd ref='-164352534' />
    <nd ref='-164352535' />
    <tag k='type' v='straight' />
  </way>
  <way id='-37581325' action='modify'>
    <nd ref='-164352535' />
    <nd ref='-164352536' />
    <nd ref='-164352537' />
  </way>
  <way id='-37581326' action='modify'>
    <nd ref='-164352537' />
    <nd ref='-164352538' />
    <tag k='type' v='straight' />
  </way>
  <way id='-37581327' action='modify'>
    <nd ref='-164352538' />
    <nd ref='-164352539' />
  </way>
  <way id='-37581328' action='modify'>
    <nd ref='-164352539' />
    <nd ref='-164352540' />
    <tag k='type' v='straight' />
  </way>
  <way id='-37581329' action='modify'>
    <nd ref='-164352540' />
    <nd ref='-164352541' />
  </way>
  <way id='-37581330' action='modify'>
    <nd ref='-164352541' />
    <nd ref='-164352542' />
    <tag k='type' v='straight' />
  </way>
  <way id='-37581331' action='modify'>
    <nd ref='-164352542' />
    <nd ref='-164352543' />
  </way>
  <way id='-37581332' action='modify'>
    <nd ref='-164352543' />
    <nd ref='-164352544' />
    <nd ref='-164352545' />
    <tag k='type' v='straight' />
  </way>
  <way id='-37581333' action='modify'>
    <nd ref='-164352545' />
    <nd ref='-164352546' />
  </way>
  <way id='-37581334' action='modify'>
    <nd ref='-164352546' />
    <nd ref='-164352547' />
    <tag k='type' v='straight' />
  </way>
  <way id='-37581335' action='modify'>
    <nd ref='-164352547' />
    <nd ref='-164352548' />
  </way>
  <way id='-37581336' action='modify'>
    <nd ref='-164352548' />
    <nd ref='-164352549' />
    <tag k='type' v='straight' />
  </way>
  <way id='-37581337' action='modify'>
    <nd ref='-164352549' />
    <nd ref='-164352550' />
  </way>
  <way id='-37581338' action='modify'>
    <nd ref='-164352550' />
    <nd ref='-164352551' />
    <tag k='type' v='straight' />
  </way>
  <way id='-37581339' action='modify'>
    <nd ref='-164352551' />
    <nd ref='-164352552' />
  </way>
  <way id='-37581340' action='modify'>
    <nd ref='-164352552' />
    <nd ref='-164352553' />
    <tag k='type' v='straight' />
  </way>
  <way id='-37581341' action='modify'>
    <nd ref='-164352553' />
    <nd ref='-164352554' />
  </way>
  <way id='-37581342' action='modify'>
    <nd ref='-164352554' />
    <nd ref='-164352555' />
    <tag k='type' v='straight' />
  </way>
  <way id='-37581346' action='modify'>
    <nd ref='-164352558' />
    <nd ref='-164352559' />
    <tag k='type' v='straight' />
  </way>
  <way id='-37581347' action='modify'>
    <nd ref='-164352559' />
    <nd ref='-164352560' />
  </way>
  <way id='-37581348' action='modify'>
    <nd ref='-164352560' />
    <nd ref='-164352561' />
    <tag k='type' v='straight' />
  </way>
  <way id='-37581349' action='modify'>
    <nd ref='-164352561' />
    <nd ref='-164352562' />
  </way>
  <way id='-37581350' action='modify'>
    <nd ref='-164352562' />
    <nd ref='-164352563' />
    <tag k='type' v='straight' />
  </way>
  <way id='-37581351' action='modify'>
    <nd ref='-164352563' />
    <nd ref='-164352564' />
  </way>
  <way id='-37581352' action='modify'>
    <nd ref='-164352564' />
    <nd ref='-164352565' />
    <nd ref='-164352568' />
    <tag k='type' v='straight' />
  </way>
  <way id='-37581363' action='modify'>
    <nd ref='-164352555' />
    <nd ref='-164352558' />
  </way>
  <relation id='-14479372' action='modify'>
    <member type='way' ref='-37581200' role='' />
    <member type='way' ref='-37581201' role='' />
    <member type='way' ref='-37581202' role='' />
    <member type='way' ref='-37581203' role='' />
    <member type='way' ref='-37581204' role='' />
    <member type='way' ref='-37581205' role='' />
    <member type='way' ref='-37581206' role='' />
    <member type='way' ref='-37581207' role='' />
    <member type='way' ref='-37581208' role='' />
    <member type='way' ref='-37581209' role='' />
    <member type='way' ref='-37581210' role='' />
    <member type='way' ref='-37581211' role='' />
    <member type='way' ref='-37581212' role='' />
    <member type='way' ref='-37581213' role='' />
    <member type='way' ref='-37581214' role='' />
    <member type='way' ref='-37581215' role='' />
    <member type='way' ref='-37581216' role='' />
    <member type='way' ref='-37581217' role='' />
    <member type='way' ref='-37581218' role='' />
    <member type='way' ref='-37581219' role='' />
    <member type='way' ref='-37581220' role='' />
    <member type='way' ref='-37581221' role='' />
    <member type='way' ref='-37581222' role='' />
    <member type='way' ref='-37581223' role='' />
    <member type='way' ref='-37581224' role='' />
    <member type='way' ref='-37581225' role='' />
    <member type='way' ref='-37581226' role='' />
    <member type='way' ref='-37581227' role='' />
    <member type='way' ref='-37581228' role='' />
    <member type='way' ref='-37581229' role='' />
    <member type='way' ref='-37581230' role='' />
    <member type='way' ref='-37581231' role='' />
    <member type='way' ref='-37581232' role='' />
    <member type='way' ref='-37581233' role='' />
    <member type='way' ref='-37581234' role='' />
    <member type='way' ref='-37581235' role='' />
    <member type='way' ref='-37581236' role='' />
    <member type='way' ref='-37581237' role='' />
    <member type='way' ref='-37581238' role='' />
    <member type='way' ref='-37581239' role='' />
    <member type='way' ref='-37581240' role='' />
    <member type='way' ref='-37581241' role='' />
    <member type='way' ref='-37581242' role='' />
    <member type='way' ref='-37581243' role='' />
    <member type='way' ref='-37581244' role='' />
    <member type='way' ref='-37581245' role='' />
    <member type='way' ref='-37581246' role='' />
    <member type='way' ref='-37581247' role='' />
    <member type='way' ref='-37581248' role='' />
    <member type='way' ref='-37581249' role='' />
    <member type='way' ref='-37581250' role='' />
    <member type='way' ref='-37581251' role='' />
    <member type='way' ref='-37581252' role='' />
    <member type='way' ref='-37581253' role='' />
    <member type='way' ref='-37581254' role='' />
    <member type='way' ref='-37581255' role='' />
    <member type='way' ref='-37581256' role='' />
    <member type='way' ref='-37581257' role='' />
    <member type='way' ref='-37581258' role='' />
    <member type='way' ref='-37581259' role='' />
    <member type='way' ref='-37581260' role='' />
    <member type='way' ref='-37581261' role='' />
    <member type='way' ref='-37581262' role='' />
    <member type='way' ref='-37581263' role='' />
    <member type='way' ref='-37581264' role='' />
    <member type='way' ref='-37581265' role='' />
    <member type='way' ref='-37581266' role='' />
    <member type='way' ref='-37581267' role='' />
    <member type='way' ref='-37581268' role='' />
    <member type='way' ref='-37581269' role='' />
    <member type='way' ref='-37581270' role='' />
    <member type='way' ref='-37581271' role='' />
    <member type='way' ref='-37581272' role='' />
    <member type='way' ref='-37581273' role='' />
    <member type='way' ref='-37581274' role='' />
    <member type='way' ref='-37581275' role='' />
    <member type='way' ref='-37581276' role='' />
    <member type='way' ref='-37581277' role='' />
    <member type='way' ref='-37581278' role='' />
    <member type='way' ref='-37581279' role='' />
    <member type='way' ref='-37581280' role='' />
    <member type='way' ref='-37581281' role='' />
    <member type='way' ref='-37581282' role='' />
    <member type='way' ref='-37581283' role='' />
    <member type='way' ref='-37581284' role='' />
    <member type='way' ref='-37581285' role='' />
    <member type='way' ref='-37581286' role='' />
    <member type='way' ref='-37581287' role='' />
    <member type='way' ref='-37581288' role='' />
    <member type='way' ref='-37581289' role='' />
    <member type='way' ref='-37581290' role='' />
    <member type='way' ref='-37581291' role='' />
    <member type='way' ref='-37581292' role='' />
    <member type='way' ref='-37581293' role='' />
    <member type='way' ref='-37581294' role='' />
    <member type='way' ref='-37581295' role='' />
    <member type='way' ref='-37581296' role='' />
    <member type='way' ref='-37581297' role='' />
    <member type='way' ref='-37581298' role='' />
    <member type='way' ref='-37581299' role='' />
    <member type='way' ref='-37581300' role='' />
    <member type='way' ref='-37581301' role='' />
    <member type='way' ref='-37581302' role='' />
    <member type='way' ref='-37581303' role='' />
    <member type='way' ref='-37581304' role='' />
    <member type='way' ref='-37581305' role='' />
    <member type='way' ref='-37581306' role='' />
    <member type='way' ref='-37581307' role='' />
    <member type='way' ref='-37581308' role='' />
    <member type='way' ref='-37581309' role='' />
    <member type='way' ref='-37581310' role='' />
    <member type='way' ref='-37581311' role='' />
    <member type='way' ref='-37581312' role='' />
    <member type='way' ref='-37581313' role='' />
    <member type='way' ref='-37581314' role='' />
    <member type='way' ref='-37581315' role='' />
    <member type='way' ref='-37581316' role='' />
    <member type='way' ref='-37581317' role='' />
    <member type='way' ref='-37581318' role='' />
    <member type='way' ref='-37581319' role='' />
    <member type='way' ref='-37581320' role='' />
    <member type='way' ref='-37581321' role='' />
    <member type='way' ref='-37581322' role='' />
    <member type='way' ref='-37581323' role='' />
    <member type='way' ref='-37581324' role='' />
    <member type='way' ref='-37581325' role='' />
    <member type='way' ref='-37581326' role='' />
    <member type='way' ref='-37581327' role='' />
    <member type='way' ref='-37581328' role='' />
    <member type='way' ref='-37581329' role='' />
    <member type='way' ref='-37581330' role='' />
    <member type='way' ref='-37581331' role='' />
    <member type='way' ref='-37581332' role='' />
    <member type='way' ref='-37581333' role='' />
    <member type='way' ref='-37581334' role='' />
    <member type='way' ref='-37581335' role='' />
    <member type='way' ref='-37581336' role='' />
    <member type='way' ref='-37581337' role='' />
    <member type='way' ref='-37581338' role='' />
    <member type='way' ref='-37581339' role='' />
    <member type='way' ref='-37581340' role='' />
    <member type='way' ref='-37581341' role='' />
    <member type='way' ref='-37581342' role='' />
    <member type='way' ref='-37581363' role='' />
    <member type='way' ref='-37581346' role='' />
    <member type='way' ref='-37581347' role='' />
    <member type='way' ref='-37581348' role='' />
    <member type='way' ref='-37581349' role='' />
    <member type='way' ref='-37581350' role='' />
    <member type='way' ref='-37581351' role='' />
    <member type='way' ref='-37581352' role='' />
    <tag k='key' v='path.dk.sts' />
    <tag k='name' v='DK STS' />
    <tag k='type' v='path' />
  </relation>
</osm>
