<?xml version='1.0' encoding='UTF-8'?>
<osm version='0.6' upload='false' generator='JOSM'>
  <node id='-161312632' action='modify' lat='55.94748768349' lon='8.49215305112'>
    <tag k='name' v='ske.s' />
  </node>
  <node id='-161312633' action='modify' lat='55.95086383139' lon='8.48885893553' />
  <node id='-161312634' action='modify' lat='55.95585542341' lon='8.48773776948' />
  <node id='-161312635' action='modify' lat='55.9674879592' lon='8.49506019473' />
  <node id='-161312636' action='modify' lat='55.9683495959' lon='8.49562614888' />
  <node id='-161312637' action='modify' lat='55.96876963662' lon='8.49592926252'>
    <tag k='name' v='ske.xn' />
  </node>
  <node id='-161312638' action='modify' lat='55.98909478125' lon='8.51060041374'>
    <tag k='name' v='kon' />
  </node>
  <node id='-161312639' action='modify' lat='55.99705199303' lon='8.51634621084' />
  <node id='-161312640' action='modify' lat='56.00002485' lon='8.51952597365' />
  <node id='-161312641' action='modify' lat='56.01582426394' lon='8.54586928815' />
  <node id='-161312642' action='modify' lat='56.01681376308' lon='8.54736327589' />
  <node id='-161312643' action='modify' lat='56.01896672684' lon='8.55028507692'>
    <tag k='name' v='sad' />
  </node>
  <node id='-161312644' action='modify' lat='56.03095481158' lon='8.5665571636' />
  <node id='-161312645' action='modify' lat='56.03597503035' lon='8.57122689217' />
  <node id='-161312646' action='modify' lat='56.04742159088' lon='8.57744134155'>
    <tag k='name' v='ris' />
  </node>
  <node id='-161312647' action='modify' lat='56.0571816243' lon='8.58274161547' />
  <node id='-161312648' action='modify' lat='56.06131342557' lon='8.58758300275' />
  <node id='-161312649' action='modify' lat='56.06479148704' lon='8.59524237367'>
    <tag k='name' v='her' />
  </node>
  <node id='-161312650' action='modify' lat='56.07580642164' lon='8.61950397223' />
  <node id='-161312651' action='modify' lat='56.08275305287' lon='8.62933156729' />
  <node id='-161312652' action='modify' lat='56.0893129555' lon='8.63457634547'>
    <tag k='name' v='vit' />
  </node>
  <node id='-161312653' action='modify' lat='56.09475488749' lon='8.63892796087'>
    <tag k='name' v='vid' />
  </node>
  <node id='-161312654' action='modify' lat='56.09729783229' lon='8.64096162558' />
  <node id='-161312655' action='modify' lat='56.0977945233' lon='8.6416536516' />
  <node id='-161312656' action='modify' lat='56.09796507543' lon='8.64203452528'>
    <tag k='name' v='vid.f' />
  </node>
  <node id='-161312670' action='modify' lat='55.94492841529' lon='8.49465712045'>
    <tag k='name' v='ske' />
  </node>
  <node id='-161312671' action='modify' lat='55.94507629477' lon='8.49450364441' />
  <node id='-161312672' action='modify' lat='55.94579121028' lon='8.49378021816' />
  <node id='-161312682' action='modify' lat='55.94825478214' lon='8.49141726742' />
  <node id='-161312683' action='modify' lat='55.94926103491' lon='8.49039157332' />
  <way id='-37378994' action='modify'>
    <nd ref='-161312672' />
    <nd ref='-161312632' />
    <nd ref='-161312682' />
    <tag k='type' v='straight' />
  </way>
  <way id='-37378995' action='modify'>
    <nd ref='-161312633' />
    <nd ref='-161312634' />
  </way>
  <way id='-37378996' action='modify'>
    <nd ref='-161312634' />
    <nd ref='-161312635' />
    <tag k='type' v='straight' />
  </way>
  <way id='-37378997' action='modify'>
    <nd ref='-161312635' />
    <nd ref='-161312636' />
  </way>
  <way id='-37378998' action='modify'>
    <nd ref='-161312636' />
    <nd ref='-161312637' />
    <nd ref='-161312638' />
    <nd ref='-161312639' />
    <tag k='type' v='straight' />
  </way>
  <way id='-37378999' action='modify'>
    <nd ref='-161312639' />
    <nd ref='-161312640' />
  </way>
  <way id='-37379000' action='modify'>
    <nd ref='-161312640' />
    <nd ref='-161312641' />
    <tag k='type' v='straight' />
  </way>
  <way id='-37379001' action='modify'>
    <nd ref='-161312641' />
    <nd ref='-161312642' />
  </way>
  <way id='-37379002' action='modify'>
    <nd ref='-161312642' />
    <nd ref='-161312643' />
    <nd ref='-161312644' />
    <tag k='type' v='straight' />
  </way>
  <way id='-37379003' action='modify'>
    <nd ref='-161312644' />
    <nd ref='-161312645' />
  </way>
  <way id='-37379004' action='modify'>
    <nd ref='-161312645' />
    <nd ref='-161312646' />
    <nd ref='-161312647' />
    <tag k='type' v='straight' />
  </way>
  <way id='-37379005' action='modify'>
    <nd ref='-161312647' />
    <nd ref='-161312648' />
  </way>
  <way id='-37379006' action='modify'>
    <nd ref='-161312648' />
    <nd ref='-161312649' />
    <nd ref='-161312650' />
    <tag k='type' v='straight' />
  </way>
  <way id='-37379007' action='modify'>
    <nd ref='-161312650' />
    <nd ref='-161312651' />
  </way>
  <way id='-37379008' action='modify'>
    <nd ref='-161312651' />
    <nd ref='-161312652' />
    <nd ref='-161312653' />
    <nd ref='-161312654' />
    <tag k='type' v='straight' />
  </way>
  <way id='-37379009' action='modify'>
    <nd ref='-161312654' />
    <nd ref='-161312655' />
  </way>
  <way id='-37379010' action='modify'>
    <nd ref='-161312655' />
    <nd ref='-161312656' />
    <tag k='type' v='straight' />
  </way>
  <way id='-37379020' action='modify'>
    <nd ref='-161312670' />
    <nd ref='-161312671' />
    <tag k='type' v='straight' />
  </way>
  <way id='-37379021' action='modify'>
    <nd ref='-161312671' />
    <nd ref='-161312672' />
  </way>
  <way id='-37379036' action='modify'>
    <nd ref='-161312682' />
    <nd ref='-161312683' />
  </way>
  <way id='-37379037' action='modify'>
    <nd ref='-161312683' />
    <nd ref='-161312633' />
    <tag k='type' v='straight' />
  </way>
  <relation id='-14477499' action='modify'>
    <member type='way' ref='-37379020' role='' />
    <member type='way' ref='-37379021' role='' />
    <member type='way' ref='-37378994' role='' />
    <member type='way' ref='-37379036' role='' />
    <member type='way' ref='-37379037' role='' />
    <member type='way' ref='-37378995' role='' />
    <member type='way' ref='-37378996' role='' />
    <member type='way' ref='-37378997' role='' />
    <member type='way' ref='-37378998' role='' />
    <member type='way' ref='-37378999' role='' />
    <member type='way' ref='-37379000' role='' />
    <member type='way' ref='-37379001' role='' />
    <member type='way' ref='-37379002' role='' />
    <member type='way' ref='-37379003' role='' />
    <member type='way' ref='-37379004' role='' />
    <member type='way' ref='-37379005' role='' />
    <member type='way' ref='-37379006' role='' />
    <member type='way' ref='-37379007' role='' />
    <member type='way' ref='-37379008' role='' />
    <member type='way' ref='-37379009' role='' />
    <member type='way' ref='-37379010' role='' />
    <tag k='key' v='path.dk.svb' />
    <tag k='name' v='DK SVB' />
    <tag k='type' v='path' />
  </relation>
</osm>
