<?xml version='1.0' encoding='UTF-8'?>
<osm version='0.6' upload='false' generator='JOSM'>
  <node id='-141399850' action='modify' lat='55.40794438751' lon='11.35179909348' />
  <node id='-141399851' action='modify' lat='55.40778814787' lon='11.35047016312' />
  <node id='-141399852' action='modify' lat='55.40763938893' lon='11.34884744614'>
    <tag k='name' v='sla' />
  </node>
  <node id='-141399853' action='modify' lat='55.40755008407' lon='11.34740028733' />
  <node id='-141399854' action='modify' lat='55.40721750796' lon='11.33871005361' />
  <node id='-141399855' action='modify' lat='55.40826929985' lon='11.33219061553' />
  <node id='-141399856' action='modify' lat='55.4093985868' lon='11.3290693411' />
  <node id='-141399857' action='modify' lat='55.41321976345' lon='11.32371878843' />
  <node id='-141399858' action='modify' lat='55.42442176046' lon='11.31815893395' />
  <node id='-141399859' action='modify' lat='55.42731258368' lon='11.31680958718' />
  <node id='-141399860' action='modify' lat='55.4465330951' lon='11.30915576324' />
  <node id='-141399861' action='modify' lat='55.44958865573' lon='11.30816849767' />
  <node id='-141399862' action='modify' lat='55.45101746854' lon='11.30778334556'>
    <tag k='name' v='hav' />
  </node>
  <node id='-141399863' action='modify' lat='55.46387108362' lon='11.30431788581' />
  <node id='-141399864' action='modify' lat='55.46935167227' lon='11.30088121058' />
  <node id='-141399865' action='modify' lat='55.47646315991' lon='11.29276279888' />
  <node id='-141399866' action='modify' lat='55.47855247423' lon='11.29004489288' />
  <node id='-141399867' action='modify' lat='55.47968166493' lon='11.28840572721' />
  <node id='-141399868' action='modify' lat='55.48272674684' lon='11.28553561083'>
    <tag k='name' v='lov' />
  </node>
  <node id='-141399869' action='modify' lat='55.4852812714' lon='11.28493518904' />
  <node id='-141399870' action='modify' lat='55.50707716939' lon='11.28582589733'>
    <tag k='name' v='hon' />
  </node>
  <node id='-141399871' action='modify' lat='55.5084656689' lon='11.28588265627' />
  <node id='-141399872' action='modify' lat='55.51078525341' lon='11.28553244369' />
  <node id='-141399873' action='modify' lat='55.51096297342' lon='11.28545543799' />
  <node id='-141399874' action='modify' lat='55.51625762787' lon='11.27839610426' />
  <node id='-141399875' action='modify' lat='55.52257029241' lon='11.25948537737' />
  <node id='-141399876' action='modify' lat='55.52408425525' lon='11.25616384968' />
  <node id='-141399877' action='modify' lat='55.5344277075' lon='11.23886363778' />
  <node id='-141399878' action='modify' lat='55.53885907008' lon='11.23429822375'>
    <tag k='name' v='gor' />
  </node>
  <node id='-141399879' action='modify' lat='55.53968747781' lon='11.23390354634'>
    <tag k='name' v='gor.f' />
  </node>
  <node id='-141399880' action='modify' lat='55.54564491399' lon='11.23437076539' />
  <node id='-141399881' action='modify' lat='55.55311010061' lon='11.23832702368' />
  <node id='-141399882' action='modify' lat='55.55862159368' lon='11.23854428262' />
  <node id='-141399883' action='modify' lat='55.57596720799' lon='11.23063980997' />
  <node id='-141399884' action='modify' lat='55.57969103413' lon='11.22959374845' />
  <node id='-141399885' action='modify' lat='55.58363149619' lon='11.22915450914'>
    <tag k='name' v='fug' />
  </node>
  <node id='-141399886' action='modify' lat='55.59393414145' lon='11.22800587535' />
  <node id='-141399887' action='modify' lat='55.59750168423' lon='11.22924506128' />
  <node id='-141399888' action='modify' lat='55.60317514158' lon='11.23427152097' />
  <node id='-141399889' action='modify' lat='55.60586004956' lon='11.23578965127' />
  <node id='-141399890' action='modify' lat='55.61228881269' lon='11.2379805141'>
    <tag k='name' v='jer' />
  </node>
  <node id='-141399891' action='modify' lat='55.62683903181' lon='11.24294042051' />
  <node id='-141399892' action='modify' lat='55.63734399472' lon='11.23807489336' />
  <node id='-141399893' action='modify' lat='55.64065327708' lon='11.23229741514' />
  <node id='-141399894' action='modify' lat='55.64408034527' lon='11.22808634698'>
    <tag k='name' v='for' />
  </node>
  <node id='-141399895' action='modify' lat='55.6461176739' lon='11.22665941179' />
  <node id='-141399896' action='modify' lat='55.653666672' lon='11.22280775964' />
  <node id='-141399897' action='modify' lat='55.6579490371' lon='11.2227058357' />
  <node id='-141399898' action='modify' lat='55.66059690834' lon='11.22384845674' />
  <node id='-141399899' action='modify' lat='55.66826829559' lon='11.2169423155' />
  <node id='-141399900' action='modify' lat='55.66858217544' lon='11.21562915101' />
  <node id='-141399901' action='modify' lat='55.66979310582' lon='11.20737485943'>
    <tag k='name' v='var' />
  </node>
  <node id='-141399902' action='modify' lat='55.66852008298' lon='11.19175990169' />
  <node id='-141399903' action='modify' lat='55.66766647982' lon='11.18785140306' />
  <way id='-36212492' action='modify'>
    <nd ref='-141399850' />
    <nd ref='-141399851' />
    <tag k='type' v='straight' />
  </way>
  <way id='-36212493' action='modify'>
    <nd ref='-141399851' />
    <nd ref='-141399852' />
    <nd ref='-141399853' />
    <tag k='type' v='arc' />
  </way>
  <way id='-36212494' action='modify'>
    <nd ref='-141399853' />
    <nd ref='-141399854' />
    <tag k='type' v='straight' />
  </way>
  <way id='-36212495' action='modify'>
    <nd ref='-141399854' />
    <nd ref='-141399855' />
  </way>
  <way id='-36212496' action='modify'>
    <nd ref='-141399855' />
    <nd ref='-141399856' />
    <tag k='type' v='straight' />
  </way>
  <way id='-36212497' action='modify'>
    <nd ref='-141399856' />
    <nd ref='-141399857' />
  </way>
  <way id='-36212498' action='modify'>
    <nd ref='-141399857' />
    <nd ref='-141399858' />
    <tag k='type' v='straight' />
  </way>
  <way id='-36212499' action='modify'>
    <nd ref='-141399858' />
    <nd ref='-141399859' />
  </way>
  <way id='-36212500' action='modify'>
    <nd ref='-141399859' />
    <nd ref='-141399860' />
    <tag k='type' v='straight' />
  </way>
  <way id='-36212501' action='modify'>
    <nd ref='-141399860' />
    <nd ref='-141399861' />
  </way>
  <way id='-36212502' action='modify'>
    <nd ref='-141399861' />
    <nd ref='-141399862' />
    <nd ref='-141399863' />
    <tag k='type' v='straight' />
  </way>
  <way id='-36212503' action='modify'>
    <nd ref='-141399863' />
    <nd ref='-141399864' />
  </way>
  <way id='-36212504' action='modify'>
    <nd ref='-141399864' />
    <nd ref='-141399865' />
    <tag k='type' v='straight' />
  </way>
  <way id='-36212505' action='modify'>
    <nd ref='-141399865' />
    <nd ref='-141399866' />
  </way>
  <way id='-36212506' action='modify'>
    <nd ref='-141399866' />
    <nd ref='-141399867' />
    <tag k='type' v='straight' />
  </way>
  <way id='-36212507' action='modify'>
    <nd ref='-141399867' />
    <nd ref='-141399868' />
    <nd ref='-141399869' />
  </way>
  <way id='-36212508' action='modify'>
    <nd ref='-141399869' />
    <nd ref='-141399870' />
    <nd ref='-141399871' />
    <tag k='type' v='straight' />
  </way>
  <way id='-36212509' action='modify'>
    <nd ref='-141399871' />
    <nd ref='-141399872' />
  </way>
  <way id='-36212510' action='modify'>
    <nd ref='-141399872' />
    <nd ref='-141399873' />
    <tag k='type' v='straight' />
  </way>
  <way id='-36212511' action='modify'>
    <nd ref='-141399873' />
    <nd ref='-141399874' />
  </way>
  <way id='-36212512' action='modify'>
    <nd ref='-141399874' />
    <nd ref='-141399875' />
    <tag k='type' v='straight' />
  </way>
  <way id='-36212513' action='modify'>
    <nd ref='-141399875' />
    <nd ref='-141399876' />
  </way>
  <way id='-36212514' action='modify'>
    <nd ref='-141399876' />
    <nd ref='-141399877' />
    <tag k='type' v='straight' />
  </way>
  <way id='-36212515' action='modify'>
    <nd ref='-141399877' />
    <nd ref='-141399878' />
    <nd ref='-141399879' />
    <nd ref='-141399880' />
  </way>
  <way id='-36212516' action='modify'>
    <nd ref='-141399880' />
    <nd ref='-141399881' />
    <tag k='type' v='straight' />
  </way>
  <way id='-36212517' action='modify'>
    <nd ref='-141399881' />
    <nd ref='-141399882' />
  </way>
  <way id='-36212518' action='modify'>
    <nd ref='-141399882' />
    <nd ref='-141399883' />
    <tag k='type' v='straight' />
  </way>
  <way id='-36212519' action='modify'>
    <nd ref='-141399883' />
    <nd ref='-141399884' />
  </way>
  <way id='-36212520' action='modify'>
    <nd ref='-141399884' />
    <nd ref='-141399885' />
    <nd ref='-141399886' />
    <tag k='type' v='straight' />
  </way>
  <way id='-36212521' action='modify'>
    <nd ref='-141399886' />
    <nd ref='-141399887' />
  </way>
  <way id='-36212522' action='modify'>
    <nd ref='-141399887' />
    <nd ref='-141399888' />
    <tag k='type' v='straight' />
  </way>
  <way id='-36212523' action='modify'>
    <nd ref='-141399888' />
    <nd ref='-141399889' />
  </way>
  <way id='-36212524' action='modify'>
    <nd ref='-141399889' />
    <nd ref='-141399890' />
    <nd ref='-141399891' />
    <tag k='type' v='straight' />
  </way>
  <way id='-36212525' action='modify'>
    <nd ref='-141399891' />
    <nd ref='-141399892' />
  </way>
  <way id='-36212526' action='modify'>
    <nd ref='-141399892' />
    <nd ref='-141399893' />
    <tag k='type' v='straight' />
  </way>
  <way id='-36212527' action='modify'>
    <nd ref='-141399893' />
    <nd ref='-141399894' />
    <nd ref='-141399895' />
  </way>
  <way id='-36212528' action='modify'>
    <nd ref='-141399895' />
    <nd ref='-141399896' />
    <tag k='type' v='straight' />
  </way>
  <way id='-36212529' action='modify'>
    <nd ref='-141399896' />
    <nd ref='-141399897' />
  </way>
  <way id='-36212530' action='modify'>
    <nd ref='-141399897' />
    <nd ref='-141399898' />
    <tag k='type' v='straight' />
  </way>
  <way id='-36212531' action='modify'>
    <nd ref='-141399898' />
    <nd ref='-141399899' />
  </way>
  <way id='-36212532' action='modify'>
    <nd ref='-141399899' />
    <nd ref='-141399900' />
    <tag k='type' v='straight' />
  </way>
  <way id='-36212533' action='modify'>
    <nd ref='-141399900' />
    <nd ref='-141399901' />
    <nd ref='-141399902' />
  </way>
  <way id='-36212534' action='modify'>
    <nd ref='-141399902' />
    <nd ref='-141399903' />
    <tag k='type' v='straight' />
  </way>
  <relation id='-14466417' action='modify'>
    <member type='way' ref='-36212492' role='' />
    <member type='way' ref='-36212493' role='' />
    <member type='way' ref='-36212494' role='' />
    <member type='way' ref='-36212495' role='' />
    <member type='way' ref='-36212496' role='' />
    <member type='way' ref='-36212497' role='' />
    <member type='way' ref='-36212498' role='' />
    <member type='way' ref='-36212499' role='' />
    <member type='way' ref='-36212500' role='' />
    <member type='way' ref='-36212501' role='' />
    <member type='way' ref='-36212502' role='' />
    <member type='way' ref='-36212503' role='' />
    <member type='way' ref='-36212504' role='' />
    <member type='way' ref='-36212505' role='' />
    <member type='way' ref='-36212506' role='' />
    <member type='way' ref='-36212507' role='' />
    <member type='way' ref='-36212508' role='' />
    <member type='way' ref='-36212509' role='' />
    <member type='way' ref='-36212510' role='' />
    <member type='way' ref='-36212511' role='' />
    <member type='way' ref='-36212512' role='' />
    <member type='way' ref='-36212513' role='' />
    <member type='way' ref='-36212514' role='' />
    <member type='way' ref='-36212515' role='' />
    <member type='way' ref='-36212516' role='' />
    <member type='way' ref='-36212517' role='' />
    <member type='way' ref='-36212518' role='' />
    <member type='way' ref='-36212519' role='' />
    <member type='way' ref='-36212520' role='' />
    <member type='way' ref='-36212521' role='' />
    <member type='way' ref='-36212522' role='' />
    <member type='way' ref='-36212523' role='' />
    <member type='way' ref='-36212524' role='' />
    <member type='way' ref='-36212525' role='' />
    <member type='way' ref='-36212526' role='' />
    <member type='way' ref='-36212527' role='' />
    <member type='way' ref='-36212528' role='' />
    <member type='way' ref='-36212529' role='' />
    <member type='way' ref='-36212530' role='' />
    <member type='way' ref='-36212531' role='' />
    <member type='way' ref='-36212532' role='' />
    <member type='way' ref='-36212533' role='' />
    <member type='way' ref='-36212534' role='' />
    <tag k='key' v='path.dk.svl' />
    <tag k='name' v='DK SVL' />
    <tag k='type' v='path' />
  </relation>
</osm>
