<?xml version='1.0' encoding='UTF-8'?>
<osm version='0.6' upload='false' generator='JOSM'>
  <node id='-176182560' action='modify' lat='56.56149036684' lon='9.02545185'>
    <tag k='name' v='ski' />
  </node>
  <node id='-176182561' action='modify' lat='56.56158796162' lon='9.02506604656' />
  <node id='-176182562' action='modify' lat='56.56427266298' lon='9.01927381619' />
  <node id='-176182563' action='modify' lat='56.56484165036' lon='9.01853620871' />
  <node id='-176182564' action='modify' lat='56.56700298546' lon='9.013265668' />
  <node id='-176182565' action='modify' lat='56.56704436367' lon='9.01300683483' />
  <node id='-176182566' action='modify' lat='56.57253762259' lon='9.00672705724' />
  <node id='-176182567' action='modify' lat='56.57268541964' lon='9.00686590791' />
  <node id='-176182568' action='modify' lat='56.57534199589' lon='9.01286869973' />
  <node id='-176182569' action='modify' lat='56.57661259699' lon='9.01977538794' />
  <node id='-176182570' action='modify' lat='56.57787485065' lon='9.02379608189'>
    <tag k='name' v='skn' />
  </node>
  <node id='-176182571' action='modify' lat='56.58363854563' lon='9.02700930565' />
  <node id='-176182572' action='modify' lat='56.5847168452' lon='9.02626365155' />
  <node id='-176182573' action='modify' lat='56.58618062459' lon='9.02437001198' />
  <node id='-176182574' action='modify' lat='56.58888105135' lon='9.01907555529' />
  <node id='-176182575' action='modify' lat='56.58957620169' lon='9.01661573768' />
  <node id='-176182576' action='modify' lat='56.58987749049' lon='9.01478647113' />
  <node id='-176182577' action='modify' lat='56.59128347017' lon='9.01066660345' />
  <node id='-176182578' action='modify' lat='56.59732771207' lon='8.99955421418' />
  <node id='-176182579' action='modify' lat='56.59993496504' lon='8.987524744' />
  <node id='-176182580' action='modify' lat='56.59988138261' lon='8.9863882154'>
    <tag k='name' v='tol' />
  </node>
  <node id='-176182581' action='modify' lat='56.59985300887' lon='8.98578638505' />
  <node id='-176182582' action='modify' lat='56.59979947441' lon='8.98464917868' />
  <node id='-176182583' action='modify' lat='56.59849886546' lon='8.96162849283'>
    <tag k='name' v='hem' />
  </node>
  <node id='-176182584' action='modify' lat='56.5982786362' lon='8.95773052901' />
  <node id='-176182585' action='modify' lat='56.59829192681' lon='8.95419537485' />
  <node id='-176182586' action='modify' lat='56.59921357542' lon='8.94254555145'>
    <tag k='name' v='gro' />
  </node>
  <node id='-176182587' action='modify' lat='56.6013453511' lon='8.9155983898' />
  <node id='-176182588' action='modify' lat='56.60170560363' lon='8.91329973668' />
  <node id='-176182589' action='modify' lat='56.60231361452' lon='8.91146534682'>
    <tag k='name' v='brm' />
  </node>
  <node id='-176182590' action='modify' lat='56.60699255892' lon='8.89734782197'>
    <tag k='name' v='vol' />
  </node>
  <node id='-176182591' action='modify' lat='56.61107391718' lon='8.88503193319' />
  <node id='-176182592' action='modify' lat='56.61174404773' lon='8.88193666399'>
    <tag k='name' v='bal' />
  </node>
  <node id='-176182593' action='modify' lat='56.61206582426' lon='8.87958168447' />
  <node id='-176182594' action='modify' lat='56.61210715315' lon='8.87915789545' />
  <node id='-176182595' action='modify' lat='56.60928192376' lon='8.87028514802' />
  <node id='-176182596' action='modify' lat='56.60574969765' lon='8.86710264664'>
    <tag k='name' v='sve' />
  </node>
  <node id='-176182597' action='modify' lat='56.6028335867' lon='8.8644754833' />
  <node id='-176182598' action='modify' lat='56.59920443677' lon='8.85580658376' />
  <node id='-176182599' action='modify' lat='56.59718921743' lon='8.84394237586'>
    <tag k='name' v='ram' />
  </node>
  <node id='-176182600' action='modify' lat='56.59702943591' lon='8.84300172061' />
  <node id='-176182601' action='modify' lat='56.59759202413' lon='8.83402973145' />
  <node id='-176182602' action='modify' lat='56.6035983494' lon='8.81438791484' />
  <node id='-176182603' action='modify' lat='56.60420217735' lon='8.81052553385'>
    <tag k='name' v='vej' />
  </node>
  <node id='-176182604' action='modify' lat='56.60290149927' lon='8.80411505431' />
  <node id='-176182605' action='modify' lat='56.59590866876' lon='8.79060744166' />
  <node id='-176182606' action='modify' lat='56.59452288895' lon='8.78660523198'>
    <tag k='name' v='via' />
  </node>
  <node id='-176182607' action='modify' lat='56.59436847207' lon='8.78474682301' />
  <node id='-176182608' action='modify' lat='56.5943123565' lon='8.78363907069' />
  <node id='-176182609' action='modify' lat='56.59635756761' lon='8.77730905741' />
  <node id='-176182610' action='modify' lat='56.59663517618' lon='8.77707838744'>
    <tag k='name' v='brl' />
  </node>
  <node id='-176182611' action='modify' lat='56.599517461' lon='8.7762576288' />
  <node id='-176182612' action='modify' lat='56.61178251616' lon='8.77676645056'>
    <tag k='name' v='bet' />
  </node>
  <node id='-176182613' action='modify' lat='56.62025437608' lon='8.77711800628' />
  <node id='-176182614' action='modify' lat='56.620739957' lon='8.77722994445'>
    <tag k='name' v='nor' />
  </node>
  <node id='-176182615' action='modify' lat='56.62279062992' lon='8.77887010306' />
  <node id='-176182616' action='modify' lat='56.62349449104' lon='8.77980619401' />
  <node id='-176182617' action='modify' lat='56.6256605907' lon='8.78190099657' />
  <node id='-176182618' action='modify' lat='56.63514687076' lon='8.78737538785' />
  <node id='-176182619' action='modify' lat='56.63776400456' lon='8.79077754858'>
    <tag k='name' v='bor' />
  </node>
  <node id='-176182620' action='modify' lat='56.63868259292' lon='8.79469513625' />
  <node id='-176182621' action='modify' lat='56.64030767415' lon='8.80875230443'>
    <tag k='name' v='spo' />
  </node>
  <node id='-176182622' action='modify' lat='56.64059266103' lon='8.8112175411'>
    <tag k='name' v='spo.f' />
  </node>
  <node id='-176182625' action='modify' lat='56.56258603218' lon='9.03822973008'>
    <tag k='name' v='ski' />
  </node>
  <node id='-176182626' action='modify' lat='56.56335104962' lon='9.03625252084' />
  <node id='-176182627' action='modify' lat='56.56540324212' lon='9.03381406724' />
  <node id='-176182628' action='modify' lat='56.56639043721' lon='9.0335619396' />
  <node id='-176182629' action='modify' lat='56.56863517566' lon='9.03458117902' />
  <node id='-176182630' action='modify' lat='56.56929423749' lon='9.03568624914' />
  <node id='-176182631' action='modify' lat='56.57000323419' lon='9.03655425565'>
    <tag k='name' v='skn' />
  </node>
  <node id='-176182632' action='modify' lat='56.57231898006' lon='9.03795002818' />
  <node id='-176182633' action='modify' lat='56.57448210419' lon='9.03844355464' />
  <node id='-176182634' action='modify' lat='56.57776201539' lon='9.03637288928' />
  <node id='-176182635' action='modify' lat='56.58104755107' lon='9.03041838527' />
  <way id='-38410170' action='modify'>
    <nd ref='-176182560' />
    <nd ref='-176182561' />
    <tag k='type' v='straight' />
  </way>
  <way id='-38410171' action='modify'>
    <nd ref='-176182561' />
    <nd ref='-176182562' />
  </way>
  <way id='-38410172' action='modify'>
    <nd ref='-176182562' />
    <nd ref='-176182563' />
    <tag k='type' v='straight' />
  </way>
  <way id='-38410173' action='modify'>
    <nd ref='-176182563' />
    <nd ref='-176182564' />
  </way>
  <way id='-38410174' action='modify'>
    <nd ref='-176182564' />
    <nd ref='-176182565' />
    <tag k='type' v='straight' />
  </way>
  <way id='-38410175' action='modify'>
    <nd ref='-176182565' />
    <nd ref='-176182566' />
  </way>
  <way id='-38410176' action='modify'>
    <nd ref='-176182566' />
    <nd ref='-176182567' />
    <tag k='type' v='straight' />
  </way>
  <way id='-38410177' action='modify'>
    <nd ref='-176182567' />
    <nd ref='-176182568' />
  </way>
  <way id='-38410178' action='modify'>
    <nd ref='-176182568' />
    <nd ref='-176182569' />
    <tag k='type' v='straight' />
  </way>
  <way id='-38410179' action='modify'>
    <nd ref='-176182569' />
    <nd ref='-176182570' />
    <nd ref='-176182571' />
  </way>
  <way id='-38410180' action='modify'>
    <nd ref='-176182571' />
    <nd ref='-176182572' />
    <tag k='type' v='straight' />
  </way>
  <way id='-38410181' action='modify'>
    <nd ref='-176182572' />
    <nd ref='-176182573' />
  </way>
  <way id='-38410182' action='modify'>
    <nd ref='-176182573' />
    <nd ref='-176182574' />
    <tag k='type' v='straight' />
  </way>
  <way id='-38410183' action='modify'>
    <nd ref='-176182574' />
    <nd ref='-176182575' />
  </way>
  <way id='-38410184' action='modify'>
    <nd ref='-176182575' />
    <nd ref='-176182576' />
    <tag k='type' v='straight' />
  </way>
  <way id='-38410185' action='modify'>
    <nd ref='-176182576' />
    <nd ref='-176182577' />
  </way>
  <way id='-38410186' action='modify'>
    <nd ref='-176182577' />
    <nd ref='-176182578' />
    <tag k='type' v='straight' />
  </way>
  <way id='-38410187' action='modify'>
    <nd ref='-176182578' />
    <nd ref='-176182579' />
  </way>
  <way id='-38410188' action='modify'>
    <nd ref='-176182579' />
    <nd ref='-176182580' />
    <nd ref='-176182581' />
    <tag k='type' v='straight' />
  </way>
  <way id='-38410189' action='modify'>
    <nd ref='-176182581' />
    <nd ref='-176182582' />
  </way>
  <way id='-38410190' action='modify'>
    <nd ref='-176182582' />
    <nd ref='-176182583' />
    <nd ref='-176182584' />
    <tag k='type' v='straight' />
  </way>
  <way id='-38410191' action='modify'>
    <nd ref='-176182584' />
    <nd ref='-176182585' />
  </way>
  <way id='-38410192' action='modify'>
    <nd ref='-176182585' />
    <nd ref='-176182586' />
    <nd ref='-176182587' />
    <tag k='type' v='straight' />
  </way>
  <way id='-38410193' action='modify'>
    <nd ref='-176182587' />
    <nd ref='-176182588' />
  </way>
  <way id='-38410194' action='modify'>
    <nd ref='-176182588' />
    <nd ref='-176182589' />
    <nd ref='-176182590' />
    <nd ref='-176182591' />
    <tag k='type' v='straight' />
  </way>
  <way id='-38410195' action='modify'>
    <nd ref='-176182591' />
    <nd ref='-176182592' />
    <nd ref='-176182593' />
  </way>
  <way id='-38410196' action='modify'>
    <nd ref='-176182593' />
    <nd ref='-176182594' />
    <tag k='type' v='straight' />
  </way>
  <way id='-38410197' action='modify'>
    <nd ref='-176182594' />
    <nd ref='-176182595' />
  </way>
  <way id='-38410198' action='modify'>
    <nd ref='-176182595' />
    <nd ref='-176182596' />
    <nd ref='-176182597' />
    <tag k='type' v='straight' />
  </way>
  <way id='-38410199' action='modify'>
    <nd ref='-176182597' />
    <nd ref='-176182598' />
  </way>
  <way id='-38410200' action='modify'>
    <nd ref='-176182598' />
    <nd ref='-176182599' />
    <nd ref='-176182600' />
    <tag k='type' v='straight' />
  </way>
  <way id='-38410201' action='modify'>
    <nd ref='-176182600' />
    <nd ref='-176182601' />
  </way>
  <way id='-38410202' action='modify'>
    <nd ref='-176182601' />
    <nd ref='-176182602' />
    <tag k='type' v='straight' />
  </way>
  <way id='-38410203' action='modify'>
    <nd ref='-176182602' />
    <nd ref='-176182603' />
    <nd ref='-176182604' />
  </way>
  <way id='-38410204' action='modify'>
    <nd ref='-176182604' />
    <nd ref='-176182605' />
    <tag k='type' v='straight' />
  </way>
  <way id='-38410205' action='modify'>
    <nd ref='-176182605' />
    <nd ref='-176182606' />
    <nd ref='-176182607' />
  </way>
  <way id='-38410206' action='modify'>
    <nd ref='-176182607' />
    <nd ref='-176182608' />
    <tag k='type' v='straight' />
  </way>
  <way id='-38410207' action='modify'>
    <nd ref='-176182608' />
    <nd ref='-176182609' />
  </way>
  <way id='-38410208' action='modify'>
    <nd ref='-176182609' />
    <nd ref='-176182610' />
    <tag k='type' v='straight' />
  </way>
  <way id='-38410209' action='modify'>
    <nd ref='-176182610' />
    <nd ref='-176182611' />
  </way>
  <way id='-38410210' action='modify'>
    <nd ref='-176182611' />
    <nd ref='-176182612' />
    <nd ref='-176182613' />
    <tag k='type' v='straight' />
  </way>
  <way id='-38410211' action='modify'>
    <nd ref='-176182613' />
    <nd ref='-176182614' />
    <nd ref='-176182615' />
  </way>
  <way id='-38410212' action='modify'>
    <nd ref='-176182615' />
    <nd ref='-176182616' />
    <tag k='type' v='straight' />
  </way>
  <way id='-38410213' action='modify'>
    <nd ref='-176182616' />
    <nd ref='-176182617' />
  </way>
  <way id='-38410214' action='modify'>
    <nd ref='-176182617' />
    <nd ref='-176182618' />
    <tag k='type' v='straight' />
  </way>
  <way id='-38410215' action='modify'>
    <nd ref='-176182618' />
    <nd ref='-176182619' />
    <nd ref='-176182620' />
  </way>
  <way id='-38410216' action='modify'>
    <nd ref='-176182620' />
    <nd ref='-176182621' />
    <nd ref='-176182622' />
    <tag k='type' v='straight' />
  </way>
  <way id='-38410217' action='modify'>
    <nd ref='-176182625' />
    <nd ref='-176182626' />
    <tag k='type' v='straight' />
  </way>
  <way id='-38410218' action='modify'>
    <nd ref='-176182626' />
    <nd ref='-176182627' />
  </way>
  <way id='-38410219' action='modify'>
    <nd ref='-176182627' />
    <nd ref='-176182628' />
    <tag k='type' v='straight' />
  </way>
  <way id='-38410220' action='modify'>
    <nd ref='-176182628' />
    <nd ref='-176182629' />
  </way>
  <way id='-38410221' action='modify'>
    <nd ref='-176182629' />
    <nd ref='-176182630' />
    <tag k='type' v='straight' />
  </way>
  <way id='-38410222' action='modify'>
    <nd ref='-176182630' />
    <nd ref='-176182631' />
    <nd ref='-176182632' />
  </way>
  <way id='-38410223' action='modify'>
    <nd ref='-176182632' />
    <nd ref='-176182633' />
    <tag k='type' v='straight' />
  </way>
  <way id='-38410224' action='modify'>
    <nd ref='-176182633' />
    <nd ref='-176182634' />
  </way>
  <way id='-38410225' action='modify'>
    <nd ref='-176182634' />
    <nd ref='-176182635' />
    <tag k='type' v='straight' />
  </way>
  <way id='-38410226' action='modify'>
    <nd ref='-176182635' />
    <nd ref='-176182571' />
  </way>
  <relation id='-14486653' action='modify'>
    <member type='way' ref='-38410170' role='' />
    <member type='way' ref='-38410171' role='' />
    <member type='way' ref='-38410172' role='' />
    <member type='way' ref='-38410173' role='' />
    <member type='way' ref='-38410174' role='' />
    <member type='way' ref='-38410175' role='' />
    <member type='way' ref='-38410176' role='' />
    <member type='way' ref='-38410177' role='' />
    <member type='way' ref='-38410178' role='' />
    <member type='way' ref='-38410179' role='' />
    <member type='way' ref='-38410180' role='' />
    <member type='way' ref='-38410181' role='' />
    <member type='way' ref='-38410182' role='' />
    <member type='way' ref='-38410183' role='' />
    <member type='way' ref='-38410184' role='' />
    <member type='way' ref='-38410185' role='' />
    <member type='way' ref='-38410186' role='' />
    <member type='way' ref='-38410187' role='' />
    <member type='way' ref='-38410188' role='' />
    <member type='way' ref='-38410189' role='' />
    <member type='way' ref='-38410190' role='' />
    <member type='way' ref='-38410191' role='' />
    <member type='way' ref='-38410192' role='' />
    <member type='way' ref='-38410193' role='' />
    <member type='way' ref='-38410194' role='' />
    <member type='way' ref='-38410195' role='' />
    <member type='way' ref='-38410196' role='' />
    <member type='way' ref='-38410197' role='' />
    <member type='way' ref='-38410198' role='' />
    <member type='way' ref='-38410199' role='' />
    <member type='way' ref='-38410200' role='' />
    <member type='way' ref='-38410201' role='' />
    <member type='way' ref='-38410202' role='' />
    <member type='way' ref='-38410203' role='' />
    <member type='way' ref='-38410204' role='' />
    <member type='way' ref='-38410205' role='' />
    <member type='way' ref='-38410206' role='' />
    <member type='way' ref='-38410207' role='' />
    <member type='way' ref='-38410208' role='' />
    <member type='way' ref='-38410209' role='' />
    <member type='way' ref='-38410210' role='' />
    <member type='way' ref='-38410211' role='' />
    <member type='way' ref='-38410212' role='' />
    <member type='way' ref='-38410213' role='' />
    <member type='way' ref='-38410214' role='' />
    <member type='way' ref='-38410215' role='' />
    <member type='way' ref='-38410216' role='' />
    <tag k='key' v='path.dk.svs' />
    <tag k='name' v='DK SVS' />
    <tag k='type' v='path' />
  </relation>
  <relation id='-14486654' action='modify'>
    <member type='way' ref='-38410217' role='' />
    <member type='way' ref='-38410218' role='' />
    <member type='way' ref='-38410219' role='' />
    <member type='way' ref='-38410220' role='' />
    <member type='way' ref='-38410221' role='' />
    <member type='way' ref='-38410222' role='' />
    <member type='way' ref='-38410223' role='' />
    <member type='way' ref='-38410224' role='' />
    <member type='way' ref='-38410225' role='' />
    <member type='way' ref='-38410226' role='' />
    <member type='way' ref='-38410180' role='' />
    <tag k='key' v='path.dk.svs.ski' />
    <tag k='name' v='DK SVS (Ski)' />
    <tag k='type' v='path' />
  </relation>
</osm>
