<?xml version='1.0' encoding='UTF-8'?>
<osm version='0.6' upload='false' generator='JOSM'>
  <node id='-173854288' action='modify' lat='56.46191180905' lon='10.02111375064' />
  <node id='-173854289' action='modify' lat='56.46386638073' lon='10.01026689738'>
    <tag k='name' v='ran.ys' />
  </node>
  <node id='-173854290' action='modify' lat='56.46125161825' lon='10.02376377314' />
  <node id='-173854291' action='modify' lat='56.46174205561' lon='10.02198356038'>
    <tag k='name' v='ran' />
  </node>
  <node id='-173854292' action='modify' lat='56.46035800839' lon='10.02656668156' />
  <node id='-173854293' action='modify' lat='56.45944066561' lon='10.02875536412' />
  <node id='-173854294' action='modify' lat='56.45933544394' lon='10.02894043654' />
  <node id='-173854295' action='modify' lat='56.4584951436' lon='10.03051220834' />
  <node id='-173854296' action='modify' lat='56.45768594427' lon='10.03227576479' />
  <node id='-173854297' action='modify' lat='56.45739694187' lon='10.03301202983' />
  <node id='-173854298' action='modify' lat='56.45705013519' lon='10.03406077355' />
  <node id='-173854299' action='modify' lat='56.4567670556' lon='10.03553867072' />
  <node id='-173854300' action='modify' lat='56.45663811289' lon='10.03675102919' />
  <node id='-173854301' action='modify' lat='56.45683226784' lon='10.03905236453' />
  <node id='-173854302' action='modify' lat='56.45702938597' lon='10.03971218795' />
  <node id='-173854303' action='modify' lat='56.45812463276' lon='10.04140466183' />
  <node id='-173854304' action='modify' lat='56.4584062202' lon='10.04158436984' />
  <node id='-173854305' action='modify' lat='56.45889677017' lon='10.04214226931' />
  <node id='-173854306' action='modify' lat='56.45908202154' lon='10.04244267672' />
  <node id='-173854307' action='modify' lat='56.45991638248' lon='10.04298180073' />
  <node id='-173854308' action='modify' lat='56.46027353671' lon='10.04312932223' />
  <node id='-173854309' action='modify' lat='56.4606431282' lon='10.04344385806'>
    <tag k='name' v='rap' />
  </node>
  <node id='-173854310' action='modify' lat='56.46195404457' lon='10.04672347963' />
  <node id='-173854315' action='modify' lat='56.46068239318' lon='10.02545397321' />
  <node id='-173854316' action='modify' lat='56.46042038686' lon='10.02635879499' />
  <way id='-38216648' action='modify'>
    <nd ref='-173854289' />
    <nd ref='-173854288' />
    <tag k='type' v='straight' />
  </way>
  <way id='-38216649' action='modify'>
    <nd ref='-173854288' />
    <nd ref='-173854291' />
    <nd ref='-173854290' />
  </way>
  <way id='-38216650' action='modify'>
    <nd ref='-173854316' />
    <nd ref='-173854292' />
    <tag k='type' v='straight' />
  </way>
  <way id='-38216651' action='modify'>
    <nd ref='-173854292' />
    <nd ref='-173854293' />
  </way>
  <way id='-38216652' action='modify'>
    <nd ref='-173854293' />
    <nd ref='-173854294' />
    <tag k='type' v='straight' />
  </way>
  <way id='-38216653' action='modify'>
    <nd ref='-173854294' />
    <nd ref='-173854295' />
  </way>
  <way id='-38216654' action='modify'>
    <nd ref='-173854295' />
    <nd ref='-173854296' />
    <tag k='type' v='straight' />
  </way>
  <way id='-38216655' action='modify'>
    <nd ref='-173854296' />
    <nd ref='-173854297' />
  </way>
  <way id='-38216656' action='modify'>
    <nd ref='-173854297' />
    <nd ref='-173854298' />
    <tag k='type' v='straight' />
  </way>
  <way id='-38216657' action='modify'>
    <nd ref='-173854298' />
    <nd ref='-173854299' />
  </way>
  <way id='-38216658' action='modify'>
    <nd ref='-173854299' />
    <nd ref='-173854300' />
    <tag k='type' v='straight' />
  </way>
  <way id='-38216659' action='modify'>
    <nd ref='-173854300' />
    <nd ref='-173854301' />
  </way>
  <way id='-38216660' action='modify'>
    <nd ref='-173854301' />
    <nd ref='-173854302' />
    <tag k='type' v='straight' />
  </way>
  <way id='-38216661' action='modify'>
    <nd ref='-173854302' />
    <nd ref='-173854303' />
  </way>
  <way id='-38216662' action='modify'>
    <nd ref='-173854303' />
    <nd ref='-173854304' />
    <tag k='type' v='straight' />
  </way>
  <way id='-38216663' action='modify'>
    <nd ref='-173854304' />
    <nd ref='-173854305' />
  </way>
  <way id='-38216664' action='modify'>
    <nd ref='-173854305' />
    <nd ref='-173854306' />
    <tag k='type' v='straight' />
  </way>
  <way id='-38216665' action='modify'>
    <nd ref='-173854306' />
    <nd ref='-173854307' />
  </way>
  <way id='-38216666' action='modify'>
    <nd ref='-173854307' />
    <nd ref='-173854308' />
    <tag k='type' v='straight' />
  </way>
  <way id='-38216667' action='modify'>
    <nd ref='-173854308' />
    <nd ref='-173854309' />
  </way>
  <way id='-38216668' action='modify'>
    <nd ref='-173854309' />
    <nd ref='-173854310' />
    <tag k='type' v='straight' />
  </way>
  <way id='-38216675' action='modify'>
    <nd ref='-173854315' />
    <nd ref='-173854316' />
  </way>
  <way id='-38216676' action='modify'>
    <nd ref='-173854290' />
    <nd ref='-173854315' />
    <tag k='type' v='straight' />
  </way>
  <relation id='-14484520' action='modify'>
    <member type='way' ref='-38216648' role='' />
    <member type='way' ref='-38216649' role='' />
    <member type='way' ref='-38216676' role='' />
    <member type='way' ref='-38216675' role='' />
    <member type='way' ref='-38216650' role='' />
    <member type='way' ref='-38216651' role='' />
    <member type='way' ref='-38216652' role='' />
    <member type='way' ref='-38216653' role='' />
    <member type='way' ref='-38216654' role='' />
    <member type='way' ref='-38216655' role='' />
    <member type='way' ref='-38216656' role='' />
    <member type='way' ref='-38216657' role='' />
    <member type='way' ref='-38216658' role='' />
    <member type='way' ref='-38216659' role='' />
    <member type='way' ref='-38216660' role='' />
    <member type='way' ref='-38216661' role='' />
    <member type='way' ref='-38216662' role='' />
    <member type='way' ref='-38216663' role='' />
    <member type='way' ref='-38216664' role='' />
    <member type='way' ref='-38216665' role='' />
    <member type='way' ref='-38216666' role='' />
    <member type='way' ref='-38216667' role='' />
    <member type='way' ref='-38216668' role='' />
    <tag k='key' v='path.dk.rap' />
    <tag k='name' v='DK RAP' />
    <tag k='type' v='path' />
  </relation>
</osm>
