<?xml version='1.0' encoding='UTF-8'?>
<osm version='0.6' upload='false' generator='JOSM'>
  <node id='-172898135' action='modify' lat='56.46191255' lon='10.02112716168' />
  <node id='-172898136' action='modify' lat='56.46386712164' lon='10.01028030842' />
  <node id='-172898137' action='modify' lat='56.46124272672' lon='10.02376645535' />
  <node id='-172898138' action='modify' lat='56.46174650132' lon='10.02199965363'>
    <tag k='name' v='ran' />
  </node>
  <node id='-172898139' action='modify' lat='56.46031947747' lon='10.02667933434' />
  <node id='-172898140' action='modify' lat='56.45944659358' lon='10.02882778376' />
  <node id='-172898141' action='modify' lat='56.45934137193' lon='10.02901285618' />
  <node id='-172898142' action='modify' lat='56.45726207446' lon='10.03213762701' />
  <node id='-172898143' action='modify' lat='56.4541317961' lon='10.03650426328' />
  <node id='-172898144' action='modify' lat='56.45281261333' lon='10.0401440236' />
  <node id='-172898145' action='modify' lat='56.45270144427' lon='10.04117399186' />
  <node id='-172898146' action='modify' lat='56.45210705635' lon='10.04517852724' />
  <node id='-172898147' action='modify' lat='56.45193828713' lon='10.04611783285'>
    <tag k='name' v='str' />
  </node>
  <node id='-172898148' action='modify' lat='56.4509330729' lon='10.0517123884' />
  <node id='-172898149' action='modify' lat='56.45093751765' lon='10.05996957287' />
  <node id='-172898150' action='modify' lat='56.45168163829' lon='10.0637984249' />
  <node id='-172898151' action='modify' lat='56.4524524244' lon='10.06699561805' />
  <node id='-172898152' action='modify' lat='56.45464759613' lon='10.07496043906' />
  <node id='-172898153' action='modify' lat='56.45533828588' lon='10.07791288063' />
  <node id='-172898154' action='modify' lat='56.45640023393' lon='10.0835730122' />
  <node id='-172898155' action='modify' lat='56.45697232482' lon='10.08975148067' />
  <node id='-172898156' action='modify' lat='56.45707458887' lon='10.09873151645' />
  <node id='-172898157' action='modify' lat='56.45698828385' lon='10.10101069454'>
    <tag k='name' v='rom' />
  </node>
  <node id='-172898158' action='modify' lat='56.45648582579' lon='10.10438695416' />
  <node id='-172898159' action='modify' lat='56.45370121221' lon='10.11660441622' />
  <node id='-172898160' action='modify' lat='56.45312536645' lon='10.12225314841' />
  <node id='-172898161' action='modify' lat='56.45317033992' lon='10.13260108777' />
  <node id='-172898162' action='modify' lat='56.45288450173' lon='10.13719171152' />
  <node id='-172898163' action='modify' lat='56.45189731101' lon='10.14457985625' />
  <node id='-172898164' action='modify' lat='56.45261917822' lon='10.15498682722' />
  <node id='-172898165' action='modify' lat='56.45345142535' lon='10.15789004678'>
    <tag k='name' v='vol' />
  </node>
  <node id='-172898166' action='modify' lat='56.45663070163' lon='10.16898125276' />
  <node id='-172898167' action='modify' lat='56.45714795204' lon='10.17050474748' />
  <node id='-172898168' action='modify' lat='56.46237045262' lon='10.18379241094' />
  <node id='-172898169' action='modify' lat='56.46371412225' lon='10.18908508055' />
  <node id='-172898170' action='modify' lat='56.46678100928' lon='10.20722150669' />
  <node id='-172898171' action='modify' lat='56.46687880181' lon='10.20782634482'>
    <tag k='name' v='ugg' />
  </node>
  <node id='-172898172' action='modify' lat='56.467276637' lon='10.21298691496' />
  <node id='-172898173' action='modify' lat='56.46745592076' lon='10.23766592011' />
  <node id='-172898174' action='modify' lat='56.46717030875' lon='10.2418088961'>
    <tag k='name' v='flo' />
  </node>
  <node id='-172898175' action='modify' lat='56.46703363946' lon='10.24264410004' />
  <node id='-172898176' action='modify' lat='56.46691510352' lon='10.24328380689' />
  <node id='-172898177' action='modify' lat='56.46647873987' lon='10.24744793639' />
  <node id='-172898178' action='modify' lat='56.46617869066' lon='10.25589421257' />
  <node id='-172898179' action='modify' lat='56.46615942816' lon='10.25706633791' />
  <node id='-172898180' action='modify' lat='56.46626537178' lon='10.29778763518' />
  <node id='-172898181' action='modify' lat='56.46601755176' lon='10.30202552609' />
  <node id='-172898182' action='modify' lat='56.46390662077' lon='10.32063832129'>
    <tag k='name' v='all' />
  </node>
  <node id='-172898183' action='modify' lat='56.46265823864' lon='10.33164524347' />
  <node id='-172898184' action='modify' lat='56.46050027604' lon='10.33903866738' />
  <node id='-172898185' action='modify' lat='56.45788305871' lon='10.34393906325' />
  <node id='-172898186' action='modify' lat='56.45653732977' lon='10.34666686982' />
  <node id='-172898187' action='modify' lat='56.45235904153' lon='10.35599827498' />
  <node id='-172898188' action='modify' lat='56.44946331751' lon='10.36019056767' />
  <node id='-172898189' action='modify' lat='56.42925104158' lon='10.37784790484'>
    <tag k='name' v='aun' />
  </node>
  <node id='-172898190' action='modify' lat='56.39163609358' lon='10.41068315372' />
  <node id='-172898191' action='modify' lat='56.38955680365' lon='10.41471987426' />
  <node id='-172898192' action='modify' lat='56.3891507692' lon='10.4164386313'>
    <tag k='name' v='pin' />
  </node>
  <node id='-172898193' action='modify' lat='56.38719454101' lon='10.42471915215' />
  <node id='-172898194' action='modify' lat='56.38654715788' lon='10.42950957745' />
  <node id='-172898195' action='modify' lat='56.38570970099' lon='10.45338391989' />
  <node id='-172898196' action='modify' lat='56.3854528178' lon='10.45656501979' />
  <node id='-172898198' action='modify' lat='56.37999786633' lon='10.50057418805'>
    <tag k='name' v='ryo' />
  </node>
  <node id='-172898208' action='modify' lat='56.46036723096' lon='10.02653754224' />
  <node id='-172898209' action='modify' lat='56.46075712109' lon='10.02520836543' />
  <way id='-38147587' action='modify'>
    <nd ref='-172898136' />
    <nd ref='-172898135' />
    <tag k='type' v='straight' />
  </way>
  <way id='-38147588' action='modify'>
    <nd ref='-172898135' />
    <nd ref='-172898138' />
    <nd ref='-172898137' />
  </way>
  <way id='-38147589' action='modify'>
    <nd ref='-172898137' />
    <nd ref='-172898209' />
    <tag k='type' v='straight' />
  </way>
  <way id='-38147590' action='modify'>
    <nd ref='-172898139' />
    <nd ref='-172898140' />
  </way>
  <way id='-38147591' action='modify'>
    <nd ref='-172898140' />
    <nd ref='-172898141' />
    <tag k='type' v='straight' />
  </way>
  <way id='-38147592' action='modify'>
    <nd ref='-172898141' />
    <nd ref='-172898142' />
  </way>
  <way id='-38147593' action='modify'>
    <nd ref='-172898142' />
    <nd ref='-172898143' />
    <tag k='type' v='straight' />
  </way>
  <way id='-38147594' action='modify'>
    <nd ref='-172898143' />
    <nd ref='-172898144' />
  </way>
  <way id='-38147595' action='modify'>
    <nd ref='-172898144' />
    <nd ref='-172898145' />
    <tag k='type' v='straight' />
  </way>
  <way id='-38147596' action='modify'>
    <nd ref='-172898145' />
    <nd ref='-172898146' />
  </way>
  <way id='-38147597' action='modify'>
    <nd ref='-172898146' />
    <nd ref='-172898147' />
    <nd ref='-172898148' />
    <tag k='type' v='straight' />
  </way>
  <way id='-38147598' action='modify'>
    <nd ref='-172898148' />
    <nd ref='-172898149' />
  </way>
  <way id='-38147599' action='modify'>
    <nd ref='-172898149' />
    <nd ref='-172898150' />
    <tag k='type' v='straight' />
  </way>
  <way id='-38147600' action='modify'>
    <nd ref='-172898150' />
    <nd ref='-172898151' />
  </way>
  <way id='-38147601' action='modify'>
    <nd ref='-172898151' />
    <nd ref='-172898152' />
    <tag k='type' v='straight' />
  </way>
  <way id='-38147602' action='modify'>
    <nd ref='-172898152' />
    <nd ref='-172898153' />
  </way>
  <way id='-38147603' action='modify'>
    <nd ref='-172898153' />
    <nd ref='-172898154' />
    <tag k='type' v='straight' />
  </way>
  <way id='-38147604' action='modify'>
    <nd ref='-172898154' />
    <nd ref='-172898155' />
  </way>
  <way id='-38147605' action='modify'>
    <nd ref='-172898155' />
    <nd ref='-172898156' />
    <tag k='type' v='straight' />
  </way>
  <way id='-38147606' action='modify'>
    <nd ref='-172898156' />
    <nd ref='-172898157' />
    <nd ref='-172898158' />
  </way>
  <way id='-38147607' action='modify'>
    <nd ref='-172898158' />
    <nd ref='-172898159' />
    <tag k='type' v='straight' />
  </way>
  <way id='-38147608' action='modify'>
    <nd ref='-172898159' />
    <nd ref='-172898160' />
  </way>
  <way id='-38147609' action='modify'>
    <nd ref='-172898160' />
    <nd ref='-172898161' />
    <tag k='type' v='straight' />
  </way>
  <way id='-38147610' action='modify'>
    <nd ref='-172898161' />
    <nd ref='-172898162' />
  </way>
  <way id='-38147611' action='modify'>
    <nd ref='-172898162' />
    <nd ref='-172898163' />
    <tag k='type' v='straight' />
  </way>
  <way id='-38147612' action='modify'>
    <nd ref='-172898163' />
    <nd ref='-172898164' />
  </way>
  <way id='-38147613' action='modify'>
    <nd ref='-172898164' />
    <nd ref='-172898165' />
    <nd ref='-172898166' />
    <tag k='type' v='straight' />
  </way>
  <way id='-38147614' action='modify'>
    <nd ref='-172898166' />
    <nd ref='-172898167' />
  </way>
  <way id='-38147615' action='modify'>
    <nd ref='-172898167' />
    <nd ref='-172898168' />
    <nd ref='-172898169' />
    <nd ref='-172898170' />
    <tag k='type' v='straight' />
  </way>
  <way id='-38147616' action='modify'>
    <nd ref='-172898170' />
    <nd ref='-172898171' />
    <nd ref='-172898172' />
  </way>
  <way id='-38147617' action='modify'>
    <nd ref='-172898172' />
    <nd ref='-172898173' />
    <tag k='type' v='straight' />
  </way>
  <way id='-38147618' action='modify'>
    <nd ref='-172898173' />
    <nd ref='-172898174' />
    <nd ref='-172898175' />
  </way>
  <way id='-38147619' action='modify'>
    <nd ref='-172898175' />
    <nd ref='-172898176' />
    <tag k='type' v='straight' />
  </way>
  <way id='-38147620' action='modify'>
    <nd ref='-172898176' />
    <nd ref='-172898177' />
  </way>
  <way id='-38147621' action='modify'>
    <nd ref='-172898177' />
    <nd ref='-172898178' />
    <tag k='type' v='straight' />
  </way>
  <way id='-38147622' action='modify'>
    <nd ref='-172898178' />
    <nd ref='-172898179' />
  </way>
  <way id='-38147623' action='modify'>
    <nd ref='-172898179' />
    <nd ref='-172898180' />
    <tag k='type' v='straight' />
  </way>
  <way id='-38147624' action='modify'>
    <nd ref='-172898180' />
    <nd ref='-172898181' />
  </way>
  <way id='-38147625' action='modify'>
    <nd ref='-172898181' />
    <nd ref='-172898182' />
    <nd ref='-172898183' />
    <tag k='type' v='straight' />
  </way>
  <way id='-38147626' action='modify'>
    <nd ref='-172898183' />
    <nd ref='-172898184' />
  </way>
  <way id='-38147627' action='modify'>
    <nd ref='-172898184' />
    <nd ref='-172898185' />
    <tag k='type' v='straight' />
  </way>
  <way id='-38147628' action='modify'>
    <nd ref='-172898185' />
    <nd ref='-172898186' />
  </way>
  <way id='-38147629' action='modify'>
    <nd ref='-172898186' />
    <nd ref='-172898187' />
    <tag k='type' v='straight' />
  </way>
  <way id='-38147630' action='modify'>
    <nd ref='-172898187' />
    <nd ref='-172898188' />
  </way>
  <way id='-38147631' action='modify'>
    <nd ref='-172898188' />
    <nd ref='-172898189' />
    <nd ref='-172898190' />
    <tag k='type' v='straight' />
  </way>
  <way id='-38147632' action='modify'>
    <nd ref='-172898190' />
    <nd ref='-172898191' />
  </way>
  <way id='-38147633' action='modify'>
    <nd ref='-172898191' />
    <nd ref='-172898192' />
    <nd ref='-172898193' />
    <tag k='type' v='straight' />
  </way>
  <way id='-38147634' action='modify'>
    <nd ref='-172898193' />
    <nd ref='-172898194' />
  </way>
  <way id='-38147635' action='modify'>
    <nd ref='-172898194' />
    <nd ref='-172898195' />
    <tag k='type' v='straight' />
  </way>
  <way id='-38147636' action='modify'>
    <nd ref='-172898195' />
    <nd ref='-172898196' />
  </way>
  <way id='-38147637' action='modify'>
    <nd ref='-172898196' />
    <nd ref='-172898198' />
    <tag k='type' v='straight' />
  </way>
  <way id='-38147651' action='modify'>
    <nd ref='-172898209' />
    <nd ref='-172898208' />
  </way>
  <way id='-38147652' action='modify'>
    <nd ref='-172898208' />
    <nd ref='-172898139' />
    <tag k='type' v='straight' />
  </way>
  <relation id='-14483905' action='modify'>
    <member type='way' ref='-38147587' role='' />
    <member type='way' ref='-38147588' role='' />
    <member type='way' ref='-38147589' role='' />
    <member type='way' ref='-38147651' role='' />
    <member type='way' ref='-38147652' role='' />
    <member type='way' ref='-38147590' role='' />
    <member type='way' ref='-38147591' role='' />
    <member type='way' ref='-38147592' role='' />
    <member type='way' ref='-38147593' role='' />
    <member type='way' ref='-38147594' role='' />
    <member type='way' ref='-38147595' role='' />
    <member type='way' ref='-38147596' role='' />
    <member type='way' ref='-38147597' role='' />
    <member type='way' ref='-38147598' role='' />
    <member type='way' ref='-38147599' role='' />
    <member type='way' ref='-38147600' role='' />
    <member type='way' ref='-38147601' role='' />
    <member type='way' ref='-38147602' role='' />
    <member type='way' ref='-38147603' role='' />
    <member type='way' ref='-38147604' role='' />
    <member type='way' ref='-38147605' role='' />
    <member type='way' ref='-38147606' role='' />
    <member type='way' ref='-38147607' role='' />
    <member type='way' ref='-38147608' role='' />
    <member type='way' ref='-38147609' role='' />
    <member type='way' ref='-38147610' role='' />
    <member type='way' ref='-38147611' role='' />
    <member type='way' ref='-38147612' role='' />
    <member type='way' ref='-38147613' role='' />
    <member type='way' ref='-38147614' role='' />
    <member type='way' ref='-38147615' role='' />
    <member type='way' ref='-38147616' role='' />
    <member type='way' ref='-38147617' role='' />
    <member type='way' ref='-38147618' role='' />
    <member type='way' ref='-38147619' role='' />
    <member type='way' ref='-38147620' role='' />
    <member type='way' ref='-38147621' role='' />
    <member type='way' ref='-38147622' role='' />
    <member type='way' ref='-38147623' role='' />
    <member type='way' ref='-38147624' role='' />
    <member type='way' ref='-38147625' role='' />
    <member type='way' ref='-38147626' role='' />
    <member type='way' ref='-38147627' role='' />
    <member type='way' ref='-38147628' role='' />
    <member type='way' ref='-38147629' role='' />
    <member type='way' ref='-38147630' role='' />
    <member type='way' ref='-38147631' role='' />
    <member type='way' ref='-38147632' role='' />
    <member type='way' ref='-38147633' role='' />
    <member type='way' ref='-38147634' role='' />
    <member type='way' ref='-38147635' role='' />
    <member type='way' ref='-38147636' role='' />
    <member type='way' ref='-38147637' role='' />
    <tag k='key' v='path.dk.rar' />
    <tag k='name' v='D3 DK RAR' />
    <tag k='type' v='path' />
  </relation>
</osm>
