<?xml version='1.0' encoding='UTF-8'?>
<osm version='0.6' upload='false' generator='JOSM'>
  <node id='-183369197' action='modify' lat='55.07051367229' lon='9.33293962469' />
  <node id='-183369198' action='modify' lat='55.0691938015' lon='9.33249760804'>
    <tag k='name' v='rod' />
  </node>
  <node id='-183369200' action='modify' lat='55.07332555863' lon='9.33373805952' />
  <node id='-183369201' action='modify' lat='55.07337980691' lon='9.33374707314' />
  <node id='-183369202' action='modify' lat='55.07644174036' lon='9.33105110586' />
  <node id='-183369203' action='modify' lat='55.08463137051' lon='9.31022641897' />
  <node id='-183369204' action='modify' lat='55.08593319688' lon='9.30625676036' />
  <node id='-183369205' action='modify' lat='55.08834025339' lon='9.29692266226' />
  <node id='-183369206' action='modify' lat='55.08904023574' lon='9.29340360403' />
  <node id='-183369207' action='modify' lat='55.09024368553' lon='9.284112432' />
  <node id='-183369208' action='modify' lat='55.08966651614' lon='9.27659689844' />
  <node id='-183369209' action='modify' lat='55.08879870104' lon='9.2737216468'>
    <tag k='name' v='nho' />
  </node>
  <node id='-183369210' action='modify' lat='55.08679901484' lon='9.26709650874' />
  <node id='-183369211' action='modify' lat='55.0862340861' lon='9.2647039783' />
  <node id='-183369212' action='modify' lat='55.07970613018' lon='9.23145530462' />
  <node id='-183369213' action='modify' lat='55.07880330224' lon='9.22857998729' />
  <node id='-183369214' action='modify' lat='55.07624519343' lon='9.2221963352' />
  <node id='-183369215' action='modify' lat='55.07498604016' lon='9.21737909049' />
  <node id='-183369216' action='modify' lat='55.07437190543' lon='9.21214221899'>
    <tag k='name' v='hel' />
  </node>
  <node id='-183369217' action='modify' lat='55.07381591945' lon='9.20740126491' />
  <node id='-183369218' action='modify' lat='55.07331837242' lon='9.20460104406' />
  <node id='-183369219' action='modify' lat='55.07210519916' lon='9.19988035619' />
  <node id='-183369220' action='modify' lat='55.07074148708' lon='9.19614135683' />
  <node id='-183369221' action='modify' lat='55.06302519561' lon='9.18115317285' />
  <node id='-183369222' action='modify' lat='55.06242306571' lon='9.17968332231' />
  <node id='-183369223' action='modify' lat='55.06102377916' lon='9.17495243427'>
    <tag k='name' v='klo' />
  </node>
  <node id='-183369224' action='modify' lat='55.06044764738' lon='9.17300462186' />
  <node id='-183369225' action='modify' lat='55.0596058407' lon='9.16470049739' />
  <node id='-183369226' action='modify' lat='55.06063813049' lon='9.14495943904' />
  <node id='-183369227' action='modify' lat='55.06068728648' lon='9.13892983317' />
  <node id='-183369228' action='modify' lat='55.06019572384' lon='9.11525129199' />
  <node id='-183369229' action='modify' lat='55.06033704872' lon='9.11284803271' />
  <node id='-183369230' action='modify' lat='55.06152364406' lon='9.10073370208'>
    <tag k='name' v='bed' />
  </node>
  <node id='-183369231' action='modify' lat='55.06188236991' lon='9.09707128465' />
  <node id='-183369232' action='modify' lat='55.06179328037' lon='9.09008144259' />
  <node id='-183369233' action='modify' lat='55.05283385117' lon='9.05282019496' />
  <node id='-183369234' action='modify' lat='55.05191199158' lon='9.05000922918' />
  <node id='-183369235' action='modify' lat='55.04390315212' lon='9.03015016437' />
  <node id='-183369236' action='modify' lat='55.04271674668' lon='9.02427076757' />
  <node id='-183369237' action='modify' lat='55.04273324628' lon='9.02348530107'>
    <tag k='name' v='als' />
  </node>
  <node id='-183369238' action='modify' lat='55.04312861055' lon='9.00466381967' />
  <node id='-183369239' action='modify' lat='55.04379557515' lon='8.99989485204' />
  <node id='-183369240' action='modify' lat='55.04843943397' lon='8.98521779895' />
  <node id='-183369241' action='modify' lat='55.04897416505' lon='8.9838337791' />
  <node id='-183369242' action='modify' lat='55.05016038207' lon='8.98135541797' />
  <node id='-183369243' action='modify' lat='55.05170302625' lon='8.97756813884' />
  <node id='-183369244' action='modify' lat='55.05274166555' lon='8.97456406474' />
  <node id='-183369245' action='modify' lat='55.05374955012' lon='8.96806239009' />
  <node id='-183369246' action='modify' lat='55.0532603269' lon='8.94975549809'>
    <tag k='name' v='log' />
  </node>
  <node id='-183369247' action='modify' lat='55.05318415458' lon='8.94690512538' />
  <node id='-183369248' action='modify' lat='55.05315035043' lon='8.9450168556' />
  <node id='-183369249' action='modify' lat='55.05268942386' lon='8.94111155927' />
  <node id='-183369250' action='modify' lat='55.05260952939' lon='8.93815576494' />
  <node id='-183369251' action='modify' lat='55.05319951562' lon='8.92056583822' />
  <node id='-183369252' action='modify' lat='55.05219161721' lon='8.9142519182' />
  <node id='-183369253' action='modify' lat='55.05189661775' lon='8.91388713777' />
  <node id='-183369254' action='modify' lat='55.05102082838' lon='8.91155361056' />
  <node id='-183369255' action='modify' lat='55.04956078953' lon='8.90236052357'>
    <tag k='name' v='ell' />
  </node>
  <node id='-183369256' action='modify' lat='55.04837797017' lon='8.89491318583' />
  <node id='-183369257' action='modify' lat='55.04855621186' lon='8.89026224077' />
  <node id='-183369258' action='modify' lat='55.05311655241' lon='8.86497973323' />
  <node id='-183369259' action='modify' lat='55.05301207609' lon='8.85594605327' />
  <node id='-183369260' action='modify' lat='55.04877133686' lon='8.83204220653' />
  <node id='-183369261' action='modify' lat='55.05402240261' lon='8.82191961217' />
  <node id='-183369262' action='modify' lat='55.05726247374' lon='8.82338732788'>
    <tag k='name' v='bre' />
  </node>
  <way id='-38965344' action='modify'>
    <nd ref='-183369198' />
    <nd ref='-183369197' />
    <tag k='type' v='straight' />
  </way>
  <way id='-38965345' action='modify'>
    <nd ref='-183369197' />
    <nd ref='-183369200' />
    <tag k='type' v='arc' />
  </way>
  <way id='-38965346' action='modify'>
    <nd ref='-183369200' />
    <nd ref='-183369201' />
    <tag k='type' v='straight' />
  </way>
  <way id='-38965347' action='modify'>
    <nd ref='-183369201' />
    <nd ref='-183369202' />
  </way>
  <way id='-38965348' action='modify'>
    <nd ref='-183369202' />
    <nd ref='-183369203' />
    <tag k='type' v='straight' />
  </way>
  <way id='-38965349' action='modify'>
    <nd ref='-183369203' />
    <nd ref='-183369204' />
  </way>
  <way id='-38965350' action='modify'>
    <nd ref='-183369204' />
    <nd ref='-183369205' />
    <tag k='type' v='straight' />
  </way>
  <way id='-38965351' action='modify'>
    <nd ref='-183369205' />
    <nd ref='-183369206' />
  </way>
  <way id='-38965352' action='modify'>
    <nd ref='-183369206' />
    <nd ref='-183369207' />
    <tag k='type' v='straight' />
  </way>
  <way id='-38965353' action='modify'>
    <nd ref='-183369207' />
    <nd ref='-183369208' />
  </way>
  <way id='-38965354' action='modify'>
    <nd ref='-183369208' />
    <nd ref='-183369209' />
    <nd ref='-183369210' />
    <tag k='type' v='straight' />
  </way>
  <way id='-38965355' action='modify'>
    <nd ref='-183369210' />
    <nd ref='-183369211' />
  </way>
  <way id='-38965356' action='modify'>
    <nd ref='-183369211' />
    <nd ref='-183369212' />
    <tag k='type' v='straight' />
  </way>
  <way id='-38965357' action='modify'>
    <nd ref='-183369212' />
    <nd ref='-183369213' />
  </way>
  <way id='-38965358' action='modify'>
    <nd ref='-183369213' />
    <nd ref='-183369214' />
    <tag k='type' v='straight' />
  </way>
  <way id='-38965359' action='modify'>
    <nd ref='-183369214' />
    <nd ref='-183369215' />
  </way>
  <way id='-38965360' action='modify'>
    <nd ref='-183369215' />
    <nd ref='-183369216' />
    <nd ref='-183369217' />
    <tag k='type' v='straight' />
  </way>
  <way id='-38965361' action='modify'>
    <nd ref='-183369217' />
    <nd ref='-183369218' />
  </way>
  <way id='-38965362' action='modify'>
    <nd ref='-183369218' />
    <nd ref='-183369219' />
    <tag k='type' v='straight' />
  </way>
  <way id='-38965363' action='modify'>
    <nd ref='-183369219' />
    <nd ref='-183369220' />
  </way>
  <way id='-38965364' action='modify'>
    <nd ref='-183369220' />
    <nd ref='-183369221' />
    <tag k='type' v='straight' />
  </way>
  <way id='-38965365' action='modify'>
    <nd ref='-183369221' />
    <nd ref='-183369222' />
  </way>
  <way id='-38965366' action='modify'>
    <nd ref='-183369222' />
    <nd ref='-183369223' />
    <nd ref='-183369224' />
    <tag k='type' v='straight' />
  </way>
  <way id='-38965367' action='modify'>
    <nd ref='-183369224' />
    <nd ref='-183369225' />
  </way>
  <way id='-38965368' action='modify'>
    <nd ref='-183369225' />
    <nd ref='-183369226' />
    <tag k='type' v='straight' />
  </way>
  <way id='-38965369' action='modify'>
    <nd ref='-183369226' />
    <nd ref='-183369227' />
  </way>
  <way id='-38965370' action='modify'>
    <nd ref='-183369227' />
    <nd ref='-183369228' />
    <tag k='type' v='straight' />
  </way>
  <way id='-38965371' action='modify'>
    <nd ref='-183369228' />
    <nd ref='-183369229' />
  </way>
  <way id='-38965372' action='modify'>
    <nd ref='-183369229' />
    <nd ref='-183369230' />
    <nd ref='-183369231' />
    <tag k='type' v='straight' />
  </way>
  <way id='-38965373' action='modify'>
    <nd ref='-183369231' />
    <nd ref='-183369232' />
  </way>
  <way id='-38965374' action='modify'>
    <nd ref='-183369232' />
    <nd ref='-183369233' />
    <tag k='type' v='straight' />
  </way>
  <way id='-38965375' action='modify'>
    <nd ref='-183369233' />
    <nd ref='-183369234' />
  </way>
  <way id='-38965376' action='modify'>
    <nd ref='-183369234' />
    <nd ref='-183369235' />
    <tag k='type' v='straight' />
  </way>
  <way id='-38965377' action='modify'>
    <nd ref='-183369235' />
    <nd ref='-183369236' />
  </way>
  <way id='-38965378' action='modify'>
    <nd ref='-183369236' />
    <nd ref='-183369237' />
    <nd ref='-183369238' />
    <tag k='type' v='straight' />
  </way>
  <way id='-38965379' action='modify'>
    <nd ref='-183369238' />
    <nd ref='-183369239' />
  </way>
  <way id='-38965380' action='modify'>
    <nd ref='-183369239' />
    <nd ref='-183369240' />
    <tag k='type' v='straight' />
  </way>
  <way id='-38965381' action='modify'>
    <nd ref='-183369240' />
    <nd ref='-183369241' />
  </way>
  <way id='-38965382' action='modify'>
    <nd ref='-183369241' />
    <nd ref='-183369242' />
    <tag k='type' v='straight' />
  </way>
  <way id='-38965383' action='modify'>
    <nd ref='-183369242' />
    <nd ref='-183369243' />
  </way>
  <way id='-38965384' action='modify'>
    <nd ref='-183369243' />
    <nd ref='-183369244' />
    <tag k='type' v='straight' />
  </way>
  <way id='-38965385' action='modify'>
    <nd ref='-183369244' />
    <nd ref='-183369245' />
  </way>
  <way id='-38965386' action='modify'>
    <nd ref='-183369245' />
    <nd ref='-183369246' />
    <nd ref='-183369247' />
    <tag k='type' v='straight' />
  </way>
  <way id='-38965387' action='modify'>
    <nd ref='-183369247' />
    <nd ref='-183369248' />
  </way>
  <way id='-38965388' action='modify'>
    <nd ref='-183369248' />
    <nd ref='-183369249' />
    <tag k='type' v='straight' />
  </way>
  <way id='-38965389' action='modify'>
    <nd ref='-183369249' />
    <nd ref='-183369250' />
  </way>
  <way id='-38965390' action='modify'>
    <nd ref='-183369250' />
    <nd ref='-183369251' />
    <tag k='type' v='straight' />
  </way>
  <way id='-38965391' action='modify'>
    <nd ref='-183369251' />
    <nd ref='-183369252' />
  </way>
  <way id='-38965392' action='modify'>
    <nd ref='-183369252' />
    <nd ref='-183369253' />
    <tag k='type' v='straight' />
  </way>
  <way id='-38965393' action='modify'>
    <nd ref='-183369253' />
    <nd ref='-183369254' />
  </way>
  <way id='-38965394' action='modify'>
    <nd ref='-183369254' />
    <nd ref='-183369255' />
    <nd ref='-183369256' />
    <tag k='type' v='straight' />
  </way>
  <way id='-38965395' action='modify'>
    <nd ref='-183369256' />
    <nd ref='-183369257' />
  </way>
  <way id='-38965396' action='modify'>
    <nd ref='-183369257' />
    <nd ref='-183369258' />
    <tag k='type' v='straight' />
  </way>
  <way id='-38965397' action='modify'>
    <nd ref='-183369258' />
    <nd ref='-183369259' />
  </way>
  <way id='-38965398' action='modify'>
    <nd ref='-183369259' />
    <nd ref='-183369260' />
    <tag k='type' v='straight' />
  </way>
  <way id='-38965399' action='modify'>
    <nd ref='-183369260' />
    <nd ref='-183369261' />
  </way>
  <way id='-38965400' action='modify'>
    <nd ref='-183369261' />
    <nd ref='-183369262' />
    <tag k='type' v='straight' />
  </way>
  <relation id='-14492694' action='modify'>
    <member type='way' ref='-38965344' role='' />
    <member type='way' ref='-38965345' role='' />
    <member type='way' ref='-38965346' role='' />
    <member type='way' ref='-38965347' role='' />
    <member type='way' ref='-38965348' role='' />
    <member type='way' ref='-38965349' role='' />
    <member type='way' ref='-38965350' role='' />
    <member type='way' ref='-38965351' role='' />
    <member type='way' ref='-38965352' role='' />
    <member type='way' ref='-38965353' role='' />
    <member type='way' ref='-38965354' role='' />
    <member type='way' ref='-38965355' role='' />
    <member type='way' ref='-38965356' role='' />
    <member type='way' ref='-38965357' role='' />
    <member type='way' ref='-38965358' role='' />
    <member type='way' ref='-38965359' role='' />
    <member type='way' ref='-38965360' role='' />
    <member type='way' ref='-38965361' role='' />
    <member type='way' ref='-38965362' role='' />
    <member type='way' ref='-38965363' role='' />
    <member type='way' ref='-38965364' role='' />
    <member type='way' ref='-38965365' role='' />
    <member type='way' ref='-38965366' role='' />
    <member type='way' ref='-38965367' role='' />
    <member type='way' ref='-38965368' role='' />
    <member type='way' ref='-38965369' role='' />
    <member type='way' ref='-38965370' role='' />
    <member type='way' ref='-38965371' role='' />
    <member type='way' ref='-38965372' role='' />
    <member type='way' ref='-38965373' role='' />
    <member type='way' ref='-38965374' role='' />
    <member type='way' ref='-38965375' role='' />
    <member type='way' ref='-38965376' role='' />
    <member type='way' ref='-38965377' role='' />
    <member type='way' ref='-38965378' role='' />
    <member type='way' ref='-38965379' role='' />
    <member type='way' ref='-38965380' role='' />
    <member type='way' ref='-38965381' role='' />
    <member type='way' ref='-38965382' role='' />
    <member type='way' ref='-38965383' role='' />
    <member type='way' ref='-38965384' role='' />
    <member type='way' ref='-38965385' role='' />
    <member type='way' ref='-38965386' role='' />
    <member type='way' ref='-38965387' role='' />
    <member type='way' ref='-38965388' role='' />
    <member type='way' ref='-38965389' role='' />
    <member type='way' ref='-38965390' role='' />
    <member type='way' ref='-38965391' role='' />
    <member type='way' ref='-38965392' role='' />
    <member type='way' ref='-38965393' role='' />
    <member type='way' ref='-38965394' role='' />
    <member type='way' ref='-38965395' role='' />
    <member type='way' ref='-38965396' role='' />
    <member type='way' ref='-38965397' role='' />
    <member type='way' ref='-38965398' role='' />
    <member type='way' ref='-38965399' role='' />
    <member type='way' ref='-38965400' role='' />
    <tag k='key' v='path.dk.rbb' />
    <tag k='name' v='DK RBB' />
    <tag k='type' v='path' />
  </relation>
</osm>
