<?xml version='1.0' encoding='UTF-8'?>
<osm version='0.6' upload='false' generator='JOSM'>
  <node id='-151573152' action='modify' lat='54.93816641862' lon='10.70737302035'>
    <tag k='name' v='rud.a' />
  </node>
  <node id='-151573153' action='modify' lat='54.93867537384' lon='10.70857486736'>
    <tag k='name' v='rud' />
  </node>
  <node id='-151573154' action='modify' lat='54.93905238159' lon='10.70946514338' />
  <node id='-151573155' action='modify' lat='54.94105381719' lon='10.71547865331' />
  <node id='-151573156' action='modify' lat='54.94127876043' lon='10.716218943' />
  <node id='-151573157' action='modify' lat='54.94236032239' lon='10.7218623054'>
    <tag k='name' v='rif' />
  </node>
  <node id='-151573158' action='modify' lat='54.94186731387' lon='10.73170600176' />
  <node id='-151573159' action='modify' lat='54.9399444896' lon='10.74130832613' />
  <node id='-151573160' action='modify' lat='54.93673034829' lon='10.74939786851' />
  <node id='-151573161' action='modify' lat='54.93547437496' lon='10.75119983014'>
    <tag k='name' v='mol' />
  </node>
  <node id='-151573162' action='modify' lat='54.93283790727' lon='10.75498222232' />
  <node id='-151573163' action='modify' lat='54.93077904034' lon='10.76023935735' />
  <node id='-151573164' action='modify' lat='54.93049145404' lon='10.76183963184'>
    <tag k='name' v='skr' />
  </node>
  <node id='-151573165' action='modify' lat='54.93014387436' lon='10.76377372432' />
  <node id='-151573166' action='modify' lat='54.92790015589' lon='10.76802848697' />
  <node id='-151573167' action='modify' lat='54.91451709421' lon='10.77829598844' />
  <node id='-151573168' action='modify' lat='54.91227227533' lon='10.77926158369' />
  <node id='-151573169' action='modify' lat='54.90971895002' lon='10.77941715181' />
  <node id='-151573170' action='modify' lat='54.90708527816' lon='10.7786419934'>
    <tag k='name' v='lon' />
  </node>
  <node id='-151573171' action='modify' lat='54.89680491098' lon='10.77051757693' />
  <node id='-151573172' action='modify' lat='54.89446655462' lon='10.769466151' />
  <node id='-151573173' action='modify' lat='54.891984155' lon='10.7688219584'>
    <tag k='name' v='sna' />
  </node>
  <node id='-151573174' action='modify' lat='54.87941514715' lon='10.76556086004' />
  <node id='-151573175' action='modify' lat='54.87864823123' lon='10.76535701483'>
    <tag k='name' v='ill' />
  </node>
  <node id='-151573176' action='modify' lat='54.87450170455' lon='10.76093136728' />
  <node id='-151573177' action='modify' lat='54.87157557603' lon='10.75496613443' />
  <node id='-151573178' action='modify' lat='54.86933453497' lon='10.74943810433'>
    <tag k='name' v='vin' />
  </node>
  <node id='-151573179' action='modify' lat='54.86660561253' lon='10.74074505687' />
  <node id='-151573180' action='modify' lat='54.86525342865' lon='10.7356059444' />
  <node id='-151573181' action='modify' lat='54.86331459877' lon='10.73164700925' />
  <node id='-151573182' action='modify' lat='54.86267644446' lon='10.73081165249'>
    <tag k='name' v='lin' />
  </node>
  <node id='-151573183' action='modify' lat='54.86012212351' lon='10.72746812761' />
  <node id='-151573184' action='modify' lat='54.85831582391' lon='10.7255905813' />
  <node id='-151573185' action='modify' lat='54.85603390724' lon='10.72375058055' />
  <node id='-151573186' action='modify' lat='54.85344613431' lon='10.72076796412' />
  <node id='-151573187' action='modify' lat='54.85019306917' lon='10.71593197283'>
    <tag k='name' v='hen' />
  </node>
  <node id='-151573188' action='modify' lat='54.85010463539' lon='10.71580051303' />
  <node id='-151573189' action='modify' lat='54.8477990822' lon='10.71315318078' />
  <node id='-151573190' action='modify' lat='54.84134346299' lon='10.70679091479'>
    <tag k='name' v='kad' />
  </node>
  <node id='-151573191' action='modify' lat='54.83503665887' lon='10.70057629466' />
  <node id='-151573192' action='modify' lat='54.83406763179' lon='10.69949502707' />
  <node id='-151573193' action='modify' lat='54.83331265409' lon='10.69855391443' />
  <node id='-151573194' action='modify' lat='54.83225288174' lon='10.69751321733'>
    <tag k='name' v='hel' />
  </node>
  <node id='-151573195' action='modify' lat='54.83023831065' lon='10.69647788465' />
  <node id='-151573196' action='modify' lat='54.82882928708' lon='10.69610237539' />
  <node id='-151573197' action='modify' lat='54.82760639638' lon='10.69543831877' />
  <node id='-151573198' action='modify' lat='54.82681145344' lon='10.69484710425' />
  <node id='-151573199' action='modify' lat='54.82594774104' lon='10.69435089558' />
  <node id='-151573200' action='modify' lat='54.8248285548' lon='10.69379480572'>
    <tag k='name' v='hum' />
  </node>
  <node id='-151573201' action='modify' lat='54.82381542023' lon='10.69329142302' />
  <node id='-151573202' action='modify' lat='54.81881948166' lon='10.69332360148' />
  <node id='-151573203' action='modify' lat='54.80756007513' lon='10.69775936776'>
    <tag k='name' v='nov' />
  </node>
  <node id='-151573204' action='modify' lat='54.80447260611' lon='10.69917081714' />
  <node id='-151573205' action='modify' lat='54.8033888824' lon='10.69979309767' />
  <node id='-151573206' action='modify' lat='54.80225049604' lon='10.70066943927'>
    <tag k='name' v='try' />
  </node>
  <node id='-151573207' action='modify' lat='54.80104046857' lon='10.70160090387' />
  <node id='-151573208' action='modify' lat='54.79827290776' lon='10.70468543887' />
  <node id='-151573209' action='modify' lat='54.79640654668' lon='10.70762714466'>
    <tag k='name' v='ost' />
  </node>
  <node id='-151573210' action='modify' lat='54.79590409362' lon='10.70841907382' />
  <node id='-151573211' action='modify' lat='54.79105624616' lon='10.71115225285' />
  <node id='-151573212' action='modify' lat='54.78684946459' lon='10.71030294383'>
    <tag k='name' v='nob' />
  </node>
  <node id='-151573213' action='modify' lat='54.78657901532' lon='10.71024834573' />
  <node id='-151573214' action='modify' lat='54.78231628976' lon='10.71094035834' />
  <node id='-151573215' action='modify' lat='54.78001615009' lon='10.7120588395' />
  <node id='-151573216' action='modify' lat='54.77749930868' lon='10.71236728549' />
  <node id='-151573217' action='modify' lat='54.77316754895' lon='10.71243434876' />
  <node id='-151573218' action='modify' lat='54.77296255184' lon='10.71245178446'>
    <tag k='name' v='bro' />
  </node>
  <node id='-151573219' action='modify' lat='54.77062552101' lon='10.71270793408' />
  <node id='-151573220' action='modify' lat='54.76741178541' lon='10.71372985572' />
  <node id='-151573221' action='modify' lat='54.76453514407' lon='10.71367084712' />
  <node id='-151573222' action='modify' lat='54.76389139214' lon='10.71351259679' />
  <node id='-151573223' action='modify' lat='54.76341166649' lon='10.71336507529'>
    <tag k='name' v='roj' />
  </node>
  <node id='-151573224' action='modify' lat='54.76035831314' lon='10.71127831399' />
  <node id='-151573225' action='modify' lat='54.75636044539' lon='10.70659577181'>
    <tag k='name' v='son' />
  </node>
  <node id='-151573226' action='modify' lat='54.75597519332' lon='10.70614456594' />
  <node id='-151573227' action='modify' lat='54.75401563668' lon='10.70312976301' />
  <node id='-151573228' action='modify' lat='54.75098170609' lon='10.69714305639' />
  <node id='-151573229' action='modify' lat='54.74907917515' lon='10.68785190314' />
  <node id='-151573230' action='modify' lat='54.74916741598' lon='10.6839358753' />
  <node id='-151573231' action='modify' lat='54.74902809071' lon='10.68063139379' />
  <node id='-151573232' action='modify' lat='54.74873979068' lon='10.67741892319'>
    <tag k='name' v='bag' />
  </node>
  <node id='-151573233' action='modify' lat='54.74869061197' lon='10.67687093675' />
  <node id='-151573234' action='modify' lat='54.74970923036' lon='10.67297368973' />
  <node id='-151573235' action='modify' lat='54.75036249592' lon='10.67228972644' />
  <node id='-151573236' action='modify' lat='54.75075878459' lon='10.67194640368' />
  <node id='-151573237' action='modify' lat='54.75137333395' lon='10.67147969931'>
    <tag k='name' v='bag.f' />
  </node>
  <way id='-36820418' action='modify'>
    <nd ref='-151573152' />
    <nd ref='-151573153' />
    <nd ref='-151573154' />
    <tag k='type' v='straight' />
  </way>
  <way id='-36820419' action='modify'>
    <nd ref='-151573154' />
    <nd ref='-151573155' />
  </way>
  <way id='-36820420' action='modify'>
    <nd ref='-151573155' />
    <nd ref='-151573156' />
    <tag k='type' v='straight' />
  </way>
  <way id='-36820421' action='modify'>
    <nd ref='-151573156' />
    <nd ref='-151573157' />
    <nd ref='-151573158' />
  </way>
  <way id='-36820422' action='modify'>
    <nd ref='-151573158' />
    <nd ref='-151573159' />
    <tag k='type' v='straight' />
  </way>
  <way id='-36820423' action='modify'>
    <nd ref='-151573159' />
    <nd ref='-151573160' />
  </way>
  <way id='-36820424' action='modify'>
    <nd ref='-151573160' />
    <nd ref='-151573161' />
    <nd ref='-151573162' />
    <tag k='type' v='straight' />
  </way>
  <way id='-36820425' action='modify'>
    <nd ref='-151573162' />
    <nd ref='-151573163' />
  </way>
  <way id='-36820426' action='modify'>
    <nd ref='-151573163' />
    <nd ref='-151573164' />
    <nd ref='-151573165' />
    <tag k='type' v='straight' />
  </way>
  <way id='-36820427' action='modify'>
    <nd ref='-151573165' />
    <nd ref='-151573166' />
  </way>
  <way id='-36820428' action='modify'>
    <nd ref='-151573166' />
    <nd ref='-151573167' />
    <tag k='type' v='straight' />
  </way>
  <way id='-36820429' action='modify'>
    <nd ref='-151573167' />
    <nd ref='-151573168' />
  </way>
  <way id='-36820430' action='modify'>
    <nd ref='-151573168' />
    <nd ref='-151573169' />
    <tag k='type' v='straight' />
  </way>
  <way id='-36820431' action='modify'>
    <nd ref='-151573169' />
    <nd ref='-151573170' />
  </way>
  <way id='-36820432' action='modify'>
    <nd ref='-151573170' />
    <nd ref='-151573171' />
    <tag k='type' v='straight' />
  </way>
  <way id='-36820433' action='modify'>
    <nd ref='-151573171' />
    <nd ref='-151573172' />
  </way>
  <way id='-36820434' action='modify'>
    <nd ref='-151573172' />
    <nd ref='-151573173' />
    <nd ref='-151573174' />
    <tag k='type' v='straight' />
  </way>
  <way id='-36820435' action='modify'>
    <nd ref='-151573174' />
    <nd ref='-151573175' />
    <nd ref='-151573176' />
  </way>
  <way id='-36820436' action='modify'>
    <nd ref='-151573176' />
    <nd ref='-151573177' />
    <tag k='type' v='straight' />
  </way>
  <way id='-36820437' action='modify'>
    <nd ref='-151573177' />
    <nd ref='-151573178' />
    <nd ref='-151573179' />
  </way>
  <way id='-36820438' action='modify'>
    <nd ref='-151573179' />
    <nd ref='-151573180' />
    <tag k='type' v='straight' />
  </way>
  <way id='-36820439' action='modify'>
    <nd ref='-151573180' />
    <nd ref='-151573181' />
  </way>
  <way id='-36820440' action='modify'>
    <nd ref='-151573181' />
    <nd ref='-151573182' />
    <nd ref='-151573183' />
    <tag k='type' v='straight' />
  </way>
  <way id='-36820441' action='modify'>
    <nd ref='-151573183' />
    <nd ref='-151573184' />
  </way>
  <way id='-36820442' action='modify'>
    <nd ref='-151573184' />
    <nd ref='-151573185' />
    <tag k='type' v='straight' />
  </way>
  <way id='-36820443' action='modify'>
    <nd ref='-151573185' />
    <nd ref='-151573186' />
  </way>
  <way id='-36820444' action='modify'>
    <nd ref='-151573186' />
    <nd ref='-151573187' />
    <nd ref='-151573188' />
    <tag k='type' v='straight' />
  </way>
  <way id='-36820445' action='modify'>
    <nd ref='-151573188' />
    <nd ref='-151573189' />
  </way>
  <way id='-36820446' action='modify'>
    <nd ref='-151573189' />
    <nd ref='-151573190' />
    <nd ref='-151573191' />
    <tag k='type' v='straight' />
  </way>
  <way id='-36820447' action='modify'>
    <nd ref='-151573191' />
    <nd ref='-151573192' />
  </way>
  <way id='-36820448' action='modify'>
    <nd ref='-151573192' />
    <nd ref='-151573193' />
    <tag k='type' v='straight' />
  </way>
  <way id='-36820449' action='modify'>
    <nd ref='-151573193' />
    <nd ref='-151573194' />
    <nd ref='-151573195' />
  </way>
  <way id='-36820450' action='modify'>
    <nd ref='-151573195' />
    <nd ref='-151573196' />
    <tag k='type' v='straight' />
  </way>
  <way id='-36820451' action='modify'>
    <nd ref='-151573196' />
    <nd ref='-151573197' />
  </way>
  <way id='-36820452' action='modify'>
    <nd ref='-151573197' />
    <nd ref='-151573198' />
    <tag k='type' v='straight' />
  </way>
  <way id='-36820453' action='modify'>
    <nd ref='-151573198' />
    <nd ref='-151573199' />
  </way>
  <way id='-36820454' action='modify'>
    <nd ref='-151573199' />
    <nd ref='-151573200' />
    <nd ref='-151573201' />
    <tag k='type' v='straight' />
  </way>
  <way id='-36820455' action='modify'>
    <nd ref='-151573201' />
    <nd ref='-151573202' />
  </way>
  <way id='-36820456' action='modify'>
    <nd ref='-151573202' />
    <nd ref='-151573203' />
    <nd ref='-151573204' />
    <tag k='type' v='straight' />
  </way>
  <way id='-36820457' action='modify'>
    <nd ref='-151573204' />
    <nd ref='-151573205' />
  </way>
  <way id='-36820458' action='modify'>
    <nd ref='-151573205' />
    <nd ref='-151573206' />
    <nd ref='-151573207' />
    <tag k='type' v='straight' />
  </way>
  <way id='-36820459' action='modify'>
    <nd ref='-151573207' />
    <nd ref='-151573208' />
  </way>
  <way id='-36820460' action='modify'>
    <nd ref='-151573208' />
    <nd ref='-151573209' />
    <nd ref='-151573210' />
    <tag k='type' v='straight' />
  </way>
  <way id='-36820461' action='modify'>
    <nd ref='-151573210' />
    <nd ref='-151573211' />
  </way>
  <way id='-36820462' action='modify'>
    <nd ref='-151573211' />
    <nd ref='-151573212' />
    <nd ref='-151573213' />
    <tag k='type' v='straight' />
  </way>
  <way id='-36820463' action='modify'>
    <nd ref='-151573213' />
    <nd ref='-151573214' />
  </way>
  <way id='-36820464' action='modify'>
    <nd ref='-151573214' />
    <nd ref='-151573215' />
    <tag k='type' v='straight' />
  </way>
  <way id='-36820465' action='modify'>
    <nd ref='-151573215' />
    <nd ref='-151573216' />
  </way>
  <way id='-36820466' action='modify'>
    <nd ref='-151573216' />
    <nd ref='-151573217' />
    <tag k='type' v='straight' />
  </way>
  <way id='-36820467' action='modify'>
    <nd ref='-151573217' />
    <nd ref='-151573218' />
    <nd ref='-151573219' />
  </way>
  <way id='-36820468' action='modify'>
    <nd ref='-151573219' />
    <nd ref='-151573220' />
    <tag k='type' v='straight' />
  </way>
  <way id='-36820469' action='modify'>
    <nd ref='-151573220' />
    <nd ref='-151573221' />
  </way>
  <way id='-36820470' action='modify'>
    <nd ref='-151573221' />
    <nd ref='-151573222' />
    <tag k='type' v='straight' />
  </way>
  <way id='-36820471' action='modify'>
    <nd ref='-151573222' />
    <nd ref='-151573223' />
    <nd ref='-151573224' />
  </way>
  <way id='-36820472' action='modify'>
    <nd ref='-151573224' />
    <nd ref='-151573225' />
    <nd ref='-151573226' />
    <tag k='type' v='straight' />
  </way>
  <way id='-36820473' action='modify'>
    <nd ref='-151573226' />
    <nd ref='-151573227' />
  </way>
  <way id='-36820474' action='modify'>
    <nd ref='-151573227' />
    <nd ref='-151573228' />
    <tag k='type' v='straight' />
  </way>
  <way id='-36820475' action='modify'>
    <nd ref='-151573228' />
    <nd ref='-151573229' />
  </way>
  <way id='-36820476' action='modify'>
    <nd ref='-151573229' />
    <nd ref='-151573230' />
    <tag k='type' v='straight' />
  </way>
  <way id='-36820477' action='modify'>
    <nd ref='-151573230' />
    <nd ref='-151573231' />
  </way>
  <way id='-36820478' action='modify'>
    <nd ref='-151573231' />
    <nd ref='-151573232' />
    <nd ref='-151573233' />
    <tag k='type' v='straight' />
  </way>
  <way id='-36820479' action='modify'>
    <nd ref='-151573233' />
    <nd ref='-151573234' />
  </way>
  <way id='-36820480' action='modify'>
    <nd ref='-151573234' />
    <nd ref='-151573235' />
    <tag k='type' v='straight' />
  </way>
  <way id='-36820481' action='modify'>
    <nd ref='-151573235' />
    <nd ref='-151573236' />
  </way>
  <way id='-36820482' action='modify'>
    <nd ref='-151573236' />
    <nd ref='-151573237' />
    <tag k='type' v='straight' />
  </way>
  <relation id='-14471234' action='modify'>
    <member type='way' ref='-36820418' role='' />
    <member type='way' ref='-36820419' role='' />
    <member type='way' ref='-36820420' role='' />
    <member type='way' ref='-36820421' role='' />
    <member type='way' ref='-36820422' role='' />
    <member type='way' ref='-36820423' role='' />
    <member type='way' ref='-36820424' role='' />
    <member type='way' ref='-36820425' role='' />
    <member type='way' ref='-36820426' role='' />
    <member type='way' ref='-36820427' role='' />
    <member type='way' ref='-36820428' role='' />
    <member type='way' ref='-36820429' role='' />
    <member type='way' ref='-36820430' role='' />
    <member type='way' ref='-36820431' role='' />
    <member type='way' ref='-36820432' role='' />
    <member type='way' ref='-36820433' role='' />
    <member type='way' ref='-36820434' role='' />
    <member type='way' ref='-36820435' role='' />
    <member type='way' ref='-36820436' role='' />
    <member type='way' ref='-36820437' role='' />
    <member type='way' ref='-36820438' role='' />
    <member type='way' ref='-36820439' role='' />
    <member type='way' ref='-36820440' role='' />
    <member type='way' ref='-36820441' role='' />
    <member type='way' ref='-36820442' role='' />
    <member type='way' ref='-36820443' role='' />
    <member type='way' ref='-36820444' role='' />
    <member type='way' ref='-36820445' role='' />
    <member type='way' ref='-36820446' role='' />
    <member type='way' ref='-36820447' role='' />
    <member type='way' ref='-36820448' role='' />
    <member type='way' ref='-36820449' role='' />
    <member type='way' ref='-36820450' role='' />
    <member type='way' ref='-36820451' role='' />
    <member type='way' ref='-36820452' role='' />
    <member type='way' ref='-36820453' role='' />
    <member type='way' ref='-36820454' role='' />
    <member type='way' ref='-36820455' role='' />
    <member type='way' ref='-36820456' role='' />
    <member type='way' ref='-36820457' role='' />
    <member type='way' ref='-36820458' role='' />
    <member type='way' ref='-36820459' role='' />
    <member type='way' ref='-36820460' role='' />
    <member type='way' ref='-36820461' role='' />
    <member type='way' ref='-36820462' role='' />
    <member type='way' ref='-36820463' role='' />
    <member type='way' ref='-36820464' role='' />
    <member type='way' ref='-36820465' role='' />
    <member type='way' ref='-36820466' role='' />
    <member type='way' ref='-36820467' role='' />
    <member type='way' ref='-36820468' role='' />
    <member type='way' ref='-36820469' role='' />
    <member type='way' ref='-36820470' role='' />
    <member type='way' ref='-36820471' role='' />
    <member type='way' ref='-36820472' role='' />
    <member type='way' ref='-36820473' role='' />
    <member type='way' ref='-36820474' role='' />
    <member type='way' ref='-36820475' role='' />
    <member type='way' ref='-36820476' role='' />
    <member type='way' ref='-36820477' role='' />
    <member type='way' ref='-36820478' role='' />
    <member type='way' ref='-36820479' role='' />
    <member type='way' ref='-36820480' role='' />
    <member type='way' ref='-36820481' role='' />
    <member type='way' ref='-36820482' role='' />
    <tag k='key' v='path.dk.rbk' />
    <tag k='name' v='DK RBK' />
    <tag k='type' v='path' />
  </relation>
</osm>
