<?xml version='1.0' encoding='UTF-8'?>
<osm version='0.6' upload='false' generator='JOSM'>
  <node id='-141210658' action='modify' lat='55.43880580095' lon='11.80640298042' />
  <node id='-141210659' action='modify' lat='55.43787020253' lon='11.78668700034'>
    <tag k='name' v='rin' />
  </node>
  <node id='-141210660' action='modify' lat='55.4387101802' lon='11.81013106227' />
  <node id='-141210661' action='modify' lat='55.43819283838' lon='11.81532381892' />
  <node id='-141210662' action='modify' lat='55.43805284756' lon='11.82105302274' />
  <node id='-141210663' action='modify' lat='55.43820805137' lon='11.82420730054' />
  <node id='-141210664' action='modify' lat='55.44447960353' lon='11.8388521564' />
  <node id='-141210665' action='modify' lat='55.46092694951' lon='11.85103093332'>
    <tag k='name' v='knu' />
  </node>
  <node id='-141210666' action='modify' lat='55.46776173487' lon='11.85609338522' />
  <node id='-141210667' action='modify' lat='55.47266339816' lon='11.85750960231' />
  <node id='-141210668' action='modify' lat='55.4836753426' lon='11.85775690928'>
    <tag k='name' v='ort' />
  </node>
  <node id='-141210669' action='modify' lat='55.50203631727' lon='11.858169415' />
  <node id='-141210670' action='modify' lat='55.506523596' lon='11.85994505346' />
  <node id='-141210671' action='modify' lat='55.50818227435' lon='11.8611466831' />
  <node id='-141210672' action='modify' lat='55.5120795927' lon='11.8620586288' />
  <node id='-141210673' action='modify' lat='55.51883650875' lon='11.8609726041'>
    <tag k='name' v='jys' />
  </node>
  <node id='-141210674' action='modify' lat='55.52402733418' lon='11.86013816714' />
  <node id='-141210675' action='modify' lat='55.53122945593' lon='11.85174821734' />
  <node id='-141210676' action='modify' lat='55.53149061829' lon='11.85086959434'>
    <tag k='name' v='skj' />
    <tag k='note' v='position estimated' />
  </node>
  <node id='-141210677' action='modify' lat='55.53439287166' lon='11.84110521197' />
  <node id='-141210678' action='modify' lat='55.53824813029' lon='11.8351936233' />
  <node id='-141210679' action='modify' lat='55.54541122925' lon='11.82893871188' />
  <node id='-141210680' action='modify' lat='55.54797263088' lon='11.82758687854' />
  <node id='-141210681' action='modify' lat='55.55536724673' lon='11.82533036495'>
    <tag k='name' v='old' />
  </node>
  <node id='-141210682' action='modify' lat='55.55834399403' lon='11.8244218719' />
  <node id='-141210683' action='modify' lat='55.56536996252' lon='11.82628868937' />
  <node id='-141210684' action='modify' lat='55.57589443521' lon='11.83347699881' />
  <node id='-141210685' action='modify' lat='55.58003295084' lon='11.83524045545'>
    <tag k='name' v='tin' />
  </node>
  <node id='-141210686' action='modify' lat='55.58551260436' lon='11.83553693533' />
  <node id='-141210687' action='modify' lat='55.58750143988' lon='11.83504340887' />
  <node id='-141210688' action='modify' lat='55.59488592892' lon='11.84393224955' />
  <node id='-141210689' action='modify' lat='55.59534058737' lon='11.84660910487' />
  <node id='-141210690' action='modify' lat='55.59568753771' lon='11.85241728001' />
  <node id='-141210691' action='modify' lat='55.59569208319' lon='11.85256900795' />
  <node id='-141210692' action='modify' lat='55.59558913052' lon='11.8558868739' />
  <node id='-141210693' action='modify' lat='55.59519357521' lon='11.86124056309' />
  <node id='-141210694' action='modify' lat='55.59529989529' lon='11.85980156697'>
    <tag k='name' v='hva' />
  </node>
  <node id='-141210695' action='modify' lat='55.59497823287' lon='11.86340836254' />
  <node id='-141210696' action='modify' lat='55.59495359113' lon='11.86359661171' />
  <node id='-141210697' action='modify' lat='55.59984148776' lon='11.87953052759' />
  <node id='-141210698' action='modify' lat='55.60941439105' lon='11.87512099206' />
  <node id='-141210699' action='modify' lat='55.61033246784' lon='11.87322198808' />
  <node id='-141210700' action='modify' lat='55.61525578329' lon='11.86785220027' />
  <node id='-141210701' action='modify' lat='55.61652868375' lon='11.86707646036' />
  <node id='-141210702' action='modify' lat='55.61813666694' lon='11.86622405608'>
    <tag k='name' v='bje' />
  </node>
  <node id='-141210703' action='modify' lat='55.62951021515' lon='11.86680076361' />
  <node id='-141210704' action='modify' lat='55.63528805084' lon='11.86948297262' />
  <node id='-141210705' action='modify' lat='55.63953911562' lon='11.86926840663' />
  <node id='-141210706' action='modify' lat='55.64078649331' lon='11.86878560901' />
  <node id='-141210707' action='modify' lat='55.6421229004' lon='11.86809542639'>
    <tag k='name' v='ksa' />
  </node>
  <node id='-141210708' action='modify' lat='55.64384421717' lon='11.86689733386' />
  <node id='-141210709' action='modify' lat='55.64720441067' lon='11.86420439601' />
  <node id='-141210710' action='modify' lat='55.65616352333' lon='11.86444041967' />
  <node id='-141210711' action='modify' lat='55.66172257763' lon='11.8751317209'>
    <tag k='name' v='tor' />
  </node>
  <node id='-141210712' action='modify' lat='55.66363190499' lon='11.88406884134' />
  <node id='-141210713' action='modify' lat='55.67470477505' lon='11.8998455894' />
  <node id='-141210714' action='modify' lat='55.68223070488' lon='11.90193337723'>
    <tag k='name' v='jen' />
  </node>
  <node id='-141210715' action='modify' lat='55.69299536783' lon='11.90492032886' />
  <node id='-141210716' action='modify' lat='55.69939263604' lon='11.90526365161' />
  <node id='-141210717' action='modify' lat='55.70461301243' lon='11.90463728598'>
    <tag k='name' v='khy' />
  </node>
  <node id='-141210718' action='modify' lat='55.70878105893' lon='11.90413712382' />
  <node id='-141210719' action='modify' lat='55.71536913942' lon='11.90863250613' />
  <node id='-141210720' action='modify' lat='55.72584661585' lon='11.92487357887'>
    <tag k='name' v='bil' />
  </node>
  <node id='-141210721' action='modify' lat='55.73830995241' lon='11.94419859767' />
  <node id='-141210722' action='modify' lat='55.74360068455' lon='11.94956300497' />
  <node id='-141210723' action='modify' lat='55.74707786932' lon='11.95193124885'>
    <tag k='name' v='ski' />
  </node>
  <node id='-141210724' action='modify' lat='55.76452473796' lon='11.963817164'>
    <tag k='name' v='bon' />
  </node>
  <node id='-141210725' action='modify' lat='55.76508235722' lon='11.96419713736' />
  <node id='-141210726' action='modify' lat='55.76828728614' lon='11.96567772746' />
  <node id='-141210727' action='modify' lat='55.78756182138' lon='11.97124337586'>
    <tag k='name' v='kro' />
  </node>
  <node id='-141210728' action='modify' lat='55.80432013684' lon='11.97608468771' />
  <node id='-141210729' action='modify' lat='55.80720483072' lon='11.97751133129'>
    <tag k='name' v='lyn' />
  </node>
  <node id='-141210730' action='modify' lat='55.81566662555' lon='11.98840139151' />
  <node id='-141210731' action='modify' lat='55.82013938945' lon='12.00028147505'>
    <tag k='name' v='fem' />
  </node>
  <node id='-141210732' action='modify' lat='55.82345411763' lon='12.00908658743' />
  <node id='-141210733' action='modify' lat='55.8253103425' lon='12.02035187602' />
  <node id='-141210734' action='modify' lat='55.82538868796' lon='12.02455757976' />
  <node id='-141210735' action='modify' lat='55.82784142372' lon='12.03458904147' />
  <node id='-141210736' action='modify' lat='55.83088452951' lon='12.04039334178' />
  <node id='-141210737' action='modify' lat='55.8329030921' lon='12.04629420161' />
  <node id='-141210738' action='modify' lat='55.83470464605' lon='12.05533861041' />
  <node id='-141210739' action='modify' lat='55.8345359422' lon='12.06026314616' />
  <node id='-141210740' action='modify' lat='55.83274475171' lon='12.06571459615'>
    <tag k='name' v='fre' />
  </node>
  <node id='-141210741' action='modify' lat='55.83224631756' lon='12.06723152518' />
  <node id='-141210742' action='modify' lat='55.83157201628' lon='12.06868099828' />
  <node id='-141210743' action='modify' lat='55.82888394024' lon='12.07282661319' />
  <node id='-141210744' action='modify' lat='55.82647345504' lon='12.08242892146' />
  <node id='-141210745' action='modify' lat='55.82570206823' lon='12.10270642161' />
  <node id='-141210746' action='modify' lat='55.8260335314' lon='12.10650441885' />
  <node id='-141210747' action='modify' lat='55.83302360601' lon='12.13748929739' />
  <node id='-141210748' action='modify' lat='55.83415636188' lon='12.14154479742' />
  <node id='-141210749' action='modify' lat='55.84307264946' lon='12.16952560186' />
  <node id='-141210750' action='modify' lat='55.8438448391' lon='12.1727285357' />
  <node id='-141210751' action='modify' lat='55.84500737246' lon='12.17960684516' />
  <node id='-141210752' action='modify' lat='55.84433306831' lon='12.17561719471'>
    <tag k='name' v='sla' />
  </node>
  <node id='-141210753' action='modify' lat='55.84537702416' lon='12.18268731095' />
  <node id='-141210754' action='modify' lat='55.84616876466' lon='12.18771099508' />
  <node id='-141210755' action='modify' lat='55.84643623184' lon='12.19123321269' />
  <node id='-141210756' action='modify' lat='55.84643765852' lon='12.19142808557' />
  <node id='-141210757' action='modify' lat='55.84653919881' lon='12.19495295942' />
  <node id='-141210758' action='modify' lat='55.84667171098' lon='12.19784974515' />
  <node id='-141210759' action='modify' lat='55.84813835261' lon='12.20493077159' />
  <node id='-141210760' action='modify' lat='55.85425126041' lon='12.21741913676' />
  <node id='-141210761' action='modify' lat='55.85598558524' lon='12.22005843043' />
  <node id='-141210762' action='modify' lat='55.86499319393' lon='12.23000406146' />
  <node id='-141210763' action='modify' lat='55.8662333889' lon='12.23173139334' />
  <node id='-141210764' action='modify' lat='55.87186792346' lon='12.24059341192' />
  <node id='-141210765' action='modify' lat='55.87391445371' lon='12.24404809713' />
  <node id='-141210766' action='modify' lat='55.88000525252' lon='12.25580690145' />
  <node id='-141210767' action='modify' lat='55.88134124858' lon='12.25818870306' />
  <node id='-141210768' action='modify' lat='55.89043924207' lon='12.27237222433' />
  <node id='-141210769' action='modify' lat='55.89207121432' lon='12.27547703172' />
  <node id='-141210770' action='modify' lat='55.89382485946' lon='12.28039821585'>
    <tag k='name' v='bro' />
  </node>
  <way id='-36200635' action='modify'>
    <nd ref='-141210659' />
    <nd ref='-141210658' />
    <tag k='type' v='straight' />
  </way>
  <way id='-36200636' action='modify'>
    <nd ref='-141210658' />
    <nd ref='-141210660' />
  </way>
  <way id='-36200637' action='modify'>
    <nd ref='-141210660' />
    <nd ref='-141210661' />
    <tag k='type' v='straight' />
  </way>
  <way id='-36200638' action='modify'>
    <nd ref='-141210661' />
    <nd ref='-141210662' />
  </way>
  <way id='-36200639' action='modify'>
    <nd ref='-141210662' />
    <nd ref='-141210663' />
    <tag k='type' v='straight' />
  </way>
  <way id='-36200640' action='modify'>
    <nd ref='-141210663' />
    <nd ref='-141210664' />
  </way>
  <way id='-36200641' action='modify'>
    <nd ref='-141210664' />
    <nd ref='-141210665' />
    <nd ref='-141210666' />
    <tag k='type' v='straight' />
  </way>
  <way id='-36200642' action='modify'>
    <nd ref='-141210666' />
    <nd ref='-141210667' />
  </way>
  <way id='-36200643' action='modify'>
    <nd ref='-141210667' />
    <nd ref='-141210668' />
    <nd ref='-141210669' />
    <tag k='type' v='straight' />
  </way>
  <way id='-36200644' action='modify'>
    <nd ref='-141210669' />
    <nd ref='-141210670' />
  </way>
  <way id='-36200645' action='modify'>
    <nd ref='-141210670' />
    <nd ref='-141210671' />
    <tag k='type' v='straight' />
  </way>
  <way id='-36200646' action='modify'>
    <nd ref='-141210671' />
    <nd ref='-141210672' />
  </way>
  <way id='-36200647' action='modify'>
    <nd ref='-141210672' />
    <nd ref='-141210673' />
    <nd ref='-141210674' />
    <tag k='type' v='straight' />
  </way>
  <way id='-36200648' action='modify'>
    <nd ref='-141210674' />
    <nd ref='-141210675' />
  </way>
  <way id='-36200649' action='modify'>
    <nd ref='-141210675' />
    <nd ref='-141210676' />
    <nd ref='-141210677' />
    <tag k='type' v='straight' />
  </way>
  <way id='-36200650' action='modify'>
    <nd ref='-141210677' />
    <nd ref='-141210678' />
  </way>
  <way id='-36200651' action='modify'>
    <nd ref='-141210678' />
    <nd ref='-141210679' />
    <tag k='type' v='straight' />
  </way>
  <way id='-36200652' action='modify'>
    <nd ref='-141210679' />
    <nd ref='-141210680' />
  </way>
  <way id='-36200653' action='modify'>
    <nd ref='-141210680' />
    <nd ref='-141210681' />
    <nd ref='-141210682' />
    <tag k='type' v='straight' />
  </way>
  <way id='-36200654' action='modify'>
    <nd ref='-141210682' />
    <nd ref='-141210683' />
  </way>
  <way id='-36200655' action='modify'>
    <nd ref='-141210683' />
    <nd ref='-141210684' />
    <tag k='type' v='straight' />
  </way>
  <way id='-36200656' action='modify'>
    <nd ref='-141210684' />
    <nd ref='-141210685' />
    <nd ref='-141210686' />
  </way>
  <way id='-36200657' action='modify'>
    <nd ref='-141210686' />
    <nd ref='-141210687' />
    <tag k='type' v='straight' />
  </way>
  <way id='-36200658' action='modify'>
    <nd ref='-141210687' />
    <nd ref='-141210688' />
  </way>
  <way id='-36200659' action='modify'>
    <nd ref='-141210688' />
    <nd ref='-141210689' />
    <tag k='type' v='straight' />
  </way>
  <way id='-36200660' action='modify'>
    <nd ref='-141210689' />
    <nd ref='-141210690' />
  </way>
  <way id='-36200661' action='modify'>
    <nd ref='-141210690' />
    <nd ref='-141210691' />
    <tag k='type' v='straight' />
  </way>
  <way id='-36200662' action='modify'>
    <nd ref='-141210691' />
    <nd ref='-141210692' />
  </way>
  <way id='-36200663' action='modify'>
    <nd ref='-141210692' />
    <nd ref='-141210694' />
    <nd ref='-141210693' />
    <tag k='type' v='straight' />
  </way>
  <way id='-36200664' action='modify'>
    <nd ref='-141210693' />
    <nd ref='-141210695' />
  </way>
  <way id='-36200665' action='modify'>
    <nd ref='-141210695' />
    <nd ref='-141210696' />
    <tag k='type' v='straight' />
  </way>
  <way id='-36200666' action='modify'>
    <nd ref='-141210696' />
    <nd ref='-141210697' />
    <nd ref='-141210698' />
  </way>
  <way id='-36200667' action='modify'>
    <nd ref='-141210698' />
    <nd ref='-141210699' />
    <tag k='type' v='straight' />
  </way>
  <way id='-36200668' action='modify'>
    <nd ref='-141210699' />
    <nd ref='-141210700' />
  </way>
  <way id='-36200669' action='modify'>
    <nd ref='-141210700' />
    <nd ref='-141210701' />
    <tag k='type' v='straight' />
  </way>
  <way id='-36200670' action='modify'>
    <nd ref='-141210701' />
    <nd ref='-141210702' />
    <nd ref='-141210703' />
  </way>
  <way id='-36200671' action='modify'>
    <nd ref='-141210703' />
    <nd ref='-141210704' />
    <tag k='type' v='straight' />
  </way>
  <way id='-36200672' action='modify'>
    <nd ref='-141210704' />
    <nd ref='-141210705' />
  </way>
  <way id='-36200673' action='modify'>
    <nd ref='-141210705' />
    <nd ref='-141210706' />
    <tag k='type' v='straight' />
  </way>
  <way id='-36200674' action='modify'>
    <nd ref='-141210706' />
    <nd ref='-141210707' />
    <nd ref='-141210708' />
  </way>
  <way id='-36200675' action='modify'>
    <nd ref='-141210708' />
    <nd ref='-141210709' />
    <tag k='type' v='straight' />
  </way>
  <way id='-36200676' action='modify'>
    <nd ref='-141210709' />
    <nd ref='-141210710' />
    <nd ref='-141210711' />
  </way>
  <way id='-36200677' action='modify'>
    <nd ref='-141210711' />
    <nd ref='-141210712' />
    <tag k='type' v='straight' />
  </way>
  <way id='-36200678' action='modify'>
    <nd ref='-141210712' />
    <nd ref='-141210713' />
  </way>
  <way id='-36200679' action='modify'>
    <nd ref='-141210713' />
    <nd ref='-141210714' />
    <nd ref='-141210715' />
    <tag k='type' v='straight' />
  </way>
  <way id='-36200680' action='modify'>
    <nd ref='-141210715' />
    <nd ref='-141210716' />
  </way>
  <way id='-36200681' action='modify'>
    <nd ref='-141210716' />
    <nd ref='-141210717' />
    <nd ref='-141210718' />
    <tag k='type' v='straight' />
  </way>
  <way id='-36200682' action='modify'>
    <nd ref='-141210718' />
    <nd ref='-141210719' />
  </way>
  <way id='-36200683' action='modify'>
    <nd ref='-141210719' />
    <nd ref='-141210720' />
    <nd ref='-141210721' />
    <tag k='type' v='straight' />
  </way>
  <way id='-36200684' action='modify'>
    <nd ref='-141210721' />
    <nd ref='-141210722' />
  </way>
  <way id='-36200685' action='modify'>
    <nd ref='-141210722' />
    <nd ref='-141210723' />
    <nd ref='-141210724' />
    <nd ref='-141210725' />
    <tag k='type' v='straight' />
  </way>
  <way id='-36200686' action='modify'>
    <nd ref='-141210725' />
    <nd ref='-141210726' />
  </way>
  <way id='-36200687' action='modify'>
    <nd ref='-141210726' />
    <nd ref='-141210727' />
    <nd ref='-141210728' />
    <tag k='type' v='straight' />
  </way>
  <way id='-36200688' action='modify'>
    <nd ref='-141210728' />
    <nd ref='-141210729' />
    <nd ref='-141210730' />
  </way>
  <way id='-36200689' action='modify'>
    <nd ref='-141210730' />
    <nd ref='-141210731' />
    <nd ref='-141210732' />
    <tag k='type' v='straight' />
  </way>
  <way id='-36200690' action='modify'>
    <nd ref='-141210732' />
    <nd ref='-141210733' />
  </way>
  <way id='-36200691' action='modify'>
    <nd ref='-141210733' />
    <nd ref='-141210734' />
    <tag k='type' v='straight' />
  </way>
  <way id='-36200692' action='modify'>
    <nd ref='-141210734' />
    <nd ref='-141210735' />
  </way>
  <way id='-36200693' action='modify'>
    <nd ref='-141210735' />
    <nd ref='-141210736' />
    <tag k='type' v='straight' />
  </way>
  <way id='-36200694' action='modify'>
    <nd ref='-141210736' />
    <nd ref='-141210737' />
  </way>
  <way id='-36200695' action='modify'>
    <nd ref='-141210737' />
    <nd ref='-141210738' />
    <tag k='type' v='straight' />
  </way>
  <way id='-36200696' action='modify'>
    <nd ref='-141210738' />
    <nd ref='-141210739' />
  </way>
  <way id='-36200697' action='modify'>
    <nd ref='-141210739' />
    <nd ref='-141210740' />
    <nd ref='-141210741' />
    <tag k='type' v='straight' />
  </way>
  <way id='-36200698' action='modify'>
    <nd ref='-141210741' />
    <nd ref='-141210742' />
  </way>
  <way id='-36200699' action='modify'>
    <nd ref='-141210742' />
    <nd ref='-141210743' />
    <tag k='type' v='straight' />
  </way>
  <way id='-36200700' action='modify'>
    <nd ref='-141210743' />
    <nd ref='-141210744' />
  </way>
  <way id='-36200701' action='modify'>
    <nd ref='-141210744' />
    <nd ref='-141210745' />
    <tag k='type' v='straight' />
  </way>
  <way id='-36200702' action='modify'>
    <nd ref='-141210745' />
    <nd ref='-141210746' />
  </way>
  <way id='-36200703' action='modify'>
    <nd ref='-141210746' />
    <nd ref='-141210747' />
    <tag k='type' v='straight' />
  </way>
  <way id='-36200704' action='modify'>
    <nd ref='-141210747' />
    <nd ref='-141210748' />
  </way>
  <way id='-36200705' action='modify'>
    <nd ref='-141210748' />
    <nd ref='-141210749' />
    <tag k='type' v='straight' />
  </way>
  <way id='-36200706' action='modify'>
    <nd ref='-141210749' />
    <nd ref='-141210750' />
  </way>
  <way id='-36200707' action='modify'>
    <nd ref='-141210750' />
    <nd ref='-141210752' />
    <nd ref='-141210751' />
    <tag k='type' v='straight' />
  </way>
  <way id='-36200708' action='modify'>
    <nd ref='-141210751' />
    <nd ref='-141210753' />
  </way>
  <way id='-36200709' action='modify'>
    <nd ref='-141210753' />
    <nd ref='-141210754' />
    <tag k='type' v='straight' />
  </way>
  <way id='-36200710' action='modify'>
    <nd ref='-141210754' />
    <nd ref='-141210755' />
  </way>
  <way id='-36200711' action='modify'>
    <nd ref='-141210755' />
    <nd ref='-141210756' />
    <tag k='type' v='straight' />
  </way>
  <way id='-36200712' action='modify'>
    <nd ref='-141210756' />
    <nd ref='-141210757' />
  </way>
  <way id='-36200713' action='modify'>
    <nd ref='-141210757' />
    <nd ref='-141210758' />
    <tag k='type' v='straight' />
  </way>
  <way id='-36200714' action='modify'>
    <nd ref='-141210758' />
    <nd ref='-141210759' />
  </way>
  <way id='-36200715' action='modify'>
    <nd ref='-141210759' />
    <nd ref='-141210760' />
    <tag k='type' v='straight' />
  </way>
  <way id='-36200716' action='modify'>
    <nd ref='-141210760' />
    <nd ref='-141210761' />
  </way>
  <way id='-36200717' action='modify'>
    <nd ref='-141210761' />
    <nd ref='-141210762' />
    <tag k='type' v='straight' />
  </way>
  <way id='-36200718' action='modify'>
    <nd ref='-141210762' />
    <nd ref='-141210763' />
  </way>
  <way id='-36200719' action='modify'>
    <nd ref='-141210763' />
    <nd ref='-141210764' />
    <tag k='type' v='straight' />
  </way>
  <way id='-36200720' action='modify'>
    <nd ref='-141210764' />
    <nd ref='-141210765' />
  </way>
  <way id='-36200721' action='modify'>
    <nd ref='-141210765' />
    <nd ref='-141210766' />
    <tag k='type' v='straight' />
  </way>
  <way id='-36200722' action='modify'>
    <nd ref='-141210766' />
    <nd ref='-141210767' />
  </way>
  <way id='-36200723' action='modify'>
    <nd ref='-141210767' />
    <nd ref='-141210768' />
    <tag k='type' v='straight' />
  </way>
  <way id='-36200724' action='modify'>
    <nd ref='-141210768' />
    <nd ref='-141210769' />
  </way>
  <way id='-36200725' action='modify'>
    <nd ref='-141210769' />
    <nd ref='-141210770' />
    <tag k='type' v='straight' />
  </way>
  <relation id='-14466312' action='modify'>
    <member type='way' ref='-36200635' role='' />
    <member type='way' ref='-36200636' role='' />
    <member type='way' ref='-36200637' role='' />
    <member type='way' ref='-36200638' role='' />
    <member type='way' ref='-36200639' role='' />
    <member type='way' ref='-36200640' role='' />
    <member type='way' ref='-36200641' role='' />
    <member type='way' ref='-36200642' role='' />
    <member type='way' ref='-36200643' role='' />
    <member type='way' ref='-36200644' role='' />
    <member type='way' ref='-36200645' role='' />
    <member type='way' ref='-36200646' role='' />
    <member type='way' ref='-36200647' role='' />
    <member type='way' ref='-36200648' role='' />
    <member type='way' ref='-36200649' role='' />
    <member type='way' ref='-36200650' role='' />
    <member type='way' ref='-36200651' role='' />
    <member type='way' ref='-36200652' role='' />
    <member type='way' ref='-36200653' role='' />
    <member type='way' ref='-36200654' role='' />
    <member type='way' ref='-36200655' role='' />
    <member type='way' ref='-36200656' role='' />
    <member type='way' ref='-36200657' role='' />
    <member type='way' ref='-36200658' role='' />
    <member type='way' ref='-36200659' role='' />
    <member type='way' ref='-36200660' role='' />
    <member type='way' ref='-36200661' role='' />
    <member type='way' ref='-36200662' role='' />
    <member type='way' ref='-36200663' role='' />
    <member type='way' ref='-36200664' role='' />
    <member type='way' ref='-36200665' role='' />
    <member type='way' ref='-36200666' role='' />
    <member type='way' ref='-36200667' role='' />
    <member type='way' ref='-36200668' role='' />
    <member type='way' ref='-36200669' role='' />
    <member type='way' ref='-36200670' role='' />
    <member type='way' ref='-36200671' role='' />
    <member type='way' ref='-36200672' role='' />
    <member type='way' ref='-36200673' role='' />
    <member type='way' ref='-36200674' role='' />
    <member type='way' ref='-36200675' role='' />
    <member type='way' ref='-36200676' role='' />
    <member type='way' ref='-36200677' role='' />
    <member type='way' ref='-36200678' role='' />
    <member type='way' ref='-36200679' role='' />
    <member type='way' ref='-36200680' role='' />
    <member type='way' ref='-36200681' role='' />
    <member type='way' ref='-36200682' role='' />
    <member type='way' ref='-36200683' role='' />
    <member type='way' ref='-36200684' role='' />
    <member type='way' ref='-36200685' role='' />
    <member type='way' ref='-36200686' role='' />
    <member type='way' ref='-36200687' role='' />
    <member type='way' ref='-36200688' role='' />
    <member type='way' ref='-36200689' role='' />
    <member type='way' ref='-36200690' role='' />
    <member type='way' ref='-36200691' role='' />
    <member type='way' ref='-36200692' role='' />
    <member type='way' ref='-36200693' role='' />
    <member type='way' ref='-36200694' role='' />
    <member type='way' ref='-36200695' role='' />
    <member type='way' ref='-36200696' role='' />
    <member type='way' ref='-36200697' role='' />
    <member type='way' ref='-36200698' role='' />
    <member type='way' ref='-36200699' role='' />
    <member type='way' ref='-36200700' role='' />
    <member type='way' ref='-36200701' role='' />
    <member type='way' ref='-36200702' role='' />
    <member type='way' ref='-36200703' role='' />
    <member type='way' ref='-36200704' role='' />
    <member type='way' ref='-36200705' role='' />
    <member type='way' ref='-36200706' role='' />
    <member type='way' ref='-36200707' role='' />
    <member type='way' ref='-36200708' role='' />
    <member type='way' ref='-36200709' role='' />
    <member type='way' ref='-36200710' role='' />
    <member type='way' ref='-36200711' role='' />
    <member type='way' ref='-36200712' role='' />
    <member type='way' ref='-36200713' role='' />
    <member type='way' ref='-36200714' role='' />
    <member type='way' ref='-36200715' role='' />
    <member type='way' ref='-36200716' role='' />
    <member type='way' ref='-36200717' role='' />
    <member type='way' ref='-36200718' role='' />
    <member type='way' ref='-36200719' role='' />
    <member type='way' ref='-36200720' role='' />
    <member type='way' ref='-36200721' role='' />
    <member type='way' ref='-36200722' role='' />
    <member type='way' ref='-36200723' role='' />
    <member type='way' ref='-36200724' role='' />
    <member type='way' ref='-36200725' role='' />
    <tag k='key' v='path.dk.rfh' />
    <tag k='name' v='DK RFH' />
    <tag k='type' v='path' />
  </relation>
</osm>
