<?xml version='1.0' encoding='UTF-8'?>
<osm version='0.6' upload='false' generator='JOSM'>
  <node id='-171371916' action='modify' lat='56.38005780973' lon='10.50059318177'>
    <tag k='name' v='ryo' />
  </node>
  <node id='-171371918' action='modify' lat='56.37961828073' lon='10.50365254149' />
  <node id='-171371919' action='modify' lat='56.37942521641' lon='10.50480320916' />
  <node id='-171371920' action='modify' lat='56.37896334391' lon='10.50834506482' />
  <node id='-171371921' action='modify' lat='56.37819849327' lon='10.51923751563' />
  <node id='-171371922' action='modify' lat='56.3787272072' lon='10.52329301566' />
  <node id='-171371923' action='modify' lat='56.38029102875' lon='10.52805125445' />
  <node id='-171371924' action='modify' lat='56.38111672588' lon='10.5296659416' />
  <node id='-171371925' action='modify' lat='56.38272996219' lon='10.53205026145' />
  <node id='-171371926' action='modify' lat='56.38545727243' lon='10.53357392281' />
  <node id='-171371927' action='modify' lat='56.38911091559' lon='10.53263185195'>
    <tag k='name' v='rol' />
  </node>
  <node id='-171371928' action='modify' lat='56.39248900925' lon='10.53176074952' />
  <node id='-171371929' action='modify' lat='56.39770703854' lon='10.53194850147' />
  <node id='-171371930' action='modify' lat='56.39820579408' lon='10.53207456529' />
  <node id='-171371931' action='modify' lat='56.4019878139' lon='10.5360817802' />
  <node id='-171371932' action='modify' lat='56.40559730055' lon='10.54540513873'>
    <tag k='name' v='kar' />
  </node>
  <node id='-171371933' action='modify' lat='56.40661389105' lon='10.54957329154' />
  <node id='-171371934' action='modify' lat='56.40734551814' lon='10.55505573481' />
  <node id='-171371935' action='modify' lat='56.40800738919' lon='10.5572766012' />
  <node id='-171371936' action='modify' lat='56.40899868798' lon='10.5595081991' />
  <node id='-171371937' action='modify' lat='56.41061023541' lon='10.5611765331' />
  <node id='-171371938' action='modify' lat='56.41334414081' lon='10.56256642226'>
    <tag k='name' v='nim' />
  </node>
  <node id='-171371939' action='modify' lat='56.41431386472' lon='10.56305944383' />
  <node id='-171371940' action='modify' lat='56.41637325902' lon='10.56611179769' />
  <node id='-171371941' action='modify' lat='56.42317825834' lon='10.59020608395' />
  <node id='-171371942' action='modify' lat='56.42385023768' lon='10.59233843744' />
  <node id='-171371943' action='modify' lat='56.42402831785' lon='10.59285266097'>
    <tag k='name' v='mog' />
  </node>
  <node id='-171371944' action='modify' lat='56.43372382633' lon='10.62085300416' />
  <node id='-171371945' action='modify' lat='56.43474559725' lon='10.62416285008' />
  <node id='-171371946' action='modify' lat='56.4366144868' lon='10.63137059476'>
    <tag k='name' v='ram' />
  </node>
  <node id='-171371947' action='modify' lat='56.43724578157' lon='10.63380538881' />
  <node id='-171371948' action='modify' lat='56.44663270545' lon='10.6479595401'>
    <tag k='name' v='dys' />
  </node>
  <node id='-171371949' action='modify' lat='56.44840710524' lon='10.64853071898' />
  <node id='-171371950' action='modify' lat='56.45305274182' lon='10.64976452708' />
  <node id='-171371951' action='modify' lat='56.45877672829' lon='10.64432501256' />
  <node id='-171371952' action='modify' lat='56.45984673109' lon='10.6403499788' />
  <node id='-171371953' action='modify' lat='56.46058326526' lon='10.63808083266'>
    <tag k='name' v='ste' />
  </node>
  <node id='-171371954' action='modify' lat='56.46276314926' lon='10.63516527146' />
  <node id='-171371955' action='modify' lat='56.46515924721' lon='10.63560515374' />
  <node id='-171371956' action='modify' lat='56.46955244307' lon='10.63913762033' />
  <node id='-171371957' action='modify' lat='56.4708295597' lon='10.63977062166' />
  <node id='-171371958' action='modify' lat='56.47939762384' lon='10.64178191074'>
    <tag k='name' v='hyt' />
  </node>
  <node id='-171371959' action='modify' lat='56.47983334452' lon='10.64188420504' />
  <node id='-171371960' action='modify' lat='56.48241794616' lon='10.64132362336' />
  <node id='-171371961' action='modify' lat='56.48533411487' lon='10.63879966199' />
  <node id='-171371962' action='modify' lat='56.4903987366' lon='10.64281493157' />
  <node id='-171371963' action='modify' lat='56.49186109281' lon='10.64910533357'>
    <tag k='name' v='tra' />
  </node>
  <node id='-171371964' action='modify' lat='56.49325950563' lon='10.65512090653' />
  <node id='-171371965' action='modify' lat='56.49316474389' lon='10.66903888643' />
  <node id='-171371966' action='modify' lat='56.49160111656' lon='10.67454814374' />
  <node id='-171371967' action='modify' lat='56.49210160278' lon='10.69066285551' />
  <node id='-171371968' action='modify' lat='56.49377773928' lon='10.69510995805' />
  <node id='-171371969' action='modify' lat='56.49487636808' lon='10.69855391443'>
    <tag k='name' v='glk' />
  </node>
  <node id='-171371970' action='modify' lat='56.49554263689' lon='10.70462643564' />
  <node id='-171371971' action='modify' lat='56.49562519533' lon='10.71622912692'>
    <tag k='name' v='tus' />
  </node>
  <node id='-171371972' action='modify' lat='56.49567588925' lon='10.72335361898' />
  <node id='-171371973' action='modify' lat='56.49518137259' lon='10.73295592725' />
  <node id='-171371974' action='modify' lat='56.49480271919' lon='10.73695354021'>
    <tag k='name' v='gle' />
  </node>
  <node id='-171371975' action='modify' lat='56.49428708058' lon='10.74239730299' />
  <node id='-171371976' action='modify' lat='56.49628884407' lon='10.75235902727' />
  <node id='-171371977' action='modify' lat='56.49944822029' lon='10.75817941546' />
  <node id='-171371978' action='modify' lat='56.50111810626' lon='10.76309591264' />
  <node id='-171371979' action='modify' lat='56.50355471306' lon='10.77381133497' />
  <node id='-171371980' action='modify' lat='56.50379559287' lon='10.77476237895'>
    <tag k='name' v='alb' />
  </node>
  <node id='-171371981' action='modify' lat='56.50424451187' lon='10.77620252699' />
  <node id='-171371982' action='modify' lat='56.5112270929' lon='10.79641991754'>
    <tag k='name' v='bro' />
  </node>
  <node id='-171371983' action='modify' lat='56.51195506158' lon='10.79852789506' />
  <node id='-171371984' action='modify' lat='56.51000888574' lon='10.81125765905' />
  <node id='-171371985' action='modify' lat='56.50466699279' lon='10.81618773551'>
    <tag k='name' v='gje' />
  </node>
  <node id='-171371986' action='modify' lat='56.50144378998' lon='10.81916211963' />
  <node id='-171371987' action='modify' lat='56.49722602247' lon='10.8189314577' />
  <node id='-171371988' action='modify' lat='56.49678334481' lon='10.81851303309' />
  <node id='-171371989' action='modify' lat='56.49647767898' lon='10.81823020703'>
    <tag k='name' v='sos' />
  </node>
  <node id='-171371990' action='modify' lat='56.4942278552' lon='10.81774591863' />
  <node id='-171371991' action='modify' lat='56.49019735373' lon='10.8187973392' />
  <node id='-171371992' action='modify' lat='56.48860990746' lon='10.81974148214' />
  <node id='-171371993' action='modify' lat='56.48070882765' lon='10.82761679761'>
    <tag k='name' v='tor' />
  </node>
  <node id='-171371994' action='modify' lat='56.48037546041' lon='10.82794904172' />
  <node id='-171371995' action='modify' lat='56.47873131905' lon='10.83105503976' />
  <node id='-171371996' action='modify' lat='56.47496633599' lon='10.84277322796'>
    <tag k='name' v='veg' />
  </node>
  <node id='-171371997' action='modify' lat='56.47332441494' lon='10.84788320303' />
  <node id='-171371998' action='modify' lat='56.47253330269' lon='10.84994315565' />
  <node id='-171371999' action='modify' lat='56.46583937807' lon='10.86523174167' />
  <node id='-171372000' action='modify' lat='56.46509257194' lon='10.86718438983' />
  <node id='-171372001' action='modify' lat='56.46367300051' lon='10.87117515126'>
    <tag k='name' v='vol' />
  </node>
  <node id='-171372002' action='modify' lat='56.46269202419' lon='10.87393282771' />
  <node id='-171372003' action='modify' lat='56.46074183789' lon='10.87772010684' />
  <node id='-171372004' action='modify' lat='56.45203263651' lon='10.88638141634'>
    <tag k='name' v='rob' />
  </node>
  <node id='-171372005' action='modify' lat='56.45026898835' lon='10.88813512444' />
  <node id='-171372006' action='modify' lat='56.44690983216' lon='10.88966130137' />
  <node id='-171372007' action='modify' lat='56.44405149898' lon='10.88921069026' />
  <node id='-171372008' action='modify' lat='56.44144204446' lon='10.88812707782' />
  <node id='-171372009' action='modify' lat='56.44064430568' lon='10.88757055171'>
    <tag k='name' v='ham' />
  </node>
  <node id='-171372010' action='modify' lat='56.4352438719' lon='10.88380335689' />
  <node id='-171372011' action='modify' lat='56.42937691632' lon='10.88338493764' />
  <node id='-171372012' action='modify' lat='56.42486782391' lon='10.88565945089' />
  <node id='-171372013' action='modify' lat='56.42056588877' lon='10.88317036092' />
  <node id='-171372014' action='modify' lat='56.42011786617' lon='10.88219403684' />
  <node id='-171372015' action='modify' lat='56.41749044714' lon='10.87049960822' />
  <node id='-171372016' action='modify' lat='56.4174929229' lon='10.86986664938'>
    <tag k='name' v='grv' />
  </node>
  <node id='-171372017' action='modify' lat='56.41749934892' lon='10.86822375387'>
    <tag k='name' v='grv.f' />
  </node>
  <node id='-171372020' action='modify' lat='56.37998232333' lon='10.50120066756' />
  <way id='-38040707' action='modify'>
    <nd ref='-171371916' />
    <nd ref='-171372020' />
    <tag k='type' v='straight' />
  </way>
  <way id='-38040708' action='modify'>
    <nd ref='-171372020' />
    <nd ref='-171371918' />
  </way>
  <way id='-38040709' action='modify'>
    <nd ref='-171371918' />
    <nd ref='-171371919' />
    <tag k='type' v='straight' />
  </way>
  <way id='-38040710' action='modify'>
    <nd ref='-171371919' />
    <nd ref='-171371920' />
  </way>
  <way id='-38040711' action='modify'>
    <nd ref='-171371920' />
    <nd ref='-171371921' />
    <tag k='type' v='straight' />
  </way>
  <way id='-38040712' action='modify'>
    <nd ref='-171371921' />
    <nd ref='-171371922' />
  </way>
  <way id='-38040713' action='modify'>
    <nd ref='-171371922' />
    <nd ref='-171371923' />
    <tag k='type' v='straight' />
  </way>
  <way id='-38040714' action='modify'>
    <nd ref='-171371923' />
    <nd ref='-171371924' />
  </way>
  <way id='-38040715' action='modify'>
    <nd ref='-171371924' />
    <nd ref='-171371925' />
    <tag k='type' v='straight' />
  </way>
  <way id='-38040716' action='modify'>
    <nd ref='-171371925' />
    <nd ref='-171371926' />
  </way>
  <way id='-38040717' action='modify'>
    <nd ref='-171371926' />
    <nd ref='-171371927' />
    <nd ref='-171371928' />
    <tag k='type' v='straight' />
  </way>
  <way id='-38040718' action='modify'>
    <nd ref='-171371928' />
    <nd ref='-171371929' />
  </way>
  <way id='-38040719' action='modify'>
    <nd ref='-171371929' />
    <nd ref='-171371930' />
    <tag k='type' v='straight' />
  </way>
  <way id='-38040720' action='modify'>
    <nd ref='-171371930' />
    <nd ref='-171371931' />
  </way>
  <way id='-38040721' action='modify'>
    <nd ref='-171371931' />
    <nd ref='-171371932' />
    <tag k='type' v='straight' />
  </way>
  <way id='-38040722' action='modify'>
    <nd ref='-171371932' />
    <nd ref='-171371933' />
  </way>
  <way id='-38040723' action='modify'>
    <nd ref='-171371933' />
    <nd ref='-171371934' />
    <tag k='type' v='straight' />
  </way>
  <way id='-38040724' action='modify'>
    <nd ref='-171371934' />
    <nd ref='-171371935' />
  </way>
  <way id='-38040725' action='modify'>
    <nd ref='-171371935' />
    <nd ref='-171371936' />
    <tag k='type' v='straight' />
  </way>
  <way id='-38040726' action='modify'>
    <nd ref='-171371936' />
    <nd ref='-171371937' />
  </way>
  <way id='-38040727' action='modify'>
    <nd ref='-171371937' />
    <nd ref='-171371938' />
    <nd ref='-171371939' />
    <tag k='type' v='straight' />
  </way>
  <way id='-38040728' action='modify'>
    <nd ref='-171371939' />
    <nd ref='-171371940' />
  </way>
  <way id='-38040729' action='modify'>
    <nd ref='-171371940' />
    <nd ref='-171371941' />
    <tag k='type' v='straight' />
  </way>
  <way id='-38040730' action='modify'>
    <nd ref='-171371941' />
    <nd ref='-171371942' />
  </way>
  <way id='-38040731' action='modify'>
    <nd ref='-171371942' />
    <nd ref='-171371943' />
    <nd ref='-171371944' />
    <tag k='type' v='straight' />
  </way>
  <way id='-38040732' action='modify'>
    <nd ref='-171371944' />
    <nd ref='-171371945' />
  </way>
  <way id='-38040733' action='modify'>
    <nd ref='-171371945' />
    <nd ref='-171371946' />
    <nd ref='-171371947' />
    <tag k='type' v='straight' />
  </way>
  <way id='-38040734' action='modify'>
    <nd ref='-171371947' />
    <nd ref='-171371948' />
    <nd ref='-171371949' />
  </way>
  <way id='-38040735' action='modify'>
    <nd ref='-171371949' />
    <nd ref='-171371950' />
    <tag k='type' v='straight' />
  </way>
  <way id='-38040736' action='modify'>
    <nd ref='-171371950' />
    <nd ref='-171371951' />
  </way>
  <way id='-38040737' action='modify'>
    <nd ref='-171371951' />
    <nd ref='-171371952' />
    <tag k='type' v='straight' />
  </way>
  <way id='-38040738' action='modify'>
    <nd ref='-171371952' />
    <nd ref='-171371953' />
    <nd ref='-171371954' />
    <nd ref='-171371955' />
  </way>
  <way id='-38040739' action='modify'>
    <nd ref='-171371955' />
    <nd ref='-171371956' />
    <nd ref='-171371957' />
    <nd ref='-171371958' />
    <nd ref='-171371959' />
    <tag k='type' v='straight' />
  </way>
  <way id='-38040740' action='modify'>
    <nd ref='-171371959' />
    <nd ref='-171371960' />
  </way>
  <way id='-38040741' action='modify'>
    <nd ref='-171371960' />
    <nd ref='-171371961' />
    <tag k='type' v='straight' />
  </way>
  <way id='-38040742' action='modify'>
    <nd ref='-171371961' />
    <nd ref='-171371962' />
  </way>
  <way id='-38040743' action='modify'>
    <nd ref='-171371962' />
    <nd ref='-171371963' />
    <nd ref='-171371964' />
    <tag k='type' v='straight' />
  </way>
  <way id='-38040744' action='modify'>
    <nd ref='-171371964' />
    <nd ref='-171371965' />
  </way>
  <way id='-38040745' action='modify'>
    <nd ref='-171371965' />
    <nd ref='-171371966' />
    <tag k='type' v='straight' />
  </way>
  <way id='-38040746' action='modify'>
    <nd ref='-171371966' />
    <nd ref='-171371967' />
  </way>
  <way id='-38040747' action='modify'>
    <nd ref='-171371967' />
    <nd ref='-171371968' />
    <tag k='type' v='straight' />
  </way>
  <way id='-38040748' action='modify'>
    <nd ref='-171371968' />
    <nd ref='-171371969' />
    <nd ref='-171371970' />
  </way>
  <way id='-38040749' action='modify'>
    <nd ref='-171371970' />
    <nd ref='-171371971' />
    <nd ref='-171371972' />
    <tag k='type' v='straight' />
  </way>
  <way id='-38040750' action='modify'>
    <nd ref='-171371972' />
    <nd ref='-171371973' />
  </way>
  <way id='-38040751' action='modify'>
    <nd ref='-171371973' />
    <nd ref='-171371974' />
    <nd ref='-171371975' />
    <tag k='type' v='straight' />
  </way>
  <way id='-38040752' action='modify'>
    <nd ref='-171371975' />
    <nd ref='-171371976' />
  </way>
  <way id='-38040753' action='modify'>
    <nd ref='-171371976' />
    <nd ref='-171371977' />
    <tag k='type' v='straight' />
  </way>
  <way id='-38040754' action='modify'>
    <nd ref='-171371977' />
    <nd ref='-171371978' />
  </way>
  <way id='-38040755' action='modify'>
    <nd ref='-171371978' />
    <nd ref='-171371979' />
    <tag k='type' v='straight' />
  </way>
  <way id='-38040756' action='modify'>
    <nd ref='-171371979' />
    <nd ref='-171371980' />
    <nd ref='-171371981' />
  </way>
  <way id='-38040757' action='modify'>
    <nd ref='-171371981' />
    <nd ref='-171371982' />
    <nd ref='-171371983' />
    <tag k='type' v='straight' />
  </way>
  <way id='-38040758' action='modify'>
    <nd ref='-171371983' />
    <nd ref='-171371984' />
  </way>
  <way id='-38040759' action='modify'>
    <nd ref='-171371984' />
    <nd ref='-171371985' />
    <nd ref='-171371986' />
    <tag k='type' v='straight' />
  </way>
  <way id='-38040760' action='modify'>
    <nd ref='-171371986' />
    <nd ref='-171371987' />
  </way>
  <way id='-38040761' action='modify'>
    <nd ref='-171371987' />
    <nd ref='-171371988' />
    <tag k='type' v='straight' />
  </way>
  <way id='-38040762' action='modify'>
    <nd ref='-171371988' />
    <nd ref='-171371989' />
    <nd ref='-171371990' />
  </way>
  <way id='-38040763' action='modify'>
    <nd ref='-171371990' />
    <nd ref='-171371991' />
    <tag k='type' v='straight' />
  </way>
  <way id='-38040764' action='modify'>
    <nd ref='-171371991' />
    <nd ref='-171371992' />
  </way>
  <way id='-38040765' action='modify'>
    <nd ref='-171371992' />
    <nd ref='-171371993' />
    <nd ref='-171371994' />
    <tag k='type' v='straight' />
  </way>
  <way id='-38040766' action='modify'>
    <nd ref='-171371994' />
    <nd ref='-171371995' />
  </way>
  <way id='-38040767' action='modify'>
    <nd ref='-171371995' />
    <nd ref='-171371996' />
    <nd ref='-171371997' />
    <tag k='type' v='straight' />
  </way>
  <way id='-38040768' action='modify'>
    <nd ref='-171371997' />
    <nd ref='-171371998' />
  </way>
  <way id='-38040769' action='modify'>
    <nd ref='-171371998' />
    <nd ref='-171371999' />
    <tag k='type' v='straight' />
  </way>
  <way id='-38040770' action='modify'>
    <nd ref='-171371999' />
    <nd ref='-171372000' />
  </way>
  <way id='-38040771' action='modify'>
    <nd ref='-171372000' />
    <nd ref='-171372001' />
    <nd ref='-171372002' />
    <tag k='type' v='straight' />
  </way>
  <way id='-38040772' action='modify'>
    <nd ref='-171372002' />
    <nd ref='-171372003' />
  </way>
  <way id='-38040773' action='modify'>
    <nd ref='-171372003' />
    <nd ref='-171372004' />
    <nd ref='-171372005' />
    <tag k='type' v='straight' />
  </way>
  <way id='-38040774' action='modify'>
    <nd ref='-171372005' />
    <nd ref='-171372006' />
  </way>
  <way id='-38040775' action='modify'>
    <nd ref='-171372006' />
    <nd ref='-171372007' />
    <tag k='type' v='straight' />
  </way>
  <way id='-38040776' action='modify'>
    <nd ref='-171372007' />
    <nd ref='-171372008' />
  </way>
  <way id='-38040777' action='modify'>
    <nd ref='-171372008' />
    <nd ref='-171372009' />
    <nd ref='-171372010' />
    <tag k='type' v='straight' />
  </way>
  <way id='-38040778' action='modify'>
    <nd ref='-171372010' />
    <nd ref='-171372011' />
  </way>
  <way id='-38040779' action='modify'>
    <nd ref='-171372011' />
    <nd ref='-171372012' />
    <tag k='type' v='straight' />
  </way>
  <way id='-38040780' action='modify'>
    <nd ref='-171372012' />
    <nd ref='-171372013' />
  </way>
  <way id='-38040781' action='modify'>
    <nd ref='-171372013' />
    <nd ref='-171372014' />
    <tag k='type' v='straight' />
  </way>
  <way id='-38040782' action='modify'>
    <nd ref='-171372014' />
    <nd ref='-171372015' />
  </way>
  <way id='-38040783' action='modify'>
    <nd ref='-171372015' />
    <nd ref='-171372016' />
    <nd ref='-171372017' />
    <tag k='type' v='straight' />
  </way>
  <relation id='-14482955' action='modify'>
    <member type='way' ref='-38040707' role='' />
    <member type='way' ref='-38040708' role='' />
    <member type='way' ref='-38040709' role='' />
    <member type='way' ref='-38040710' role='' />
    <member type='way' ref='-38040711' role='' />
    <member type='way' ref='-38040712' role='' />
    <member type='way' ref='-38040713' role='' />
    <member type='way' ref='-38040714' role='' />
    <member type='way' ref='-38040715' role='' />
    <member type='way' ref='-38040716' role='' />
    <member type='way' ref='-38040717' role='' />
    <member type='way' ref='-38040718' role='' />
    <member type='way' ref='-38040719' role='' />
    <member type='way' ref='-38040720' role='' />
    <member type='way' ref='-38040721' role='' />
    <member type='way' ref='-38040722' role='' />
    <member type='way' ref='-38040723' role='' />
    <member type='way' ref='-38040724' role='' />
    <member type='way' ref='-38040725' role='' />
    <member type='way' ref='-38040726' role='' />
    <member type='way' ref='-38040727' role='' />
    <member type='way' ref='-38040728' role='' />
    <member type='way' ref='-38040729' role='' />
    <member type='way' ref='-38040730' role='' />
    <member type='way' ref='-38040731' role='' />
    <member type='way' ref='-38040732' role='' />
    <member type='way' ref='-38040733' role='' />
    <member type='way' ref='-38040734' role='' />
    <member type='way' ref='-38040735' role='' />
    <member type='way' ref='-38040736' role='' />
    <member type='way' ref='-38040737' role='' />
    <member type='way' ref='-38040738' role='' />
    <member type='way' ref='-38040739' role='' />
    <member type='way' ref='-38040740' role='' />
    <member type='way' ref='-38040741' role='' />
    <member type='way' ref='-38040742' role='' />
    <member type='way' ref='-38040743' role='' />
    <member type='way' ref='-38040744' role='' />
    <member type='way' ref='-38040745' role='' />
    <member type='way' ref='-38040746' role='' />
    <member type='way' ref='-38040747' role='' />
    <member type='way' ref='-38040748' role='' />
    <member type='way' ref='-38040749' role='' />
    <member type='way' ref='-38040750' role='' />
    <member type='way' ref='-38040751' role='' />
    <member type='way' ref='-38040752' role='' />
    <member type='way' ref='-38040753' role='' />
    <member type='way' ref='-38040754' role='' />
    <member type='way' ref='-38040755' role='' />
    <member type='way' ref='-38040756' role='' />
    <member type='way' ref='-38040757' role='' />
    <member type='way' ref='-38040758' role='' />
    <member type='way' ref='-38040759' role='' />
    <member type='way' ref='-38040760' role='' />
    <member type='way' ref='-38040761' role='' />
    <member type='way' ref='-38040762' role='' />
    <member type='way' ref='-38040763' role='' />
    <member type='way' ref='-38040764' role='' />
    <member type='way' ref='-38040765' role='' />
    <member type='way' ref='-38040766' role='' />
    <member type='way' ref='-38040767' role='' />
    <member type='way' ref='-38040768' role='' />
    <member type='way' ref='-38040769' role='' />
    <member type='way' ref='-38040770' role='' />
    <member type='way' ref='-38040771' role='' />
    <member type='way' ref='-38040772' role='' />
    <member type='way' ref='-38040773' role='' />
    <member type='way' ref='-38040774' role='' />
    <member type='way' ref='-38040775' role='' />
    <member type='way' ref='-38040776' role='' />
    <member type='way' ref='-38040777' role='' />
    <member type='way' ref='-38040778' role='' />
    <member type='way' ref='-38040779' role='' />
    <member type='way' ref='-38040780' role='' />
    <member type='way' ref='-38040781' role='' />
    <member type='way' ref='-38040782' role='' />
    <member type='way' ref='-38040783' role='' />
    <tag k='key' v='path.dk.rgg' />
    <tag k='name' v='DK RGG' />
    <tag k='type' v='path' />
  </relation>
</osm>
