<?xml version='1.0' encoding='UTF-8'?>
<osm version='0.6' upload='false' generator='JOSM'>
  <node id='-173653649' action='modify' lat='56.45975188293' lon='10.04121422499'>
    <tag k='name' v='rap.a' />
  </node>
  <node id='-173653650' action='modify' lat='56.46011852299' lon='10.04213144407'>
    <tag k='name' v='rap' />
  </node>
  <node id='-173653651' action='modify' lat='56.46195404457' lon='10.04672347963' />
  <node id='-173653652' action='modify' lat='56.46274388503' lon='10.04906505078' />
  <node id='-173653653' action='modify' lat='56.46369819372' lon='10.05210131139' />
  <node id='-173653654' action='modify' lat='56.46418571322' lon='10.05399763048' />
  <node id='-173653655' action='modify' lat='56.46447318291' lon='10.05543529451' />
  <node id='-173653656' action='modify' lat='56.46536225066' lon='10.05806385934' />
  <node id='-173653657' action='modify' lat='56.46915833428' lon='10.06526559323' />
  <node id='-173653658' action='modify' lat='56.47097400822' lon='10.06735369429' />
  <node id='-173653659' action='modify' lat='56.47279913362' lon='10.06844841771'>
    <tag k='name' v='drb' />
  </node>
  <node id='-173653660' action='modify' lat='56.47364947553' lon='10.06895847692' />
  <node id='-173653661' action='modify' lat='56.47493322833' lon='10.07011770666' />
  <node id='-173653662' action='modify' lat='56.47791329408' lon='10.07475985799'>
    <tag k='name' v='dro' />
  </node>
  <node id='-173653663' action='modify' lat='56.48055320116' lon='10.07887243688' />
  <node id='-173653664' action='modify' lat='56.48611384283' lon='10.0787061426' />
  <node id='-173653665' action='modify' lat='56.48706163978' lon='10.07705122098' />
  <node id='-173653666' action='modify' lat='56.48914078877' lon='10.07569402188' />
  <node id='-173653667' action='modify' lat='56.49110876569' lon='10.07608830795'>
    <tag k='name' v='gim' />
  </node>
  <node id='-173653668' action='modify' lat='56.49413013164' lon='10.07281064719' />
  <node id='-173653669' action='modify' lat='56.49471942158' lon='10.06994873017' />
  <node id='-173653670' action='modify' lat='56.49486452172' lon='10.06893753737' />
  <node id='-173653671' action='modify' lat='56.49499629585' lon='10.06726383895' />
  <node id='-173653672' action='modify' lat='56.49541530495' lon='10.06461381644' />
  <node id='-173653673' action='modify' lat='56.49603418623' lon='10.06256192654' />
  <node id='-173653674' action='modify' lat='56.49660716063' lon='10.05834281176' />
  <node id='-173653675' action='modify' lat='56.49662270558' lon='10.05740135774' />
  <node id='-173653676' action='modify' lat='56.49919802203' lon='10.05196451873' />
  <node id='-173653677' action='modify' lat='56.50135242222' lon='10.05160668939'>
    <tag k='name' v='lem' />
  </node>
  <node id='-173653678' action='modify' lat='56.50184644117' lon='10.05152463377' />
  <node id='-173653679' action='modify' lat='56.50255699689' lon='10.05143343866' />
  <node id='-173653680' action='modify' lat='56.50711903951' lon='10.05124031961' />
  <node id='-173653681' action='modify' lat='56.5080781532' lon='10.05135833681' />
  <node id='-173653682' action='modify' lat='56.51120990486' lon='10.05225419462' />
  <node id='-173653683' action='modify' lat='56.51285263899' lon='10.05226492345' />
  <node id='-173653684' action='modify' lat='56.52086144077' lon='10.05045460351'>
    <tag k='name' v='vej' />
  </node>
  <node id='-173653685' action='modify' lat='56.52163339933' lon='10.05028008878' />
  <node id='-173653686' action='modify' lat='56.52195594181' lon='10.05019426078' />
  <node id='-173653687' action='modify' lat='56.52715769806' lon='10.04871367335' />
  <node id='-173653688' action='modify' lat='56.52935742326' lon='10.04702120751' />
  <node id='-173653689' action='modify' lat='56.53287643066' lon='10.04281281888' />
  <node id='-173653690' action='modify' lat='56.53596176183' lon='10.04291742772' />
  <node id='-173653691' action='modify' lat='56.53615662199' lon='10.04318296458' />
  <node id='-173653692' action='modify' lat='56.53664653553' lon='10.04400372237'>
    <tag k='name' v='spe' />
  </node>
  <node id='-173653693' action='modify' lat='56.5513550887' lon='10.07254778802' />
  <node id='-173653694' action='modify' lat='56.55260875835' lon='10.07426439643' />
  <node id='-173653695' action='modify' lat='56.56112017227' lon='10.08268117368' />
  <node id='-173653696' action='modify' lat='56.56260999365' lon='10.08383451819' />
  <node id='-173653697' action='modify' lat='56.56601510828' lon='10.08538487532'>
    <tag k='name' v='hal' />
  </node>
  <node id='-173653698' action='modify' lat='56.56685151352' lon='10.08576571405' />
  <node id='-173653699' action='modify' lat='56.57005524752' lon='10.09269654214' />
  <node id='-173653700' action='modify' lat='56.57011435445' lon='10.09353339136' />
  <node id='-173653701' action='modify' lat='56.57209290429' lon='10.09783029288' />
  <node id='-173653702' action='modify' lat='56.57583842334' lon='10.10070025384' />
  <node id='-173653703' action='modify' lat='56.57923640529' lon='10.10929941058' />
  <node id='-173653704' action='modify' lat='56.57924231456' lon='10.11018990397' />
  <node id='-173653705' action='modify' lat='56.58097368875' lon='10.11566161036' />
  <node id='-173653706' action='modify' lat='56.58334312014' lon='10.11715291858' />
  <node id='-173653707' action='modify' lat='56.5858438931' lon='10.12154523672' />
  <node id='-173653708' action='modify' lat='56.58584203952' lon='10.12527703294'>
    <tag k='name' v='gje' />
  </node>
  <node id='-173653709' action='modify' lat='56.58532097495' lon='10.12771814793' />
  <node id='-173653710' action='modify' lat='56.58437563318' lon='10.13052642077' />
  <node id='-173653711' action='modify' lat='56.58417474501' lon='10.13776302069' />
  <node id='-173653712' action='modify' lat='56.58433279682' lon='10.13810366124' />
  <node id='-173653713' action='modify' lat='56.58508316611' lon='10.14137863576' />
  <node id='-173653714' action='modify' lat='56.58581664089' lon='10.1572754229'>
    <tag k='name' v='gom' />
  </node>
  <node id='-173653715' action='modify' lat='56.58636230506' lon='10.16910194278' />
  <node id='-173653716' action='modify' lat='56.58661095279' lon='10.17059176786'>
    <tag k='name' v='oto' />
  </node>
  <node id='-173653717' action='modify' lat='56.58905632222' lon='10.17359196603' />
  <node id='-173653718' action='modify' lat='56.59610358794' lon='10.17487405658' />
  <node id='-173653719' action='modify' lat='56.59948497747' lon='10.17731487215' />
  <node id='-173653720' action='modify' lat='56.61138676424' lon='10.19307710342'>
    <tag k='name' v='vin' />
  </node>
  <node id='-173653721' action='modify' lat='56.61293667357' lon='10.19513010442' />
  <node id='-173653722' action='modify' lat='56.61395215003' lon='10.19687353492' />
  <node id='-173653723' action='modify' lat='56.61720649513' lon='10.20369171828' />
  <node id='-173653724' action='modify' lat='56.61741753997' lon='10.20406722486'>
    <tag k='name' v='dao' />
  </node>
  <node id='-173653725' action='modify' lat='56.62260027676' lon='10.20483433664' />
  <node id='-173653726' action='modify' lat='56.62340211669' lon='10.20415192902'>
    <tag k='name' v='dan' />
  </node>
  <node id='-173653727' action='modify' lat='56.62849345' lon='10.19981860042' />
  <node id='-173653728' action='modify' lat='56.63585640187' lon='10.19946455687' />
  <node id='-173653729' action='modify' lat='56.63982569461' lon='10.2025383684' />
  <node id='-173653730' action='modify' lat='56.64163246212' lon='10.20345300168' />
  <node id='-173653731' action='modify' lat='56.64430042161' lon='10.20371317327' />
  <node id='-173653732' action='modify' lat='56.6460288155' lon='10.20345031679' />
  <node id='-173653733' action='modify' lat='56.64867434353' lon='10.20241498411' />
  <node id='-173653734' action='modify' lat='56.65118108289' lon='10.19906222284' />
  <node id='-173653735' action='modify' lat='56.65212475335' lon='10.19671260774' />
  <node id='-173653736' action='modify' lat='56.65312442849' lon='10.19206702173'>
    <tag k='name' v='hav' />
  </node>
  <node id='-173653737' action='modify' lat='56.65272338501' lon='10.18707274318' />
  <node id='-173653738' action='modify' lat='56.65161458739' lon='10.18189071536' />
  <node id='-173653739' action='modify' lat='56.65118108141' lon='10.17560898989' />
  <node id='-173653740' action='modify' lat='56.65165063924' lon='10.16936180957'>
    <tag k='name' v='tru' />
  </node>
  <node id='-173653741' action='modify' lat='56.65269389171' lon='10.15548169345' />
  <node id='-173653742' action='modify' lat='56.65358297046' lon='10.15240520105' />
  <node id='-173653743' action='modify' lat='56.65547901356' lon='10.14913558826' />
  <node id='-173653744' action='modify' lat='56.6562589297' lon='10.1481190297' />
  <node id='-173653745' action='modify' lat='56.65992461006' lon='10.14469385013' />
  <node id='-173653746' action='modify' lat='56.66073352928' lon='10.14357860997'>
    <tag k='name' v='neb' />
  </node>
  <node id='-173653747' action='modify' lat='56.66118278674' lon='10.14209478825' />
  <node id='-173653748' action='modify' lat='56.66161027692' lon='10.14000534743' />
  <node id='-173653749' action='modify' lat='56.66207166604' lon='10.13641923398' />
  <node id='-173653750' action='modify' lat='56.66237827295' lon='10.131427643' />
  <node id='-173653751' action='modify' lat='56.66352950212' lon='10.12690543592' />
  <node id='-173653752' action='modify' lat='56.6737651837' lon='10.10795831412' />
  <node id='-173653753' action='modify' lat='56.67549075354' lon='10.10649651021'>
    <tag k='name' v='nor' />
  </node>
  <node id='-173653754' action='modify' lat='56.67619952576' lon='10.10655820101' />
  <node id='-173653755' action='modify' lat='56.67828303258' lon='10.10708659619' />
  <node id='-173653756' action='modify' lat='56.68078706595' lon='10.10635033116' />
  <node id='-173653757' action='modify' lat='56.6817322053' lon='10.10542362794' />
  <node id='-173653758' action='modify' lat='56.683539175' lon='10.10496899351' />
  <node id='-173653759' action='modify' lat='56.68453580729' lon='10.10532840952' />
  <node id='-173653760' action='modify' lat='56.68643839642' lon='10.10482281178' />
  <node id='-173653761' action='modify' lat='56.68749608425' lon='10.1038049148' />
  <node id='-173653762' action='modify' lat='56.68845284181' lon='10.10341464937'>
    <tag k='name' v='amo' />
  </node>
  <node id='-173653763' action='modify' lat='56.69026464447' lon='10.10429441392' />
  <node id='-173653764' action='modify' lat='56.69213822185' lon='10.10653137624' />
  <node id='-173653765' action='modify' lat='56.69282164196' lon='10.10751306474' />
  <node id='-173653766' action='modify' lat='56.69456401107' lon='10.11093824834' />
  <node id='-173653767' action='modify' lat='56.6958895137' lon='10.11227398843' />
  <node id='-173653768' action='modify' lat='56.70638731836' lon='10.11683910817' />
  <node id='-173653769' action='modify' lat='56.70751070008' lon='10.11783957213' />
  <node id='-173653770' action='modify' lat='56.70855888529' lon='10.11911523354'>
    <tag k='name' v='has' />
  </node>
  <node id='-173653771' action='modify' lat='56.70895205424' lon='10.11959373683' />
  <node id='-173653772' action='modify' lat='56.71155783676' lon='10.11942743719' />
  <node id='-173653773' action='modify' lat='56.71448434062' lon='10.11590301454' />
  <node id='-173653774' action='modify' lat='56.71640675751' lon='10.11666476458' />
  <node id='-173653775' action='modify' lat='56.71713210908' lon='10.11836483739'>
    <tag k='name' v='han' />
  </node>
  <node id='-173653776' action='modify' lat='56.71847920875' lon='10.12152224511' />
  <way id='-38194442' action='modify'>
    <nd ref='-173653649' />
    <nd ref='-173653650' />
    <nd ref='-173653651' />
    <tag k='type' v='straight' />
  </way>
  <way id='-38194443' action='modify'>
    <nd ref='-173653651' />
    <nd ref='-173653652' />
  </way>
  <way id='-38194444' action='modify'>
    <nd ref='-173653652' />
    <nd ref='-173653653' />
    <tag k='type' v='straight' />
  </way>
  <way id='-38194445' action='modify'>
    <nd ref='-173653653' />
    <nd ref='-173653654' />
  </way>
  <way id='-38194446' action='modify'>
    <nd ref='-173653654' />
    <nd ref='-173653655' />
    <tag k='type' v='straight' />
  </way>
  <way id='-38194447' action='modify'>
    <nd ref='-173653655' />
    <nd ref='-173653656' />
  </way>
  <way id='-38194448' action='modify'>
    <nd ref='-173653656' />
    <nd ref='-173653657' />
    <tag k='type' v='straight' />
  </way>
  <way id='-38194449' action='modify'>
    <nd ref='-173653657' />
    <nd ref='-173653658' />
  </way>
  <way id='-38194450' action='modify'>
    <nd ref='-173653658' />
    <nd ref='-173653659' />
    <nd ref='-173653660' />
    <tag k='type' v='straight' />
  </way>
  <way id='-38194451' action='modify'>
    <nd ref='-173653660' />
    <nd ref='-173653661' />
  </way>
  <way id='-38194452' action='modify'>
    <nd ref='-173653661' />
    <nd ref='-173653662' />
    <nd ref='-173653663' />
    <tag k='type' v='straight' />
  </way>
  <way id='-38194453' action='modify'>
    <nd ref='-173653663' />
    <nd ref='-173653664' />
  </way>
  <way id='-38194454' action='modify'>
    <nd ref='-173653664' />
    <nd ref='-173653665' />
    <tag k='type' v='straight' />
  </way>
  <way id='-38194455' action='modify'>
    <nd ref='-173653665' />
    <nd ref='-173653666' />
  </way>
  <way id='-38194456' action='modify'>
    <nd ref='-173653666' />
    <nd ref='-173653667' />
    <tag k='type' v='straight' />
  </way>
  <way id='-38194457' action='modify'>
    <nd ref='-173653667' />
    <nd ref='-173653668' />
  </way>
  <way id='-38194458' action='modify'>
    <nd ref='-173653668' />
    <nd ref='-173653669' />
    <tag k='type' v='straight' />
  </way>
  <way id='-38194459' action='modify'>
    <nd ref='-173653669' />
    <nd ref='-173653670' />
  </way>
  <way id='-38194460' action='modify'>
    <nd ref='-173653670' />
    <nd ref='-173653671' />
    <tag k='type' v='straight' />
  </way>
  <way id='-38194461' action='modify'>
    <nd ref='-173653671' />
    <nd ref='-173653672' />
  </way>
  <way id='-38194462' action='modify'>
    <nd ref='-173653672' />
    <nd ref='-173653673' />
    <tag k='type' v='straight' />
  </way>
  <way id='-38194463' action='modify'>
    <nd ref='-173653673' />
    <nd ref='-173653674' />
  </way>
  <way id='-38194464' action='modify'>
    <nd ref='-173653674' />
    <nd ref='-173653675' />
    <tag k='type' v='straight' />
  </way>
  <way id='-38194465' action='modify'>
    <nd ref='-173653675' />
    <nd ref='-173653676' />
  </way>
  <way id='-38194466' action='modify'>
    <nd ref='-173653676' />
    <nd ref='-173653677' />
    <nd ref='-173653678' />
    <tag k='type' v='straight' />
  </way>
  <way id='-38194467' action='modify'>
    <nd ref='-173653678' />
    <nd ref='-173653679' />
  </way>
  <way id='-38194468' action='modify'>
    <nd ref='-173653679' />
    <nd ref='-173653680' />
    <tag k='type' v='straight' />
  </way>
  <way id='-38194469' action='modify'>
    <nd ref='-173653680' />
    <nd ref='-173653681' />
  </way>
  <way id='-38194470' action='modify'>
    <nd ref='-173653681' />
    <nd ref='-173653682' />
    <tag k='type' v='straight' />
  </way>
  <way id='-38194471' action='modify'>
    <nd ref='-173653682' />
    <nd ref='-173653683' />
  </way>
  <way id='-38194472' action='modify'>
    <nd ref='-173653683' />
    <nd ref='-173653684' />
    <nd ref='-173653685' />
    <tag k='type' v='straight' />
  </way>
  <way id='-38194473' action='modify'>
    <nd ref='-173653685' />
    <nd ref='-173653686' />
  </way>
  <way id='-38194474' action='modify'>
    <nd ref='-173653686' />
    <nd ref='-173653687' />
    <tag k='type' v='straight' />
  </way>
  <way id='-38194475' action='modify'>
    <nd ref='-173653687' />
    <nd ref='-173653688' />
  </way>
  <way id='-38194476' action='modify'>
    <nd ref='-173653688' />
    <nd ref='-173653689' />
    <tag k='type' v='straight' />
  </way>
  <way id='-38194477' action='modify'>
    <nd ref='-173653689' />
    <nd ref='-173653690' />
  </way>
  <way id='-38194478' action='modify'>
    <nd ref='-173653690' />
    <nd ref='-173653691' />
    <tag k='type' v='straight' />
  </way>
  <way id='-38194479' action='modify'>
    <nd ref='-173653691' />
    <nd ref='-173653692' />
  </way>
  <way id='-38194480' action='modify'>
    <nd ref='-173653692' />
    <nd ref='-173653693' />
    <tag k='type' v='straight' />
  </way>
  <way id='-38194481' action='modify'>
    <nd ref='-173653693' />
    <nd ref='-173653694' />
  </way>
  <way id='-38194482' action='modify'>
    <nd ref='-173653694' />
    <nd ref='-173653695' />
    <tag k='type' v='straight' />
  </way>
  <way id='-38194483' action='modify'>
    <nd ref='-173653695' />
    <nd ref='-173653696' />
  </way>
  <way id='-38194484' action='modify'>
    <nd ref='-173653696' />
    <nd ref='-173653697' />
    <nd ref='-173653698' />
    <tag k='type' v='straight' />
  </way>
  <way id='-38194485' action='modify'>
    <nd ref='-173653698' />
    <nd ref='-173653699' />
  </way>
  <way id='-38194486' action='modify'>
    <nd ref='-173653699' />
    <nd ref='-173653700' />
    <tag k='type' v='straight' />
  </way>
  <way id='-38194487' action='modify'>
    <nd ref='-173653700' />
    <nd ref='-173653701' />
  </way>
  <way id='-38194488' action='modify'>
    <nd ref='-173653701' />
    <nd ref='-173653702' />
    <tag k='type' v='straight' />
  </way>
  <way id='-38194489' action='modify'>
    <nd ref='-173653702' />
    <nd ref='-173653703' />
  </way>
  <way id='-38194490' action='modify'>
    <nd ref='-173653703' />
    <nd ref='-173653704' />
    <tag k='type' v='straight' />
  </way>
  <way id='-38194491' action='modify'>
    <nd ref='-173653704' />
    <nd ref='-173653705' />
  </way>
  <way id='-38194492' action='modify'>
    <nd ref='-173653705' />
    <nd ref='-173653706' />
    <tag k='type' v='straight' />
  </way>
  <way id='-38194493' action='modify'>
    <nd ref='-173653706' />
    <nd ref='-173653707' />
    <nd ref='-173653708' />
    <nd ref='-173653709' />
  </way>
  <way id='-38194494' action='modify'>
    <nd ref='-173653709' />
    <nd ref='-173653710' />
    <tag k='type' v='straight' />
  </way>
  <way id='-38194495' action='modify'>
    <nd ref='-173653710' />
    <nd ref='-173653711' />
  </way>
  <way id='-38194496' action='modify'>
    <nd ref='-173653711' />
    <nd ref='-173653712' />
    <tag k='type' v='straight' />
  </way>
  <way id='-38194497' action='modify'>
    <nd ref='-173653712' />
    <nd ref='-173653713' />
  </way>
  <way id='-38194498' action='modify'>
    <nd ref='-173653713' />
    <nd ref='-173653714' />
    <nd ref='-173653715' />
    <tag k='type' v='straight' />
  </way>
  <way id='-38194499' action='modify'>
    <nd ref='-173653715' />
    <nd ref='-173653716' />
    <nd ref='-173653717' />
  </way>
  <way id='-38194500' action='modify'>
    <nd ref='-173653717' />
    <nd ref='-173653718' />
    <tag k='type' v='straight' />
  </way>
  <way id='-38194501' action='modify'>
    <nd ref='-173653718' />
    <nd ref='-173653719' />
  </way>
  <way id='-38194502' action='modify'>
    <nd ref='-173653719' />
    <nd ref='-173653720' />
    <nd ref='-173653721' />
    <tag k='type' v='straight' />
  </way>
  <way id='-38194503' action='modify'>
    <nd ref='-173653721' />
    <nd ref='-173653722' />
  </way>
  <way id='-38194504' action='modify'>
    <nd ref='-173653722' />
    <nd ref='-173653723' />
    <tag k='type' v='straight' />
  </way>
  <way id='-38194505' action='modify'>
    <nd ref='-173653723' />
    <nd ref='-173653724' />
    <nd ref='-173653725' />
  </way>
  <way id='-38194506' action='modify'>
    <nd ref='-173653725' />
    <nd ref='-173653726' />
    <nd ref='-173653727' />
    <tag k='type' v='straight' />
  </way>
  <way id='-38194507' action='modify'>
    <nd ref='-173653727' />
    <nd ref='-173653728' />
  </way>
  <way id='-38194508' action='modify'>
    <nd ref='-173653728' />
    <nd ref='-173653729' />
    <tag k='type' v='straight' />
  </way>
  <way id='-38194509' action='modify'>
    <nd ref='-173653729' />
    <nd ref='-173653730' />
  </way>
  <way id='-38194510' action='modify'>
    <nd ref='-173653730' />
    <nd ref='-173653731' />
    <tag k='type' v='straight' />
  </way>
  <way id='-38194511' action='modify'>
    <nd ref='-173653731' />
    <nd ref='-173653732' />
  </way>
  <way id='-38194512' action='modify'>
    <nd ref='-173653732' />
    <nd ref='-173653733' />
    <tag k='type' v='straight' />
  </way>
  <way id='-38194513' action='modify'>
    <nd ref='-173653733' />
    <nd ref='-173653734' />
  </way>
  <way id='-38194514' action='modify'>
    <nd ref='-173653734' />
    <nd ref='-173653735' />
    <tag k='type' v='straight' />
  </way>
  <way id='-38194515' action='modify'>
    <nd ref='-173653735' />
    <nd ref='-173653736' />
    <nd ref='-173653737' />
  </way>
  <way id='-38194516' action='modify'>
    <nd ref='-173653737' />
    <nd ref='-173653738' />
    <tag k='type' v='straight' />
  </way>
  <way id='-38194517' action='modify'>
    <nd ref='-173653738' />
    <nd ref='-173653739' />
  </way>
  <way id='-38194518' action='modify'>
    <nd ref='-173653739' />
    <nd ref='-173653740' />
    <nd ref='-173653741' />
    <tag k='type' v='straight' />
  </way>
  <way id='-38194519' action='modify'>
    <nd ref='-173653741' />
    <nd ref='-173653742' />
  </way>
  <way id='-38194520' action='modify'>
    <nd ref='-173653742' />
    <nd ref='-173653743' />
    <tag k='type' v='straight' />
  </way>
  <way id='-38194521' action='modify'>
    <nd ref='-173653743' />
    <nd ref='-173653744' />
  </way>
  <way id='-38194522' action='modify'>
    <nd ref='-173653744' />
    <nd ref='-173653745' />
    <tag k='type' v='straight' />
  </way>
  <way id='-38194523' action='modify'>
    <nd ref='-173653745' />
    <nd ref='-173653746' />
    <nd ref='-173653747' />
  </way>
  <way id='-38194524' action='modify'>
    <nd ref='-173653747' />
    <nd ref='-173653748' />
    <tag k='type' v='straight' />
  </way>
  <way id='-38194525' action='modify'>
    <nd ref='-173653748' />
    <nd ref='-173653749' />
  </way>
  <way id='-38194526' action='modify'>
    <nd ref='-173653749' />
    <nd ref='-173653750' />
    <tag k='type' v='straight' />
  </way>
  <way id='-38194527' action='modify'>
    <nd ref='-173653750' />
    <nd ref='-173653751' />
  </way>
  <way id='-38194528' action='modify'>
    <nd ref='-173653751' />
    <nd ref='-173653752' />
    <tag k='type' v='straight' />
  </way>
  <way id='-38194529' action='modify'>
    <nd ref='-173653752' />
    <nd ref='-173653753' />
    <nd ref='-173653754' />
  </way>
  <way id='-38194530' action='modify'>
    <nd ref='-173653754' />
    <nd ref='-173653755' />
    <tag k='type' v='straight' />
  </way>
  <way id='-38194531' action='modify'>
    <nd ref='-173653755' />
    <nd ref='-173653756' />
  </way>
  <way id='-38194532' action='modify'>
    <nd ref='-173653756' />
    <nd ref='-173653757' />
    <tag k='type' v='straight' />
  </way>
  <way id='-38194533' action='modify'>
    <nd ref='-173653757' />
    <nd ref='-173653758' />
  </way>
  <way id='-38194534' action='modify'>
    <nd ref='-173653758' />
    <nd ref='-173653759' />
    <tag k='type' v='straight' />
  </way>
  <way id='-38194535' action='modify'>
    <nd ref='-173653759' />
    <nd ref='-173653760' />
  </way>
  <way id='-38194536' action='modify'>
    <nd ref='-173653760' />
    <nd ref='-173653761' />
    <tag k='type' v='straight' />
  </way>
  <way id='-38194537' action='modify'>
    <nd ref='-173653761' />
    <nd ref='-173653762' />
    <nd ref='-173653763' />
  </way>
  <way id='-38194538' action='modify'>
    <nd ref='-173653763' />
    <nd ref='-173653764' />
    <tag k='type' v='straight' />
  </way>
  <way id='-38194539' action='modify'>
    <nd ref='-173653764' />
    <nd ref='-173653765' />
  </way>
  <way id='-38194540' action='modify'>
    <nd ref='-173653765' />
    <nd ref='-173653766' />
    <tag k='type' v='straight' />
  </way>
  <way id='-38194541' action='modify'>
    <nd ref='-173653766' />
    <nd ref='-173653767' />
  </way>
  <way id='-38194542' action='modify'>
    <nd ref='-173653767' />
    <nd ref='-173653768' />
    <tag k='type' v='straight' />
  </way>
  <way id='-38194543' action='modify'>
    <nd ref='-173653768' />
    <nd ref='-173653769' />
  </way>
  <way id='-38194544' action='modify'>
    <nd ref='-173653769' />
    <nd ref='-173653770' />
    <nd ref='-173653771' />
    <tag k='type' v='straight' />
  </way>
  <way id='-38194545' action='modify'>
    <nd ref='-173653771' />
    <nd ref='-173653772' />
  </way>
  <way id='-38194546' action='modify'>
    <nd ref='-173653772' />
    <nd ref='-173653773' />
    <tag k='type' v='straight' />
  </way>
  <way id='-38194547' action='modify'>
    <nd ref='-173653773' />
    <nd ref='-173653774' />
  </way>
  <way id='-38194548' action='modify'>
    <nd ref='-173653774' />
    <nd ref='-173653775' />
    <tag k='type' v='straight' />
  </way>
  <way id='-38194549' action='modify'>
    <nd ref='-173653775' />
    <nd ref='-173653776' />
    <tag k='type' v='straight' />
  </way>
  <relation id='-14484220' action='modify'>
    <member type='way' ref='-38194442' role='' />
    <member type='way' ref='-38194443' role='' />
    <member type='way' ref='-38194444' role='' />
    <member type='way' ref='-38194445' role='' />
    <member type='way' ref='-38194446' role='' />
    <member type='way' ref='-38194447' role='' />
    <member type='way' ref='-38194448' role='' />
    <member type='way' ref='-38194449' role='' />
    <member type='way' ref='-38194450' role='' />
    <member type='way' ref='-38194451' role='' />
    <member type='way' ref='-38194452' role='' />
    <member type='way' ref='-38194453' role='' />
    <member type='way' ref='-38194454' role='' />
    <member type='way' ref='-38194455' role='' />
    <member type='way' ref='-38194456' role='' />
    <member type='way' ref='-38194457' role='' />
    <member type='way' ref='-38194458' role='' />
    <member type='way' ref='-38194459' role='' />
    <member type='way' ref='-38194460' role='' />
    <member type='way' ref='-38194461' role='' />
    <member type='way' ref='-38194462' role='' />
    <member type='way' ref='-38194463' role='' />
    <member type='way' ref='-38194464' role='' />
    <member type='way' ref='-38194465' role='' />
    <member type='way' ref='-38194466' role='' />
    <member type='way' ref='-38194467' role='' />
    <member type='way' ref='-38194468' role='' />
    <member type='way' ref='-38194469' role='' />
    <member type='way' ref='-38194470' role='' />
    <member type='way' ref='-38194471' role='' />
    <member type='way' ref='-38194472' role='' />
    <member type='way' ref='-38194473' role='' />
    <member type='way' ref='-38194474' role='' />
    <member type='way' ref='-38194475' role='' />
    <member type='way' ref='-38194476' role='' />
    <member type='way' ref='-38194477' role='' />
    <member type='way' ref='-38194478' role='' />
    <member type='way' ref='-38194479' role='' />
    <member type='way' ref='-38194480' role='' />
    <member type='way' ref='-38194481' role='' />
    <member type='way' ref='-38194482' role='' />
    <member type='way' ref='-38194483' role='' />
    <member type='way' ref='-38194484' role='' />
    <member type='way' ref='-38194485' role='' />
    <member type='way' ref='-38194486' role='' />
    <member type='way' ref='-38194487' role='' />
    <member type='way' ref='-38194488' role='' />
    <member type='way' ref='-38194489' role='' />
    <member type='way' ref='-38194490' role='' />
    <member type='way' ref='-38194491' role='' />
    <member type='way' ref='-38194492' role='' />
    <member type='way' ref='-38194493' role='' />
    <member type='way' ref='-38194494' role='' />
    <member type='way' ref='-38194495' role='' />
    <member type='way' ref='-38194496' role='' />
    <member type='way' ref='-38194497' role='' />
    <member type='way' ref='-38194498' role='' />
    <member type='way' ref='-38194499' role='' />
    <member type='way' ref='-38194500' role='' />
    <member type='way' ref='-38194501' role='' />
    <member type='way' ref='-38194502' role='' />
    <member type='way' ref='-38194503' role='' />
    <member type='way' ref='-38194504' role='' />
    <member type='way' ref='-38194505' role='' />
    <member type='way' ref='-38194506' role='' />
    <member type='way' ref='-38194507' role='' />
    <member type='way' ref='-38194508' role='' />
    <member type='way' ref='-38194509' role='' />
    <member type='way' ref='-38194510' role='' />
    <member type='way' ref='-38194511' role='' />
    <member type='way' ref='-38194512' role='' />
    <member type='way' ref='-38194513' role='' />
    <member type='way' ref='-38194514' role='' />
    <member type='way' ref='-38194515' role='' />
    <member type='way' ref='-38194516' role='' />
    <member type='way' ref='-38194517' role='' />
    <member type='way' ref='-38194518' role='' />
    <member type='way' ref='-38194519' role='' />
    <member type='way' ref='-38194520' role='' />
    <member type='way' ref='-38194521' role='' />
    <member type='way' ref='-38194522' role='' />
    <member type='way' ref='-38194523' role='' />
    <member type='way' ref='-38194524' role='' />
    <member type='way' ref='-38194525' role='' />
    <member type='way' ref='-38194526' role='' />
    <member type='way' ref='-38194527' role='' />
    <member type='way' ref='-38194528' role='' />
    <member type='way' ref='-38194529' role='' />
    <member type='way' ref='-38194530' role='' />
    <member type='way' ref='-38194531' role='' />
    <member type='way' ref='-38194532' role='' />
    <member type='way' ref='-38194533' role='' />
    <member type='way' ref='-38194534' role='' />
    <member type='way' ref='-38194535' role='' />
    <member type='way' ref='-38194536' role='' />
    <member type='way' ref='-38194537' role='' />
    <member type='way' ref='-38194538' role='' />
    <member type='way' ref='-38194539' role='' />
    <member type='way' ref='-38194540' role='' />
    <member type='way' ref='-38194541' role='' />
    <member type='way' ref='-38194542' role='' />
    <member type='way' ref='-38194543' role='' />
    <member type='way' ref='-38194544' role='' />
    <member type='way' ref='-38194545' role='' />
    <member type='way' ref='-38194546' role='' />
    <member type='way' ref='-38194547' role='' />
    <member type='way' ref='-38194548' role='' />
    <member type='way' ref='-38194549' role='' />
    <tag k='key' v='path.dk.rhs' />
    <tag k='name' v='DK RHS' />
    <tag k='type' v='path' />
  </relation>
</osm>
