<?xml version='1.0' encoding='UTF-8'?>
<osm version='0.6' upload='false' generator='JOSM'>
  <node id='-190892110' action='modify' lat='55.06914388805' lon='9.33283556638'>
    <tag k='name' v='rod' />
  </node>
  <node id='-190892111' action='modify' lat='55.06615823402' lon='9.3318379886' />
  <node id='-190892112' action='modify' lat='55.06336861752' lon='9.3328430191' />
  <node id='-190892113' action='modify' lat='55.06058512766' lon='9.33642443572' />
  <node id='-190892114' action='modify' lat='55.0594374522' lon='9.33840870503'>
    <tag k='name' v='ris' />
  </node>
  <node id='-190892115' action='modify' lat='55.05847596939' lon='9.34473976426' />
  <node id='-190892116' action='modify' lat='55.05852282373' lon='9.34558868341' />
  <node id='-190892117' action='modify' lat='55.05705955992' lon='9.35305863552' />
  <node id='-190892118' action='modify' lat='55.05526439668' lon='9.35583069786' />
  <node id='-190892119' action='modify' lat='55.05376644502' lon='9.36080150172' />
  <node id='-190892120' action='modify' lat='55.05330514106' lon='9.36561137371' />
  <node id='-190892121' action='modify' lat='55.05341614632' lon='9.36922699146' />
  <node id='-190892122' action='modify' lat='55.05369308198' lon='9.37102876537' />
  <node id='-190892123' action='modify' lat='55.05374032601' lon='9.37551140718' />
  <node id='-190892124' action='modify' lat='55.05253385726' lon='9.38559718363' />
  <node id='-190892125' action='modify' lat='55.05264486504' lon='9.3898504959' />
  <node id='-190892126' action='modify' lat='55.05331243938' lon='9.39382150635' />
  <node id='-190892127' action='modify' lat='55.05262988482' lon='9.40169714257' />
  <node id='-190892128' action='modify' lat='55.05200493581' lon='9.40318643913' />
  <node id='-190892129' action='modify' lat='55.05133810792' lon='9.40561652049' />
  <node id='-190892130' action='modify' lat='55.04923660814' lon='9.41834540311'>
    <tag k='name' v='abe' />
  </node>
  <node id='-190892131' action='modify' lat='55.04918234092' lon='9.41867409338'>
    <tag k='name' v='abe.f' />
  </node>
  <node id='-190892132' action='modify' lat='55.04901718601' lon='9.4193708843' />
  <node id='-190892133' action='modify' lat='55.04853162642' lon='9.42079245508' />
  <node id='-190892134' action='modify' lat='55.04755434308' lon='9.42221939027' />
  <node id='-190892135' action='modify' lat='55.04141351695' lon='9.42294357061'>
    <tag k='name' v='abh' />
  </node>
  <node id='-190892140' action='modify' lat='55.04314705519' lon='9.42293285251' />
  <node id='-190892149' action='modify' lat='55.04475758594' lon='9.42280410647' />
  <way id='-39561641' action='modify'>
    <nd ref='-190892110' />
    <nd ref='-190892111' />
    <tag k='type' v='straight' />
  </way>
  <way id='-39561642' action='modify'>
    <nd ref='-190892111' />
    <nd ref='-190892112' />
  </way>
  <way id='-39561643' action='modify'>
    <nd ref='-190892112' />
    <nd ref='-190892113' />
    <tag k='type' v='straight' />
  </way>
  <way id='-39561644' action='modify'>
    <nd ref='-190892113' />
    <nd ref='-190892114' />
    <nd ref='-190892115' />
  </way>
  <way id='-39561645' action='modify'>
    <nd ref='-190892115' />
    <nd ref='-190892116' />
    <tag k='type' v='straight' />
  </way>
  <way id='-39561646' action='modify'>
    <nd ref='-190892116' />
    <nd ref='-190892117' />
  </way>
  <way id='-39561647' action='modify'>
    <nd ref='-190892117' />
    <nd ref='-190892118' />
    <tag k='type' v='straight' />
  </way>
  <way id='-39561648' action='modify'>
    <nd ref='-190892118' />
    <nd ref='-190892119' />
  </way>
  <way id='-39561649' action='modify'>
    <nd ref='-190892119' />
    <nd ref='-190892120' />
    <tag k='type' v='straight' />
  </way>
  <way id='-39561650' action='modify'>
    <nd ref='-190892120' />
    <nd ref='-190892121' />
  </way>
  <way id='-39561651' action='modify'>
    <nd ref='-190892121' />
    <nd ref='-190892122' />
    <tag k='type' v='straight' />
  </way>
  <way id='-39561652' action='modify'>
    <nd ref='-190892122' />
    <nd ref='-190892123' />
  </way>
  <way id='-39561653' action='modify'>
    <nd ref='-190892123' />
    <nd ref='-190892124' />
    <tag k='type' v='straight' />
  </way>
  <way id='-39561654' action='modify'>
    <nd ref='-190892124' />
    <nd ref='-190892125' />
  </way>
  <way id='-39561655' action='modify'>
    <nd ref='-190892125' />
    <nd ref='-190892126' />
    <tag k='type' v='straight' />
  </way>
  <way id='-39561656' action='modify'>
    <nd ref='-190892126' />
    <nd ref='-190892127' />
  </way>
  <way id='-39561657' action='modify'>
    <nd ref='-190892127' />
    <nd ref='-190892128' />
    <tag k='type' v='straight' />
  </way>
  <way id='-39561658' action='modify'>
    <nd ref='-190892128' />
    <nd ref='-190892129' />
  </way>
  <way id='-39561659' action='modify'>
    <nd ref='-190892129' />
    <nd ref='-190892130' />
    <nd ref='-190892131' />
    <nd ref='-190892132' />
    <nd ref='-190892133' />
    <nd ref='-190892134' />
    <nd ref='-190892149' />
    <tag k='type' v='straight' />
  </way>
  <way id='-39561679' action='modify'>
    <nd ref='-190892149' />
    <nd ref='-190892140' />
  </way>
  <way id='-39561680' action='modify'>
    <nd ref='-190892140' />
    <nd ref='-190892135' />
    <tag k='type' v='straight' />
  </way>
  <relation id='-14498320' action='modify'>
    <member type='way' ref='-39561641' role='' />
    <member type='way' ref='-39561642' role='' />
    <member type='way' ref='-39561643' role='' />
    <member type='way' ref='-39561644' role='' />
    <member type='way' ref='-39561645' role='' />
    <member type='way' ref='-39561646' role='' />
    <member type='way' ref='-39561647' role='' />
    <member type='way' ref='-39561648' role='' />
    <member type='way' ref='-39561649' role='' />
    <member type='way' ref='-39561650' role='' />
    <member type='way' ref='-39561651' role='' />
    <member type='way' ref='-39561652' role='' />
    <member type='way' ref='-39561653' role='' />
    <member type='way' ref='-39561654' role='' />
    <member type='way' ref='-39561655' role='' />
    <member type='way' ref='-39561656' role='' />
    <member type='way' ref='-39561657' role='' />
    <member type='way' ref='-39561658' role='' />
    <member type='way' ref='-39561659' role='' />
    <member type='way' ref='-39561679' role='' />
    <member type='way' ref='-39561680' role='' />
    <tag k='key' v='path.dk.rka' />
    <tag k='name' v='DK RKA' />
    <tag k='type' v='path' />
  </relation>
</osm>
