<?xml version='1.0' encoding='UTF-8'?>
<osm version='0.6' upload='false' generator='JOSM'>
  <node id='-140463807' action='modify' lat='55.6390493317' lon='12.08900936604'>
    <tag k='name' v='ros' />
  </node>
  <node id='-140463808' action='modify' lat='55.63681798075' lon='12.08272155962' />
  <node id='-140463809' action='modify' lat='55.63382476685' lon='12.07656448961' />
  <node id='-140463812' action='modify' lat='55.62030770562' lon='12.05598221962' />
  <node id='-140463813' action='modify' lat='55.61055167804' lon='12.04747361582' />
  <node id='-140463814' action='modify' lat='55.60925821038' lon='12.0469969902' />
  <node id='-140463815' action='modify' lat='55.60269632227' lon='12.03033774823' />
  <node id='-140463816' action='modify' lat='55.6034721269' lon='12.0208024925' />
  <node id='-140463817' action='modify' lat='55.60366001441' lon='12.01863526762' />
  <node id='-140463818' action='modify' lat='55.60609337938' lon='11.99204921186' />
  <node id='-140463819' action='modify' lat='55.60578126103' lon='11.97962254018' />
  <node id='-140463820' action='modify' lat='55.60448860557' lon='11.97126338428'>
    <tag k='name' v='lej' />
  </node>
  <node id='-140463821' action='modify' lat='55.60412215173' lon='11.96889370412' />
  <node id='-140463822' action='modify' lat='55.60392214477' lon='11.96761160821' />
  <node id='-140463823' action='modify' lat='55.60341303155' lon='11.96413010091' />
  <node id='-140463824' action='modify' lat='55.60105981226' lon='11.95586353272' />
  <node id='-140463825' action='modify' lat='55.60073098674' lon='11.95514738292' />
  <node id='-140463826' action='modify' lat='55.59704855873' lon='11.94375872344' />
  <node id='-140463827' action='modify' lat='55.59414631947' lon='11.930894849' />
  <node id='-140463828' action='modify' lat='55.59248065545' lon='11.92495643824' />
  <node id='-140463829' action='modify' lat='55.59194714301' lon='11.92332833737' />
  <node id='-140463830' action='modify' lat='55.58965083408' lon='11.91019892558' />
  <node id='-140463831' action='modify' lat='55.58898224467' lon='11.89780292316'>
    <tag k='name' v='kis' />
  </node>
  <node id='-140463832' action='modify' lat='55.58885429447' lon='11.89543068275' />
  <node id='-140463833' action='modify' lat='55.58995095403' lon='11.88372283906' />
  <node id='-140463834' action='modify' lat='55.59389473144' lon='11.86907529563' />
  <node id='-140463837' action='modify' lat='55.59519357521' lon='11.86124056309' />
  <node id='-140463838' action='modify' lat='55.59529989529' lon='11.85980156697'>
    <tag k='name' v='hva' />
  </node>
  <node id='-140463839' action='modify' lat='55.59558913052' lon='11.8558868739' />
  <node id='-140463840' action='modify' lat='55.59569208319' lon='11.85256900795' />
  <node id='-140463841' action='modify' lat='55.59568753771' lon='11.85241728001' />
  <node id='-140463842' action='modify' lat='55.59423119142' lon='11.84444323048' />
  <node id='-140463843' action='modify' lat='55.59377424066' lon='11.84310480818' />
  <node id='-140463844' action='modify' lat='55.59267086831' lon='11.82541966304' />
  <node id='-140463845' action='modify' lat='55.59438881243' lon='11.81734353036' />
  <node id='-140463846' action='modify' lat='55.59836093691' lon='11.80733352631' />
  <node id='-140463847' action='modify' lat='55.60218719314' lon='11.80205225676' />
  <node id='-140463848' action='modify' lat='55.60780846098' lon='11.78817450732' />
  <node id='-140463849' action='modify' lat='55.60915229437' lon='11.78127586573' />
  <node id='-140463852' action='modify' lat='55.61202211257' lon='11.77313075051'>
    <tag k='name' v='tol' />
  </node>
  <node id='-140463853' action='modify' lat='55.61652967984' lon='11.76827519864' />
  <node id='-140463854' action='modify' lat='55.61891226364' lon='11.76697700948' />
  <node id='-140463855' action='modify' lat='55.62337107782' lon='11.76233142346' />
  <node id='-140463856' action='modify' lat='55.62402077437' lon='11.76123708218' />
  <node id='-140463857' action='modify' lat='55.62929669902' lon='11.75594240159' />
  <node id='-140463858' action='modify' lat='55.6375889511' lon='11.752190621'>
    <tag k='name' v='ski' />
  </node>
  <node id='-140463859' action='modify' lat='55.66695138802' lon='11.73889937149'>
    <tag k='name' v='vip' />
  </node>
  <node id='-140463860' action='modify' lat='55.66847893743' lon='11.73820763558' />
  <node id='-140463861' action='modify' lat='55.67006876693' lon='11.73751830786' />
  <node id='-140463862' action='modify' lat='55.67075096702' lon='11.73721790045' />
  <node id='-140463863' action='modify' lat='55.6751312855' lon='11.73343330353' />
  <node id='-140463864' action='modify' lat='55.67616125464' lon='11.73200905055' />
  <node id='-140463865' action='modify' lat='55.68399025242' lon='11.72555028856' />
  <node id='-140463866' action='modify' lat='55.70403573941' lon='11.71925782889' />
  <node id='-140463867' action='modify' lat='55.70791061939' lon='11.7171174261' />
  <node id='-140463868' action='modify' lat='55.71083768228' lon='11.71474903554' />
  <node id='-140463869' action='modify' lat='55.71484613391' lon='11.70946000039' />
  <node id='-140463870' action='modify' lat='55.71510774979' lon='11.7089313215' />
  <node id='-140463871' action='modify' lat='55.71549272402' lon='11.70812344383'>
    <tag k='name' v='hol' />
  </node>
  <node id='-140463872' action='modify' lat='55.71715772987' lon='11.70224397999' />
  <node id='-140463873' action='modify' lat='55.71673355035' lon='11.69433458237' />
  <node id='-140463874' action='modify' lat='55.71268801062' lon='11.67519292862' />
  <node id='-140463875' action='modify' lat='55.70751733205' lon='11.6507305153' />
  <node id='-140463876' action='modify' lat='55.70619298747' lon='11.64560845914' />
  <node id='-140463877' action='modify' lat='55.70520194299' lon='11.64212248707' />
  <node id='-140463878' action='modify' lat='55.69752422539' lon='11.6294295732' />
  <node id='-140463879' action='modify' lat='55.67819340014' lon='11.61318336154' />
  <node id='-140463880' action='modify' lat='55.67759454121' lon='11.61265966643'>
    <tag k='name' v='reg' />
  </node>
  <node id='-140463881' action='modify' lat='55.66704431424' lon='11.59379511505' />
  <node id='-140463882' action='modify' lat='55.66489571131' lon='11.5769466113' />
  <node id='-140463883' action='modify' lat='55.66481998382' lon='11.55329871696'>
    <tag k='name' v='kna' />
  </node>
  <node id='-140463884' action='modify' lat='55.66480976908' lon='11.55010889984' />
  <node id='-140463885' action='modify' lat='55.66317853872' lon='11.53739620161' />
  <node id='-140463886' action='modify' lat='55.65598654464' lon='11.50996812943' />
  <node id='-140463887' action='modify' lat='55.65448837767' lon='11.50181315303'>
    <tag k='name' v='mor' />
  </node>
  <node id='-140463888' action='modify' lat='55.6541736401' lon='11.49279981779' />
  <node id='-140463889' action='modify' lat='55.65586122629' lon='11.44609503049'>
    <tag k='name' v='tor' />
  </node>
  <node id='-140463890' action='modify' lat='55.65654819376' lon='11.42708228753' />
  <node id='-140463891' action='modify' lat='55.65696789543' lon='11.42232140192' />
  <node id='-140463892' action='modify' lat='55.66029149684' lon='11.39790337816'>
    <tag k='name' v='jyd' />
  </node>
  <node id='-140463893' action='modify' lat='55.6627958465' lon='11.37950290998' />
  <node id='-140463894' action='modify' lat='55.65881390682' lon='11.36121129221' />
  <node id='-140463895' action='modify' lat='55.65740205016' lon='11.35940482209' />
  <node id='-140463896' action='modify' lat='55.6520546786' lon='11.35400128826' />
  <node id='-140463897' action='modify' lat='55.65176228791' lon='11.35377490298' />
  <node id='-140463898' action='modify' lat='55.64670603534' lon='11.34332430618' />
  <node id='-140463899' action='modify' lat='55.64628795995' lon='11.34027073469' />
  <node id='-140463900' action='modify' lat='55.64706912126' lon='11.32706657627' />
  <node id='-140463901' action='modify' lat='55.64737193968' lon='11.32595864876' />
  <node id='-140463902' action='modify' lat='55.64848786506' lon='11.31598687934' />
  <node id='-140463903' action='modify' lat='55.64837824731' lon='11.31331310123' />
  <node id='-140463904' action='modify' lat='55.6494782755' lon='11.30226384348' />
  <node id='-140463905' action='modify' lat='55.65213923796' lon='11.29252670136'>
    <tag k='name' v='sve' />
  </node>
  <node id='-140463906' action='modify' lat='55.65988806219' lon='11.26416800208'>
    <tag k='name' v='vis' />
  </node>
  <node id='-140463907' action='modify' lat='55.66329968235' lon='11.25168057175' />
  <node id='-140463908' action='modify' lat='55.66528978014' lon='11.24010416301' />
  <node id='-140463909' action='modify' lat='55.66599956899' lon='11.23125288772' />
  <node id='-140463910' action='modify' lat='55.66754617468' lon='11.22044345319' />
  <node id='-140463912' action='modify' lat='55.66873042068' lon='11.21536093011' />
  <node id='-140463913' action='modify' lat='55.66986873888' lon='11.20736413059'>
    <tag k='name' v='var' />
  </node>
  <node id='-140463914' action='modify' lat='55.66852008298' lon='11.19175990169' />
  <node id='-140463915' action='modify' lat='55.66766647982' lon='11.18785140306' />
  <node id='-140463916' action='modify' lat='55.66760269019' lon='11.16954447794' />
  <node id='-140463917' action='modify' lat='55.67120823664' lon='11.1526706644'>
    <tag k='name' v='ubb' />
  </node>
  <node id='-140463918' action='modify' lat='55.67254119507' lon='11.14643207847' />
  <node id='-140463919' action='modify' lat='55.67332467042' lon='11.14208862846' />
  <node id='-140463920' action='modify' lat='55.67601935744' lon='11.12409756855'>
    <tag k='name' v='kao' />
  </node>
  <node id='-140463921' action='modify' lat='55.67645426865' lon='11.12119377062' />
  <node id='-140463922' action='modify' lat='55.67734872875' lon='11.11032014435' />
  <node id='-140463923' action='modify' lat='55.67769711482' lon='11.08929672659'>
    <tag k='name' v='kal' />
  </node>
  <way id='-36161898' action='modify'>
    <nd ref='-140463807' />
    <nd ref='-140463808' />
    <tag k='type' v='straight' />
  </way>
  <way id='-36161899' action='modify'>
    <nd ref='-140463808' />
    <nd ref='-140463809' />
    <tag k='type' v='arc' />
  </way>
  <way id='-36161902' action='modify'>
    <nd ref='-140463809' />
    <nd ref='-140463812' />
    <tag k='type' v='straight' />
  </way>
  <way id='-36161903' action='modify'>
    <nd ref='-140463812' />
    <nd ref='-140463813' />
    <tag k='type' v='arc' />
  </way>
  <way id='-36161904' action='modify'>
    <nd ref='-140463813' />
    <nd ref='-140463814' />
    <tag k='type' v='straight' />
  </way>
  <way id='-36161905' action='modify'>
    <nd ref='-140463814' />
    <nd ref='-140463815' />
  </way>
  <way id='-36161906' action='modify'>
    <nd ref='-140463815' />
    <nd ref='-140463816' />
    <tag k='type' v='straight' />
  </way>
  <way id='-36161907' action='modify'>
    <nd ref='-140463816' />
    <nd ref='-140463817' />
  </way>
  <way id='-36161908' action='modify'>
    <nd ref='-140463817' />
    <nd ref='-140463818' />
    <tag k='type' v='straight' />
  </way>
  <way id='-36161909' action='modify'>
    <nd ref='-140463818' />
    <nd ref='-140463819' />
  </way>
  <way id='-36161910' action='modify'>
    <nd ref='-140463819' />
    <nd ref='-140463820' />
    <nd ref='-140463821' />
    <tag k='type' v='straight' />
  </way>
  <way id='-36161911' action='modify'>
    <nd ref='-140463821' />
    <nd ref='-140463822' />
  </way>
  <way id='-36161912' action='modify'>
    <nd ref='-140463822' />
    <nd ref='-140463823' />
    <tag k='type' v='straight' />
  </way>
  <way id='-36161913' action='modify'>
    <nd ref='-140463823' />
    <nd ref='-140463824' />
  </way>
  <way id='-36161914' action='modify'>
    <nd ref='-140463824' />
    <nd ref='-140463825' />
    <tag k='type' v='straight' />
  </way>
  <way id='-36161915' action='modify'>
    <nd ref='-140463825' />
    <nd ref='-140463826' />
  </way>
  <way id='-36161916' action='modify'>
    <nd ref='-140463826' />
    <nd ref='-140463827' />
    <tag k='type' v='straight' />
  </way>
  <way id='-36161917' action='modify'>
    <nd ref='-140463827' />
    <nd ref='-140463828' />
  </way>
  <way id='-36161918' action='modify'>
    <nd ref='-140463828' />
    <nd ref='-140463829' />
    <tag k='type' v='straight' />
  </way>
  <way id='-36161919' action='modify'>
    <nd ref='-140463829' />
    <nd ref='-140463830' />
  </way>
  <way id='-36161920' action='modify'>
    <nd ref='-140463830' />
    <nd ref='-140463831' />
    <nd ref='-140463832' />
    <tag k='type' v='straight' />
  </way>
  <way id='-36161921' action='modify'>
    <nd ref='-140463832' />
    <nd ref='-140463833' />
  </way>
  <way id='-36161922' action='modify'>
    <nd ref='-140463833' />
    <nd ref='-140463834' />
    <tag k='type' v='straight' />
  </way>
  <way id='-36161923' action='modify'>
    <nd ref='-140463834' />
    <nd ref='-140463837' />
  </way>
  <way id='-36161926' action='modify'>
    <nd ref='-140463837' />
    <nd ref='-140463838' />
    <nd ref='-140463839' />
    <tag k='type' v='straight' />
  </way>
  <way id='-36161927' action='modify'>
    <nd ref='-140463839' />
    <nd ref='-140463840' />
  </way>
  <way id='-36161928' action='modify'>
    <nd ref='-140463840' />
    <nd ref='-140463841' />
    <tag k='type' v='straight' />
  </way>
  <way id='-36161929' action='modify'>
    <nd ref='-140463841' />
    <nd ref='-140463842' />
  </way>
  <way id='-36161930' action='modify'>
    <nd ref='-140463842' />
    <nd ref='-140463843' />
    <tag k='type' v='straight' />
  </way>
  <way id='-36161931' action='modify'>
    <nd ref='-140463843' />
    <nd ref='-140463844' />
  </way>
  <way id='-36161932' action='modify'>
    <nd ref='-140463844' />
    <nd ref='-140463845' />
    <tag k='type' v='straight' />
  </way>
  <way id='-36161933' action='modify'>
    <nd ref='-140463845' />
    <nd ref='-140463846' />
  </way>
  <way id='-36161934' action='modify'>
    <nd ref='-140463846' />
    <nd ref='-140463847' />
    <tag k='type' v='straight' />
  </way>
  <way id='-36161935' action='modify'>
    <nd ref='-140463847' />
    <nd ref='-140463848' />
  </way>
  <way id='-36161936' action='modify'>
    <nd ref='-140463848' />
    <nd ref='-140463849' />
    <tag k='type' v='straight' />
  </way>
  <way id='-36161937' action='modify'>
    <nd ref='-140463849' />
    <nd ref='-140463852' />
    <nd ref='-140463853' />
  </way>
  <way id='-36161940' action='modify'>
    <nd ref='-140463853' />
    <nd ref='-140463854' />
    <tag k='type' v='straight' />
  </way>
  <way id='-36161941' action='modify'>
    <nd ref='-140463854' />
    <nd ref='-140463855' />
  </way>
  <way id='-36161942' action='modify'>
    <nd ref='-140463855' />
    <nd ref='-140463856' />
    <tag k='type' v='straight' />
  </way>
  <way id='-36161943' action='modify'>
    <nd ref='-140463856' />
    <nd ref='-140463857' />
  </way>
  <way id='-36161944' action='modify'>
    <nd ref='-140463857' />
    <nd ref='-140463858' />
    <nd ref='-140463859' />
    <nd ref='-140463860' />
    <tag k='type' v='straight' />
  </way>
  <way id='-36161945' action='modify'>
    <nd ref='-140463860' />
    <nd ref='-140463861' />
  </way>
  <way id='-36161946' action='modify'>
    <nd ref='-140463861' />
    <nd ref='-140463862' />
    <tag k='type' v='straight' />
  </way>
  <way id='-36161947' action='modify'>
    <nd ref='-140463862' />
    <nd ref='-140463863' />
  </way>
  <way id='-36161948' action='modify'>
    <nd ref='-140463863' />
    <nd ref='-140463864' />
    <tag k='type' v='straight' />
  </way>
  <way id='-36161949' action='modify'>
    <nd ref='-140463864' />
    <nd ref='-140463865' />
  </way>
  <way id='-36161950' action='modify'>
    <nd ref='-140463865' />
    <nd ref='-140463866' />
    <tag k='type' v='straight' />
  </way>
  <way id='-36161951' action='modify'>
    <nd ref='-140463866' />
    <nd ref='-140463867' />
  </way>
  <way id='-36161952' action='modify'>
    <nd ref='-140463867' />
    <nd ref='-140463868' />
    <tag k='type' v='straight' />
  </way>
  <way id='-36161953' action='modify'>
    <nd ref='-140463868' />
    <nd ref='-140463869' />
  </way>
  <way id='-36161954' action='modify'>
    <nd ref='-140463869' />
    <nd ref='-140463870' />
    <tag k='type' v='straight' />
  </way>
  <way id='-36161955' action='modify'>
    <nd ref='-140463870' />
    <nd ref='-140463871' />
    <nd ref='-140463872' />
    <nd ref='-140463873' />
  </way>
  <way id='-36161957' action='modify'>
    <nd ref='-140463873' />
    <nd ref='-140463874' />
    <nd ref='-140463875' />
    <tag k='type' v='straight' />
  </way>
  <way id='-36161958' action='modify'>
    <nd ref='-140463875' />
    <nd ref='-140463876' />
  </way>
  <way id='-36161959' action='modify'>
    <nd ref='-140463876' />
    <nd ref='-140463877' />
    <tag k='type' v='straight' />
  </way>
  <way id='-36161960' action='modify'>
    <nd ref='-140463877' />
    <nd ref='-140463878' />
  </way>
  <way id='-36161961' action='modify'>
    <nd ref='-140463878' />
    <nd ref='-140463879' />
    <tag k='type' v='straight' />
  </way>
  <way id='-36161962' action='modify'>
    <nd ref='-140463879' />
    <nd ref='-140463880' />
    <nd ref='-140463881' />
    <nd ref='-140463882' />
  </way>
  <way id='-36161963' action='modify'>
    <nd ref='-140463882' />
    <nd ref='-140463883' />
    <nd ref='-140463884' />
    <tag k='type' v='straight' />
  </way>
  <way id='-36161964' action='modify'>
    <nd ref='-140463884' />
    <nd ref='-140463885' />
  </way>
  <way id='-36161965' action='modify'>
    <nd ref='-140463885' />
    <nd ref='-140463886' />
    <tag k='type' v='straight' />
  </way>
  <way id='-36161966' action='modify'>
    <nd ref='-140463886' />
    <nd ref='-140463887' />
    <nd ref='-140463888' />
  </way>
  <way id='-36161967' action='modify'>
    <nd ref='-140463888' />
    <nd ref='-140463889' />
    <nd ref='-140463890' />
    <tag k='type' v='straight' />
  </way>
  <way id='-36161968' action='modify'>
    <nd ref='-140463890' />
    <nd ref='-140463891' />
  </way>
  <way id='-36161969' action='modify'>
    <nd ref='-140463891' />
    <nd ref='-140463892' />
    <nd ref='-140463893' />
    <tag k='type' v='straight' />
  </way>
  <way id='-36161970' action='modify'>
    <nd ref='-140463893' />
    <nd ref='-140463894' />
  </way>
  <way id='-36161971' action='modify'>
    <nd ref='-140463894' />
    <nd ref='-140463895' />
    <tag k='type' v='straight' />
  </way>
  <way id='-36161972' action='modify'>
    <nd ref='-140463895' />
    <nd ref='-140463896' />
  </way>
  <way id='-36161973' action='modify'>
    <nd ref='-140463896' />
    <nd ref='-140463897' />
    <tag k='type' v='straight' />
  </way>
  <way id='-36161974' action='modify'>
    <nd ref='-140463897' />
    <nd ref='-140463898' />
  </way>
  <way id='-36161975' action='modify'>
    <nd ref='-140463898' />
    <nd ref='-140463899' />
    <tag k='type' v='straight' />
  </way>
  <way id='-36161976' action='modify'>
    <nd ref='-140463899' />
    <nd ref='-140463900' />
  </way>
  <way id='-36161977' action='modify'>
    <nd ref='-140463900' />
    <nd ref='-140463901' />
    <tag k='type' v='straight' />
  </way>
  <way id='-36161978' action='modify'>
    <nd ref='-140463901' />
    <nd ref='-140463902' />
  </way>
  <way id='-36161979' action='modify'>
    <nd ref='-140463902' />
    <nd ref='-140463903' />
    <tag k='type' v='straight' />
  </way>
  <way id='-36161980' action='modify'>
    <nd ref='-140463903' />
    <nd ref='-140463904' />
  </way>
  <way id='-36161981' action='modify'>
    <nd ref='-140463904' />
    <nd ref='-140463905' />
    <nd ref='-140463906' />
    <nd ref='-140463907' />
    <tag k='type' v='straight' />
  </way>
  <way id='-36161982' action='modify'>
    <nd ref='-140463907' />
    <nd ref='-140463908' />
  </way>
  <way id='-36161983' action='modify'>
    <nd ref='-140463908' />
    <nd ref='-140463909' />
    <tag k='type' v='straight' />
  </way>
  <way id='-36161984' action='modify'>
    <nd ref='-140463909' />
    <nd ref='-140463910' />
  </way>
  <way id='-36161986' action='modify'>
    <nd ref='-140463910' />
    <nd ref='-140463912' />
    <tag k='type' v='straight' />
  </way>
  <way id='-36161987' action='modify'>
    <nd ref='-140463912' />
    <nd ref='-140463913' />
    <nd ref='-140463914' />
  </way>
  <way id='-36161988' action='modify'>
    <nd ref='-140463914' />
    <nd ref='-140463915' />
    <tag k='type' v='straight' />
  </way>
  <way id='-36161989' action='modify'>
    <nd ref='-140463915' />
    <nd ref='-140463916' />
  </way>
  <way id='-36161990' action='modify'>
    <nd ref='-140463916' />
    <nd ref='-140463917' />
    <nd ref='-140463918' />
    <tag k='type' v='straight' />
  </way>
  <way id='-36161991' action='modify'>
    <nd ref='-140463918' />
    <nd ref='-140463919' />
  </way>
  <way id='-36161992' action='modify'>
    <nd ref='-140463919' />
    <nd ref='-140463920' />
    <nd ref='-140463921' />
    <tag k='type' v='straight' />
  </way>
  <way id='-36161993' action='modify'>
    <nd ref='-140463921' />
    <nd ref='-140463922' />
  </way>
  <way id='-36161994' action='modify'>
    <nd ref='-140463922' />
    <nd ref='-140463923' />
    <tag k='type' v='straight' />
  </way>
  <relation id='-14466187' action='modify'>
    <member type='way' ref='-36161898' role='' />
    <member type='way' ref='-36161899' role='' />
    <member type='way' ref='-36161902' role='' />
    <member type='way' ref='-36161903' role='' />
    <member type='way' ref='-36161904' role='' />
    <member type='way' ref='-36161905' role='' />
    <member type='way' ref='-36161906' role='' />
    <member type='way' ref='-36161907' role='' />
    <member type='way' ref='-36161908' role='' />
    <member type='way' ref='-36161909' role='' />
    <member type='way' ref='-36161910' role='' />
    <member type='way' ref='-36161911' role='' />
    <member type='way' ref='-36161912' role='' />
    <member type='way' ref='-36161913' role='' />
    <member type='way' ref='-36161914' role='' />
    <member type='way' ref='-36161915' role='' />
    <member type='way' ref='-36161916' role='' />
    <member type='way' ref='-36161917' role='' />
    <member type='way' ref='-36161918' role='' />
    <member type='way' ref='-36161919' role='' />
    <member type='way' ref='-36161920' role='' />
    <member type='way' ref='-36161921' role='' />
    <member type='way' ref='-36161922' role='' />
    <member type='way' ref='-36161923' role='' />
    <member type='way' ref='-36161926' role='' />
    <member type='way' ref='-36161927' role='' />
    <member type='way' ref='-36161928' role='' />
    <member type='way' ref='-36161929' role='' />
    <member type='way' ref='-36161930' role='' />
    <member type='way' ref='-36161931' role='' />
    <member type='way' ref='-36161932' role='' />
    <member type='way' ref='-36161933' role='' />
    <member type='way' ref='-36161934' role='' />
    <member type='way' ref='-36161935' role='' />
    <member type='way' ref='-36161936' role='' />
    <member type='way' ref='-36161937' role='' />
    <member type='way' ref='-36161940' role='' />
    <member type='way' ref='-36161941' role='' />
    <member type='way' ref='-36161942' role='' />
    <member type='way' ref='-36161943' role='' />
    <member type='way' ref='-36161944' role='' />
    <member type='way' ref='-36161945' role='' />
    <member type='way' ref='-36161946' role='' />
    <member type='way' ref='-36161947' role='' />
    <member type='way' ref='-36161948' role='' />
    <member type='way' ref='-36161949' role='' />
    <member type='way' ref='-36161950' role='' />
    <member type='way' ref='-36161951' role='' />
    <member type='way' ref='-36161952' role='' />
    <member type='way' ref='-36161953' role='' />
    <member type='way' ref='-36161954' role='' />
    <member type='way' ref='-36161955' role='' />
    <member type='way' ref='-36161957' role='' />
    <member type='way' ref='-36161958' role='' />
    <member type='way' ref='-36161959' role='' />
    <member type='way' ref='-36161960' role='' />
    <member type='way' ref='-36161961' role='' />
    <member type='way' ref='-36161962' role='' />
    <member type='way' ref='-36161963' role='' />
    <member type='way' ref='-36161964' role='' />
    <member type='way' ref='-36161965' role='' />
    <member type='way' ref='-36161966' role='' />
    <member type='way' ref='-36161967' role='' />
    <member type='way' ref='-36161968' role='' />
    <member type='way' ref='-36161969' role='' />
    <member type='way' ref='-36161970' role='' />
    <member type='way' ref='-36161971' role='' />
    <member type='way' ref='-36161972' role='' />
    <member type='way' ref='-36161973' role='' />
    <member type='way' ref='-36161974' role='' />
    <member type='way' ref='-36161975' role='' />
    <member type='way' ref='-36161976' role='' />
    <member type='way' ref='-36161977' role='' />
    <member type='way' ref='-36161978' role='' />
    <member type='way' ref='-36161979' role='' />
    <member type='way' ref='-36161980' role='' />
    <member type='way' ref='-36161981' role='' />
    <member type='way' ref='-36161982' role='' />
    <member type='way' ref='-36161983' role='' />
    <member type='way' ref='-36161984' role='' />
    <member type='way' ref='-36161986' role='' />
    <member type='way' ref='-36161987' role='' />
    <member type='way' ref='-36161988' role='' />
    <member type='way' ref='-36161989' role='' />
    <member type='way' ref='-36161990' role='' />
    <member type='way' ref='-36161991' role='' />
    <member type='way' ref='-36161992' role='' />
    <member type='way' ref='-36161993' role='' />
    <member type='way' ref='-36161994' role='' />
    <tag k='key' v='path.dk.rkb' />
    <tag k='name' v='DK RKB' />
    <tag k='type' v='path' />
  </relation>
</osm>
