<?xml version='1.0' encoding='UTF-8'?>
<osm version='0.6' upload='false' generator='JOSM'>
  <node id='-136759186' action='modify' lat='55.63893125115' lon='12.08920248509'>
    <tag k='name' v='ros' />
  </node>
  <node id='-136759187' action='modify' lat='55.63707837707' lon='12.08361205301' />
  <node id='-136759188' action='modify' lat='55.633800542' lon='12.07664763809' />
  <node id='-136759189' action='modify' lat='55.63257637698' lon='12.07479941846' />
  <node id='-136759190' action='modify' lat='55.620623217' lon='12.070943845' />
  <node id='-136759191' action='modify' lat='55.57287705919' lon='12.09959208967'>
    <tag k='name' v='gad' />
  </node>
  <node id='-136759192' action='modify' lat='55.5435760261' lon='12.11715665054'>
    <tag k='name' v='hav' />
  </node>
  <node id='-136759193' action='modify' lat='55.520749792' lon='12.130836629' />
  <node id='-136759194' action='modify' lat='55.51337050775' lon='12.13779508799' />
  <node id='-136759195' action='modify' lat='55.51147930146' lon='12.14050205501'>
    <tag k='name' v='lil' />
  </node>
  <node id='-136759196' action='modify' lat='55.49478547475' lon='12.16439102673' />
  <node id='-136759197' action='modify' lat='55.49416514833' lon='12.16529037149' />
  <node id='-136759198' action='modify' lat='55.491788842' lon='12.168795774' />
  <node id='-136759199' action='modify' lat='55.48904231714' lon='12.17133813019'>
    <tag k='name' v='kox' />
  </node>
  <node id='-136759200' action='modify' lat='55.48888291477' lon='12.17140812554' />
  <node id='-136759201' action='modify' lat='55.48656948' lon='12.171701496' />
  <node id='-136759202' action='modify' lat='55.485868456' lon='12.171651684' />
  <node id='-136759203' action='modify' lat='55.48380856864' lon='12.17194306074' />
  <node id='-136759204' action='modify' lat='55.483657672' lon='12.172011472' />
  <node id='-136759205' action='modify' lat='55.481783885' lon='12.173413446' />
  <node id='-136759206' action='modify' lat='55.48003547264' lon='12.17564798139'>
    <tag k='name' v='olb' />
  </node>
  <node id='-136759207' action='modify' lat='55.479202614' lon='12.177086195' />
  <node id='-136759208' action='modify' lat='55.478195748' lon='12.179021954' />
  <node id='-136759209' action='modify' lat='55.473846892' lon='12.18302733' />
  <node id='-136759211' action='modify' lat='55.47001498664' lon='12.18432604998' />
  <node id='-136759212' action='modify' lat='55.46741599732' lon='12.18528559364' />
  <node id='-136759213' action='modify' lat='55.46589875333' lon='12.18582907416' />
  <node id='-136759214' action='modify' lat='55.46422649401' lon='12.18645603033' />
  <node id='-136759215' action='modify' lat='55.463620743' lon='12.1867062' />
  <node id='-136759216' action='modify' lat='55.459830383' lon='12.187126809' />
  <node id='-136759217' action='modify' lat='55.457801122' lon='12.186635752' />
  <node id='-136759218' action='modify' lat='55.45736342358' lon='12.18650668725'>
    <tag k='name' v='kog' />
  </node>
  <node id='-136759219' action='modify' lat='55.456763525' lon='12.186301843' />
  <node id='-136759220' action='modify' lat='55.455591966' lon='12.185813253' />
  <node id='-136759221' action='modify' lat='55.453528286' lon='12.185083303' />
  <node id='-136759223' action='modify' lat='55.45050736' lon='12.184290002' />
  <node id='-136759224' action='modify' lat='55.440697213' lon='12.174529795' />
  <node id='-136759225' action='modify' lat='55.426886339' lon='12.148698103' />
  <node id='-136759226' action='modify' lat='55.421318878' lon='12.140773533' />
  <node id='-136759227' action='modify' lat='55.41776861818' lon='12.13698499758'>
    <tag k='name' v='her' />
  </node>
  <node id='-136759228' action='modify' lat='55.393845639' lon='12.111465302' />
  <node id='-136759229' action='modify' lat='55.387972045' lon='12.103158933' />
  <node id='-136759230' action='modify' lat='55.37333065925' lon='12.07597858075'>
    <tag k='name' v='tur' />
  </node>
  <node id='-136759231' action='modify' lat='55.368205441' lon='12.066466473' />
  <node id='-136759232' action='modify' lat='55.366235942' lon='12.062052519' />
  <node id='-136759233' action='modify' lat='55.356844884' lon='12.036214421' />
  <node id='-136759234' action='modify' lat='55.356362157' lon='12.034884858' />
  <node id='-136759235' action='modify' lat='55.34697235544' lon='12.00904949958' />
  <node id='-136759236' action='modify' lat='55.34595369042' lon='12.00624777216' />
  <node id='-136759237' action='modify' lat='55.33820422' lon='11.984948038' />
  <node id='-136759238' action='modify' lat='55.337627766' lon='11.983363208' />
  <node id='-136759239' action='modify' lat='55.33091753276' lon='11.96494175245' />
  <node id='-136759240' action='modify' lat='55.330790764' lon='11.964593767' />
  <node id='-136759241' action='modify' lat='55.329824041' lon='11.961884352' />
  <node id='-136759242' action='modify' lat='55.329679079' lon='11.961485888' />
  <node id='-136759243' action='modify' lat='55.3295025866' lon='11.961001439'>
    <tag k='name' v='has' />
  </node>
  <node id='-136759244' action='modify' lat='55.329211807' lon='11.960203291' />
  <node id='-136759245' action='modify' lat='55.329115003' lon='11.959937833' />
  <node id='-136759246' action='modify' lat='55.328881337' lon='11.959302558' />
  <node id='-136759247' action='modify' lat='55.328783352' lon='11.959038445' />
  <node id='-136759248' action='modify' lat='55.32765146' lon='11.955983986' />
  <node id='-136759249' action='modify' lat='55.327554637' lon='11.955718556' />
  <node id='-136759250' action='modify' lat='55.324952091' lon='11.948579242' />
  <node id='-136759251' action='modify' lat='55.321143601' lon='11.94019573' />
  <node id='-136759252' action='modify' lat='55.312716009' lon='11.925394939' />
  <node id='-136759253' action='modify' lat='55.309148173' lon='11.920107652' />
  <node id='-136759254' action='modify' lat='55.30875053' lon='11.919621637' />
  <node id='-136759255' action='modify' lat='55.306682668' lon='11.917423935' />
  <node id='-136759256' action='modify' lat='55.306331575' lon='11.917091216' />
  <node id='-136759257' action='modify' lat='55.30429426355' lon='11.91530809491'>
    <tag k='name' v='bra' />
  </node>
  <node id='-136759258' action='modify' lat='55.303180883' lon='11.914479907' />
  <node id='-136759259' action='modify' lat='55.301239512' lon='11.913102738' />
  <node id='-136759260' action='modify' lat='55.300519644' lon='11.912604813' />
  <node id='-136759261' action='modify' lat='55.280195988' lon='11.898908324' />
  <node id='-136759262' action='modify' lat='55.270718923' lon='11.883639183' />
  <node id='-136759263' action='modify' lat='55.263155001' lon='11.856098439' />
  <node id='-136759264' action='modify' lat='55.26251774' lon='11.853721948' />
  <node id='-136759265' action='modify' lat='55.262007648' lon='11.851724363' />
  <node id='-136759266' action='modify' lat='55.26109464312' lon='11.8486982734'>
    <tag k='name' v='hol' />
  </node>
  <node id='-136759267' action='modify' lat='55.260609391' lon='11.847337662' />
  <node id='-136759268' action='modify' lat='55.252047335' lon='11.82533525' />
  <node id='-136759269' action='modify' lat='55.249032269' lon='11.808639518' />
  <node id='-136759270' action='modify' lat='55.248944382' lon='11.802834039' />
  <node id='-136759271' action='modify' lat='55.248848837' lon='11.799981483' />
  <node id='-136759272' action='modify' lat='55.24818518065' lon='11.78672294237'>
    <tag k='name' v='nan' />
  </node>
  <node id='-136759273' action='modify' lat='55.24763765' lon='11.77578453' />
  <node id='-136759274' action='modify' lat='55.23780119685' lon='11.76217551404' />
  <node id='-136759275' action='modify' lat='55.23769744223' lon='11.76222134558' />
  <node id='-136759276' action='modify' lat='55.23398592057' lon='11.7648819422' />
  <node id='-136759277' action='modify' lat='55.23134397751' lon='11.76764978557'>
    <tag k='name' v='nas' />
  </node>
  <node id='-136759290' action='modify' lat='55.63845163384' lon='12.08780765412' />
  <node id='-136759299' action='modify' lat='55.63789505656' lon='12.08616792619' />
  <node id='-136759300' action='modify' lat='55.63601784824' lon='12.08099026485' />
  <node id='-136759319' action='modify' lat='55.63509424824' lon='12.07897960871' />
  <way id='-35950073' action='modify'>
    <nd ref='-136759186' />
    <nd ref='-136759290' />
    <tag k='type' v='straight' />
  </way>
  <way id='-35950074' action='modify'>
    <nd ref='-136759187' />
    <nd ref='-136759300' />
    <tag k='type' v='arc' />
  </way>
  <way id='-35950075' action='modify'>
    <nd ref='-136759188' />
    <nd ref='-136759189' />
    <tag k='type' v='straight' />
  </way>
  <way id='-35950076' action='modify'>
    <nd ref='-136759189' />
    <nd ref='-136759190' />
  </way>
  <way id='-35950077' action='modify'>
    <nd ref='-136759190' />
    <nd ref='-136759191' />
    <nd ref='-136759192' />
    <nd ref='-136759193' />
    <tag k='type' v='straight' />
  </way>
  <way id='-35950078' action='modify'>
    <nd ref='-136759193' />
    <nd ref='-136759194' />
  </way>
  <way id='-35950079' action='modify'>
    <nd ref='-136759194' />
    <nd ref='-136759195' />
    <nd ref='-136759196' />
    <tag k='type' v='straight' />
  </way>
  <way id='-35950080' action='modify'>
    <nd ref='-136759196' />
    <nd ref='-136759197' />
  </way>
  <way id='-35950081' action='modify'>
    <nd ref='-136759197' />
    <nd ref='-136759198' />
    <tag k='type' v='straight' />
  </way>
  <way id='-35950082' action='modify'>
    <nd ref='-136759198' />
    <nd ref='-136759199' />
  </way>
  <way id='-35950083' action='modify'>
    <nd ref='-136759199' />
    <nd ref='-136759200' />
    <tag k='type' v='straight' />
  </way>
  <way id='-35950084' action='modify'>
    <nd ref='-136759200' />
    <nd ref='-136759201' />
  </way>
  <way id='-35950085' action='modify'>
    <nd ref='-136759201' />
    <nd ref='-136759202' />
    <tag k='type' v='straight' />
  </way>
  <way id='-35950086' action='modify'>
    <nd ref='-136759202' />
    <nd ref='-136759203' />
  </way>
  <way id='-35950087' action='modify'>
    <nd ref='-136759203' />
    <nd ref='-136759204' />
    <tag k='type' v='straight' />
  </way>
  <way id='-35950088' action='modify'>
    <nd ref='-136759204' />
    <nd ref='-136759205' />
    <nd ref='-136759206' />
    <nd ref='-136759207' />
  </way>
  <way id='-35950089' action='modify'>
    <nd ref='-136759207' />
    <nd ref='-136759208' />
    <tag k='type' v='straight' />
  </way>
  <way id='-35950090' action='modify'>
    <nd ref='-136759208' />
    <nd ref='-136759209' />
  </way>
  <way id='-35950091' action='modify'>
    <nd ref='-136759209' />
    <nd ref='-136759211' />
    <tag k='type' v='straight' />
  </way>
  <way id='-35950092' action='modify'>
    <nd ref='-136759211' />
    <nd ref='-136759212' />
  </way>
  <way id='-35950093' action='modify'>
    <nd ref='-136759212' />
    <nd ref='-136759213' />
    <tag k='type' v='straight' />
  </way>
  <way id='-35950094' action='modify'>
    <nd ref='-136759213' />
    <nd ref='-136759214' />
  </way>
  <way id='-35950095' action='modify'>
    <nd ref='-136759214' />
    <nd ref='-136759215' />
    <tag k='type' v='straight' />
  </way>
  <way id='-35950096' action='modify'>
    <nd ref='-136759215' />
    <nd ref='-136759216' />
  </way>
  <way id='-35950097' action='modify'>
    <nd ref='-136759216' />
    <nd ref='-136759217' />
    <tag k='type' v='straight' />
  </way>
  <way id='-35950098' action='modify'>
    <nd ref='-136759217' />
    <nd ref='-136759218' />
    <nd ref='-136759219' />
  </way>
  <way id='-35950099' action='modify'>
    <nd ref='-136759219' />
    <nd ref='-136759220' />
    <tag k='type' v='straight' />
  </way>
  <way id='-35950100' action='modify'>
    <nd ref='-136759220' />
    <nd ref='-136759221' />
  </way>
  <way id='-35950101' action='modify'>
    <nd ref='-136759221' />
    <nd ref='-136759223' />
    <tag k='type' v='straight' />
  </way>
  <way id='-35950102' action='modify'>
    <nd ref='-136759223' />
    <nd ref='-136759224' />
  </way>
  <way id='-35950103' action='modify'>
    <nd ref='-136759224' />
    <nd ref='-136759225' />
    <tag k='type' v='straight' />
  </way>
  <way id='-35950104' action='modify'>
    <nd ref='-136759225' />
    <nd ref='-136759226' />
  </way>
  <way id='-35950105' action='modify'>
    <nd ref='-136759226' />
    <nd ref='-136759227' />
    <nd ref='-136759228' />
    <tag k='type' v='straight' />
  </way>
  <way id='-35950106' action='modify'>
    <nd ref='-136759228' />
    <nd ref='-136759229' />
  </way>
  <way id='-35950107' action='modify'>
    <nd ref='-136759229' />
    <nd ref='-136759230' />
    <nd ref='-136759231' />
    <tag k='type' v='straight' />
  </way>
  <way id='-35950108' action='modify'>
    <nd ref='-136759231' />
    <nd ref='-136759232' />
  </way>
  <way id='-35950109' action='modify'>
    <nd ref='-136759232' />
    <nd ref='-136759233' />
    <tag k='type' v='straight' />
  </way>
  <way id='-35950110' action='modify'>
    <nd ref='-136759233' />
    <nd ref='-136759234' />
  </way>
  <way id='-35950111' action='modify'>
    <nd ref='-136759234' />
    <nd ref='-136759235' />
    <tag k='type' v='straight' />
  </way>
  <way id='-35950112' action='modify'>
    <nd ref='-136759235' />
    <nd ref='-136759236' />
  </way>
  <way id='-35950113' action='modify'>
    <nd ref='-136759236' />
    <nd ref='-136759237' />
    <tag k='type' v='straight' />
  </way>
  <way id='-35950114' action='modify'>
    <nd ref='-136759237' />
    <nd ref='-136759238' />
  </way>
  <way id='-35950115' action='modify'>
    <nd ref='-136759238' />
    <nd ref='-136759239' />
    <tag k='type' v='straight' />
  </way>
  <way id='-35950116' action='modify'>
    <nd ref='-136759239' />
    <nd ref='-136759240' />
  </way>
  <way id='-35950117' action='modify'>
    <nd ref='-136759240' />
    <nd ref='-136759241' />
    <tag k='type' v='straight' />
  </way>
  <way id='-35950118' action='modify'>
    <nd ref='-136759241' />
    <nd ref='-136759242' />
  </way>
  <way id='-35950119' action='modify'>
    <nd ref='-136759242' />
    <nd ref='-136759243' />
    <nd ref='-136759244' />
    <tag k='type' v='straight' />
  </way>
  <way id='-35950120' action='modify'>
    <nd ref='-136759244' />
    <nd ref='-136759245' />
  </way>
  <way id='-35950121' action='modify'>
    <nd ref='-136759245' />
    <nd ref='-136759246' />
    <tag k='type' v='straight' />
  </way>
  <way id='-35950122' action='modify'>
    <nd ref='-136759246' />
    <nd ref='-136759247' />
  </way>
  <way id='-35950123' action='modify'>
    <nd ref='-136759247' />
    <nd ref='-136759248' />
    <tag k='type' v='straight' />
  </way>
  <way id='-35950124' action='modify'>
    <nd ref='-136759248' />
    <nd ref='-136759249' />
  </way>
  <way id='-35950125' action='modify'>
    <nd ref='-136759249' />
    <nd ref='-136759250' />
    <tag k='type' v='straight' />
  </way>
  <way id='-35950126' action='modify'>
    <nd ref='-136759250' />
    <nd ref='-136759251' />
  </way>
  <way id='-35950127' action='modify'>
    <nd ref='-136759251' />
    <nd ref='-136759252' />
    <tag k='type' v='straight' />
  </way>
  <way id='-35950128' action='modify'>
    <nd ref='-136759252' />
    <nd ref='-136759253' />
  </way>
  <way id='-35950129' action='modify'>
    <nd ref='-136759253' />
    <nd ref='-136759254' />
    <tag k='type' v='straight' />
  </way>
  <way id='-35950130' action='modify'>
    <nd ref='-136759254' />
    <nd ref='-136759255' />
  </way>
  <way id='-35950131' action='modify'>
    <nd ref='-136759255' />
    <nd ref='-136759256' />
    <tag k='type' v='straight' />
  </way>
  <way id='-35950132' action='modify'>
    <nd ref='-136759256' />
    <nd ref='-136759257' />
    <nd ref='-136759258' />
  </way>
  <way id='-35950133' action='modify'>
    <nd ref='-136759258' />
    <nd ref='-136759259' />
    <tag k='type' v='straight' />
  </way>
  <way id='-35950134' action='modify'>
    <nd ref='-136759259' />
    <nd ref='-136759260' />
  </way>
  <way id='-35950135' action='modify'>
    <nd ref='-136759260' />
    <nd ref='-136759261' />
    <tag k='type' v='straight' />
  </way>
  <way id='-35950136' action='modify'>
    <nd ref='-136759261' />
    <nd ref='-136759262' />
  </way>
  <way id='-35950137' action='modify'>
    <nd ref='-136759262' />
    <nd ref='-136759263' />
    <tag k='type' v='straight' />
  </way>
  <way id='-35950138' action='modify'>
    <nd ref='-136759263' />
    <nd ref='-136759264' />
  </way>
  <way id='-35950139' action='modify'>
    <nd ref='-136759264' />
    <nd ref='-136759265' />
    <tag k='type' v='straight' />
  </way>
  <way id='-35950140' action='modify'>
    <nd ref='-136759265' />
    <nd ref='-136759266' />
    <nd ref='-136759267' />
  </way>
  <way id='-35950141' action='modify'>
    <nd ref='-136759267' />
    <nd ref='-136759268' />
    <tag k='type' v='straight' />
  </way>
  <way id='-35950142' action='modify'>
    <nd ref='-136759268' />
    <nd ref='-136759269' />
  </way>
  <way id='-35950143' action='modify'>
    <nd ref='-136759269' />
    <nd ref='-136759270' />
    <tag k='type' v='straight' />
  </way>
  <way id='-35950144' action='modify'>
    <nd ref='-136759270' />
    <nd ref='-136759271' />
  </way>
  <way id='-35950145' action='modify'>
    <nd ref='-136759271' />
    <nd ref='-136759272' />
    <nd ref='-136759273' />
    <tag k='type' v='straight' />
  </way>
  <way id='-35950146' action='modify'>
    <nd ref='-136759273' />
    <nd ref='-136759274' />
  </way>
  <way id='-35950147' action='modify'>
    <nd ref='-136759274' />
    <nd ref='-136759275' />
    <tag k='type' v='straight' />
  </way>
  <way id='-35950148' action='modify'>
    <nd ref='-136759275' />
    <nd ref='-136759276' />
    <tag k='type' v='arc' />
  </way>
  <way id='-35950149' action='modify'>
    <nd ref='-136759276' />
    <nd ref='-136759277' />
    <tag k='type' v='straight' />
  </way>
  <way id='-35950166' action='modify'>
    <nd ref='-136759290' />
    <nd ref='-136759299' />
  </way>
  <way id='-35950167' action='modify'>
    <nd ref='-136759299' />
    <nd ref='-136759187' />
    <tag k='type' v='straight' />
  </way>
  <way id='-35950172' action='modify'>
    <nd ref='-136759300' />
    <nd ref='-136759319' />
    <tag k='type' v='straight' />
  </way>
  <way id='-35950194' action='modify'>
    <nd ref='-136759319' />
    <nd ref='-136759188' />
    <tag k='type' v='arc' />
  </way>
  <relation id='-14406953' action='modify'>
    <member type='way' ref='-35950073' role='' />
    <member type='way' ref='-35950166' role='' />
    <member type='way' ref='-35950167' role='' />
    <member type='way' ref='-35950074' role='' />
    <member type='way' ref='-35950172' role='' />
    <member type='way' ref='-35950194' role='' />
    <member type='way' ref='-35950075' role='' />
    <member type='way' ref='-35950076' role='' />
    <member type='way' ref='-35950077' role='' />
    <member type='way' ref='-35950078' role='' />
    <member type='way' ref='-35950079' role='' />
    <member type='way' ref='-35950080' role='' />
    <member type='way' ref='-35950081' role='' />
    <member type='way' ref='-35950082' role='' />
    <member type='way' ref='-35950083' role='' />
    <member type='way' ref='-35950084' role='' />
    <member type='way' ref='-35950085' role='' />
    <member type='way' ref='-35950086' role='' />
    <member type='way' ref='-35950087' role='' />
    <member type='way' ref='-35950088' role='' />
    <member type='way' ref='-35950089' role='' />
    <member type='way' ref='-35950090' role='' />
    <member type='way' ref='-35950091' role='' />
    <member type='way' ref='-35950092' role='' />
    <member type='way' ref='-35950093' role='' />
    <member type='way' ref='-35950094' role='' />
    <member type='way' ref='-35950095' role='' />
    <member type='way' ref='-35950096' role='' />
    <member type='way' ref='-35950097' role='' />
    <member type='way' ref='-35950098' role='' />
    <member type='way' ref='-35950099' role='' />
    <member type='way' ref='-35950100' role='' />
    <member type='way' ref='-35950101' role='' />
    <member type='way' ref='-35950102' role='' />
    <member type='way' ref='-35950103' role='' />
    <member type='way' ref='-35950104' role='' />
    <member type='way' ref='-35950105' role='' />
    <member type='way' ref='-35950106' role='' />
    <member type='way' ref='-35950107' role='' />
    <member type='way' ref='-35950108' role='' />
    <member type='way' ref='-35950109' role='' />
    <member type='way' ref='-35950110' role='' />
    <member type='way' ref='-35950111' role='' />
    <member type='way' ref='-35950112' role='' />
    <member type='way' ref='-35950113' role='' />
    <member type='way' ref='-35950114' role='' />
    <member type='way' ref='-35950115' role='' />
    <member type='way' ref='-35950116' role='' />
    <member type='way' ref='-35950117' role='' />
    <member type='way' ref='-35950118' role='' />
    <member type='way' ref='-35950119' role='' />
    <member type='way' ref='-35950120' role='' />
    <member type='way' ref='-35950121' role='' />
    <member type='way' ref='-35950122' role='' />
    <member type='way' ref='-35950123' role='' />
    <member type='way' ref='-35950124' role='' />
    <member type='way' ref='-35950125' role='' />
    <member type='way' ref='-35950126' role='' />
    <member type='way' ref='-35950127' role='' />
    <member type='way' ref='-35950128' role='' />
    <member type='way' ref='-35950129' role='' />
    <member type='way' ref='-35950130' role='' />
    <member type='way' ref='-35950131' role='' />
    <member type='way' ref='-35950132' role='' />
    <member type='way' ref='-35950133' role='' />
    <member type='way' ref='-35950134' role='' />
    <member type='way' ref='-35950135' role='' />
    <member type='way' ref='-35950136' role='' />
    <member type='way' ref='-35950137' role='' />
    <member type='way' ref='-35950138' role='' />
    <member type='way' ref='-35950139' role='' />
    <member type='way' ref='-35950140' role='' />
    <member type='way' ref='-35950141' role='' />
    <member type='way' ref='-35950142' role='' />
    <member type='way' ref='-35950143' role='' />
    <member type='way' ref='-35950144' role='' />
    <member type='way' ref='-35950145' role='' />
    <member type='way' ref='-35950146' role='' />
    <member type='way' ref='-35950147' role='' />
    <member type='way' ref='-35950148' role='' />
    <member type='way' ref='-35950149' role='' />
    <tag k='key' v='path.dk.rkn' />
    <tag k='name' v='DK RKN' />
    <tag k='type' v='path' />
  </relation>
</osm>
