<?xml version='1.0' encoding='UTF-8'?>
<osm version='0.6' upload='false' generator='JOSM'>
  <node id='-167783542' action='modify' lat='55.87366690904' lon='9.61491867632'>
    <tag k='name' v='ras' />
  </node>
  <node id='-167783543' action='modify' lat='55.87344344982' lon='9.61417034' />
  <node id='-167783544' action='modify' lat='55.87336520116' lon='9.61393698781' />
  <node id='-167783545' action='modify' lat='55.87308381018' lon='9.60635303378' />
  <node id='-167783546' action='modify' lat='55.87632241716' lon='9.59606045926'>
    <tag k='name' v='rsk' />
  </node>
  <node id='-167783547' action='modify' lat='55.884395202' lon='9.57040070951' />
  <node id='-167783548' action='modify' lat='55.88508419386' lon='9.56670998454' />
  <node id='-167783549' action='modify' lat='55.88552888927' lon='9.560267158'>
    <tag k='name' v='ale' />
  </node>
  <node id='-167783550' action='modify' lat='55.88613720996' lon='9.55145357966' />
  <node id='-167783551' action='modify' lat='55.88624852262' lon='9.54750537604' />
  <node id='-167783552' action='modify' lat='55.88619436836' lon='9.54435109824' />
  <node id='-167783553' action='modify' lat='55.88631471106' lon='9.54204171628' />
  <node id='-167783554' action='modify' lat='55.88713858046' lon='9.53517350809'>
    <tag k='name' v='ave' />
  </node>
  <node id='-167783555' action='modify' lat='55.88867335416' lon='9.52237843931' />
  <node id='-167783556' action='modify' lat='55.88917575037' lon='9.51929926336' />
  <node id='-167783557' action='modify' lat='55.89019627939' lon='9.51457350559'>
    <tag k='name' v='hjo' />
  </node>
  <node id='-167783558' action='modify' lat='55.8906979411' lon='9.51225041807' />
  <node id='-167783559' action='modify' lat='55.89605521654' lon='9.50612961709' />
  <node id='-167783560' action='modify' lat='55.90229400851' lon='9.5057204465'>
    <tag k='name' v='lin' />
  </node>
  <node id='-167783561' action='modify' lat='55.90856868911' lon='9.50530885577' />
  <node id='-167783562' action='modify' lat='55.90983154033' lon='9.50505136371' />
  <node id='-167783563' action='modify' lat='55.9193622866' lon='9.50027918271'>
    <tag k='name' v='fla' />
  </node>
  <node id='-167783564' action='modify' lat='55.92667164403' lon='9.49661848783' />
  <node id='-167783565' action='modify' lat='55.93023291041' lon='9.49179589212' />
  <node id='-167783566' action='modify' lat='55.93129293795' lon='9.48821770893'>
    <tag k='name' v='klo' />
  </node>
  <node id='-167783567' action='modify' lat='55.93489062472' lon='9.47607278287' />
  <node id='-167783568' action='modify' lat='55.93653571354' lon='9.4726811336'>
    <tag k='name' v='gsk' />
  </node>
  <node id='-167783569' action='modify' lat='55.93750771694' lon='9.4716954124' />
  <node id='-167783570' action='modify' lat='55.94010660002' lon='9.46957110822' />
  <node id='-167783571' action='modify' lat='55.94085402787' lon='9.46880793667'>
    <tag k='name' v='gri' />
  </node>
  <node id='-167783572' action='modify' lat='55.9423958789' lon='9.46607350767' />
  <node id='-167783573' action='modify' lat='55.94396104288' lon='9.46208774507' />
  <node id='-167783574' action='modify' lat='55.94447473934' lon='9.46057497919' />
  <node id='-167783575' action='modify' lat='55.94807516048' lon='9.44762811078'>
    <tag k='name' v='kro' />
  </node>
  <node id='-167783576' action='modify' lat='55.95131436688' lon='9.43597911716' />
  <node id='-167783577' action='modify' lat='55.95175588215' lon='9.43445025802'>
    <tag k='name' v='ler' />
  </node>
  <node id='-167783578' action='modify' lat='55.95646169963' lon='9.42000102743'>
    <tag k='name' v='kja' />
  </node>
  <node id='-167783579' action='modify' lat='55.95978337361' lon='9.40980075717' />
  <node id='-167783580' action='modify' lat='55.9627681037' lon='9.40597056806' />
  <node id='-167783581' action='modify' lat='55.96395712842' lon='9.40538048208' />
  <node id='-167783582' action='modify' lat='55.96682895135' lon='9.40143763751' />
  <node id='-167783583' action='modify' lat='55.96726128283' lon='9.39995169371' />
  <node id='-167783584' action='modify' lat='55.96769811436' lon='9.39762889802'>
    <tag k='name' v='nor' />
  </node>
  <node id='-167783585' action='modify' lat='55.96798032495' lon='9.39584791124' />
  <node id='-167783586' action='modify' lat='55.96893802278' lon='9.39210086793' />
  <node id='-167783587' action='modify' lat='55.96961049967' lon='9.39044862717' />
  <node id='-167783588' action='modify' lat='55.97013886617' lon='9.38890099257' />
  <node id='-167783589' action='modify' lat='55.9724954145' lon='9.37949716508' />
  <node id='-167783590' action='modify' lat='55.97286464387' lon='9.37801122129' />
  <node id='-167783591' action='modify' lat='55.97637965099' lon='9.36386525095' />
  <node id='-167783592' action='modify' lat='55.97700397411' lon='9.36075925291' />
  <node id='-167783593' action='modify' lat='55.97716829648' lon='9.35982936291'>
    <tag k='name' v='bjo' />
  </node>
  <node id='-167783594' action='modify' lat='55.97985532475' lon='9.34462307811' />
  <node id='-167783595' action='modify' lat='55.97949816446' lon='9.33486520708' />
  <node id='-167783596' action='modify' lat='55.97927606498' lon='9.33393716276' />
  <node id='-167783597' action='modify' lat='55.97866806125' lon='9.33024693264'>
    <tag k='name' v='tho' />
  </node>
  <node id='-167783598' action='modify' lat='55.97915300932' lon='9.32411491334' />
  <node id='-167783599' action='modify' lat='55.98125527366' lon='9.31431165083'>
    <tag k='name' v='hol' />
  </node>
  <node id='-167783600' action='modify' lat='55.98287151711' lon='9.30677443475' />
  <node id='-167783601' action='modify' lat='55.98286924387' lon='9.29967062709' />
  <node id='-167783602' action='modify' lat='55.98277455304' lon='9.299314169' />
  <node id='-167783603' action='modify' lat='55.98192616879' lon='9.29382204473' />
  <node id='-167783604' action='modify' lat='55.98159717523' lon='9.2892753452'>
    <tag k='name' v='ejs' />
  </node>
  <node id='-167783606' action='modify' lat='55.8737058431' lon='9.61505366842' />
  <way id='-37818937' action='modify'>
    <nd ref='-167783606' />
    <nd ref='-167783542' />
    <tag k='type' v='straight' />
  </way>
  <way id='-37818938' action='modify'>
    <nd ref='-167783543' />
    <nd ref='-167783544' />
    <tag k='type' v='straight' />
  </way>
  <way id='-37818939' action='modify'>
    <nd ref='-167783544' />
    <nd ref='-167783545' />
  </way>
  <way id='-37818940' action='modify'>
    <nd ref='-167783545' />
    <nd ref='-167783546' />
    <nd ref='-167783547' />
    <tag k='type' v='straight' />
  </way>
  <way id='-37818941' action='modify'>
    <nd ref='-167783547' />
    <nd ref='-167783548' />
  </way>
  <way id='-37818942' action='modify'>
    <nd ref='-167783548' />
    <nd ref='-167783549' />
    <nd ref='-167783550' />
    <tag k='type' v='straight' />
  </way>
  <way id='-37818943' action='modify'>
    <nd ref='-167783550' />
    <nd ref='-167783551' />
  </way>
  <way id='-37818944' action='modify'>
    <nd ref='-167783551' />
    <nd ref='-167783552' />
    <tag k='type' v='straight' />
  </way>
  <way id='-37818945' action='modify'>
    <nd ref='-167783552' />
    <nd ref='-167783553' />
  </way>
  <way id='-37818946' action='modify'>
    <nd ref='-167783553' />
    <nd ref='-167783554' />
    <nd ref='-167783555' />
    <tag k='type' v='straight' />
  </way>
  <way id='-37818947' action='modify'>
    <nd ref='-167783555' />
    <nd ref='-167783556' />
  </way>
  <way id='-37818948' action='modify'>
    <nd ref='-167783556' />
    <nd ref='-167783557' />
    <nd ref='-167783558' />
    <tag k='type' v='straight' />
  </way>
  <way id='-37818949' action='modify'>
    <nd ref='-167783558' />
    <nd ref='-167783559' />
  </way>
  <way id='-37818950' action='modify'>
    <nd ref='-167783559' />
    <nd ref='-167783560' />
    <nd ref='-167783561' />
    <tag k='type' v='straight' />
  </way>
  <way id='-37818951' action='modify'>
    <nd ref='-167783561' />
    <nd ref='-167783562' />
  </way>
  <way id='-37818952' action='modify'>
    <nd ref='-167783562' />
    <nd ref='-167783563' />
    <nd ref='-167783564' />
    <tag k='type' v='straight' />
  </way>
  <way id='-37818953' action='modify'>
    <nd ref='-167783564' />
    <nd ref='-167783565' />
  </way>
  <way id='-37818954' action='modify'>
    <nd ref='-167783565' />
    <nd ref='-167783566' />
    <nd ref='-167783567' />
    <tag k='type' v='straight' />
  </way>
  <way id='-37818955' action='modify'>
    <nd ref='-167783567' />
    <nd ref='-167783568' />
    <nd ref='-167783569' />
  </way>
  <way id='-37818956' action='modify'>
    <nd ref='-167783569' />
    <nd ref='-167783570' />
    <tag k='type' v='straight' />
  </way>
  <way id='-37818957' action='modify'>
    <nd ref='-167783570' />
    <nd ref='-167783571' />
    <nd ref='-167783572' />
  </way>
  <way id='-37818958' action='modify'>
    <nd ref='-167783572' />
    <nd ref='-167783573' />
    <tag k='type' v='straight' />
  </way>
  <way id='-37818959' action='modify'>
    <nd ref='-167783573' />
    <nd ref='-167783574' />
  </way>
  <way id='-37818960' action='modify'>
    <nd ref='-167783574' />
    <nd ref='-167783575' />
    <nd ref='-167783576' />
    <tag k='type' v='straight' />
  </way>
  <way id='-37818961' action='modify'>
    <nd ref='-167783576' />
    <nd ref='-167783577' />
  </way>
  <way id='-37818962' action='modify'>
    <nd ref='-167783577' />
    <nd ref='-167783578' />
    <nd ref='-167783579' />
    <tag k='type' v='straight' />
  </way>
  <way id='-37818963' action='modify'>
    <nd ref='-167783579' />
    <nd ref='-167783580' />
  </way>
  <way id='-37818964' action='modify'>
    <nd ref='-167783580' />
    <nd ref='-167783581' />
    <tag k='type' v='straight' />
  </way>
  <way id='-37818965' action='modify'>
    <nd ref='-167783581' />
    <nd ref='-167783582' />
  </way>
  <way id='-37818966' action='modify'>
    <nd ref='-167783582' />
    <nd ref='-167783583' />
    <tag k='type' v='straight' />
  </way>
  <way id='-37818967' action='modify'>
    <nd ref='-167783583' />
    <nd ref='-167783584' />
  </way>
  <way id='-37818968' action='modify'>
    <nd ref='-167783584' />
    <nd ref='-167783585' />
    <tag k='type' v='straight' />
  </way>
  <way id='-37818969' action='modify'>
    <nd ref='-167783585' />
    <nd ref='-167783586' />
  </way>
  <way id='-37818970' action='modify'>
    <nd ref='-167783586' />
    <nd ref='-167783587' />
    <tag k='type' v='straight' />
  </way>
  <way id='-37818971' action='modify'>
    <nd ref='-167783587' />
    <nd ref='-167783588' />
  </way>
  <way id='-37818972' action='modify'>
    <nd ref='-167783588' />
    <nd ref='-167783589' />
    <tag k='type' v='straight' />
  </way>
  <way id='-37818973' action='modify'>
    <nd ref='-167783589' />
    <nd ref='-167783590' />
  </way>
  <way id='-37818974' action='modify'>
    <nd ref='-167783590' />
    <nd ref='-167783591' />
    <tag k='type' v='straight' />
  </way>
  <way id='-37818975' action='modify'>
    <nd ref='-167783591' />
    <nd ref='-167783592' />
  </way>
  <way id='-37818976' action='modify'>
    <nd ref='-167783592' />
    <nd ref='-167783593' />
    <nd ref='-167783594' />
    <tag k='type' v='straight' />
  </way>
  <way id='-37818977' action='modify'>
    <nd ref='-167783594' />
    <nd ref='-167783595' />
  </way>
  <way id='-37818978' action='modify'>
    <nd ref='-167783595' />
    <nd ref='-167783596' />
    <tag k='type' v='straight' />
  </way>
  <way id='-37818979' action='modify'>
    <nd ref='-167783596' />
    <nd ref='-167783597' />
    <nd ref='-167783598' />
  </way>
  <way id='-37818980' action='modify'>
    <nd ref='-167783598' />
    <nd ref='-167783599' />
    <nd ref='-167783600' />
    <tag k='type' v='straight' />
  </way>
  <way id='-37818981' action='modify'>
    <nd ref='-167783600' />
    <nd ref='-167783601' />
  </way>
  <way id='-37818982' action='modify'>
    <nd ref='-167783601' />
    <nd ref='-167783602' />
    <tag k='type' v='straight' />
  </way>
  <way id='-37818983' action='modify'>
    <nd ref='-167783602' />
    <nd ref='-167783603' />
  </way>
  <way id='-37818984' action='modify'>
    <nd ref='-167783603' />
    <nd ref='-167783604' />
    <tag k='type' v='straight' />
  </way>
  <way id='-37818993' action='modify'>
    <nd ref='-167783542' />
    <nd ref='-167783543' />
  </way>
  <relation id='-14481511' action='modify'>
    <member type='way' ref='-37818937' role='' />
    <member type='way' ref='-37818993' role='' />
    <member type='way' ref='-37818938' role='' />
    <member type='way' ref='-37818939' role='' />
    <member type='way' ref='-37818940' role='' />
    <member type='way' ref='-37818941' role='' />
    <member type='way' ref='-37818942' role='' />
    <member type='way' ref='-37818943' role='' />
    <member type='way' ref='-37818944' role='' />
    <member type='way' ref='-37818945' role='' />
    <member type='way' ref='-37818946' role='' />
    <member type='way' ref='-37818947' role='' />
    <member type='way' ref='-37818948' role='' />
    <member type='way' ref='-37818949' role='' />
    <member type='way' ref='-37818950' role='' />
    <member type='way' ref='-37818951' role='' />
    <member type='way' ref='-37818952' role='' />
    <member type='way' ref='-37818953' role='' />
    <member type='way' ref='-37818954' role='' />
    <member type='way' ref='-37818955' role='' />
    <member type='way' ref='-37818956' role='' />
    <member type='way' ref='-37818957' role='' />
    <member type='way' ref='-37818958' role='' />
    <member type='way' ref='-37818959' role='' />
    <member type='way' ref='-37818960' role='' />
    <member type='way' ref='-37818961' role='' />
    <member type='way' ref='-37818962' role='' />
    <member type='way' ref='-37818963' role='' />
    <member type='way' ref='-37818964' role='' />
    <member type='way' ref='-37818965' role='' />
    <member type='way' ref='-37818966' role='' />
    <member type='way' ref='-37818967' role='' />
    <member type='way' ref='-37818968' role='' />
    <member type='way' ref='-37818969' role='' />
    <member type='way' ref='-37818970' role='' />
    <member type='way' ref='-37818971' role='' />
    <member type='way' ref='-37818972' role='' />
    <member type='way' ref='-37818973' role='' />
    <member type='way' ref='-37818974' role='' />
    <member type='way' ref='-37818975' role='' />
    <member type='way' ref='-37818976' role='' />
    <member type='way' ref='-37818977' role='' />
    <member type='way' ref='-37818978' role='' />
    <member type='way' ref='-37818979' role='' />
    <member type='way' ref='-37818980' role='' />
    <member type='way' ref='-37818981' role='' />
    <member type='way' ref='-37818982' role='' />
    <member type='way' ref='-37818983' role='' />
    <member type='way' ref='-37818984' role='' />
    <tag k='key' v='path.dk.rme' />
    <tag k='name' v='DK RME' />
    <tag k='type' v='path' />
  </relation>
</osm>
