<?xml version='1.0' encoding='UTF-8'?>
<osm version='0.6' upload='false' generator='JOSM'>
  <node id='-161694317' action='modify' lat='56.09051879636' lon='8.25330130689' />
  <node id='-161694318' action='modify' lat='56.09307381606' lon='8.25032143859'>
    <tag k='name' v='rin' />
  </node>
  <node id='-161694320' action='modify' lat='56.08967668869' lon='8.25428376972' />
  <node id='-161694321' action='modify' lat='56.08957431363' lon='8.25440844066'>
    <tag k='name' v='rin.yh' />
  </node>
  <node id='-161694322' action='modify' lat='56.08835912071' lon='8.25872539937' />
  <node id='-161694323' action='modify' lat='56.0884698572' lon='8.26235174596' />
  <node id='-161694324' action='modify' lat='56.09111546535' lon='8.27298402518' />
  <node id='-161694325' action='modify' lat='56.09872206825' lon='8.28652373624'>
    <tag k='name' v='rik' />
  </node>
  <node id='-161694326' action='modify' lat='56.10230714103' lon='8.29290607342'>
    <tag k='name' v='nob' />
  </node>
  <node id='-161694327' action='modify' lat='56.10320483155' lon='8.29450428285' />
  <node id='-161694328' action='modify' lat='56.10465491041' lon='8.29698442876' />
  <node id='-161694329' action='modify' lat='56.10735624801' lon='8.30124377131' />
  <node id='-161694330' action='modify' lat='56.11047914643' lon='8.3116346544' />
  <node id='-161694331' action='modify' lat='56.11135246288' lon='8.32015211966'>
    <tag k='name' v='noo' />
  </node>
  <node id='-161694332' action='modify' lat='56.11248616482' lon='8.33120941579' />
  <node id='-161694333' action='modify' lat='56.11301706499' lon='8.34466337621'>
    <tag k='name' v='sta' />
  </node>
  <node id='-161694334' action='modify' lat='56.11244728469' lon='8.36115359187' />
  <node id='-161694335' action='modify' lat='56.10996613858' lon='8.38829235494'>
    <tag k='name' v='fly' />
  </node>
  <node id='-161694336' action='modify' lat='56.10833143409' lon='8.40617178798' />
  <node id='-161694337' action='modify' lat='56.10805173919' lon='8.41028362244' />
  <node id='-161694338' action='modify' lat='56.10789973001' lon='8.4125663778'>
    <tag k='name' v='ler' />
  </node>
  <node id='-161694339' action='modify' lat='56.10765987006' lon='8.41616838902' />
  <node id='-161694340' action='modify' lat='56.10793806764' lon='8.41995566815' />
  <node id='-161694341' action='modify' lat='56.10881303229' lon='8.42418550909' />
  <node id='-161694342' action='modify' lat='56.10934248751' lon='8.42928707063'>
    <tag k='name' v='hjo' />
  </node>
  <node id='-161694343' action='modify' lat='56.10923480229' lon='8.4354668802' />
  <node id='-161694344' action='modify' lat='56.10840023164' lon='8.4448975271' />
  <node id='-161694345' action='modify' lat='56.10857073978' lon='8.45394729495'>
    <tag k='name' v='mos' />
  </node>
  <node id='-161694346' action='modify' lat='56.10939633299' lon='8.46028803706' />
  <node id='-161694347' action='modify' lat='56.11152417017' lon='8.47240776594'>
    <tag k='name' v='ves' />
  </node>
  <node id='-161694348' action='modify' lat='56.11337448679' lon='8.48294733882' />
  <node id='-161694349' action='modify' lat='56.11554584388' lon='8.49114417493'>
    <tag k='name' v='bak' />
  </node>
  <node id='-161694350' action='modify' lat='56.11879966674' lon='8.49795698047' />
  <node id='-161694351' action='modify' lat='56.12070158842' lon='8.50089668155' />
  <node id='-161694352' action='modify' lat='56.12448421621' lon='8.50442647398'>
    <tag k='name' v='spj' />
  </node>
  <node id='-161694353' action='modify' lat='56.12546494829' lon='8.50479661882' />
  <node id='-161694354' action='modify' lat='56.1266728888' lon='8.50508495629' />
  <node id='-161694355' action='modify' lat='56.1269913101' lon='8.50509837136' />
  <node id='-161694356' action='modify' lat='56.13063430865' lon='8.5027688688' />
  <node id='-161694357' action='modify' lat='56.13164178959' lon='8.5011005348' />
  <node id='-161694358' action='modify' lat='56.13408415166' lon='8.49437354922' />
  <node id='-161694359' action='modify' lat='56.13565052798' lon='8.48552225947' />
  <node id='-161694360' action='modify' lat='56.13609740733' lon='8.48351061076' />
  <node id='-161694361' action='modify' lat='56.13632607831' lon='8.48279446095' />
  <node id='-161694362' action='modify' lat='56.1375037871' lon='8.47995668381' />
  <node id='-161694363' action='modify' lat='56.1418077981' lon='8.47245454252' />
  <node id='-161694364' action='modify' lat='56.14323638363' lon='8.47092031896' />
  <node id='-161694365' action='modify' lat='56.14469555624' lon='8.46998741593'>
    <tag k='name' v='mul' />
  </node>
  <node id='-161694366' action='modify' lat='56.14855575397' lon='8.46751927793' />
  <node id='-161694367' action='modify' lat='56.15137053859' lon='8.46721887052' />
  <node id='-161694368' action='modify' lat='56.15506052244' lon='8.46868872106' />
  <node id='-161694369' action='modify' lat='56.15864559242' lon='8.4719127363'>
    <tag k='name' v='lta' />
  </node>
  <node id='-161694370' action='modify' lat='56.16068594536' lon='8.47617744863' />
  <node id='-161694371' action='modify' lat='56.16598141' lon='8.4910833339'>
    <tag k='name' v='son' />
  </node>
  <node id='-161694372' action='modify' lat='56.16627171587' lon='8.49190055788' />
  <node id='-161694373' action='modify' lat='56.1669556929' lon='8.49392294347' />
  <node id='-161694374' action='modify' lat='56.17079051751' lon='8.50705503881' />
  <node id='-161694375' action='modify' lat='56.17131016054' lon='8.50905060232' />
  <node id='-161694376' action='modify' lat='56.17530281519' lon='8.52672635972' />
  <node id='-161694377' action='modify' lat='56.17647932831' lon='8.53027760714' />
  <node id='-161694378' action='modify' lat='56.17765780683' lon='8.53273044916'>
    <tag k='name' v='gro' />
  </node>
  <node id='-161694379' action='modify' lat='56.17853217039' lon='8.5345503661' />
  <node id='-161694380' action='modify' lat='56.18467511249' lon='8.53715478837' />
  <node id='-161694381' action='modify' lat='56.18581850153' lon='8.53631793916' />
  <node id='-161694382' action='modify' lat='56.18991710709' lon='8.53662371099' />
  <node id='-161694383' action='modify' lat='56.19221249317' lon='8.5384422487' />
  <node id='-161694384' action='modify' lat='56.19408330762' lon='8.54166871856'>
    <tag k='name' v='spa' />
  </node>
  <node id='-161694385' action='modify' lat='56.19430180492' lon='8.54234217525' />
  <node id='-161694386' action='modify' lat='56.20028678064' lon='8.5636457157'>
    <tag k='name' v='orn' />
  </node>
  <node id='-161694387' action='modify' lat='56.20126136401' lon='8.56711506307' />
  <node id='-161694388' action='modify' lat='56.20542097953' lon='8.57150315702' />
  <node id='-161694389' action='modify' lat='56.20783776852' lon='8.57095598102' />
  <node id='-161694390' action='modify' lat='56.21326752222' lon='8.56816648364' />
  <node id='-161694391' action='modify' lat='56.21544815442' lon='8.56750130117' />
  <node id='-161694392' action='modify' lat='56.22666416431' lon='8.56560213399'>
    <tag k='name' v='hav' />
  </node>
  <node id='-161694393' action='modify' lat='56.22894385707' lon='8.56521605372' />
  <node id='-161694394' action='modify' lat='56.23745637538' lon='8.56884777009' />
  <node id='-161694395' action='modify' lat='56.23800492833' lon='8.56943785608' />
  <node id='-161694396' action='modify' lat='56.24344531646' lon='8.57109545588' />
  <node id='-161694397' action='modify' lat='56.24820976326' lon='8.56903349851'>
    <tag k='name' v='gam' />
  </node>
  <node id='-161694398' action='modify' lat='56.25469924033' lon='8.56622456968' />
  <node id='-161694399' action='modify' lat='56.25769843612' lon='8.56583565205'>
    <tag k='name' v='vin' />
  </node>
  <node id='-161694400' action='modify' lat='56.26206793528' lon='8.56942176282' />
  <node id='-161694401' action='modify' lat='56.2636380348' lon='8.57436775088' />
  <node id='-161694402' action='modify' lat='56.26404916898' lon='8.57709287524' />
  <node id='-161694403' action='modify' lat='56.26477231776' lon='8.58351430902'>
    <tag k='name' v='ost' />
  </node>
  <node id='-161694404' action='modify' lat='56.26492802498' lon='8.58733891904' />
  <node id='-161694405' action='modify' lat='56.26503244471' lon='8.60868379425'>
    <tag k='name' v='res' />
  </node>
  <node id='-161694406' action='modify' lat='56.26511571387' lon='8.62570523143' />
  <node id='-161694407' action='modify' lat='56.26432623219' lon='8.63282381952' />
  <node id='-161694408' action='modify' lat='56.2631762454' lon='8.63621949613' />
  <node id='-161694409' action='modify' lat='56.26267870453' lon='8.64335416675' />
  <node id='-161694410' action='modify' lat='56.26490567912' lon='8.64764168724'>
    <tag k='name' v='sor' />
  </node>
  <node id='-161694411' action='modify' lat='56.26961394199' lon='8.64902972102' />
  <node id='-161694412' action='modify' lat='56.27350403595' lon='8.64503859401' />
  <node id='-161694413' action='modify' lat='56.2848801412' lon='8.62776516795' />
  <node id='-161694414' action='modify' lat='56.28812557761' lon='8.62395107478'>
    <tag k='name' v='ven' />
  </node>
  <node id='-161694415' action='modify' lat='56.28928077345' lon='8.62285136104' />
  <node id='-161694416' action='modify' lat='56.2966576899' lon='8.61660718381' />
  <node id='-161694417' action='modify' lat='56.29915802042' lon='8.61417173266' />
  <node id='-161694418' action='modify' lat='56.30637530713' lon='8.60524534643' />
  <node id='-161694419' action='modify' lat='56.31280573079' lon='8.60173701704' />
  <node id='-161694420' action='modify' lat='56.3140881851' lon='8.60194883773'>
    <tag k='name' v='nor' />
  </node>
  <node id='-161694421' action='modify' lat='56.31589111659' lon='8.60224663675' />
  <node id='-161694422' action='modify' lat='56.31846456314' lon='8.603024472' />
  <node id='-161694423' action='modify' lat='56.33985461856' lon='8.60991238475' />
  <node id='-161694424' action='modify' lat='56.34355323684' lon='8.61158608854' />
  <node id='-161694425' action='modify' lat='56.34665100216' lon='8.61377477109' />
  <node id='-161694426' action='modify' lat='56.35196893961' lon='8.61384450853'>
    <tag k='name' v='hos' />
  </node>
  <node id='-161694427' action='modify' lat='56.35359938449' lon='8.61146694985'>
    <tag k='name' v='hol.yr' />
  </node>
  <node id='-161694428' action='modify' lat='56.3548442233' lon='8.60701695018' />
  <way id='-37405653' action='modify'>
    <nd ref='-161694318' />
    <nd ref='-161694317' />
    <tag k='type' v='straight' />
  </way>
  <way id='-37405654' action='modify'>
    <nd ref='-161694317' />
    <nd ref='-161694320' />
  </way>
  <way id='-37405655' action='modify'>
    <nd ref='-161694320' />
    <nd ref='-161694321' />
    <tag k='type' v='straight' />
  </way>
  <way id='-37405656' action='modify'>
    <nd ref='-161694321' />
    <nd ref='-161694322' />
  </way>
  <way id='-37405657' action='modify'>
    <nd ref='-161694322' />
    <nd ref='-161694323' />
    <tag k='type' v='straight' />
  </way>
  <way id='-37405658' action='modify'>
    <nd ref='-161694323' />
    <nd ref='-161694324' />
  </way>
  <way id='-37405659' action='modify'>
    <nd ref='-161694324' />
    <nd ref='-161694325' />
    <nd ref='-161694326' />
    <nd ref='-161694327' />
    <tag k='type' v='straight' />
  </way>
  <way id='-37405660' action='modify'>
    <nd ref='-161694327' />
    <nd ref='-161694328' />
  </way>
  <way id='-37405661' action='modify'>
    <nd ref='-161694328' />
    <nd ref='-161694329' />
    <tag k='type' v='straight' />
  </way>
  <way id='-37405662' action='modify'>
    <nd ref='-161694329' />
    <nd ref='-161694330' />
  </way>
  <way id='-37405663' action='modify'>
    <nd ref='-161694330' />
    <nd ref='-161694331' />
    <nd ref='-161694332' />
    <tag k='type' v='straight' />
  </way>
  <way id='-37405664' action='modify'>
    <nd ref='-161694332' />
    <nd ref='-161694333' />
    <nd ref='-161694334' />
  </way>
  <way id='-37405665' action='modify'>
    <nd ref='-161694334' />
    <nd ref='-161694335' />
    <nd ref='-161694336' />
    <tag k='type' v='straight' />
  </way>
  <way id='-37405666' action='modify'>
    <nd ref='-161694336' />
    <nd ref='-161694337' />
  </way>
  <way id='-37405667' action='modify'>
    <nd ref='-161694337' />
    <nd ref='-161694338' />
    <nd ref='-161694339' />
    <tag k='type' v='straight' />
  </way>
  <way id='-37405668' action='modify'>
    <nd ref='-161694339' />
    <nd ref='-161694340' />
  </way>
  <way id='-37405669' action='modify'>
    <nd ref='-161694340' />
    <nd ref='-161694341' />
    <tag k='type' v='straight' />
  </way>
  <way id='-37405670' action='modify'>
    <nd ref='-161694341' />
    <nd ref='-161694342' />
    <nd ref='-161694343' />
  </way>
  <way id='-37405671' action='modify'>
    <nd ref='-161694343' />
    <nd ref='-161694344' />
    <tag k='type' v='straight' />
  </way>
  <way id='-37405672' action='modify'>
    <nd ref='-161694344' />
    <nd ref='-161694345' />
    <nd ref='-161694346' />
  </way>
  <way id='-37405673' action='modify'>
    <nd ref='-161694346' />
    <nd ref='-161694347' />
    <nd ref='-161694348' />
    <tag k='type' v='straight' />
  </way>
  <way id='-37405674' action='modify'>
    <nd ref='-161694348' />
    <nd ref='-161694349' />
    <nd ref='-161694350' />
  </way>
  <way id='-37405675' action='modify'>
    <nd ref='-161694350' />
    <nd ref='-161694351' />
    <tag k='type' v='straight' />
  </way>
  <way id='-37405676' action='modify'>
    <nd ref='-161694351' />
    <nd ref='-161694352' />
  </way>
  <way id='-37405677' action='modify'>
    <nd ref='-161694352' />
    <nd ref='-161694353' />
    <tag k='type' v='straight' />
  </way>
  <way id='-37405678' action='modify'>
    <nd ref='-161694353' />
    <nd ref='-161694354' />
  </way>
  <way id='-37405679' action='modify'>
    <nd ref='-161694354' />
    <nd ref='-161694355' />
    <tag k='type' v='straight' />
  </way>
  <way id='-37405680' action='modify'>
    <nd ref='-161694355' />
    <nd ref='-161694356' />
  </way>
  <way id='-37405681' action='modify'>
    <nd ref='-161694356' />
    <nd ref='-161694357' />
    <tag k='type' v='straight' />
  </way>
  <way id='-37405682' action='modify'>
    <nd ref='-161694357' />
    <nd ref='-161694358' />
  </way>
  <way id='-37405683' action='modify'>
    <nd ref='-161694358' />
    <nd ref='-161694359' />
    <tag k='type' v='straight' />
  </way>
  <way id='-37405684' action='modify'>
    <nd ref='-161694359' />
    <nd ref='-161694360' />
  </way>
  <way id='-37405685' action='modify'>
    <nd ref='-161694360' />
    <nd ref='-161694361' />
    <tag k='type' v='straight' />
  </way>
  <way id='-37405686' action='modify'>
    <nd ref='-161694361' />
    <nd ref='-161694362' />
  </way>
  <way id='-37405687' action='modify'>
    <nd ref='-161694362' />
    <nd ref='-161694363' />
    <tag k='type' v='straight' />
  </way>
  <way id='-37405688' action='modify'>
    <nd ref='-161694363' />
    <nd ref='-161694364' />
  </way>
  <way id='-37405689' action='modify'>
    <nd ref='-161694364' />
    <nd ref='-161694365' />
    <nd ref='-161694366' />
    <tag k='type' v='straight' />
  </way>
  <way id='-37405690' action='modify'>
    <nd ref='-161694366' />
    <nd ref='-161694367' />
  </way>
  <way id='-37405691' action='modify'>
    <nd ref='-161694367' />
    <nd ref='-161694368' />
    <tag k='type' v='straight' />
  </way>
  <way id='-37405692' action='modify'>
    <nd ref='-161694368' />
    <nd ref='-161694369' />
    <nd ref='-161694370' />
  </way>
  <way id='-37405693' action='modify'>
    <nd ref='-161694370' />
    <nd ref='-161694371' />
    <nd ref='-161694372' />
    <tag k='type' v='straight' />
  </way>
  <way id='-37405694' action='modify'>
    <nd ref='-161694372' />
    <nd ref='-161694373' />
  </way>
  <way id='-37405695' action='modify'>
    <nd ref='-161694373' />
    <nd ref='-161694374' />
    <tag k='type' v='straight' />
  </way>
  <way id='-37405696' action='modify'>
    <nd ref='-161694374' />
    <nd ref='-161694375' />
  </way>
  <way id='-37405697' action='modify'>
    <nd ref='-161694375' />
    <nd ref='-161694376' />
    <tag k='type' v='straight' />
  </way>
  <way id='-37405698' action='modify'>
    <nd ref='-161694376' />
    <nd ref='-161694377' />
  </way>
  <way id='-37405699' action='modify'>
    <nd ref='-161694377' />
    <nd ref='-161694378' />
    <nd ref='-161694379' />
    <tag k='type' v='straight' />
  </way>
  <way id='-37405700' action='modify'>
    <nd ref='-161694379' />
    <nd ref='-161694380' />
  </way>
  <way id='-37405701' action='modify'>
    <nd ref='-161694380' />
    <nd ref='-161694381' />
    <tag k='type' v='straight' />
  </way>
  <way id='-37405702' action='modify'>
    <nd ref='-161694381' />
    <nd ref='-161694382' />
  </way>
  <way id='-37405703' action='modify'>
    <nd ref='-161694382' />
    <nd ref='-161694383' />
    <tag k='type' v='straight' />
  </way>
  <way id='-37405704' action='modify'>
    <nd ref='-161694383' />
    <nd ref='-161694384' />
    <nd ref='-161694385' />
  </way>
  <way id='-37405705' action='modify'>
    <nd ref='-161694385' />
    <nd ref='-161694386' />
    <nd ref='-161694387' />
    <tag k='type' v='straight' />
  </way>
  <way id='-37405706' action='modify'>
    <nd ref='-161694387' />
    <nd ref='-161694388' />
    <nd ref='-161694389' />
  </way>
  <way id='-37405707' action='modify'>
    <nd ref='-161694389' />
    <nd ref='-161694390' />
    <tag k='type' v='straight' />
  </way>
  <way id='-37405708' action='modify'>
    <nd ref='-161694390' />
    <nd ref='-161694391' />
  </way>
  <way id='-37405709' action='modify'>
    <nd ref='-161694391' />
    <nd ref='-161694392' />
    <nd ref='-161694393' />
    <tag k='type' v='straight' />
  </way>
  <way id='-37405710' action='modify'>
    <nd ref='-161694393' />
    <nd ref='-161694394' />
  </way>
  <way id='-37405711' action='modify'>
    <nd ref='-161694394' />
    <nd ref='-161694395' />
    <tag k='type' v='straight' />
  </way>
  <way id='-37405712' action='modify'>
    <nd ref='-161694395' />
    <nd ref='-161694396' />
  </way>
  <way id='-37405713' action='modify'>
    <nd ref='-161694396' />
    <nd ref='-161694397' />
    <nd ref='-161694398' />
    <tag k='type' v='straight' />
  </way>
  <way id='-37405714' action='modify'>
    <nd ref='-161694398' />
    <nd ref='-161694399' />
    <nd ref='-161694400' />
    <nd ref='-161694401' />
  </way>
  <way id='-37405715' action='modify'>
    <nd ref='-161694401' />
    <nd ref='-161694402' />
    <tag k='type' v='straight' />
  </way>
  <way id='-37405716' action='modify'>
    <nd ref='-161694402' />
    <nd ref='-161694403' />
    <nd ref='-161694404' />
  </way>
  <way id='-37405717' action='modify'>
    <nd ref='-161694404' />
    <nd ref='-161694405' />
    <nd ref='-161694406' />
    <tag k='type' v='straight' />
  </way>
  <way id='-37405718' action='modify'>
    <nd ref='-161694406' />
    <nd ref='-161694407' />
  </way>
  <way id='-37405719' action='modify'>
    <nd ref='-161694407' />
    <nd ref='-161694408' />
    <tag k='type' v='straight' />
  </way>
  <way id='-37405720' action='modify'>
    <nd ref='-161694408' />
    <nd ref='-161694409' />
    <nd ref='-161694410' />
    <nd ref='-161694411' />
    <nd ref='-161694412' />
  </way>
  <way id='-37405721' action='modify'>
    <nd ref='-161694412' />
    <nd ref='-161694413' />
    <tag k='type' v='straight' />
  </way>
  <way id='-37405722' action='modify'>
    <nd ref='-161694413' />
    <nd ref='-161694414' />
    <nd ref='-161694415' />
  </way>
  <way id='-37405723' action='modify'>
    <nd ref='-161694415' />
    <nd ref='-161694416' />
    <tag k='type' v='straight' />
  </way>
  <way id='-37405724' action='modify'>
    <nd ref='-161694416' />
    <nd ref='-161694417' />
  </way>
  <way id='-37405725' action='modify'>
    <nd ref='-161694417' />
    <nd ref='-161694418' />
    <tag k='type' v='straight' />
  </way>
  <way id='-37405726' action='modify'>
    <nd ref='-161694418' />
    <nd ref='-161694419' />
  </way>
  <way id='-37405727' action='modify'>
    <nd ref='-161694419' />
    <nd ref='-161694420' />
    <nd ref='-161694421' />
    <tag k='type' v='straight' />
  </way>
  <way id='-37405728' action='modify'>
    <nd ref='-161694421' />
    <nd ref='-161694422' />
  </way>
  <way id='-37405729' action='modify'>
    <nd ref='-161694422' />
    <nd ref='-161694423' />
    <tag k='type' v='straight' />
  </way>
  <way id='-37405730' action='modify'>
    <nd ref='-161694423' />
    <nd ref='-161694424' />
  </way>
  <way id='-37405731' action='modify'>
    <nd ref='-161694424' />
    <nd ref='-161694425' />
    <tag k='type' v='straight' />
  </way>
  <way id='-37405732' action='modify'>
    <nd ref='-161694425' />
    <nd ref='-161694426' />
    <nd ref='-161694427' />
  </way>
  <way id='-37405733' action='modify'>
    <nd ref='-161694427' />
    <nd ref='-161694428' />
    <tag k='type' v='straight' />
  </way>
  <relation id='-14477760' action='modify'>
    <member type='way' ref='-37405653' role='' />
    <member type='way' ref='-37405654' role='' />
    <member type='way' ref='-37405655' role='' />
    <member type='way' ref='-37405656' role='' />
    <member type='way' ref='-37405657' role='' />
    <member type='way' ref='-37405658' role='' />
    <member type='way' ref='-37405659' role='' />
    <member type='way' ref='-37405660' role='' />
    <member type='way' ref='-37405661' role='' />
    <member type='way' ref='-37405662' role='' />
    <member type='way' ref='-37405663' role='' />
    <member type='way' ref='-37405664' role='' />
    <member type='way' ref='-37405665' role='' />
    <member type='way' ref='-37405666' role='' />
    <member type='way' ref='-37405667' role='' />
    <member type='way' ref='-37405668' role='' />
    <member type='way' ref='-37405669' role='' />
    <member type='way' ref='-37405670' role='' />
    <member type='way' ref='-37405671' role='' />
    <member type='way' ref='-37405672' role='' />
    <member type='way' ref='-37405673' role='' />
    <member type='way' ref='-37405674' role='' />
    <member type='way' ref='-37405675' role='' />
    <member type='way' ref='-37405676' role='' />
    <member type='way' ref='-37405677' role='' />
    <member type='way' ref='-37405678' role='' />
    <member type='way' ref='-37405679' role='' />
    <member type='way' ref='-37405680' role='' />
    <member type='way' ref='-37405681' role='' />
    <member type='way' ref='-37405682' role='' />
    <member type='way' ref='-37405683' role='' />
    <member type='way' ref='-37405684' role='' />
    <member type='way' ref='-37405685' role='' />
    <member type='way' ref='-37405686' role='' />
    <member type='way' ref='-37405687' role='' />
    <member type='way' ref='-37405688' role='' />
    <member type='way' ref='-37405689' role='' />
    <member type='way' ref='-37405690' role='' />
    <member type='way' ref='-37405691' role='' />
    <member type='way' ref='-37405692' role='' />
    <member type='way' ref='-37405693' role='' />
    <member type='way' ref='-37405694' role='' />
    <member type='way' ref='-37405695' role='' />
    <member type='way' ref='-37405696' role='' />
    <member type='way' ref='-37405697' role='' />
    <member type='way' ref='-37405698' role='' />
    <member type='way' ref='-37405699' role='' />
    <member type='way' ref='-37405700' role='' />
    <member type='way' ref='-37405701' role='' />
    <member type='way' ref='-37405702' role='' />
    <member type='way' ref='-37405703' role='' />
    <member type='way' ref='-37405704' role='' />
    <member type='way' ref='-37405705' role='' />
    <member type='way' ref='-37405706' role='' />
    <member type='way' ref='-37405707' role='' />
    <member type='way' ref='-37405708' role='' />
    <member type='way' ref='-37405709' role='' />
    <member type='way' ref='-37405710' role='' />
    <member type='way' ref='-37405711' role='' />
    <member type='way' ref='-37405712' role='' />
    <member type='way' ref='-37405713' role='' />
    <member type='way' ref='-37405714' role='' />
    <member type='way' ref='-37405715' role='' />
    <member type='way' ref='-37405716' role='' />
    <member type='way' ref='-37405717' role='' />
    <member type='way' ref='-37405718' role='' />
    <member type='way' ref='-37405719' role='' />
    <member type='way' ref='-37405720' role='' />
    <member type='way' ref='-37405721' role='' />
    <member type='way' ref='-37405722' role='' />
    <member type='way' ref='-37405723' role='' />
    <member type='way' ref='-37405724' role='' />
    <member type='way' ref='-37405725' role='' />
    <member type='way' ref='-37405726' role='' />
    <member type='way' ref='-37405727' role='' />
    <member type='way' ref='-37405728' role='' />
    <member type='way' ref='-37405729' role='' />
    <member type='way' ref='-37405730' role='' />
    <member type='way' ref='-37405731' role='' />
    <member type='way' ref='-37405732' role='' />
    <member type='way' ref='-37405733' role='' />
    <tag k='key' v='path.dk.roh' />
    <tag k='name' v='DK ROH' />
    <tag k='type' v='path' />
  </relation>
</osm>
