<?xml version='1.0' encoding='UTF-8'?>
<osm version='0.6' upload='false' generator='JOSM'>
  <node id='-135255131' action='modify' lat='55.43795845616' lon='11.78667627151'>
    <tag k='name' v='rin' />
  </node>
  <node id='-135255132' action='modify' lat='55.4375275744' lon='11.77759638436' />
  <node id='-135255133' action='modify' lat='55.43008717953' lon='11.76102384791' />
  <node id='-135255134' action='modify' lat='55.42020919201' lon='11.75554776731' />
  <node id='-135255135' action='modify' lat='55.41838179452' lon='11.75431775201' />
  <node id='-135255136' action='modify' lat='55.41239179177' lon='11.749541184' />
  <node id='-135255137' action='modify' lat='55.41104287893' lon='11.74852801026'>
    <tag k='name' v='eng' />
  </node>
  <node id='-135255138' action='modify' lat='55.40798395302' lon='11.74636939176' />
  <node id='-135255139' action='modify' lat='55.40558739056' lon='11.74483645105' />
  <node id='-135255140' action='modify' lat='55.39884798514' lon='11.74096039627' />
  <node id='-135255141' action='modify' lat='55.39779612829' lon='11.74039673467' />
  <node id='-135255142' action='modify' lat='55.39643616602' lon='11.73972065623' />
  <node id='-135255143' action='modify' lat='55.39384015326' lon='11.73804069925'>
    <tag k='name' v='vra' />
  </node>
  <node id='-135255144' action='modify' lat='55.38773049927' lon='11.73083009071' />
  <node id='-135255145' action='modify' lat='55.37704733645' lon='11.71237246474'>
    <tag k='name' v='tyv' />
  </node>
  <node id='-135255146' action='modify' lat='55.37141076391' lon='11.70263599526' />
  <node id='-135255147' action='modify' lat='55.35275353204' lon='11.6962280827' />
  <node id='-135255148' action='modify' lat='55.35129292203' lon='11.69728609921'>
    <tag k='name' v='glu' />
  </node>
  <node id='-135255149' action='modify' lat='55.34749103318' lon='11.70003987598' />
  <node id='-135255150' action='modify' lat='55.34182892183' lon='11.70748964267' />
  <node id='-135255151' action='modify' lat='55.33140991654' lon='11.73029318045' />
  <node id='-135255152' action='modify' lat='55.31639369465' lon='11.74446145615'>
    <tag k='name' v='her' />
  </node>
  <node id='-135255153' action='modify' lat='55.31380607638' lon='11.74459529096' />
  <node id='-135255154' action='modify' lat='55.29803274695' lon='11.74381813854'>
    <tag k='name' v='sog' />
  </node>
  <node id='-135255155' action='modify' lat='55.28206856006' lon='11.74303189709' />
  <node id='-135255156' action='modify' lat='55.27878395758' lon='11.74346839154' />
  <node id='-135255157' action='modify' lat='55.27711730586' lon='11.74411928963'>
    <tag k='name' v='ris' />
  </node>
  <node id='-135255158' action='modify' lat='55.27549951122' lon='11.74494407084' />
  <node id='-135255159' action='modify' lat='55.26438325706' lon='11.7514526727' />
  <node id='-135255160' action='modify' lat='55.26022303758' lon='11.75295876682' />
  <node id='-135255161' action='modify' lat='55.25880101299' lon='11.75317113916' />
  <node id='-135255162' action='modify' lat='55.25471230519' lon='11.75478309201' />
  <node id='-135255163' action='modify' lat='55.24979079841' lon='11.75800494631' />
  <node id='-135255164' action='modify' lat='55.24679462989' lon='11.7593937275' />
  <node id='-135255166' action='modify' lat='55.23881487378' lon='11.76165344486' />
  <node id='-135255167' action='modify' lat='55.23777519841' lon='11.76206822568' />
  <node id='-135255168' action='modify' lat='55.23767144372' lon='11.76211405722' />
  <node id='-135255169' action='modify' lat='55.23418092705' lon='11.76454130166' />
  <node id='-135255170' action='modify' lat='55.23133327053' lon='11.76741911559'>
    <tag k='name' v='nas' />
  </node>
  <node id='-135255171' action='modify' lat='55.22831561318' lon='11.77046850586' />
  <node id='-135255172' action='modify' lat='55.22513494659' lon='11.77589913927' />
  <node id='-135255174' action='modify' lat='55.22284051142' lon='11.78246976869' />
  <node id='-135255175' action='modify' lat='55.21410001384' lon='11.79163279618' />
  <node id='-135255176' action='modify' lat='55.21275929272' lon='11.7917655642' />
  <node id='-135255177' action='modify' lat='55.20268546846' lon='11.80110187572' />
  <node id='-135255178' action='modify' lat='55.18944478329' lon='11.83134715909' />
  <node id='-135255179' action='modify' lat='55.18220292157' lon='11.84067307766' />
  <node id='-135255180' action='modify' lat='55.16385929401' lon='11.85244901871'>
    <tag k='name' v='lov' />
  </node>
  <node id='-135255181' action='modify' lat='55.15971739748' lon='11.85510721575' />
  <node id='-135255182' action='modify' lat='55.14922497743' lon='11.85712185498' />
  <node id='-135255183' action='modify' lat='55.13472405298' lon='11.8537295896' />
  <node id='-135255184' action='modify' lat='55.13399106756' lon='11.85359442454'>
    <tag k='name' v='rig' />
  </node>
  <node id='-135255185' action='modify' lat='55.12490949381' lon='11.85664059225' />
  <node id='-135255186' action='modify' lat='55.10955207983' lon='11.87024415295'>
    <tag k='name' v='lun' />
  </node>
  <node id='-135255187' action='modify' lat='55.10862754474' lon='11.87106293705' />
  <node id='-135255188' action='modify' lat='55.09518353319' lon='11.87598310933' />
  <node id='-135255189' action='modify' lat='55.06753346868' lon='11.87326799242'>
    <tag k='name' v='kla' />
  </node>
  <node id='-135255190' action='modify' lat='55.05917224463' lon='11.87244732576' />
  <node id='-135255191' action='modify' lat='55.04283227819' lon='11.87995596008' />
  <node id='-135255192' action='modify' lat='55.02475909177' lon='11.90021477999' />
  <node id='-135255193' action='modify' lat='55.01662862418' lon='11.90208155253' />
  <node id='-135255194' action='modify' lat='55.01379347952' lon='11.90050134118' />
  <node id='-135255195' action='modify' lat='55.0128541043' lon='11.89994551543' />
  <node id='-135255196' action='modify' lat='55.01269471494' lon='11.89984566375'>
    <tag k='name' v='vor' />
  </node>
  <node id='-135255197' action='modify' lat='55.01044996738' lon='11.89843945252' />
  <node id='-135255198' action='modify' lat='55.00788345495' lon='11.89717035798' />
  <node id='-135255199' action='modify' lat='55.00564707399' lon='11.89634832843' />
  <node id='-135255200' action='modify' lat='55.00424178228' lon='11.8957207527' />
  <node id='-135255201' action='modify' lat='55.00141540393' lon='11.89423027728' />
  <node id='-135255202' action='modify' lat='54.99933089028' lon='11.89264858265' />
  <node id='-135255203' action='modify' lat='54.99693432919' lon='11.89021060715' />
  <node id='-135255204' action='modify' lat='54.99603434395' lon='11.88921255108' />
  <node id='-135255205' action='modify' lat='54.99351693988' lon='11.88617848926' />
  <node id='-135255206' action='modify' lat='54.98547290667' lon='11.88882985943' />
  <node id='-135255207' action='modify' lat='54.98397035995' lon='11.89181937131' />
  <node id='-135255208' action='modify' lat='54.98236610623' lon='11.8944964926'>
    <tag k='name' v='mas' />
  </node>
  <node id='-135255209' action='modify' lat='54.97479309489' lon='11.89415813066' />
  <node id='-135255210' action='modify' lat='54.95138413986' lon='11.86780000298' />
  <node id='-135255211' action='modify' lat='54.94449015395' lon='11.86582955438' />
  <node id='-135255212' action='modify' lat='54.93897604104' lon='11.86826545179'>
    <tag k='name' v='ore' />
  </node>
  <node id='-135255213' action='modify' lat='54.93502889167' lon='11.87000892711' />
  <node id='-135255214' action='modify' lat='54.92737969808' lon='11.87367421149' />
  <node id='-135255215' action='modify' lat='54.92323611518' lon='11.876735216' />
  <node id='-135255216' action='modify' lat='54.91844979187' lon='11.88166263124' />
  <node id='-135255217' action='modify' lat='54.90979453064' lon='11.88575699882' />
  <node id='-135255218' action='modify' lat='54.90580229205' lon='11.8857340874' />
  <node id='-135255219' action='modify' lat='54.90494934246' lon='11.88574272759' />
  <node id='-135255220' action='modify' lat='54.90379283567' lon='11.88577279766' />
  <node id='-135255221' action='modify' lat='54.90260914065' lon='11.88578406024' />
  <node id='-135255222' action='modify' lat='54.89667692926' lon='11.88574271614'>
    <tag k='name' v='nal' />
  </node>
  <node id='-135255223' action='modify' lat='54.85789173419' lon='11.88547255564' />
  <node id='-135255224' action='modify' lat='54.85704292658' lon='11.88543349998' />
  <node id='-135255225' action='modify' lat='54.85624619646' lon='11.88536569409'>
    <tag k='name' v='esk' />
  </node>
  <node id='-135255226' action='modify' lat='54.8522157679' lon='11.88425247294' />
  <node id='-135255227' action='modify' lat='54.85037555572' lon='11.88338016049' />
  <node id='-135255228' action='modify' lat='54.8453233142' lon='11.88249699184' />
  <node id='-135255229' action='modify' lat='54.81994847058' lon='11.88540029161'>
    <tag k='name' v='tin' />
  </node>
  <node id='-135255230' action='modify' lat='54.81415048883' lon='11.88606342012' />
  <node id='-135255231' action='modify' lat='54.81110936304' lon='11.88685443608' />
  <node id='-135255232' action='modify' lat='54.80857408801' lon='11.88789266084' />
  <node id='-135255233' action='modify' lat='54.8034565261' lon='11.88854159351' />
  <node id='-135255234' action='modify' lat='54.77653901395' lon='11.88452335414' />
  <node id='-135255235' action='modify' lat='54.7680679' lon='11.87905900441' />
  <node id='-135255236' action='modify' lat='54.76691618704' lon='11.87783990267'>
    <tag k='name' v='nyk' />
  </node>
  <node id='-135255237' action='modify' lat='54.76564402814' lon='11.87649334781' />
  <node id='-135255238' action='modify' lat='54.76398707247' lon='11.874642137' />
  <node id='-135255240' action='modify' lat='54.76178079729' lon='11.87225436932' />
  <node id='-135255241' action='modify' lat='54.75870339479' lon='11.86613815098' />
  <node id='-135255242' action='modify' lat='54.75635291648' lon='11.85720756424'>
    <tag k='name' v='nyv' />
  </node>
  <node id='-135255243' action='modify' lat='54.75314822713' lon='11.83536859317' />
  <node id='-135255244' action='modify' lat='54.75296557912' lon='11.8306239661' />
  <node id='-135255245' action='modify' lat='54.74831082143' lon='11.79264240669' />
  <node id='-135255246' action='modify' lat='54.73672495771' lon='11.73796765696'>
    <tag k='name' v='lon' />
  </node>
  <node id='-135255247' action='modify' lat='54.73581954094' lon='11.73340833594' />
  <node id='-135255248' action='modify' lat='54.72534902244' lon='11.67694735464'>
    <tag k='name' v='dol' />
  </node>
  <node id='-135255249' action='modify' lat='54.72497062482' lon='11.67490716524' />
  <node id='-135255250' action='modify' lat='54.72473469889' lon='11.67359354655' />
  <node id='-135255251' action='modify' lat='54.72312593315' lon='11.66433525166' />
  <node id='-135255252' action='modify' lat='54.71560546073' lon='11.6342786661' />
  <node id='-135255253' action='modify' lat='54.71370382044' lon='11.6285988896' />
  <node id='-135255254' action='modify' lat='54.70831195945' lon='11.60917411827'>
    <tag k='name' v='lom' />
  </node>
  <node id='-135255255' action='modify' lat='54.7061196132' lon='11.59858306572' />
  <node id='-135255256' action='modify' lat='54.70445686418' lon='11.58925550844' />
  <node id='-135255257' action='modify' lat='54.70188686081' lon='11.57720898114' />
  <node id='-135255258' action='modify' lat='54.70020080564' lon='11.57046104208' />
  <node id='-135255259' action='modify' lat='54.69463149205' lon='11.53713037416' />
  <node id='-135255260' action='modify' lat='54.6910403405' lon='11.4973207614'>
    <tag k='name' v='los' />
  </node>
  <node id='-135255261' action='modify' lat='54.68824118728' lon='11.46629326768' />
  <node id='-135255262' action='modify' lat='54.68532448792' lon='11.44914220294' />
  <node id='-135255263' action='modify' lat='54.67346869353' lon='11.40290271993' />
  <node id='-135255264' action='modify' lat='54.66776337613' lon='11.38551511182' />
  <node id='-135255265' action='modify' lat='54.6656636502' lon='11.38069973358'>
    <tag k='name' v='roo' />
  </node>
  <node id='-135255266' action='modify' lat='54.65485122591' lon='11.35590714606'>
    <tag k='name' v='rof' />
  </node>
  <node id='-135255267' action='modify' lat='54.6531637608' lon='11.35203843075' />
  <way id='-35847427' action='modify'>
    <nd ref='-135255131' />
    <nd ref='-135255132' />
    <tag k='type' v='straight' />
  </way>
  <way id='-35847428' action='modify'>
    <nd ref='-135255132' />
    <nd ref='-135255133' />
    <tag k='type' v='arc' />
  </way>
  <way id='-35847429' action='modify'>
    <nd ref='-135255133' />
    <nd ref='-135255134' />
    <tag k='type' v='straight' />
  </way>
  <way id='-35847430' action='modify'>
    <nd ref='-135255134' />
    <nd ref='-135255135' />
    <tag k='type' v='arc' />
  </way>
  <way id='-35847431' action='modify'>
    <nd ref='-135255135' />
    <nd ref='-135255136' />
    <tag k='type' v='straight' />
  </way>
  <way id='-35847432' action='modify'>
    <nd ref='-135255136' />
    <nd ref='-135255137' />
    <tag k='type' v='arc' />
  </way>
  <way id='-35847433' action='modify'>
    <nd ref='-135255137' />
    <nd ref='-135255138' />
    <tag k='type' v='straight' />
  </way>
  <way id='-35847434' action='modify'>
    <nd ref='-135255138' />
    <nd ref='-135255139' />
    <tag k='type' v='arc' />
  </way>
  <way id='-35847435' action='modify'>
    <nd ref='-135255139' />
    <nd ref='-135255140' />
    <tag k='type' v='straight' />
  </way>
  <way id='-35847436' action='modify'>
    <nd ref='-135255140' />
    <nd ref='-135255141' />
    <tag k='type' v='arc' />
  </way>
  <way id='-35847437' action='modify'>
    <nd ref='-135255141' />
    <nd ref='-135255142' />
    <tag k='type' v='straight' />
  </way>
  <way id='-35847438' action='modify'>
    <nd ref='-135255142' />
    <nd ref='-135255143' />
    <nd ref='-135255144' />
    <tag k='type' v='arc' />
  </way>
  <way id='-35847439' action='modify'>
    <nd ref='-135255144' />
    <nd ref='-135255145' />
    <nd ref='-135255146' />
    <tag k='type' v='straight' />
  </way>
  <way id='-35847440' action='modify'>
    <nd ref='-135255146' />
    <nd ref='-135255147' />
    <tag k='type' v='arc' />
  </way>
  <way id='-35847441' action='modify'>
    <nd ref='-135255147' />
    <nd ref='-135255148' />
    <nd ref='-135255149' />
    <tag k='type' v='straight' />
  </way>
  <way id='-35847442' action='modify'>
    <nd ref='-135255149' />
    <nd ref='-135255150' />
    <tag k='type' v='arc' />
  </way>
  <way id='-35847443' action='modify'>
    <nd ref='-135255150' />
    <nd ref='-135255151' />
    <tag k='type' v='straight' />
  </way>
  <way id='-35847444' action='modify'>
    <nd ref='-135255151' />
    <nd ref='-135255152' />
    <nd ref='-135255153' />
    <tag k='type' v='arc' />
  </way>
  <way id='-35847445' action='modify'>
    <nd ref='-135255153' />
    <nd ref='-135255154' />
    <nd ref='-135255155' />
    <tag k='type' v='straight' />
  </way>
  <way id='-35847446' action='modify'>
    <nd ref='-135255155' />
    <nd ref='-135255156' />
    <tag k='type' v='arc' />
  </way>
  <way id='-35847447' action='modify'>
    <nd ref='-135255156' />
    <nd ref='-135255157' />
    <nd ref='-135255158' />
    <tag k='type' v='arc' />
  </way>
  <way id='-35847448' action='modify'>
    <nd ref='-135255158' />
    <nd ref='-135255159' />
    <tag k='type' v='straight' />
  </way>
  <way id='-35847449' action='modify'>
    <nd ref='-135255159' />
    <nd ref='-135255160' />
    <tag k='type' v='arc' />
  </way>
  <way id='-35847450' action='modify'>
    <nd ref='-135255160' />
    <nd ref='-135255161' />
    <tag k='type' v='straight' />
  </way>
  <way id='-35847451' action='modify'>
    <nd ref='-135255161' />
    <nd ref='-135255162' />
    <tag k='type' v='arc' />
  </way>
  <way id='-35847452' action='modify'>
    <nd ref='-135255162' />
    <nd ref='-135255163' />
    <tag k='type' v='straight' />
  </way>
  <way id='-35847453' action='modify'>
    <nd ref='-135255163' />
    <nd ref='-135255164' />
    <tag k='type' v='arc' />
  </way>
  <way id='-35847454' action='modify'>
    <nd ref='-135255164' />
    <nd ref='-135255166' />
    <tag k='type' v='straight' />
  </way>
  <way id='-35847455' action='modify'>
    <nd ref='-135255166' />
    <nd ref='-135255167' />
    <tag k='type' v='arc' />
  </way>
  <way id='-35847456' action='modify'>
    <nd ref='-135255167' />
    <nd ref='-135255168' />
    <tag k='type' v='straight' />
  </way>
  <way id='-35847457' action='modify'>
    <nd ref='-135255168' />
    <nd ref='-135255169' />
    <tag k='type' v='arc' />
  </way>
  <way id='-35847458' action='modify'>
    <nd ref='-135255169' />
    <nd ref='-135255170' />
    <nd ref='-135255171' />
    <tag k='type' v='straight' />
  </way>
  <way id='-35847459' action='modify'>
    <nd ref='-135255171' />
    <nd ref='-135255172' />
    <tag k='type' v='arc' />
  </way>
  <way id='-35847460' action='modify'>
    <nd ref='-135255172' />
    <nd ref='-135255174' />
    <tag k='type' v='straight' />
  </way>
  <way id='-35847461' action='modify'>
    <nd ref='-135255174' />
    <nd ref='-135255175' />
    <tag k='type' v='arc' />
  </way>
  <way id='-35847462' action='modify'>
    <nd ref='-135255175' />
    <nd ref='-135255176' />
    <tag k='type' v='straight' />
  </way>
  <way id='-35847463' action='modify'>
    <nd ref='-135255176' />
    <nd ref='-135255177' />
    <tag k='type' v='arc' />
  </way>
  <way id='-35847464' action='modify'>
    <nd ref='-135255177' />
    <nd ref='-135255178' />
    <tag k='type' v='straight' />
  </way>
  <way id='-35847465' action='modify'>
    <nd ref='-135255178' />
    <nd ref='-135255179' />
    <tag k='type' v='arc' />
  </way>
  <way id='-35847466' action='modify'>
    <nd ref='-135255179' />
    <nd ref='-135255180' />
    <nd ref='-135255181' />
    <tag k='type' v='straight' />
  </way>
  <way id='-35847467' action='modify'>
    <nd ref='-135255181' />
    <nd ref='-135255182' />
    <tag k='type' v='arc' />
  </way>
  <way id='-35847468' action='modify'>
    <nd ref='-135255182' />
    <nd ref='-135255183' />
    <tag k='type' v='straight' />
  </way>
  <way id='-35847469' action='modify'>
    <nd ref='-135255183' />
    <nd ref='-135255184' />
    <nd ref='-135255185' />
    <tag k='type' v='arc' />
  </way>
  <way id='-35847470' action='modify'>
    <nd ref='-135255185' />
    <nd ref='-135255186' />
    <nd ref='-135255187' />
    <tag k='type' v='straight' />
  </way>
  <way id='-35847471' action='modify'>
    <nd ref='-135255187' />
    <nd ref='-135255188' />
    <tag k='type' v='arc' />
  </way>
  <way id='-35847472' action='modify'>
    <nd ref='-135255188' />
    <nd ref='-135255189' />
    <nd ref='-135255190' />
    <tag k='type' v='straight' />
  </way>
  <way id='-35847473' action='modify'>
    <nd ref='-135255190' />
    <nd ref='-135255191' />
    <tag k='type' v='arc' />
  </way>
  <way id='-35847474' action='modify'>
    <nd ref='-135255191' />
    <nd ref='-135255192' />
    <tag k='type' v='straight' />
  </way>
  <way id='-35847475' action='modify'>
    <nd ref='-135255192' />
    <nd ref='-135255193' />
    <tag k='type' v='arc' />
  </way>
  <way id='-35847476' action='modify'>
    <nd ref='-135255193' />
    <nd ref='-135255194' />
    <tag k='type' v='straight' />
  </way>
  <way id='-35847477' action='modify'>
    <nd ref='-135255194' />
    <nd ref='-135255195' />
    <tag k='type' v='arc' />
  </way>
  <way id='-35847478' action='modify'>
    <nd ref='-135255195' />
    <nd ref='-135255196' />
    <nd ref='-135255197' />
    <tag k='type' v='straight' />
  </way>
  <way id='-35847479' action='modify'>
    <nd ref='-135255197' />
    <nd ref='-135255198' />
    <tag k='type' v='arc' />
  </way>
  <way id='-35847480' action='modify'>
    <nd ref='-135255198' />
    <nd ref='-135255199' />
    <tag k='type' v='straight' />
  </way>
  <way id='-35847481' action='modify'>
    <nd ref='-135255199' />
    <nd ref='-135255200' />
    <tag k='type' v='arc' />
  </way>
  <way id='-35847482' action='modify'>
    <nd ref='-135255200' />
    <nd ref='-135255201' />
    <tag k='type' v='straight' />
  </way>
  <way id='-35847483' action='modify'>
    <nd ref='-135255201' />
    <nd ref='-135255202' />
    <tag k='type' v='arc' />
  </way>
  <way id='-35847484' action='modify'>
    <nd ref='-135255202' />
    <nd ref='-135255203' />
    <tag k='type' v='straight' />
  </way>
  <way id='-35847485' action='modify'>
    <nd ref='-135255203' />
    <nd ref='-135255204' />
    <tag k='type' v='arc' />
  </way>
  <way id='-35847486' action='modify'>
    <nd ref='-135255204' />
    <nd ref='-135255205' />
    <tag k='type' v='straight' />
  </way>
  <way id='-35847487' action='modify'>
    <nd ref='-135255205' />
    <nd ref='-135255206' />
    <tag k='type' v='curved' />
  </way>
  <way id='-35847488' action='modify'>
    <nd ref='-135255206' />
    <nd ref='-135255207' />
    <tag k='type' v='straight' />
  </way>
  <way id='-35847489' action='modify'>
    <nd ref='-135255207' />
    <nd ref='-135255208' />
    <nd ref='-135255209' />
    <tag k='type' v='arc' />
  </way>
  <way id='-35847490' action='modify'>
    <nd ref='-135255209' />
    <nd ref='-135255210' />
    <tag k='type' v='straight' />
  </way>
  <way id='-35847491' action='modify'>
    <nd ref='-135255210' />
    <nd ref='-135255211' />
    <tag k='type' v='arc' />
  </way>
  <way id='-35847492' action='modify'>
    <nd ref='-135255211' />
    <nd ref='-135255212' />
    <nd ref='-135255213' />
    <tag k='type' v='straight' />
  </way>
  <way id='-35847493' action='modify'>
    <nd ref='-135255213' />
    <nd ref='-135255214' />
    <tag k='type' v='straight' />
  </way>
  <way id='-35847494' action='modify'>
    <nd ref='-135255214' />
    <nd ref='-135255215' />
    <tag k='type' v='arc' />
  </way>
  <way id='-35847495' action='modify'>
    <nd ref='-135255215' />
    <nd ref='-135255216' />
    <tag k='type' v='straight' />
  </way>
  <way id='-35847496' action='modify'>
    <nd ref='-135255216' />
    <nd ref='-135255217' />
    <tag k='type' v='arc' />
  </way>
  <way id='-35847497' action='modify'>
    <nd ref='-135255217' />
    <nd ref='-135255218' />
    <tag k='type' v='straight' />
  </way>
  <way id='-35847498' action='modify'>
    <nd ref='-135255218' />
    <nd ref='-135255219' />
    <tag k='type' v='arc' />
  </way>
  <way id='-35847499' action='modify'>
    <nd ref='-135255219' />
    <nd ref='-135255220' />
    <tag k='type' v='straight' />
  </way>
  <way id='-35847500' action='modify'>
    <nd ref='-135255220' />
    <nd ref='-135255221' />
    <tag k='type' v='arc' />
  </way>
  <way id='-35847501' action='modify'>
    <nd ref='-135255221' />
    <nd ref='-135255222' />
    <nd ref='-135255223' />
    <tag k='type' v='straight' />
  </way>
  <way id='-35847502' action='modify'>
    <nd ref='-135255223' />
    <nd ref='-135255224' />
    <tag k='type' v='arc' />
  </way>
  <way id='-35847503' action='modify'>
    <nd ref='-135255224' />
    <nd ref='-135255225' />
    <tag k='type' v='straight' />
  </way>
  <way id='-35847504' action='modify'>
    <nd ref='-135255225' />
    <nd ref='-135255226' />
    <tag k='type' v='arc' />
  </way>
  <way id='-35847505' action='modify'>
    <nd ref='-135255226' />
    <nd ref='-135255227' />
    <tag k='type' v='straight' />
  </way>
  <way id='-35847506' action='modify'>
    <nd ref='-135255227' />
    <nd ref='-135255228' />
    <tag k='type' v='arc' />
  </way>
  <way id='-35847507' action='modify'>
    <nd ref='-135255228' />
    <nd ref='-135255229' />
    <nd ref='-135255230' />
    <tag k='type' v='straight' />
  </way>
  <way id='-35847508' action='modify'>
    <nd ref='-135255230' />
    <nd ref='-135255231' />
    <tag k='type' v='arc' />
  </way>
  <way id='-35847509' action='modify'>
    <nd ref='-135255231' />
    <nd ref='-135255232' />
    <tag k='type' v='straight' />
  </way>
  <way id='-35847510' action='modify'>
    <nd ref='-135255232' />
    <nd ref='-135255233' />
    <tag k='type' v='arc' />
  </way>
  <way id='-35847511' action='modify'>
    <nd ref='-135255233' />
    <nd ref='-135255234' />
    <tag k='type' v='straight' />
  </way>
  <way id='-35847512' action='modify'>
    <nd ref='-135255234' />
    <nd ref='-135255235' />
    <tag k='type' v='curved' />
  </way>
  <way id='-35847513' action='modify'>
    <nd ref='-135255235' />
    <nd ref='-135255236' />
    <nd ref='-135255237' />
    <tag k='type' v='straight' />
  </way>
  <way id='-35847514' action='modify'>
    <nd ref='-135255237' />
    <nd ref='-135255238' />
  </way>
  <way id='-35847515' action='modify'>
    <nd ref='-135255238' />
    <nd ref='-135255240' />
    <tag k='type' v='straight' />
  </way>
  <way id='-35847516' action='modify'>
    <nd ref='-135255240' />
    <nd ref='-135255241' />
    <tag k='type' v='arc' />
  </way>
  <way id='-35847517' action='modify'>
    <nd ref='-135255241' />
    <nd ref='-135255242' />
    <tag k='type' v='straight' />
  </way>
  <way id='-35847518' action='modify'>
    <nd ref='-135255242' />
    <nd ref='-135255243' />
  </way>
  <way id='-35847519' action='modify'>
    <nd ref='-135255243' />
    <nd ref='-135255244' />
    <tag k='type' v='straight' />
  </way>
  <way id='-35847520' action='modify'>
    <nd ref='-135255244' />
    <nd ref='-135255245' />
    <tag k='type' v='arc' />
  </way>
  <way id='-35847521' action='modify'>
    <nd ref='-135255245' />
    <nd ref='-135255246' />
    <tag k='type' v='straight' />
  </way>
  <way id='-35847522' action='modify'>
    <nd ref='-135255246' />
    <nd ref='-135255247' />
    <tag k='type' v='arc' />
  </way>
  <way id='-35847523' action='modify'>
    <nd ref='-135255247' />
    <nd ref='-135255248' />
    <nd ref='-135255249' />
    <tag k='type' v='straight' />
  </way>
  <way id='-35847524' action='modify'>
    <nd ref='-135255249' />
    <nd ref='-135255250' />
    <tag k='type' v='arc' />
  </way>
  <way id='-35847525' action='modify'>
    <nd ref='-135255250' />
    <nd ref='-135255251' />
    <tag k='type' v='straight' />
  </way>
  <way id='-35847526' action='modify'>
    <nd ref='-135255251' />
    <nd ref='-135255252' />
    <tag k='type' v='arc' />
  </way>
  <way id='-35847527' action='modify'>
    <nd ref='-135255252' />
    <nd ref='-135255253' />
    <tag k='type' v='straight' />
  </way>
  <way id='-35847528' action='modify'>
    <nd ref='-135255253' />
    <nd ref='-135255254' />
    <nd ref='-135255255' />
    <tag k='type' v='arc' />
  </way>
  <way id='-35847529' action='modify'>
    <nd ref='-135255255' />
    <nd ref='-135255256' />
    <tag k='type' v='straight' />
  </way>
  <way id='-35847530' action='modify'>
    <nd ref='-135255256' />
    <nd ref='-135255257' />
    <tag k='type' v='arc' />
  </way>
  <way id='-35847531' action='modify'>
    <nd ref='-135255257' />
    <nd ref='-135255258' />
    <tag k='type' v='straight' />
  </way>
  <way id='-35847532' action='modify'>
    <nd ref='-135255258' />
    <nd ref='-135255259' />
    <tag k='type' v='arc' />
  </way>
  <way id='-35847533' action='modify'>
    <nd ref='-135255259' />
    <nd ref='-135255260' />
    <nd ref='-135255261' />
    <tag k='type' v='straight' />
  </way>
  <way id='-35847534' action='modify'>
    <nd ref='-135255261' />
    <nd ref='-135255262' />
    <tag k='type' v='arc' />
  </way>
  <way id='-35847535' action='modify'>
    <nd ref='-135255262' />
    <nd ref='-135255263' />
    <tag k='type' v='straight' />
  </way>
  <way id='-35847536' action='modify'>
    <nd ref='-135255263' />
    <nd ref='-135255264' />
    <tag k='type' v='curved' />
  </way>
  <way id='-35847537' action='modify'>
    <nd ref='-135255264' />
    <nd ref='-135255265' />
    <nd ref='-135255266' />
    <nd ref='-135255267' />
    <tag k='type' v='straight' />
  </way>
  <relation id='-14229361' action='modify'>
    <member type='way' ref='-35847427' role='' />
    <member type='way' ref='-35847428' role='' />
    <member type='way' ref='-35847429' role='' />
    <member type='way' ref='-35847430' role='' />
    <member type='way' ref='-35847431' role='' />
    <member type='way' ref='-35847432' role='' />
    <member type='way' ref='-35847433' role='' />
    <member type='way' ref='-35847434' role='' />
    <member type='way' ref='-35847435' role='' />
    <member type='way' ref='-35847436' role='' />
    <member type='way' ref='-35847437' role='' />
    <member type='way' ref='-35847438' role='' />
    <member type='way' ref='-35847439' role='' />
    <member type='way' ref='-35847440' role='' />
    <member type='way' ref='-35847441' role='' />
    <member type='way' ref='-35847442' role='' />
    <member type='way' ref='-35847443' role='' />
    <member type='way' ref='-35847444' role='' />
    <member type='way' ref='-35847445' role='' />
    <member type='way' ref='-35847446' role='' />
    <member type='way' ref='-35847447' role='' />
    <member type='way' ref='-35847448' role='' />
    <member type='way' ref='-35847449' role='' />
    <member type='way' ref='-35847450' role='' />
    <member type='way' ref='-35847451' role='' />
    <member type='way' ref='-35847452' role='' />
    <member type='way' ref='-35847453' role='' />
    <member type='way' ref='-35847454' role='' />
    <member type='way' ref='-35847455' role='' />
    <member type='way' ref='-35847456' role='' />
    <member type='way' ref='-35847457' role='' />
    <member type='way' ref='-35847458' role='' />
    <member type='way' ref='-35847459' role='' />
    <member type='way' ref='-35847460' role='' />
    <member type='way' ref='-35847461' role='' />
    <member type='way' ref='-35847462' role='' />
    <member type='way' ref='-35847463' role='' />
    <member type='way' ref='-35847464' role='' />
    <member type='way' ref='-35847465' role='' />
    <member type='way' ref='-35847466' role='' />
    <member type='way' ref='-35847467' role='' />
    <member type='way' ref='-35847468' role='' />
    <member type='way' ref='-35847469' role='' />
    <member type='way' ref='-35847470' role='' />
    <member type='way' ref='-35847471' role='' />
    <member type='way' ref='-35847472' role='' />
    <member type='way' ref='-35847473' role='' />
    <member type='way' ref='-35847474' role='' />
    <member type='way' ref='-35847475' role='' />
    <member type='way' ref='-35847476' role='' />
    <member type='way' ref='-35847477' role='' />
    <member type='way' ref='-35847478' role='' />
    <member type='way' ref='-35847479' role='' />
    <member type='way' ref='-35847480' role='' />
    <member type='way' ref='-35847481' role='' />
    <member type='way' ref='-35847482' role='' />
    <member type='way' ref='-35847483' role='' />
    <member type='way' ref='-35847484' role='' />
    <member type='way' ref='-35847485' role='' />
    <member type='way' ref='-35847486' role='' />
    <member type='way' ref='-35847487' role='' />
    <member type='way' ref='-35847488' role='' />
    <member type='way' ref='-35847489' role='' />
    <member type='way' ref='-35847490' role='' />
    <member type='way' ref='-35847491' role='' />
    <member type='way' ref='-35847492' role='' />
    <member type='way' ref='-35847493' role='' />
    <member type='way' ref='-35847494' role='' />
    <member type='way' ref='-35847495' role='' />
    <member type='way' ref='-35847496' role='' />
    <member type='way' ref='-35847497' role='' />
    <member type='way' ref='-35847498' role='' />
    <member type='way' ref='-35847499' role='' />
    <member type='way' ref='-35847500' role='' />
    <member type='way' ref='-35847501' role='' />
    <member type='way' ref='-35847502' role='' />
    <member type='way' ref='-35847503' role='' />
    <member type='way' ref='-35847504' role='' />
    <member type='way' ref='-35847505' role='' />
    <member type='way' ref='-35847506' role='' />
    <member type='way' ref='-35847507' role='' />
    <member type='way' ref='-35847508' role='' />
    <member type='way' ref='-35847509' role='' />
    <member type='way' ref='-35847510' role='' />
    <member type='way' ref='-35847511' role='' />
    <member type='way' ref='-35847512' role='' />
    <member type='way' ref='-35847513' role='' />
    <member type='way' ref='-35847514' role='' />
    <member type='way' ref='-35847515' role='' />
    <member type='way' ref='-35847516' role='' />
    <member type='way' ref='-35847517' role='' />
    <member type='way' ref='-35847518' role='' />
    <member type='way' ref='-35847519' role='' />
    <member type='way' ref='-35847520' role='' />
    <member type='way' ref='-35847521' role='' />
    <member type='way' ref='-35847522' role='' />
    <member type='way' ref='-35847523' role='' />
    <member type='way' ref='-35847524' role='' />
    <member type='way' ref='-35847525' role='' />
    <member type='way' ref='-35847526' role='' />
    <member type='way' ref='-35847527' role='' />
    <member type='way' ref='-35847528' role='' />
    <member type='way' ref='-35847529' role='' />
    <member type='way' ref='-35847530' role='' />
    <member type='way' ref='-35847531' role='' />
    <member type='way' ref='-35847532' role='' />
    <member type='way' ref='-35847533' role='' />
    <member type='way' ref='-35847534' role='' />
    <member type='way' ref='-35847535' role='' />
    <member type='way' ref='-35847536' role='' />
    <member type='way' ref='-35847537' role='' />
    <tag k='key' v='path.dk.rsr' />
    <tag k='name' v='DK RSR' />
    <tag k='type' v='path' />
  </relation>
</osm>
