<?xml version='1.0' encoding='UTF-8'?>
<osm version='0.6' upload='false' generator='JOSM'>
  <node id='-159024477' action='modify' lat='52.44771700951' lon='4.80829148412' />
  <node id='-159024478' action='modify' lat='52.43865724234' lon='4.8137839221'>
    <tag k='name' v='zaa' />
  </node>
  <node id='-159024479' action='modify' lat='52.45412482306' lon='4.81081813306' />
  <node id='-159024480' action='modify' lat='52.4556726945' lon='4.81391876668'>
    <tag k='name' v='zab' />
  </node>
  <node id='-159024481' action='modify' lat='52.45675551713' lon='4.81922417812' />
  <node id='-159024482' action='modify' lat='52.45674103255' lon='4.82081390845'>
    <tag k='name' v='zko' />
  </node>
  <node id='-159024483' action='modify' lat='52.4567081186' lon='4.8244263225' />
  <node id='-159024484' action='modify' lat='52.45691569107' lon='4.82781328194' />
  <node id='-159024485' action='modify' lat='52.46201235105' lon='4.86536621913' />
  <node id='-159024486' action='modify' lat='52.46263907605' lon='4.86904755101'>
    <tag k='name' v='oza' />
  </node>
  <node id='-159024487' action='modify' lat='52.46497021862' lon='4.87608432636' />
  <node id='-159024488' action='modify' lat='52.47826591117' lon='4.90463375911' />
  <node id='-159024489' action='modify' lat='52.4799824166' lon='4.9076894664' />
  <node id='-159024490' action='modify' lat='52.49153717299' lon='4.92420449719' />
  <node id='-159024491' action='modify' lat='52.49518341404' lon='4.93159934811' />
  <node id='-159024492' action='modify' lat='52.49603271331' lon='4.93403704888'>
    <tag k='name' v='pwe' />
  </node>
  <node id='-159024493' action='modify' lat='52.49788799418' lon='4.93936233155' />
  <node id='-159024494' action='modify' lat='52.49896365642' lon='4.94414471023' />
  <node id='-159024495' action='modify' lat='52.49922227808' lon='4.94616677638'>
    <tag k='name' v='nka' />
  </node>
  <node id='-159024496' action='modify' lat='52.4993290082' lon='4.94700126283' />
  <node id='-159024497' action='modify' lat='52.50179005295' lon='4.95252393119' />
  <node id='-159024498' action='modify' lat='52.50302663084' lon='4.95360408894'>
    <tag k='name' v='pur' />
  </node>
  <node id='-159024499' action='modify' lat='52.50512851037' lon='4.95544016227' />
  <node id='-159024500' action='modify' lat='52.50632439918' lon='4.9564594017' />
  <node id='-159024501' action='modify' lat='52.50747699296' lon='4.95747730002' />
  <node id='-159024502' action='modify' lat='52.50990534056' lon='4.96185332403' />
  <node id='-159024503' action='modify' lat='52.51167483135' lon='4.9688751468'>
    <tag k='name' v='pov' />
  </node>
  <node id='-159024504' action='modify' lat='52.51511338756' lon='4.98252108559' />
  <node id='-159024505' action='modify' lat='52.51730709565' lon='4.98768970236' />
  <node id='-159024506' action='modify' lat='52.52070088298' lon='4.99273679213'>
    <tag k='name' v='kwa' />
  </node>
  <node id='-159024507' action='modify' lat='52.52200671351' lon='4.99467886917' />
  <node id='-159024508' action='modify' lat='52.52464253107' lon='4.99675288763' />
  <node id='-159024509' action='modify' lat='52.52742056666' lon='4.99754682049' />
  <node id='-159024510' action='modify' lat='52.52869662065' lon='4.99777950279' />
  <node id='-159024511' action='modify' lat='52.55225959998' lon='5.00025600491'>
    <tag k='name' v='mid' />
  </node>
  <node id='-159024512' action='modify' lat='52.57581978099' lon='5.00273354284' />
  <node id='-159024513' action='modify' lat='52.57691024282' lon='5.00288709931' />
  <node id='-159024514' action='modify' lat='52.57883051707' lon='5.00322294068'>
    <tag k='name' v='ohu' />
  </node>
  <node id='-159024515' action='modify' lat='52.58434022794' lon='5.00418662891' />
  <node id='-159024516' action='modify' lat='52.58504995234' lon='5.00432208113' />
  <node id='-159024517' action='modify' lat='52.60195971596' lon='5.00783256117'>
    <tag k='name' v='sar' />
  </node>
  <node id='-159024518' action='modify' lat='52.61925819162' lon='5.0114251407'>
    <tag k='name' v='ave' />
  </node>
  <node id='-159024519' action='modify' lat='52.63263068737' lon='5.01420333847' />
  <node id='-159024520' action='modify' lat='52.64036169201' lon='5.02432800762' />
  <node id='-159024521' action='modify' lat='52.64531829029' lon='5.04739969835' />
  <node id='-159024522' action='modify' lat='52.64545702789' lon='5.05094557866' />
  <node id='-159024523' action='modify' lat='52.6450540564' lon='5.05450584912'>
    <tag k='name' v='hoo' />
  </node>
  <node id='-159024524' action='modify' lat='52.64475194339' lon='5.0571750091' />
  <node id='-159024525' action='modify' lat='52.64464086978' lon='5.05840949647' />
  <node id='-159024526' action='modify' lat='52.64459448747' lon='5.05904115669' />
  <node id='-159024527' action='modify' lat='52.64475357043' lon='5.0610803061' />
  <node id='-159024528' action='modify' lat='52.6474823022' lon='5.0728773319' />
  <node id='-159024529' action='modify' lat='52.64932360154' lon='5.07772743635' />
  <node id='-159024530' action='modify' lat='52.65312270547' lon='5.08454542683'>
    <tag k='name' v='hke' />
  </node>
  <node id='-159024531' action='modify' lat='52.66491488141' lon='5.10575443721'>
    <tag k='name' v='blo' />
  </node>
  <node id='-159024532' action='modify' lat='52.66711052719' lon='5.10969614504' />
  <node id='-159024533' action='modify' lat='52.66831586631' lon='5.11225685343' />
  <node id='-159024534' action='modify' lat='52.67702445236' lon='5.13443872198' />
  <node id='-159024535' action='modify' lat='52.6777036062' lon='5.13645004448' />
  <node id='-159024536' action='modify' lat='52.67822765936' lon='5.13820207447'>
    <tag k='name' v='wwo' />
  </node>
  <node id='-159024537' action='modify' lat='52.68081505992' lon='5.14685265653' />
  <node id='-159024538' action='modify' lat='52.68129231862' lon='5.14833390579' />
  <node id='-159024539' action='modify' lat='52.68265617497' lon='5.15224926107' />
  <node id='-159024540' action='modify' lat='52.68336877806' lon='5.15399739113' />
  <node id='-159024541' action='modify' lat='52.68525409247' lon='5.15811726384' />
  <node id='-159024542' action='modify' lat='52.68679057554' lon='5.16328688644' />
  <node id='-159024543' action='modify' lat='52.68972495012' lon='5.17931856302' />
  <node id='-159024544' action='modify' lat='52.69001255457' lon='5.18090279008' />
  <node id='-159024545' action='modify' lat='52.6903535449' lon='5.18283314936' />
  <node id='-159024546' action='modify' lat='52.69073049257' lon='5.18485833092'>
    <tag k='name' v='hok' />
  </node>
  <node id='-159024547' action='modify' lat='52.69088272267' lon='5.18566891417' />
  <node id='-159024548' action='modify' lat='52.69172833973' lon='5.19030120828' />
  <node id='-159024549' action='modify' lat='52.69253382643' lon='5.19449885159' />
  <node id='-159024550' action='modify' lat='52.69367359997' lon='5.2007570111' />
  <node id='-159024551' action='modify' lat='52.6939336993' lon='5.2021028088' />
  <node id='-159024552' action='modify' lat='52.69466115485' lon='5.20565271311' />
  <node id='-159024553' action='modify' lat='52.69543939738' lon='5.21489225261'>
    <tag k='name' v='lut' />
  </node>
  <node id='-159024554' action='modify' lat='52.69501715681' lon='5.23148640923' />
  <node id='-159024555' action='modify' lat='52.69501268689' lon='5.23274235293' />
  <node id='-159024556' action='modify' lat='52.69503788286' lon='5.2356733375' />
  <node id='-159024557' action='modify' lat='52.69506145365' lon='5.23742481999'>
    <tag k='name' v='bog' />
  </node>
  <node id='-159024558' action='modify' lat='52.69509599703' lon='5.23919440739' />
  <node id='-159024559' action='modify' lat='52.69515898783' lon='5.24357512526' />
  <node id='-159024560' action='modify' lat='52.69546773788' lon='5.24767835142' />
  <node id='-159024561' action='modify' lat='52.69555237388' lon='5.24836286768' />
  <node id='-159024562' action='modify' lat='52.69567835366' lon='5.2495363348' />
  <node id='-159024563' action='modify' lat='52.69618993909' lon='5.25460516653'>
    <tag k='name' v='bof' />
  </node>
  <node id='-159024564' action='modify' lat='52.69773381172' lon='5.26990234718' />
  <node id='-159024565' action='modify' lat='52.69807150181' lon='5.27363397114' />
  <node id='-159024566' action='modify' lat='52.69928821158' lon='5.28572121765'>
    <tag k='name' v='enk' />
  </node>
  <node id='-159024567' action='modify' lat='52.69957299448' lon='5.28855040535'>
    <tag k='name' v='enk.f' />
  </node>
  <node id='-159024568' action='modify' lat='52.65520547345' lon='5.08828347867' />
  <node id='-159024569' action='modify' lat='52.65583395125' lon='5.08945410473' />
  <way id='-37236974' action='modify'>
    <nd ref='-159024478' />
    <nd ref='-159024477' />
    <tag k='type' v='straight' />
  </way>
  <way id='-37236975' action='modify'>
    <nd ref='-159024477' />
    <nd ref='-159024479' />
  </way>
  <way id='-37236976' action='modify'>
    <nd ref='-159024479' />
    <nd ref='-159024480' />
    <tag k='type' v='straight' />
  </way>
  <way id='-37236977' action='modify'>
    <nd ref='-159024480' />
    <nd ref='-159024481' />
  </way>
  <way id='-37236978' action='modify'>
    <nd ref='-159024481' />
    <nd ref='-159024482' />
    <nd ref='-159024483' />
    <tag k='type' v='straight' />
  </way>
  <way id='-37236979' action='modify'>
    <nd ref='-159024483' />
    <nd ref='-159024484' />
  </way>
  <way id='-37236980' action='modify'>
    <nd ref='-159024484' />
    <nd ref='-159024485' />
    <tag k='type' v='straight' />
  </way>
  <way id='-37236981' action='modify'>
    <nd ref='-159024485' />
    <nd ref='-159024486' />
    <nd ref='-159024487' />
  </way>
  <way id='-37236982' action='modify'>
    <nd ref='-159024487' />
    <nd ref='-159024488' />
    <tag k='type' v='straight' />
  </way>
  <way id='-37236983' action='modify'>
    <nd ref='-159024488' />
    <nd ref='-159024489' />
  </way>
  <way id='-37236984' action='modify'>
    <nd ref='-159024489' />
    <nd ref='-159024490' />
    <tag k='type' v='straight' />
  </way>
  <way id='-37236985' action='modify'>
    <nd ref='-159024490' />
    <nd ref='-159024491' />
  </way>
  <way id='-37236986' action='modify'>
    <nd ref='-159024491' />
    <nd ref='-159024492' />
    <nd ref='-159024493' />
    <tag k='type' v='straight' />
  </way>
  <way id='-37236987' action='modify'>
    <nd ref='-159024493' />
    <nd ref='-159024494' />
  </way>
  <way id='-37236988' action='modify'>
    <nd ref='-159024494' />
    <nd ref='-159024495' />
    <nd ref='-159024496' />
    <tag k='type' v='straight' />
  </way>
  <way id='-37236989' action='modify'>
    <nd ref='-159024496' />
    <nd ref='-159024497' />
  </way>
  <way id='-37236990' action='modify'>
    <nd ref='-159024497' />
    <nd ref='-159024498' />
    <nd ref='-159024499' />
    <tag k='type' v='straight' />
  </way>
  <way id='-37236991' action='modify'>
    <nd ref='-159024499' />
    <nd ref='-159024500' />
  </way>
  <way id='-37236992' action='modify'>
    <nd ref='-159024500' />
    <nd ref='-159024501' />
    <tag k='type' v='straight' />
  </way>
  <way id='-37236993' action='modify'>
    <nd ref='-159024501' />
    <nd ref='-159024502' />
  </way>
  <way id='-37236994' action='modify'>
    <nd ref='-159024502' />
    <nd ref='-159024503' />
    <nd ref='-159024504' />
    <tag k='type' v='straight' />
  </way>
  <way id='-37236995' action='modify'>
    <nd ref='-159024504' />
    <nd ref='-159024505' />
  </way>
  <way id='-37236996' action='modify'>
    <nd ref='-159024505' />
    <nd ref='-159024506' />
    <nd ref='-159024507' />
    <tag k='type' v='straight' />
  </way>
  <way id='-37236997' action='modify'>
    <nd ref='-159024507' />
    <nd ref='-159024508' />
  </way>
  <way id='-37236998' action='modify'>
    <nd ref='-159024508' />
    <nd ref='-159024509' />
    <tag k='type' v='straight' />
  </way>
  <way id='-37236999' action='modify'>
    <nd ref='-159024509' />
    <nd ref='-159024510' />
  </way>
  <way id='-37237000' action='modify'>
    <nd ref='-159024510' />
    <nd ref='-159024511' />
    <nd ref='-159024512' />
    <tag k='type' v='straight' />
  </way>
  <way id='-37237001' action='modify'>
    <nd ref='-159024512' />
    <nd ref='-159024513' />
  </way>
  <way id='-37237002' action='modify'>
    <nd ref='-159024513' />
    <nd ref='-159024514' />
    <nd ref='-159024515' />
    <tag k='type' v='straight' />
  </way>
  <way id='-37237003' action='modify'>
    <nd ref='-159024515' />
    <nd ref='-159024516' />
  </way>
  <way id='-37237004' action='modify'>
    <nd ref='-159024516' />
    <nd ref='-159024517' />
    <nd ref='-159024518' />
    <nd ref='-159024519' />
    <tag k='type' v='straight' />
  </way>
  <way id='-37237005' action='modify'>
    <nd ref='-159024519' />
    <nd ref='-159024520' />
  </way>
  <way id='-37237006' action='modify'>
    <nd ref='-159024520' />
    <nd ref='-159024521' />
    <tag k='type' v='straight' />
  </way>
  <way id='-37237007' action='modify'>
    <nd ref='-159024521' />
    <nd ref='-159024522' />
  </way>
  <way id='-37237008' action='modify'>
    <nd ref='-159024522' />
    <nd ref='-159024523' />
    <nd ref='-159024524' />
    <tag k='type' v='straight' />
  </way>
  <way id='-37237009' action='modify'>
    <nd ref='-159024524' />
    <nd ref='-159024525' />
  </way>
  <way id='-37237010' action='modify'>
    <nd ref='-159024525' />
    <nd ref='-159024526' />
    <tag k='type' v='straight' />
  </way>
  <way id='-37237011' action='modify'>
    <nd ref='-159024526' />
    <nd ref='-159024527' />
  </way>
  <way id='-37237012' action='modify'>
    <nd ref='-159024527' />
    <nd ref='-159024528' />
    <tag k='type' v='straight' />
  </way>
  <way id='-37237013' action='modify'>
    <nd ref='-159024528' />
    <nd ref='-159024529' />
  </way>
  <way id='-37237014' action='modify'>
    <nd ref='-159024569' />
    <nd ref='-159024531' />
    <nd ref='-159024532' />
    <tag k='type' v='straight' />
  </way>
  <way id='-37237015' action='modify'>
    <nd ref='-159024532' />
    <nd ref='-159024533' />
  </way>
  <way id='-37237016' action='modify'>
    <nd ref='-159024533' />
    <nd ref='-159024534' />
    <tag k='type' v='straight' />
  </way>
  <way id='-37237017' action='modify'>
    <nd ref='-159024534' />
    <nd ref='-159024535' />
  </way>
  <way id='-37237018' action='modify'>
    <nd ref='-159024535' />
    <nd ref='-159024536' />
    <nd ref='-159024537' />
    <tag k='type' v='straight' />
  </way>
  <way id='-37237019' action='modify'>
    <nd ref='-159024537' />
    <nd ref='-159024538' />
  </way>
  <way id='-37237020' action='modify'>
    <nd ref='-159024538' />
    <nd ref='-159024539' />
    <tag k='type' v='straight' />
  </way>
  <way id='-37237021' action='modify'>
    <nd ref='-159024539' />
    <nd ref='-159024540' />
  </way>
  <way id='-37237022' action='modify'>
    <nd ref='-159024540' />
    <nd ref='-159024541' />
    <tag k='type' v='straight' />
  </way>
  <way id='-37237023' action='modify'>
    <nd ref='-159024541' />
    <nd ref='-159024542' />
  </way>
  <way id='-37237024' action='modify'>
    <nd ref='-159024542' />
    <nd ref='-159024543' />
    <tag k='type' v='straight' />
  </way>
  <way id='-37237025' action='modify'>
    <nd ref='-159024543' />
    <nd ref='-159024544' />
  </way>
  <way id='-37237026' action='modify'>
    <nd ref='-159024544' />
    <nd ref='-159024545' />
    <tag k='type' v='straight' />
  </way>
  <way id='-37237027' action='modify'>
    <nd ref='-159024545' />
    <nd ref='-159024546' />
    <nd ref='-159024547' />
  </way>
  <way id='-37237028' action='modify'>
    <nd ref='-159024547' />
    <nd ref='-159024548' />
    <tag k='type' v='straight' />
  </way>
  <way id='-37237029' action='modify'>
    <nd ref='-159024548' />
    <nd ref='-159024549' />
  </way>
  <way id='-37237030' action='modify'>
    <nd ref='-159024549' />
    <nd ref='-159024550' />
    <tag k='type' v='straight' />
  </way>
  <way id='-37237031' action='modify'>
    <nd ref='-159024550' />
    <nd ref='-159024551' />
  </way>
  <way id='-37237032' action='modify'>
    <nd ref='-159024551' />
    <nd ref='-159024552' />
    <tag k='type' v='straight' />
  </way>
  <way id='-37237033' action='modify'>
    <nd ref='-159024552' />
    <nd ref='-159024553' />
  </way>
  <way id='-37237034' action='modify'>
    <nd ref='-159024553' />
    <nd ref='-159024554' />
    <tag k='type' v='straight' />
  </way>
  <way id='-37237035' action='modify'>
    <nd ref='-159024554' />
    <nd ref='-159024555' />
  </way>
  <way id='-37237036' action='modify'>
    <nd ref='-159024555' />
    <nd ref='-159024556' />
    <tag k='type' v='straight' />
  </way>
  <way id='-37237037' action='modify'>
    <nd ref='-159024556' />
    <nd ref='-159024557' />
    <nd ref='-159024558' />
  </way>
  <way id='-37237038' action='modify'>
    <nd ref='-159024558' />
    <nd ref='-159024559' />
    <tag k='type' v='straight' />
  </way>
  <way id='-37237039' action='modify'>
    <nd ref='-159024559' />
    <nd ref='-159024560' />
  </way>
  <way id='-37237040' action='modify'>
    <nd ref='-159024560' />
    <nd ref='-159024561' />
    <tag k='type' v='straight' />
  </way>
  <way id='-37237041' action='modify'>
    <nd ref='-159024561' />
    <nd ref='-159024562' />
  </way>
  <way id='-37237042' action='modify'>
    <nd ref='-159024562' />
    <nd ref='-159024563' />
    <nd ref='-159024564' />
    <tag k='type' v='straight' />
  </way>
  <way id='-37237043' action='modify'>
    <nd ref='-159024564' />
    <nd ref='-159024565' />
  </way>
  <way id='-37237044' action='modify'>
    <nd ref='-159024565' />
    <nd ref='-159024566' />
    <nd ref='-159024567' />
    <tag k='type' v='straight' />
  </way>
  <way id='-37237045' action='modify'>
    <nd ref='-159024529' />
    <nd ref='-159024530' />
    <nd ref='-159024568' />
    <tag k='type' v='straight' />
  </way>
  <way id='-37237046' action='modify'>
    <nd ref='-159024568' />
    <nd ref='-159024569' />
  </way>
  <relation id='-14476687' action='modify'>
    <member type='way' ref='-37236974' role='' />
    <member type='way' ref='-37236975' role='' />
    <member type='way' ref='-37236976' role='' />
    <member type='way' ref='-37236977' role='' />
    <member type='way' ref='-37236978' role='' />
    <member type='way' ref='-37236979' role='' />
    <member type='way' ref='-37236980' role='' />
    <member type='way' ref='-37236981' role='' />
    <member type='way' ref='-37236982' role='' />
    <member type='way' ref='-37236983' role='' />
    <member type='way' ref='-37236984' role='' />
    <member type='way' ref='-37236985' role='' />
    <member type='way' ref='-37236986' role='' />
    <member type='way' ref='-37236987' role='' />
    <member type='way' ref='-37236988' role='' />
    <member type='way' ref='-37236989' role='' />
    <member type='way' ref='-37236990' role='' />
    <member type='way' ref='-37236991' role='' />
    <member type='way' ref='-37236992' role='' />
    <member type='way' ref='-37236993' role='' />
    <member type='way' ref='-37236994' role='' />
    <member type='way' ref='-37236995' role='' />
    <member type='way' ref='-37236996' role='' />
    <member type='way' ref='-37236997' role='' />
    <member type='way' ref='-37236998' role='' />
    <member type='way' ref='-37236999' role='' />
    <member type='way' ref='-37237000' role='' />
    <member type='way' ref='-37237001' role='' />
    <member type='way' ref='-37237002' role='' />
    <member type='way' ref='-37237003' role='' />
    <member type='way' ref='-37237004' role='' />
    <member type='way' ref='-37237005' role='' />
    <member type='way' ref='-37237006' role='' />
    <member type='way' ref='-37237007' role='' />
    <member type='way' ref='-37237008' role='' />
    <member type='way' ref='-37237009' role='' />
    <member type='way' ref='-37237010' role='' />
    <member type='way' ref='-37237011' role='' />
    <member type='way' ref='-37237012' role='' />
    <member type='way' ref='-37237013' role='' />
    <member type='way' ref='-37237045' role='' />
    <member type='way' ref='-37237046' role='' />
    <member type='way' ref='-37237014' role='' />
    <member type='way' ref='-37237015' role='' />
    <member type='way' ref='-37237016' role='' />
    <member type='way' ref='-37237017' role='' />
    <member type='way' ref='-37237018' role='' />
    <member type='way' ref='-37237019' role='' />
    <member type='way' ref='-37237020' role='' />
    <member type='way' ref='-37237021' role='' />
    <member type='way' ref='-37237022' role='' />
    <member type='way' ref='-37237023' role='' />
    <member type='way' ref='-37237024' role='' />
    <member type='way' ref='-37237025' role='' />
    <member type='way' ref='-37237026' role='' />
    <member type='way' ref='-37237027' role='' />
    <member type='way' ref='-37237028' role='' />
    <member type='way' ref='-37237029' role='' />
    <member type='way' ref='-37237030' role='' />
    <member type='way' ref='-37237031' role='' />
    <member type='way' ref='-37237032' role='' />
    <member type='way' ref='-37237033' role='' />
    <member type='way' ref='-37237034' role='' />
    <member type='way' ref='-37237035' role='' />
    <member type='way' ref='-37237036' role='' />
    <member type='way' ref='-37237037' role='' />
    <member type='way' ref='-37237038' role='' />
    <member type='way' ref='-37237039' role='' />
    <member type='way' ref='-37237040' role='' />
    <member type='way' ref='-37237041' role='' />
    <member type='way' ref='-37237042' role='' />
    <member type='way' ref='-37237043' role='' />
    <member type='way' ref='-37237044' role='' />
    <tag k='key' v='path.nl.zeh' />
    <tag k='name' v='NL ZEH' />
    <tag k='source' v='src.nl.PDOK-Luchtfoto-RGB' />
    <tag k='type' v='path' />
  </relation>
</osm>
