<?xml version='1.0' encoding='UTF-8'?>
<osm version='0.6' upload='false' generator='JOSM'>
  <node id='-160069656' action='modify' lat='52.44362854616' lon='4.81071547288' />
  <node id='-160069657' action='modify' lat='52.43864497907' lon='4.81372893681'>
    <tag k='name' v='zaa' />
  </node>
  <node id='-160069659' action='modify' lat='52.42662674122' lon='4.8141561395' />
  <node id='-160069660' action='modify' lat='52.4158373392' lon='4.80658694566' />
  <node id='-160069661' action='modify' lat='52.41479151401' lon='4.8059154818'>
    <tag k='name' v='het.f' />
  </node>
  <node id='-160069662' action='modify' lat='52.40912027871' lon='4.80359167065' />
  <node id='-160069663' action='modify' lat='52.40645356919' lon='4.80318723024' />
  <node id='-160069664' action='modify' lat='52.4046611777' lon='4.80305525844'>
    <tag k='name' v='hem' />
  </node>
  <node id='-160069665' action='modify' lat='52.40215044668' lon='4.8028704051' />
  <node id='-160069666' action='modify' lat='52.39480547162' lon='4.80595528007'>
    <tag k='name' v='hou' />
  </node>
  <node id='-160069667' action='modify' lat='52.38986226676' lon='4.81771945685' />
  <node id='-160069668' action='modify' lat='52.38959708608' lon='4.8196667406' />
  <node id='-160069669' action='modify' lat='52.3893271648' lon='4.82180746482'>
    <tag k='name' v='rad' />
  </node>
  <node id='-160069670' action='modify' lat='52.38913874535' lon='4.82652783126' />
  <node id='-160069671' action='modify' lat='52.3891438662' lon='4.83043303772' />
  <node id='-160069672' action='modify' lat='52.38915389109' lon='4.83807810845'>
    <tag k='name' v='asl' />
  </node>
  <node id='-160069673' action='modify' lat='52.38915838862' lon='4.8415079686' />
  <node id='-160069674' action='modify' lat='52.38906145291' lon='4.85005354454' />
  <node id='-160069675' action='modify' lat='52.38915312009' lon='4.86542399842'>
    <tag k='name' v='obr' />
  </node>
  <node id='-160069676' action='modify' lat='52.38916821189' lon='4.86795454681' />
  <node id='-160069677' action='modify' lat='52.38878123352' lon='4.87265848218' />
  <node id='-160069678' action='modify' lat='52.38872262635' lon='4.87303589467' />
  <node id='-160069680' action='modify' lat='52.38725950024' lon='4.87912594736' />
  <node id='-160069681' action='modify' lat='52.38678440593' lon='4.88057276944'>
    <tag k='name' v='sin' />
  </node>
  <node id='-160069690' action='modify' lat='52.4276923838' lon='4.8147653515'>
    <tag k='name' v='het.a' />
  </node>
  <way id='-37298510' action='modify'>
    <nd ref='-160069656' />
    <nd ref='-160069657' />
    <tag k='type' v='straight' />
  </way>
  <way id='-37298511' action='modify'>
    <nd ref='-160069657' />
    <nd ref='-160069690' />
    <nd ref='-160069659' />
  </way>
  <way id='-37298512' action='modify'>
    <nd ref='-160069659' />
    <nd ref='-160069660' />
    <tag k='type' v='straight' />
  </way>
  <way id='-37298513' action='modify'>
    <nd ref='-160069660' />
    <nd ref='-160069661' />
    <nd ref='-160069662' />
    <nd ref='-160069663' />
  </way>
  <way id='-37298514' action='modify'>
    <nd ref='-160069663' />
    <nd ref='-160069664' />
    <nd ref='-160069665' />
    <tag k='type' v='straight' />
  </way>
  <way id='-37298515' action='modify'>
    <nd ref='-160069665' />
    <nd ref='-160069666' />
    <nd ref='-160069667' />
  </way>
  <way id='-37298516' action='modify'>
    <nd ref='-160069667' />
    <nd ref='-160069668' />
    <tag k='type' v='straight' />
  </way>
  <way id='-37298517' action='modify'>
    <nd ref='-160069668' />
    <nd ref='-160069669' />
    <nd ref='-160069670' />
  </way>
  <way id='-37298518' action='modify'>
    <nd ref='-160069670' />
    <nd ref='-160069671' />
    <nd ref='-160069672' />
    <nd ref='-160069673' />
    <tag k='type' v='straight' />
  </way>
  <way id='-37298519' action='modify'>
    <nd ref='-160069673' />
    <nd ref='-160069674' />
  </way>
  <way id='-37298520' action='modify'>
    <nd ref='-160069674' />
    <nd ref='-160069675' />
    <nd ref='-160069676' />
    <tag k='type' v='straight' />
  </way>
  <way id='-37298521' action='modify'>
    <nd ref='-160069676' />
    <nd ref='-160069677' />
  </way>
  <way id='-37298522' action='modify'>
    <nd ref='-160069677' />
    <nd ref='-160069678' />
    <tag k='type' v='straight' />
  </way>
  <way id='-37298523' action='modify'>
    <nd ref='-160069678' />
    <nd ref='-160069680' />
  </way>
  <way id='-37298524' action='modify'>
    <nd ref='-160069680' />
    <nd ref='-160069681' />
    <tag k='type' v='straight' />
  </way>
  <relation id='-14477085' action='modify'>
    <member type='way' ref='-37298510' role='' />
    <member type='way' ref='-37298511' role='' />
    <member type='way' ref='-37298512' role='' />
    <member type='way' ref='-37298513' role='' />
    <member type='way' ref='-37298514' role='' />
    <member type='way' ref='-37298515' role='' />
    <member type='way' ref='-37298516' role='' />
    <member type='way' ref='-37298517' role='' />
    <member type='way' ref='-37298518' role='' />
    <member type='way' ref='-37298519' role='' />
    <member type='way' ref='-37298520' role='' />
    <member type='way' ref='-37298521' role='' />
    <member type='way' ref='-37298522' role='' />
    <member type='way' ref='-37298523' role='' />
    <member type='way' ref='-37298524' role='' />
    <tag k='key' v='path.nl.zsg' />
    <tag k='name' v='NL ZSG' />
    <tag k='source' v='src.nl.PDOK-Luchtfoto-RGB src.nl.ProRail.Basiskaart' />
    <tag k='type' v='path' />
  </relation>
</osm>
