<?xml version='1.0' encoding='UTF-8'?>
<osm version='0.6' upload='false' generator='JOSM'>
  <node id='-174820261' action='modify' lat='56.44716481306' lon='9.39875811204' />
  <node id='-174820262' action='modify' lat='56.44731288589' lon='9.39835511414'>
    <tag k='name' v='vib' />
  </node>
  <node id='-174820263' action='modify' lat='56.44890816044' lon='9.3940132843' />
  <node id='-174820264' action='modify' lat='56.44945961081' lon='9.39228191838' />
  <node id='-174820265' action='modify' lat='56.45076556755' lon='9.38783749804' />
  <node id='-174820266' action='modify' lat='56.45174611736' lon='9.38509628043' />
  <node id='-174820267' action='modify' lat='56.45372789212' lon='9.38038498029' />
  <node id='-174820268' action='modify' lat='56.45554652786' lon='9.36971515283' />
  <node id='-174820269' action='modify' lat='56.45550132241' lon='9.36826541885' />
  <node id='-174820270' action='modify' lat='56.45508557789' lon='9.36404764518' />
  <node id='-174820271' action='modify' lat='56.45505074704' lon='9.36385452613' />
  <node id='-174820272' action='modify' lat='56.45565843188' lon='9.35392498434' />
  <node id='-174820273' action='modify' lat='56.45776894186' lon='9.34790610731' />
  <node id='-174820274' action='modify' lat='56.46234229913' lon='9.34313177526'>
    <tag k='name' v='mar.yv' />
  </node>
  <node id='-174820275' action='modify' lat='56.46274201241' lon='9.34310316427'>
    <tag k='name' v='mar' />
  </node>
  <node id='-174820276' action='modify' lat='56.46717588285' lon='9.34278577298' />
  <node id='-174820277' action='modify' lat='56.47083400434' lon='9.34428244293' />
  <node id='-174820278' action='modify' lat='56.48274230494' lon='9.35503810376' />
  <node id='-174820279' action='modify' lat='56.48726230847' lon='9.35562549949' />
  <node id='-174820280' action='modify' lat='56.49091404633' lon='9.35010552138' />
  <node id='-174820281' action='modify' lat='56.49182174443' lon='9.34674471349' />
  <node id='-174820282' action='modify' lat='56.49517100692' lon='9.34165119857' />
  <node id='-174820283' action='modify' lat='56.50920274645' lon='9.3343365779'>
    <tag k='name' v='log' />
  </node>
  <node id='-174820284' action='modify' lat='56.5098453484' lon='9.33400153041' />
  <node id='-174820285' action='modify' lat='56.51419785203' lon='9.33430462539' />
  <node id='-174820286' action='modify' lat='56.51515826645' lon='9.33479010522' />
  <node id='-174820287' action='modify' lat='56.51616452972' lon='9.33507441938' />
  <node id='-174820288' action='modify' lat='56.52011237374' lon='9.33533996075' />
  <node id='-174820289' action='modify' lat='56.52347541688' lon='9.33774321198'>
    <tag k='name' v='hja' />
  </node>
  <node id='-174820290' action='modify' lat='56.52539278792' lon='9.34381037682' />
  <node id='-174820291' action='modify' lat='56.52557771484' lon='9.34591859311' />
  <node id='-174820292' action='modify' lat='56.52608219088' lon='9.34866249293' />
  <node id='-174820293' action='modify' lat='56.52692247623' lon='9.35174435109' />
  <node id='-174820294' action='modify' lat='56.52752309132' lon='9.35680299729' />
  <node id='-174820295' action='modify' lat='56.52747575254' lon='9.35895144671' />
  <node id='-174820296' action='modify' lat='56.53145293197' lon='9.36975642236'>
    <tag k='name' v='kol' />
  </node>
  <node id='-174820297' action='modify' lat='56.53271372489' lon='9.37017112702' />
  <node id='-174820298' action='modify' lat='56.53923614006' lon='9.37075316638' />
  <node id='-174820299' action='modify' lat='56.5443482774' lon='9.3779897663' />
  <node id='-174820300' action='modify' lat='56.54478596376' lon='9.38052981824' />
  <node id='-174820301' action='modify' lat='56.54488574438' lon='9.38106228758'>
    <tag k='name' v='ned' />
  </node>
  <node id='-174820302' action='modify' lat='56.54688412642' lon='9.38740431994' />
  <node id='-174820303' action='modify' lat='56.54907679653' lon='9.39220010966' />
  <node id='-174820304' action='modify' lat='56.55121759531' lon='9.39501374692' />
  <node id='-174820305' action='modify' lat='56.55239143495' lon='9.3958130452' />
  <node id='-174820306' action='modify' lat='56.55462517932' lon='9.40102457464' />
  <node id='-174820307' action='modify' lat='56.55476992686' lon='9.4031334992'>
    <tag k='name' v='ska' />
  </node>
  <node id='-174820308' action='modify' lat='56.55511892071' lon='9.40821825922' />
  <node id='-174820309' action='modify' lat='56.55680409582' lon='9.41255271167' />
  <node id='-174820310' action='modify' lat='56.57961311451' lon='9.4379720065' />
  <node id='-174820311' action='modify' lat='56.58194066313' lon='9.43983704175'>
    <tag k='name' v='skr' />
  </node>
  <node id='-174820312' action='modify' lat='56.58638150211' lon='9.44070785969' />
  <node id='-174820313' action='modify' lat='56.59197167222' lon='9.4395786497' />
  <node id='-174820314' action='modify' lat='56.59802023674' lon='9.44697081506' />
  <node id='-174820315' action='modify' lat='56.60089355562' lon='9.46246325433'>
    <tag k='name' v='nor' />
  </node>
  <node id='-174820316' action='modify' lat='56.60151366771' lon='9.46501671731' />
  <node id='-174820317' action='modify' lat='56.61376935605' lon='9.49951977842'>
    <tag k='name' v='mol' />
  </node>
  <node id='-174820318' action='modify' lat='56.61438312467' lon='9.50124799669' />
  <node id='-174820319' action='modify' lat='56.61725372319' lon='9.50431107938' />
  <node id='-174820320' action='modify' lat='56.63177899749' lon='9.50621545047' />
  <node id='-174820321' action='modify' lat='56.63478398691' lon='9.50847118825' />
  <node id='-174820322' action='modify' lat='56.63578559687' lon='9.51001614064' />
  <node id='-174820323' action='modify' lat='56.6400395614' lon='9.51209485263' />
  <node id='-174820324' action='modify' lat='56.64097613618' lon='9.5118480894' />
  <node id='-174820325' action='modify' lat='56.64278727308' lon='9.5119392845' />
  <node id='-174820326' action='modify' lat='56.65611444901' lon='9.51687454641' />
  <node id='-174820327' action='modify' lat='56.65956859908' lon='9.51701134175' />
  <node id='-174820328' action='modify' lat='56.66336880025' lon='9.51616550359'>
    <tag k='name' v='hva' />
  </node>
  <node id='-174820329' action='modify' lat='56.66466595342' lon='9.51587676734' />
  <node id='-174820330' action='modify' lat='56.67118478769' lon='9.51792597234' />
  <node id='-174820331' action='modify' lat='56.67757430103' lon='9.52424525678' />
  <node id='-174820332' action='modify' lat='56.68507352328' lon='9.52040433347' />
  <node id='-174820333' action='modify' lat='56.68690021961' lon='9.51451420248' />
  <node id='-174820334' action='modify' lat='56.69036480662' lon='9.50866162241' />
  <node id='-174820335' action='modify' lat='56.69159029849' lon='9.50767456949' />
  <node id='-174820336' action='modify' lat='56.69498670862' lon='9.49893592715' />
  <node id='-174820337' action='modify' lat='56.69514845432' lon='9.49541998097'>
    <tag k='name' v='aal' />
  </node>
  <node id='-174820338' action='modify' lat='56.69567596513' lon='9.48395311296' />
  <node id='-174820339' action='modify' lat='56.44463859859' lon='9.40710246026' />
  <node id='-174820340' action='modify' lat='56.44554888616' lon='9.40846502244'>
    <tag k='name' v='vib' />
  </node>
  <node id='-174820341' action='modify' lat='56.44697279995' lon='9.41059647047' />
  <node id='-174820342' action='modify' lat='56.44242061683' lon='9.40471527815' />
  <node id='-174820343' action='modify' lat='56.43852992485' lon='9.4020545268'>
    <tag k='name' v='vib.ys' />
  </node>
  <node id='-174820344' action='modify' lat='56.43170839093' lon='9.38874004125' />
  <node id='-174820345' action='modify' lat='56.4314355041' lon='9.3857788825' />
  <node id='-174820346' action='modify' lat='56.43140583644' lon='9.38059686542' />
  <node id='-174820347' action='modify' lat='56.43567933569' lon='9.34575416411' />
  <node id='-174820348' action='modify' lat='56.43801982916' lon='9.34263824344' />
  <node id='-174820349' action='modify' lat='56.44141832132' lon='9.34311031222' />
  <node id='-174820350' action='modify' lat='56.4422426916' lon='9.34332488894' />
  <node id='-174820351' action='modify' lat='56.44415231522' lon='9.34391497493' />
  <node id='-174820352' action='modify' lat='56.44649473488' lon='9.34304593921' />
  <node id='-174820353' action='modify' lat='56.44739015336' lon='9.34194086909' />
  <node id='-174820354' action='modify' lat='56.44963750151' lon='9.34085725665' />
  <node id='-174820355' action='modify' lat='56.45413772787' lon='9.34403299212' />
  <node id='-174820356' action='modify' lat='56.45748142142' lon='9.34408664167' />
  <node id='-174820357' action='modify' lat='56.45820762865' lon='9.34368967474' />
  <node id='-174820358' action='modify' lat='56.45947829546' lon='9.34333676837' />
  <way id='-38293703' action='modify'>
    <nd ref='-174820261' />
    <nd ref='-174820262' />
    <nd ref='-174820263' />
    <tag k='type' v='straight' />
  </way>
  <way id='-38293704' action='modify'>
    <nd ref='-174820263' />
    <nd ref='-174820264' />
  </way>
  <way id='-38293705' action='modify'>
    <nd ref='-174820264' />
    <nd ref='-174820265' />
    <tag k='type' v='straight' />
  </way>
  <way id='-38293706' action='modify'>
    <nd ref='-174820265' />
    <nd ref='-174820266' />
  </way>
  <way id='-38293707' action='modify'>
    <nd ref='-174820266' />
    <nd ref='-174820267' />
    <tag k='type' v='straight' />
  </way>
  <way id='-38293708' action='modify'>
    <nd ref='-174820267' />
    <nd ref='-174820268' />
  </way>
  <way id='-38293709' action='modify'>
    <nd ref='-174820268' />
    <nd ref='-174820269' />
    <tag k='type' v='straight' />
  </way>
  <way id='-38293710' action='modify'>
    <nd ref='-174820269' />
    <nd ref='-174820270' />
  </way>
  <way id='-38293711' action='modify'>
    <nd ref='-174820270' />
    <nd ref='-174820271' />
    <tag k='type' v='straight' />
  </way>
  <way id='-38293712' action='modify'>
    <nd ref='-174820271' />
    <nd ref='-174820272' />
  </way>
  <way id='-38293713' action='modify'>
    <nd ref='-174820272' />
    <nd ref='-174820273' />
    <tag k='type' v='straight' />
  </way>
  <way id='-38293714' action='modify'>
    <nd ref='-174820273' />
    <nd ref='-174820274' />
  </way>
  <way id='-38293715' action='modify'>
    <nd ref='-174820274' />
    <nd ref='-174820275' />
    <nd ref='-174820276' />
    <tag k='type' v='straight' />
  </way>
  <way id='-38293716' action='modify'>
    <nd ref='-174820276' />
    <nd ref='-174820277' />
  </way>
  <way id='-38293717' action='modify'>
    <nd ref='-174820277' />
    <nd ref='-174820278' />
    <tag k='type' v='straight' />
  </way>
  <way id='-38293718' action='modify'>
    <nd ref='-174820278' />
    <nd ref='-174820279' />
    <nd ref='-174820280' />
  </way>
  <way id='-38293719' action='modify'>
    <nd ref='-174820280' />
    <nd ref='-174820281' />
    <tag k='type' v='straight' />
  </way>
  <way id='-38293720' action='modify'>
    <nd ref='-174820281' />
    <nd ref='-174820282' />
  </way>
  <way id='-38293721' action='modify'>
    <nd ref='-174820282' />
    <nd ref='-174820283' />
    <nd ref='-174820284' />
    <tag k='type' v='straight' />
  </way>
  <way id='-38293722' action='modify'>
    <nd ref='-174820284' />
    <nd ref='-174820285' />
  </way>
  <way id='-38293723' action='modify'>
    <nd ref='-174820285' />
    <nd ref='-174820286' />
    <tag k='type' v='straight' />
  </way>
  <way id='-38293724' action='modify'>
    <nd ref='-174820286' />
    <nd ref='-174820287' />
  </way>
  <way id='-38293725' action='modify'>
    <nd ref='-174820287' />
    <nd ref='-174820288' />
    <tag k='type' v='straight' />
  </way>
  <way id='-38293726' action='modify'>
    <nd ref='-174820288' />
    <nd ref='-174820289' />
    <nd ref='-174820290' />
  </way>
  <way id='-38293727' action='modify'>
    <nd ref='-174820290' />
    <nd ref='-174820291' />
    <tag k='type' v='straight' />
  </way>
  <way id='-38293728' action='modify'>
    <nd ref='-174820291' />
    <nd ref='-174820292' />
  </way>
  <way id='-38293729' action='modify'>
    <nd ref='-174820292' />
    <nd ref='-174820293' />
    <tag k='type' v='straight' />
  </way>
  <way id='-38293730' action='modify'>
    <nd ref='-174820293' />
    <nd ref='-174820294' />
  </way>
  <way id='-38293731' action='modify'>
    <nd ref='-174820294' />
    <nd ref='-174820295' />
    <tag k='type' v='straight' />
  </way>
  <way id='-38293732' action='modify'>
    <nd ref='-174820295' />
    <nd ref='-174820296' />
    <nd ref='-174820297' />
  </way>
  <way id='-38293733' action='modify'>
    <nd ref='-174820297' />
    <nd ref='-174820298' />
    <tag k='type' v='straight' />
  </way>
  <way id='-38293734' action='modify'>
    <nd ref='-174820298' />
    <nd ref='-174820299' />
  </way>
  <way id='-38293735' action='modify'>
    <nd ref='-174820299' />
    <nd ref='-174820300' />
    <tag k='type' v='straight' />
  </way>
  <way id='-38293736' action='modify'>
    <nd ref='-174820300' />
    <nd ref='-174820301' />
    <nd ref='-174820302' />
  </way>
  <way id='-38293737' action='modify'>
    <nd ref='-174820302' />
    <nd ref='-174820303' />
    <tag k='type' v='straight' />
  </way>
  <way id='-38293738' action='modify'>
    <nd ref='-174820303' />
    <nd ref='-174820304' />
  </way>
  <way id='-38293739' action='modify'>
    <nd ref='-174820304' />
    <nd ref='-174820305' />
    <tag k='type' v='straight' />
  </way>
  <way id='-38293740' action='modify'>
    <nd ref='-174820305' />
    <nd ref='-174820306' />
  </way>
  <way id='-38293741' action='modify'>
    <nd ref='-174820306' />
    <nd ref='-174820307' />
    <nd ref='-174820308' />
    <tag k='type' v='straight' />
  </way>
  <way id='-38293742' action='modify'>
    <nd ref='-174820308' />
    <nd ref='-174820309' />
  </way>
  <way id='-38293743' action='modify'>
    <nd ref='-174820309' />
    <nd ref='-174820310' />
    <tag k='type' v='straight' />
  </way>
  <way id='-38293744' action='modify'>
    <nd ref='-174820310' />
    <nd ref='-174820311' />
    <nd ref='-174820312' />
  </way>
  <way id='-38293745' action='modify'>
    <nd ref='-174820312' />
    <nd ref='-174820313' />
    <tag k='type' v='straight' />
  </way>
  <way id='-38293746' action='modify'>
    <nd ref='-174820313' />
    <nd ref='-174820314' />
  </way>
  <way id='-38293747' action='modify'>
    <nd ref='-174820314' />
    <nd ref='-174820315' />
    <tag k='type' v='straight' />
  </way>
  <way id='-38293748' action='modify'>
    <nd ref='-174820315' />
    <nd ref='-174820316' />
  </way>
  <way id='-38293749' action='modify'>
    <nd ref='-174820316' />
    <nd ref='-174820317' />
    <nd ref='-174820318' />
    <tag k='type' v='straight' />
  </way>
  <way id='-38293750' action='modify'>
    <nd ref='-174820318' />
    <nd ref='-174820319' />
  </way>
  <way id='-38293751' action='modify'>
    <nd ref='-174820319' />
    <nd ref='-174820320' />
    <tag k='type' v='straight' />
  </way>
  <way id='-38293752' action='modify'>
    <nd ref='-174820320' />
    <nd ref='-174820321' />
  </way>
  <way id='-38293753' action='modify'>
    <nd ref='-174820321' />
    <nd ref='-174820322' />
    <tag k='type' v='straight' />
  </way>
  <way id='-38293754' action='modify'>
    <nd ref='-174820322' />
    <nd ref='-174820323' />
  </way>
  <way id='-38293755' action='modify'>
    <nd ref='-174820323' />
    <nd ref='-174820324' />
    <tag k='type' v='straight' />
  </way>
  <way id='-38293756' action='modify'>
    <nd ref='-174820324' />
    <nd ref='-174820325' />
  </way>
  <way id='-38293757' action='modify'>
    <nd ref='-174820325' />
    <nd ref='-174820326' />
    <tag k='type' v='straight' />
  </way>
  <way id='-38293758' action='modify'>
    <nd ref='-174820326' />
    <nd ref='-174820327' />
  </way>
  <way id='-38293759' action='modify'>
    <nd ref='-174820327' />
    <nd ref='-174820328' />
    <nd ref='-174820329' />
    <tag k='type' v='straight' />
  </way>
  <way id='-38293760' action='modify'>
    <nd ref='-174820329' />
    <nd ref='-174820330' />
  </way>
  <way id='-38293761' action='modify'>
    <nd ref='-174820330' />
    <nd ref='-174820331' />
    <tag k='type' v='straight' />
  </way>
  <way id='-38293762' action='modify'>
    <nd ref='-174820331' />
    <nd ref='-174820332' />
  </way>
  <way id='-38293763' action='modify'>
    <nd ref='-174820332' />
    <nd ref='-174820333' />
    <tag k='type' v='straight' />
  </way>
  <way id='-38293764' action='modify'>
    <nd ref='-174820333' />
    <nd ref='-174820334' />
  </way>
  <way id='-38293765' action='modify'>
    <nd ref='-174820334' />
    <nd ref='-174820335' />
    <tag k='type' v='straight' />
  </way>
  <way id='-38293766' action='modify'>
    <nd ref='-174820335' />
    <nd ref='-174820336' />
  </way>
  <way id='-38293767' action='modify'>
    <nd ref='-174820336' />
    <nd ref='-174820337' />
    <nd ref='-174820338' />
    <tag k='type' v='straight' />
  </way>
  <way id='-38293768' action='modify'>
    <nd ref='-174820341' />
    <nd ref='-174820340' />
    <nd ref='-174820339' />
    <tag k='type' v='straight' />
  </way>
  <way id='-38293769' action='modify'>
    <nd ref='-174820339' />
    <nd ref='-174820342' />
  </way>
  <way id='-38293770' action='modify'>
    <nd ref='-174820342' />
    <nd ref='-174820343' />
    <tag k='type' v='straight' />
  </way>
  <way id='-38293771' action='modify'>
    <nd ref='-174820343' />
    <nd ref='-174820344' />
  </way>
  <way id='-38293772' action='modify'>
    <nd ref='-174820344' />
    <nd ref='-174820345' />
    <tag k='type' v='straight' />
  </way>
  <way id='-38293773' action='modify'>
    <nd ref='-174820345' />
    <nd ref='-174820346' />
  </way>
  <way id='-38293774' action='modify'>
    <nd ref='-174820346' />
    <nd ref='-174820347' />
    <tag k='type' v='straight' />
  </way>
  <way id='-38293775' action='modify'>
    <nd ref='-174820347' />
    <nd ref='-174820348' />
  </way>
  <way id='-38293776' action='modify'>
    <nd ref='-174820348' />
    <nd ref='-174820349' />
    <tag k='type' v='straight' />
  </way>
  <way id='-38293777' action='modify'>
    <nd ref='-174820349' />
    <nd ref='-174820350' />
  </way>
  <way id='-38293778' action='modify'>
    <nd ref='-174820350' />
    <nd ref='-174820351' />
    <tag k='type' v='straight' />
  </way>
  <way id='-38293779' action='modify'>
    <nd ref='-174820351' />
    <nd ref='-174820352' />
    <nd ref='-174820353' />
  </way>
  <way id='-38293780' action='modify'>
    <nd ref='-174820353' />
    <nd ref='-174820354' />
  </way>
  <way id='-38293781' action='modify'>
    <nd ref='-174820354' />
    <nd ref='-174820355' />
    <tag k='type' v='straight' />
  </way>
  <way id='-38293782' action='modify'>
    <nd ref='-174820355' />
    <nd ref='-174820356' />
  </way>
  <way id='-38293783' action='modify'>
    <nd ref='-174820356' />
    <nd ref='-174820357' />
    <tag k='type' v='straight' />
  </way>
  <way id='-38293784' action='modify'>
    <nd ref='-174820357' />
    <nd ref='-174820358' />
  </way>
  <way id='-38293785' action='modify'>
    <nd ref='-174820358' />
    <nd ref='-174820274' />
    <tag k='type' v='straight' />
  </way>
  <relation id='-14485365' action='modify'>
    <member type='way' ref='-38293703' role='' />
    <member type='way' ref='-38293704' role='' />
    <member type='way' ref='-38293705' role='' />
    <member type='way' ref='-38293706' role='' />
    <member type='way' ref='-38293707' role='' />
    <member type='way' ref='-38293708' role='' />
    <member type='way' ref='-38293709' role='' />
    <member type='way' ref='-38293710' role='' />
    <member type='way' ref='-38293711' role='' />
    <member type='way' ref='-38293712' role='' />
    <member type='way' ref='-38293713' role='' />
    <member type='way' ref='-38293714' role='' />
    <member type='way' ref='-38293715' role='' />
    <member type='way' ref='-38293716' role='' />
    <member type='way' ref='-38293717' role='' />
    <member type='way' ref='-38293718' role='' />
    <member type='way' ref='-38293719' role='' />
    <member type='way' ref='-38293720' role='' />
    <member type='way' ref='-38293721' role='' />
    <member type='way' ref='-38293722' role='' />
    <member type='way' ref='-38293723' role='' />
    <member type='way' ref='-38293724' role='' />
    <member type='way' ref='-38293725' role='' />
    <member type='way' ref='-38293726' role='' />
    <member type='way' ref='-38293727' role='' />
    <member type='way' ref='-38293728' role='' />
    <member type='way' ref='-38293729' role='' />
    <member type='way' ref='-38293730' role='' />
    <member type='way' ref='-38293731' role='' />
    <member type='way' ref='-38293732' role='' />
    <member type='way' ref='-38293733' role='' />
    <member type='way' ref='-38293734' role='' />
    <member type='way' ref='-38293735' role='' />
    <member type='way' ref='-38293736' role='' />
    <member type='way' ref='-38293737' role='' />
    <member type='way' ref='-38293738' role='' />
    <member type='way' ref='-38293739' role='' />
    <member type='way' ref='-38293740' role='' />
    <member type='way' ref='-38293741' role='' />
    <member type='way' ref='-38293742' role='' />
    <member type='way' ref='-38293743' role='' />
    <member type='way' ref='-38293744' role='' />
    <member type='way' ref='-38293745' role='' />
    <member type='way' ref='-38293746' role='' />
    <member type='way' ref='-38293747' role='' />
    <member type='way' ref='-38293748' role='' />
    <member type='way' ref='-38293749' role='' />
    <member type='way' ref='-38293750' role='' />
    <member type='way' ref='-38293751' role='' />
    <member type='way' ref='-38293752' role='' />
    <member type='way' ref='-38293753' role='' />
    <member type='way' ref='-38293754' role='' />
    <member type='way' ref='-38293755' role='' />
    <member type='way' ref='-38293756' role='' />
    <member type='way' ref='-38293757' role='' />
    <member type='way' ref='-38293758' role='' />
    <member type='way' ref='-38293759' role='' />
    <member type='way' ref='-38293760' role='' />
    <member type='way' ref='-38293761' role='' />
    <member type='way' ref='-38293762' role='' />
    <member type='way' ref='-38293763' role='' />
    <member type='way' ref='-38293764' role='' />
    <member type='way' ref='-38293765' role='' />
    <member type='way' ref='-38293766' role='' />
    <member type='way' ref='-38293767' role='' />
    <tag k='key' v='path.dk.vba' />
    <tag k='name' v='DK VBA' />
    <tag k='type' v='path' />
  </relation>
  <relation id='-14485366' action='modify'>
    <member type='way' ref='-38293768' role='' />
    <member type='way' ref='-38293769' role='' />
    <member type='way' ref='-38293770' role='' />
    <member type='way' ref='-38293771' role='' />
    <member type='way' ref='-38293772' role='' />
    <member type='way' ref='-38293773' role='' />
    <member type='way' ref='-38293774' role='' />
    <member type='way' ref='-38293775' role='' />
    <member type='way' ref='-38293776' role='' />
    <member type='way' ref='-38293777' role='' />
    <member type='way' ref='-38293778' role='' />
    <member type='way' ref='-38293779' role='' />
    <member type='way' ref='-38293780' role='' />
    <member type='way' ref='-38293781' role='' />
    <member type='way' ref='-38293782' role='' />
    <member type='way' ref='-38293783' role='' />
    <member type='way' ref='-38293784' role='' />
    <member type='way' ref='-38293785' role='' />
    <member type='way' ref='-38293715' role='' />
    <tag k='key' v='path.dk.vba.vib' />
    <tag k='name' v='DK VBA (Vib)' />
    <tag k='type' v='path' />
  </relation>
</osm>
