<?xml version='1.0' encoding='UTF-8'?>
<osm version='0.6' upload='false' generator='JOSM'>
  <node id='-144405286' action='modify' lat='55.00564707399' lon='11.89634832843' />
  <node id='-144405287' action='modify' lat='55.00424178228' lon='11.8957207527' />
  <node id='-144405288' action='modify' lat='55.00788345495' lon='11.89717035798' />
  <node id='-144405289' action='modify' lat='55.01044996738' lon='11.89843945252' />
  <node id='-144405290' action='modify' lat='55.0128541043' lon='11.89994551543' />
  <node id='-144405291' action='modify' lat='55.01269471494' lon='11.89984566375'>
    <tag k='name' v='vor' />
  </node>
  <node id='-144405293' action='modify' lat='54.99781548997' lon='11.89233203406'>
    <tag k='name' v='mas' />
  </node>
  <node id='-144405294' action='modify' lat='54.9968422531' lon='11.89150455312' />
  <node id='-144405295' action='modify' lat='54.99562572219' lon='11.89007161975' />
  <node id='-144405296' action='modify' lat='54.99233909607' lon='11.88890217662' />
  <node id='-144405297' action='modify' lat='54.98321637206' lon='11.89430951536' />
  <node id='-144405298' action='modify' lat='54.97888204537' lon='11.89365505636' />
  <node id='-144405299' action='modify' lat='54.97749668603' lon='11.89219593465'>
    <tag k='name' v='mao' />
  </node>
  <way id='-36383787' action='modify'>
    <nd ref='-144405286' />
    <nd ref='-144405287' />
    <tag k='type' v='arc' />
  </way>
  <way id='-36383788' action='modify'>
    <nd ref='-144405288' />
    <nd ref='-144405286' />
    <tag k='type' v='straight' />
  </way>
  <way id='-36383789' action='modify'>
    <nd ref='-144405289' />
    <nd ref='-144405288' />
    <tag k='type' v='arc' />
  </way>
  <way id='-36383790' action='modify'>
    <nd ref='-144405290' />
    <nd ref='-144405291' />
    <nd ref='-144405289' />
    <tag k='type' v='straight' />
  </way>
  <way id='-36383791' action='modify'>
    <nd ref='-144405287' />
    <nd ref='-144405293' />
    <tag k='type' v='straight' />
  </way>
  <way id='-36383793' action='modify'>
    <nd ref='-144405293' />
    <nd ref='-144405294' />
  </way>
  <way id='-36383794' action='modify'>
    <nd ref='-144405294' />
    <nd ref='-144405295' />
    <tag k='type' v='straight' />
  </way>
  <way id='-36383795' action='modify'>
    <nd ref='-144405295' />
    <nd ref='-144405296' />
  </way>
  <way id='-36383796' action='modify'>
    <nd ref='-144405296' />
    <nd ref='-144405297' />
    <tag k='type' v='straight' />
  </way>
  <way id='-36383797' action='modify'>
    <nd ref='-144405297' />
    <nd ref='-144405298' />
  </way>
  <way id='-36383798' action='modify'>
    <nd ref='-144405298' />
    <nd ref='-144405299' />
    <tag k='type' v='straight' />
  </way>
  <relation id='-14467628' action='modify'>
    <member type='way' ref='-36383790' role='' />
    <member type='way' ref='-36383789' role='' />
    <member type='way' ref='-36383788' role='' />
    <member type='way' ref='-36383787' role='' />
    <member type='way' ref='-36383791' role='' />
    <member type='way' ref='-36383793' role='' />
    <member type='way' ref='-36383794' role='' />
    <member type='way' ref='-36383795' role='' />
    <member type='way' ref='-36383796' role='' />
    <member type='way' ref='-36383797' role='' />
    <member type='way' ref='-36383798' role='' />
    <tag k='key' v='path.dk.vbm' />
    <tag k='name' v='DK VBM' />
    <tag k='type' v='path' />
  </relation>
</osm>
