<?xml version='1.0' encoding='UTF-8'?>
<osm version='0.6' upload='false' generator='JOSM'>
  <node id='-157917384' action='modify' lat='55.6158968554' lon='8.48447089875'>
    <tag k='name' v='var' />
  </node>
  <node id='-157917385' action='modify' lat='55.61624869694' lon='8.48550617628' />
  <node id='-157917386' action='modify' lat='55.61712798895' lon='8.48756276004' />
  <node id='-157917387' action='modify' lat='55.61716661372' lon='8.48763115637' />
  <node id='-157917388' action='modify' lat='55.61902737528' lon='8.49411070079' />
  <node id='-157917389' action='modify' lat='55.61965896863' lon='8.50148677558' />
  <node id='-157917390' action='modify' lat='55.620345078' lon='8.50530623853' />
  <node id='-157917391' action='modify' lat='55.62237152515' lon='8.51299881399' />
  <node id='-157917392' action='modify' lat='55.62314996803' lon='8.51725279748' />
  <node id='-157917393' action='modify' lat='55.62424843265' lon='8.52464628964'>
    <tag k='name' v='gel' />
  </node>
  <node id='-157917394' action='modify' lat='55.6265634241' lon='8.54022859991' />
  <node id='-157917395' action='modify' lat='55.62672697176' lon='8.54771732748' />
  <node id='-157917396' action='modify' lat='55.62470056414' lon='8.56500678177'>
    <tag k='name' v='sko' />
  </node>
  <node id='-157917397' action='modify' lat='55.62207165695' lon='8.5874354732' />
  <node id='-157917398' action='modify' lat='55.62191414792' lon='8.5902893436' />
  <node id='-157917399' action='modify' lat='55.62189179052' lon='8.60159768529'>
    <tag k='name' v='nas' />
  </node>
  <node id='-157917400' action='modify' lat='55.62188385765' lon='8.60561012149' />
  <node id='-157917401' action='modify' lat='55.62163244446' lon='8.61141442716' />
  <node id='-157917402' action='modify' lat='55.62086003269' lon='8.62130640864' />
  <node id='-157917403' action='modify' lat='55.62232306127' lon='8.62994312704' />
  <node id='-157917404' action='modify' lat='55.6257090523' lon='8.63700666513'>
    <tag k='name' v='bil' />
  </node>
  <node id='-157917405' action='modify' lat='55.62642713386' lon='8.63850473821' />
  <node id='-157917406' action='modify' lat='55.63009166205' lon='8.64293038309' />
  <node id='-157917407' action='modify' lat='55.63911524037' lon='8.64814995646' />
  <node id='-157917408' action='modify' lat='55.64434372061' lon='8.65554212987' />
  <node id='-157917409' action='modify' lat='55.64462171992' lon='8.65635009209'>
    <tag k='name' v='ose' />
  </node>
  <node id='-157917410' action='modify' lat='55.64529427895' lon='8.65830480516' />
  <node id='-157917411' action='modify' lat='55.64585431049' lon='8.66685032308' />
  <node id='-157917412' action='modify' lat='55.64553040133' lon='8.67228447855' />
  <node id='-157917413' action='modify' lat='55.64713176088' lon='8.68110894084' />
  <node id='-157917414' action='modify' lat='55.6484288374' lon='8.68362754315' />
  <node id='-157917415' action='modify' lat='55.64993624285' lon='8.68784934014'>
    <tag k='name' v='nor' />
  </node>
  <node id='-157917416' action='modify' lat='55.65032519398' lon='8.69524955213' />
  <node id='-157917417' action='modify' lat='55.64905390464' lon='8.70543658197' />
  <node id='-157917418' action='modify' lat='55.65048561566' lon='8.7149959749' />
  <node id='-157917419' action='modify' lat='55.65074347611' lon='8.71555503154'>
    <tag k='name' v='bol' />
  </node>
  <node id='-157917420' action='modify' lat='55.65329137528' lon='8.72107922494' />
  <node id='-157917421' action='modify' lat='55.65412368473' lon='8.7228119266' />
  <node id='-157917422' action='modify' lat='55.65844256658' lon='8.73105083114'>
    <tag k='name' v='abi' />
  </node>
  <node id='-157917423' action='modify' lat='55.66524160135' lon='8.74402283549' />
  <node id='-157917424' action='modify' lat='55.66683307213' lon='8.74612032831'>
    <tag k='name' v='gra' />
  </node>
  <node id='-157917425' action='modify' lat='55.66976472422' lon='8.74771356046' />
  <node id='-157917426' action='modify' lat='55.68886500625' lon='8.7504815948' />
  <node id='-157917427' action='modify' lat='55.69071857963' lon='8.75073372781' />
  <node id='-157917428' action='modify' lat='55.69807759012' lon='8.75136136472' />
  <node id='-157917429' action='modify' lat='55.70044765844' lon='8.75067471921' />
  <node id='-157917430' action='modify' lat='55.70133035124' lon='8.75005781114' />
  <node id='-157917431' action='modify' lat='55.70335865538' lon='8.74940871656' />
  <node id='-157917432' action='modify' lat='55.70513900251' lon='8.74940871656'>
    <tag k='name' v='ans' />
  </node>
  <node id='-157917433' action='modify' lat='55.70581907975' lon='8.74940871656' />
  <node id='-157917434' action='modify' lat='55.70936737966' lon='8.74689816892' />
  <node id='-157917435' action='modify' lat='55.71160983574' lon='8.7430250591' />
  <node id='-157917436' action='modify' lat='55.7123759261' lon='8.74190658197' />
  <node id='-157917437' action='modify' lat='55.72603935213' lon='8.72242413646'>
    <tag k='name' v='mok' />
  </node>
  <node id='-157917438' action='modify' lat='55.7277384316' lon='8.72000097156' />
  <node id='-157917439' action='modify' lat='55.72904039042' lon='8.71852039754' />
  <node id='-157917440' action='modify' lat='55.73740890898' lon='8.71003929902'>
    <tag k='name' v='mol' />
  </node>
  <node id='-157917441' action='modify' lat='55.73812874744' lon='8.70930969179' />
  <node id='-157917442' action='modify' lat='55.74070475617' lon='8.7085694021' />
  <node id='-157917443' action='modify' lat='55.74200024613' lon='8.7089556402' />
  <node id='-157917444' action='modify' lat='55.74269779983' lon='8.70936870039' />
  <node id='-157917445' action='modify' lat='55.74367314924' lon='8.71011434913' />
  <node id='-157917446' action='modify' lat='55.75201827699' lon='8.71706117521'>
    <tag k='name' v='ade' />
  </node>
  <node id='-157917447' action='modify' lat='55.76065174364' lon='8.72424959064' />
  <node id='-157917448' action='modify' lat='55.76294256038' lon='8.72851967275'>
    <tag k='name' v='tyn' />
  </node>
  <node id='-157917449' action='modify' lat='55.76358541447' lon='8.73438834608' />
  <node id='-157917450' action='modify' lat='55.76263772915' lon='8.74552487791' />
  <node id='-157917451' action='modify' lat='55.76261359306' lon='8.74951598883' />
  <node id='-157917452' action='modify' lat='55.76470812315' lon='8.79501699328' />
  <node id='-157917453' action='modify' lat='55.76478288036' lon='8.79589726854'>
    <tag k='name' v='egg' />
  </node>
  <node id='-157917454' action='modify' lat='55.76504613573' lon='8.79818199992' />
  <node id='-157917455' action='modify' lat='55.76762942079' lon='8.81524084926' />
  <node id='-157917456' action='modify' lat='55.76796137258' lon='8.8197469604' />
  <node id='-157917457' action='modify' lat='55.767500307' lon='8.836923678'>
    <tag k='name' v='jer' />
  </node>
  <node id='-157917458' action='modify' lat='55.7666023552' lon='8.87037574268'>
    <tag k='name' v='lof' />
  </node>
  <node id='-157917459' action='modify' lat='55.76540336669' lon='8.91504135027'>
    <tag k='name' v='byg' />
  </node>
  <node id='-157917460' action='modify' lat='55.7652664429' lon='8.92014204919' />
  <node id='-157917461' action='modify' lat='55.76196626968' lon='8.9297310197' />
  <node id='-157917462' action='modify' lat='55.7591449939' lon='8.93232799031'>
    <tag k='name' v='gri' />
  </node>
  <way id='-37173167' action='modify'>
    <nd ref='-157917384' />
    <nd ref='-157917385' />
    <tag k='type' v='straight' />
  </way>
  <way id='-37173168' action='modify'>
    <nd ref='-157917385' />
    <nd ref='-157917386' />
  </way>
  <way id='-37173169' action='modify'>
    <nd ref='-157917386' />
    <nd ref='-157917387' />
    <tag k='type' v='straight' />
  </way>
  <way id='-37173170' action='modify'>
    <nd ref='-157917387' />
    <nd ref='-157917388' />
  </way>
  <way id='-37173171' action='modify'>
    <nd ref='-157917388' />
    <nd ref='-157917389' />
    <tag k='type' v='straight' />
  </way>
  <way id='-37173172' action='modify'>
    <nd ref='-157917389' />
    <nd ref='-157917390' />
  </way>
  <way id='-37173173' action='modify'>
    <nd ref='-157917390' />
    <nd ref='-157917391' />
    <tag k='type' v='straight' />
  </way>
  <way id='-37173174' action='modify'>
    <nd ref='-157917391' />
    <nd ref='-157917392' />
  </way>
  <way id='-37173175' action='modify'>
    <nd ref='-157917392' />
    <nd ref='-157917393' />
    <nd ref='-157917394' />
    <tag k='type' v='straight' />
  </way>
  <way id='-37173176' action='modify'>
    <nd ref='-157917394' />
    <nd ref='-157917395' />
  </way>
  <way id='-37173177' action='modify'>
    <nd ref='-157917395' />
    <nd ref='-157917396' />
    <nd ref='-157917397' />
    <tag k='type' v='straight' />
  </way>
  <way id='-37173178' action='modify'>
    <nd ref='-157917397' />
    <nd ref='-157917398' />
  </way>
  <way id='-37173179' action='modify'>
    <nd ref='-157917398' />
    <nd ref='-157917399' />
    <nd ref='-157917400' />
    <tag k='type' v='straight' />
  </way>
  <way id='-37173180' action='modify'>
    <nd ref='-157917400' />
    <nd ref='-157917401' />
  </way>
  <way id='-37173181' action='modify'>
    <nd ref='-157917401' />
    <nd ref='-157917402' />
    <tag k='type' v='straight' />
  </way>
  <way id='-37173182' action='modify'>
    <nd ref='-157917402' />
    <nd ref='-157917403' />
  </way>
  <way id='-37173183' action='modify'>
    <nd ref='-157917403' />
    <nd ref='-157917404' />
    <nd ref='-157917405' />
    <tag k='type' v='straight' />
  </way>
  <way id='-37173184' action='modify'>
    <nd ref='-157917405' />
    <nd ref='-157917406' />
  </way>
  <way id='-37173185' action='modify'>
    <nd ref='-157917406' />
    <nd ref='-157917407' />
    <tag k='type' v='straight' />
  </way>
  <way id='-37173186' action='modify'>
    <nd ref='-157917407' />
    <nd ref='-157917408' />
  </way>
  <way id='-37173187' action='modify'>
    <nd ref='-157917408' />
    <nd ref='-157917409' />
    <nd ref='-157917410' />
    <tag k='type' v='straight' />
  </way>
  <way id='-37173188' action='modify'>
    <nd ref='-157917410' />
    <nd ref='-157917411' />
  </way>
  <way id='-37173189' action='modify'>
    <nd ref='-157917411' />
    <nd ref='-157917412' />
    <tag k='type' v='straight' />
  </way>
  <way id='-37173190' action='modify'>
    <nd ref='-157917412' />
    <nd ref='-157917413' />
  </way>
  <way id='-37173191' action='modify'>
    <nd ref='-157917413' />
    <nd ref='-157917414' />
    <tag k='type' v='straight' />
  </way>
  <way id='-37173192' action='modify'>
    <nd ref='-157917414' />
    <nd ref='-157917415' />
    <nd ref='-157917416' />
  </way>
  <way id='-37173193' action='modify'>
    <nd ref='-157917416' />
    <nd ref='-157917417' />
    <tag k='type' v='straight' />
  </way>
  <way id='-37173194' action='modify'>
    <nd ref='-157917417' />
    <nd ref='-157917418' />
  </way>
  <way id='-37173195' action='modify'>
    <nd ref='-157917418' />
    <nd ref='-157917419' />
    <nd ref='-157917420' />
    <tag k='type' v='straight' />
  </way>
  <way id='-37173196' action='modify'>
    <nd ref='-157917420' />
    <nd ref='-157917421' />
  </way>
  <way id='-37173197' action='modify'>
    <nd ref='-157917421' />
    <nd ref='-157917422' />
    <nd ref='-157917423' />
    <tag k='type' v='straight' />
  </way>
  <way id='-37173198' action='modify'>
    <nd ref='-157917423' />
    <nd ref='-157917424' />
    <nd ref='-157917425' />
  </way>
  <way id='-37173199' action='modify'>
    <nd ref='-157917425' />
    <nd ref='-157917426' />
    <tag k='type' v='straight' />
  </way>
  <way id='-37173200' action='modify'>
    <nd ref='-157917426' />
    <nd ref='-157917427' />
  </way>
  <way id='-37173201' action='modify'>
    <nd ref='-157917427' />
    <nd ref='-157917428' />
    <tag k='type' v='straight' />
  </way>
  <way id='-37173202' action='modify'>
    <nd ref='-157917428' />
    <nd ref='-157917429' />
  </way>
  <way id='-37173203' action='modify'>
    <nd ref='-157917429' />
    <nd ref='-157917430' />
    <tag k='type' v='straight' />
  </way>
  <way id='-37173204' action='modify'>
    <nd ref='-157917430' />
    <nd ref='-157917431' />
  </way>
  <way id='-37173205' action='modify'>
    <nd ref='-157917431' />
    <nd ref='-157917432' />
    <nd ref='-157917433' />
    <tag k='type' v='straight' />
  </way>
  <way id='-37173206' action='modify'>
    <nd ref='-157917433' />
    <nd ref='-157917434' />
  </way>
  <way id='-37173207' action='modify'>
    <nd ref='-157917434' />
    <nd ref='-157917435' />
    <tag k='type' v='straight' />
  </way>
  <way id='-37173208' action='modify'>
    <nd ref='-157917435' />
    <nd ref='-157917436' />
  </way>
  <way id='-37173209' action='modify'>
    <nd ref='-157917436' />
    <nd ref='-157917437' />
    <nd ref='-157917438' />
    <tag k='type' v='straight' />
  </way>
  <way id='-37173210' action='modify'>
    <nd ref='-157917438' />
    <nd ref='-157917439' />
  </way>
  <way id='-37173211' action='modify'>
    <nd ref='-157917439' />
    <nd ref='-157917440' />
    <nd ref='-157917441' />
    <tag k='type' v='straight' />
  </way>
  <way id='-37173212' action='modify'>
    <nd ref='-157917441' />
    <nd ref='-157917442' />
    <nd ref='-157917443' />
  </way>
  <way id='-37173213' action='modify'>
    <nd ref='-157917443' />
    <nd ref='-157917444' />
    <tag k='type' v='straight' />
  </way>
  <way id='-37173214' action='modify'>
    <nd ref='-157917444' />
    <nd ref='-157917445' />
  </way>
  <way id='-37173215' action='modify'>
    <nd ref='-157917445' />
    <nd ref='-157917446' />
    <nd ref='-157917447' />
    <tag k='type' v='straight' />
  </way>
  <way id='-37173216' action='modify'>
    <nd ref='-157917447' />
    <nd ref='-157917448' />
    <nd ref='-157917449' />
  </way>
  <way id='-37173217' action='modify'>
    <nd ref='-157917449' />
    <nd ref='-157917450' />
    <tag k='type' v='straight' />
  </way>
  <way id='-37173218' action='modify'>
    <nd ref='-157917450' />
    <nd ref='-157917451' />
  </way>
  <way id='-37173219' action='modify'>
    <nd ref='-157917451' />
    <nd ref='-157917452' />
    <tag k='type' v='straight' />
  </way>
  <way id='-37173220' action='modify'>
    <nd ref='-157917452' />
    <nd ref='-157917453' />
    <nd ref='-157917454' />
  </way>
  <way id='-37173221' action='modify'>
    <nd ref='-157917454' />
    <nd ref='-157917455' />
    <tag k='type' v='straight' />
  </way>
  <way id='-37173222' action='modify'>
    <nd ref='-157917455' />
    <nd ref='-157917456' />
  </way>
  <way id='-37173223' action='modify'>
    <nd ref='-157917456' />
    <nd ref='-157917457' />
    <nd ref='-157917458' />
    <nd ref='-157917459' />
    <nd ref='-157917460' />
    <tag k='type' v='straight' />
  </way>
  <way id='-37173224' action='modify'>
    <nd ref='-157917460' />
    <nd ref='-157917461' />
  </way>
  <way id='-37173225' action='modify'>
    <nd ref='-157917461' />
    <nd ref='-157917462' />
    <tag k='type' v='straight' />
  </way>
  <relation id='-14476133' action='modify'>
    <member type='way' ref='-37173167' role='' />
    <member type='way' ref='-37173168' role='' />
    <member type='way' ref='-37173169' role='' />
    <member type='way' ref='-37173170' role='' />
    <member type='way' ref='-37173171' role='' />
    <member type='way' ref='-37173172' role='' />
    <member type='way' ref='-37173173' role='' />
    <member type='way' ref='-37173174' role='' />
    <member type='way' ref='-37173175' role='' />
    <member type='way' ref='-37173176' role='' />
    <member type='way' ref='-37173177' role='' />
    <member type='way' ref='-37173178' role='' />
    <member type='way' ref='-37173179' role='' />
    <member type='way' ref='-37173180' role='' />
    <member type='way' ref='-37173181' role='' />
    <member type='way' ref='-37173182' role='' />
    <member type='way' ref='-37173183' role='' />
    <member type='way' ref='-37173184' role='' />
    <member type='way' ref='-37173185' role='' />
    <member type='way' ref='-37173186' role='' />
    <member type='way' ref='-37173187' role='' />
    <member type='way' ref='-37173188' role='' />
    <member type='way' ref='-37173189' role='' />
    <member type='way' ref='-37173190' role='' />
    <member type='way' ref='-37173191' role='' />
    <member type='way' ref='-37173192' role='' />
    <member type='way' ref='-37173193' role='' />
    <member type='way' ref='-37173194' role='' />
    <member type='way' ref='-37173195' role='' />
    <member type='way' ref='-37173196' role='' />
    <member type='way' ref='-37173197' role='' />
    <member type='way' ref='-37173198' role='' />
    <member type='way' ref='-37173199' role='' />
    <member type='way' ref='-37173200' role='' />
    <member type='way' ref='-37173201' role='' />
    <member type='way' ref='-37173202' role='' />
    <member type='way' ref='-37173203' role='' />
    <member type='way' ref='-37173204' role='' />
    <member type='way' ref='-37173205' role='' />
    <member type='way' ref='-37173206' role='' />
    <member type='way' ref='-37173207' role='' />
    <member type='way' ref='-37173208' role='' />
    <member type='way' ref='-37173209' role='' />
    <member type='way' ref='-37173210' role='' />
    <member type='way' ref='-37173211' role='' />
    <member type='way' ref='-37173212' role='' />
    <member type='way' ref='-37173213' role='' />
    <member type='way' ref='-37173214' role='' />
    <member type='way' ref='-37173215' role='' />
    <member type='way' ref='-37173216' role='' />
    <member type='way' ref='-37173217' role='' />
    <member type='way' ref='-37173218' role='' />
    <member type='way' ref='-37173219' role='' />
    <member type='way' ref='-37173220' role='' />
    <member type='way' ref='-37173221' role='' />
    <member type='way' ref='-37173222' role='' />
    <member type='way' ref='-37173223' role='' />
    <member type='way' ref='-37173224' role='' />
    <member type='way' ref='-37173225' role='' />
    <tag k='key' v='path.dk.vgs' />
    <tag k='name' v='DK VGS' />
    <tag k='type' v='path' />
  </relation>
</osm>
