<?xml version='1.0' encoding='UTF-8'?>
<osm version='0.6' upload='false' generator='JOSM'>
  <node id='-186661523' action='modify' lat='55.24839213405' lon='9.30500718132'>
    <tag k='name' v='voj' />
  </node>
  <node id='-186661524' action='modify' lat='55.24537230353' lon='9.30517127552' />
  <node id='-186661525' action='modify' lat='55.25101565285' lon='9.30465443753' />
  <node id='-186661526' action='modify' lat='55.2512091451' lon='9.3046180707' />
  <node id='-186661527' action='modify' lat='55.25532446226' lon='9.30931448802' />
  <node id='-186661528' action='modify' lat='55.25623093879' lon='9.31182369456' />
  <node id='-186661529' action='modify' lat='55.25764946428' lon='9.32436033949' />
  <node id='-186661530' action='modify' lat='55.2559343872' lon='9.34210046992' />
  <node id='-186661531' action='modify' lat='55.25455248871' lon='9.34890389308' />
  <node id='-186661532' action='modify' lat='55.25339832207' lon='9.35254633293' />
  <node id='-186661533' action='modify' lat='55.25210271097' lon='9.35915127262' />
  <node id='-186661534' action='modify' lat='55.25188867269' lon='9.36153370642'>
    <tag k='name' v='sty' />
  </node>
  <node id='-186661535' action='modify' lat='55.25123894639' lon='9.36876565151' />
  <node id='-186661536' action='modify' lat='55.250666406' lon='9.37255427107' />
  <node id='-186661537' action='modify' lat='55.2480780213' lon='9.38496753439' />
  <node id='-186661538' action='modify' lat='55.24749167448' lon='9.38919737801'>
    <tag k='name' v='ham' />
  </node>
  <node id='-186661539' action='modify' lat='55.24815446707' lon='9.39895726673' />
  <node id='-186661540' action='modify' lat='55.24940969213' lon='9.40487086639' />
  <node id='-186661541' action='modify' lat='55.25011220314' lon='9.41166624293' />
  <node id='-186661542' action='modify' lat='55.25014048679' lon='9.41515579686' />
  <node id='-186661543' action='modify' lat='55.24994097201' lon='9.41971957549' />
  <node id='-186661544' action='modify' lat='55.24941810093' lon='9.42522883281' />
  <node id='-186661545' action='modify' lat='55.24897778312' lon='9.42822217807' />
  <node id='-186661546' action='modify' lat='55.24711020039' lon='9.43758979306' />
  <node id='-186661547' action='modify' lat='55.24666374071' lon='9.44313324921' />
  <node id='-186661548' action='modify' lat='55.24683704332' lon='9.44738208447'>
    <tag k='name' v='str' />
  </node>
  <node id='-186661549' action='modify' lat='55.24702534293' lon='9.45199861988' />
  <node id='-186661550' action='modify' lat='55.24768049898' lon='9.4564953433' />
  <node id='-186661551' action='modify' lat='55.25123435209' lon='9.47075757763' />
  <node id='-186661552' action='modify' lat='55.25208584379' lon='9.47346630414' />
  <node id='-186661553' action='modify' lat='55.25222939625' lon='9.47384871535'>
    <tag k='name' v='hav' />
  </node>
  <node id='-186661554' action='modify' lat='55.25245814907' lon='9.47445809573' />
  <node id='-186661555' action='modify' lat='55.25265382858' lon='9.47491809592' />
  <node id='-186661556' action='modify' lat='55.25274937524' lon='9.47513133153' />
  <node id='-186661557' action='modify' lat='55.25310709989' lon='9.47775855526' />
  <node id='-186661558' action='modify' lat='55.25296187019' lon='9.47923511133' />
  <node id='-186661559' action='modify' lat='55.25304824371' lon='9.48179930314' />
  <node id='-186661560' action='modify' lat='55.25333335143' lon='9.48311894998' />
  <node id='-186661561' action='modify' lat='55.25352979251' lon='9.4843876335' />
  <node id='-186661562' action='modify' lat='55.25360218793' lon='9.48511152017'>
    <tag k='name' v='hab' />
  </node>
  <node id='-186661563' action='modify' lat='55.25367196272' lon='9.48580920428' />
  <node id='-186661564' action='modify' lat='55.25317207167' lon='9.48876768082' />
  <node id='-186661565' action='modify' lat='55.25270580676' lon='9.48940872878' />
  <node id='-186661566' action='modify' lat='55.25250401172' lon='9.4895938012' />
  <node id='-186661567' action='modify' lat='55.25144761661' lon='9.49236940947'>
    <tag k='name' v='had' />
  </node>
  <node id='-186661568' action='modify' lat='55.25142469665' lon='9.49307799071' />
  <node id='-186661569' action='modify' lat='55.25136965996' lon='9.49662655324' />
  <way id='-39237448' action='modify'>
    <nd ref='-186661524' />
    <nd ref='-186661523' />
    <tag k='type' v='straight' />
  </way>
  <way id='-39237449' action='modify'>
    <nd ref='-186661523' />
    <nd ref='-186661525' />
    <tag k='type' v='arc' />
  </way>
  <way id='-39237450' action='modify'>
    <nd ref='-186661525' />
    <nd ref='-186661526' />
    <tag k='type' v='straight' />
  </way>
  <way id='-39237451' action='modify'>
    <nd ref='-186661526' />
    <nd ref='-186661527' />
  </way>
  <way id='-39237452' action='modify'>
    <nd ref='-186661527' />
    <nd ref='-186661528' />
    <tag k='type' v='straight' />
  </way>
  <way id='-39237453' action='modify'>
    <nd ref='-186661528' />
    <nd ref='-186661529' />
  </way>
  <way id='-39237454' action='modify'>
    <nd ref='-186661529' />
    <nd ref='-186661530' />
    <tag k='type' v='straight' />
  </way>
  <way id='-39237455' action='modify'>
    <nd ref='-186661530' />
    <nd ref='-186661531' />
  </way>
  <way id='-39237456' action='modify'>
    <nd ref='-186661531' />
    <nd ref='-186661532' />
    <tag k='type' v='straight' />
  </way>
  <way id='-39237457' action='modify'>
    <nd ref='-186661532' />
    <nd ref='-186661533' />
  </way>
  <way id='-39237458' action='modify'>
    <nd ref='-186661533' />
    <nd ref='-186661534' />
    <nd ref='-186661535' />
    <tag k='type' v='straight' />
  </way>
  <way id='-39237459' action='modify'>
    <nd ref='-186661535' />
    <nd ref='-186661536' />
  </way>
  <way id='-39237460' action='modify'>
    <nd ref='-186661536' />
    <nd ref='-186661537' />
    <tag k='type' v='straight' />
  </way>
  <way id='-39237461' action='modify'>
    <nd ref='-186661537' />
    <nd ref='-186661538' />
    <nd ref='-186661539' />
  </way>
  <way id='-39237462' action='modify'>
    <nd ref='-186661539' />
    <nd ref='-186661540' />
    <tag k='type' v='straight' />
  </way>
  <way id='-39237463' action='modify'>
    <nd ref='-186661540' />
    <nd ref='-186661541' />
  </way>
  <way id='-39237464' action='modify'>
    <nd ref='-186661541' />
    <nd ref='-186661542' />
    <tag k='type' v='straight' />
  </way>
  <way id='-39237465' action='modify'>
    <nd ref='-186661542' />
    <nd ref='-186661543' />
  </way>
  <way id='-39237466' action='modify'>
    <nd ref='-186661543' />
    <nd ref='-186661544' />
    <tag k='type' v='straight' />
  </way>
  <way id='-39237467' action='modify'>
    <nd ref='-186661544' />
    <nd ref='-186661545' />
  </way>
  <way id='-39237468' action='modify'>
    <nd ref='-186661545' />
    <nd ref='-186661546' />
    <tag k='type' v='straight' />
  </way>
  <way id='-39237469' action='modify'>
    <nd ref='-186661546' />
    <nd ref='-186661547' />
  </way>
  <way id='-39237470' action='modify'>
    <nd ref='-186661547' />
    <nd ref='-186661548' />
    <nd ref='-186661549' />
    <tag k='type' v='straight' />
  </way>
  <way id='-39237471' action='modify'>
    <nd ref='-186661549' />
    <nd ref='-186661550' />
  </way>
  <way id='-39237472' action='modify'>
    <nd ref='-186661550' />
    <nd ref='-186661551' />
    <tag k='type' v='straight' />
  </way>
  <way id='-39237473' action='modify'>
    <nd ref='-186661551' />
    <nd ref='-186661552' />
  </way>
  <way id='-39237474' action='modify'>
    <nd ref='-186661552' />
    <nd ref='-186661553' />
    <nd ref='-186661554' />
    <tag k='type' v='straight' />
  </way>
  <way id='-39237475' action='modify'>
    <nd ref='-186661554' />
    <nd ref='-186661555' />
  </way>
  <way id='-39237476' action='modify'>
    <nd ref='-186661555' />
    <nd ref='-186661556' />
    <tag k='type' v='straight' />
  </way>
  <way id='-39237477' action='modify'>
    <nd ref='-186661556' />
    <nd ref='-186661557' />
  </way>
  <way id='-39237478' action='modify'>
    <nd ref='-186661557' />
    <nd ref='-186661558' />
    <tag k='type' v='straight' />
  </way>
  <way id='-39237479' action='modify'>
    <nd ref='-186661558' />
    <nd ref='-186661559' />
  </way>
  <way id='-39237480' action='modify'>
    <nd ref='-186661559' />
    <nd ref='-186661560' />
    <tag k='type' v='straight' />
  </way>
  <way id='-39237481' action='modify'>
    <nd ref='-186661560' />
    <nd ref='-186661561' />
  </way>
  <way id='-39237482' action='modify'>
    <nd ref='-186661561' />
    <nd ref='-186661562' />
    <nd ref='-186661563' />
    <tag k='type' v='straight' />
  </way>
  <way id='-39237483' action='modify'>
    <nd ref='-186661563' />
    <nd ref='-186661564' />
    <nd ref='-186661565' />
  </way>
  <way id='-39237484' action='modify'>
    <nd ref='-186661565' />
    <nd ref='-186661566' />
    <tag k='type' v='straight' />
  </way>
  <way id='-39237485' action='modify'>
    <nd ref='-186661566' />
    <nd ref='-186661567' />
    <nd ref='-186661568' />
  </way>
  <way id='-39237486' action='modify'>
    <nd ref='-186661568' />
    <nd ref='-186661569' />
    <tag k='type' v='straight' />
  </way>
  <relation id='-14495264' action='modify'>
    <member type='way' ref='-39237448' role='' />
    <member type='way' ref='-39237449' role='' />
    <member type='way' ref='-39237450' role='' />
    <member type='way' ref='-39237451' role='' />
    <member type='way' ref='-39237452' role='' />
    <member type='way' ref='-39237453' role='' />
    <member type='way' ref='-39237454' role='' />
    <member type='way' ref='-39237455' role='' />
    <member type='way' ref='-39237456' role='' />
    <member type='way' ref='-39237457' role='' />
    <member type='way' ref='-39237458' role='' />
    <member type='way' ref='-39237459' role='' />
    <member type='way' ref='-39237460' role='' />
    <member type='way' ref='-39237461' role='' />
    <member type='way' ref='-39237462' role='' />
    <member type='way' ref='-39237463' role='' />
    <member type='way' ref='-39237464' role='' />
    <member type='way' ref='-39237465' role='' />
    <member type='way' ref='-39237466' role='' />
    <member type='way' ref='-39237467' role='' />
    <member type='way' ref='-39237468' role='' />
    <member type='way' ref='-39237469' role='' />
    <member type='way' ref='-39237470' role='' />
    <member type='way' ref='-39237471' role='' />
    <member type='way' ref='-39237472' role='' />
    <member type='way' ref='-39237473' role='' />
    <member type='way' ref='-39237474' role='' />
    <member type='way' ref='-39237475' role='' />
    <member type='way' ref='-39237476' role='' />
    <member type='way' ref='-39237477' role='' />
    <member type='way' ref='-39237478' role='' />
    <member type='way' ref='-39237479' role='' />
    <member type='way' ref='-39237480' role='' />
    <member type='way' ref='-39237481' role='' />
    <member type='way' ref='-39237482' role='' />
    <member type='way' ref='-39237483' role='' />
    <member type='way' ref='-39237484' role='' />
    <member type='way' ref='-39237485' role='' />
    <member type='way' ref='-39237486' role='' />
    <tag k='key' v='path.dk.vhl' />
    <tag k='name' v='DK VHL' />
    <tag k='type' v='path' />
  </relation>
</osm>
