<?xml version='1.0' encoding='UTF-8'?>
<osm version='0.6' upload='false' generator='JOSM'>
  <node id='-137250696' action='modify' lat='55.66376069002' lon='12.51454393816'>
    <tag k='name' v='val' />
  </node>
  <node id='-137250699' action='modify' lat='55.66408221764' lon='12.49356399508'>
    <tag k='name' v='dan' />
  </node>
  <node id='-137250701' action='modify' lat='55.66434298816' lon='12.4765483766'>
    <tag k='name' v='hvn' />
  </node>
  <node id='-137250703' action='modify' lat='55.66460425203' lon='12.45950045246'>
    <tag k='name' v='rod' />
  </node>
  <node id='-137250704' action='modify' lat='55.66487834959' lon='12.44161498563'>
    <tag k='name' v='brb' />
  </node>
  <node id='-137250705' action='modify' lat='55.66513435235' lon='12.42491013098' />
  <node id='-137250706' action='modify' lat='55.66463304995' lon='12.41422713805' />
  <node id='-137250707' action='modify' lat='55.66295036447' lon='12.39897637333'>
    <tag k='name' v='glo' />
  </node>
  <node id='-137250708' action='modify' lat='55.65797026707' lon='12.35384385738'>
    <tag k='name' v='alb' />
  </node>
  <node id='-137250709' action='modify' lat='55.65310072267' lon='12.30971878801' />
  <node id='-137250710' action='modify' lat='55.6529359606' lon='12.30812545415' />
  <node id='-137250711' action='modify' lat='55.65239105541' lon='12.30247764193'>
    <tag k='name' v='tas' />
  </node>
  <node id='-137250712' action='modify' lat='55.65211973474' lon='12.29966549725' />
  <node id='-137250713' action='modify' lat='55.65147869084' lon='12.29354869226' />
  <node id='-137250714' action='modify' lat='55.64878438791' lon='12.26974047511'>
    <tag k='name' v='hoj' />
  </node>
  <way id='-35978335' action='modify'>
    <nd ref='-137250696' />
    <nd ref='-137250699' />
    <nd ref='-137250701' />
    <nd ref='-137250703' />
    <nd ref='-137250704' />
    <nd ref='-137250705' />
    <tag k='type' v='straight' />
  </way>
  <way id='-35978339' action='modify'>
    <nd ref='-137250705' />
    <nd ref='-137250706' />
    <tag k='type' v='arc' />
  </way>
  <way id='-35978340' action='modify'>
    <nd ref='-137250706' />
    <nd ref='-137250707' />
    <nd ref='-137250708' />
    <nd ref='-137250709' />
    <tag k='type' v='straight' />
  </way>
  <way id='-35978341' action='modify'>
    <nd ref='-137250709' />
    <nd ref='-137250710' />
    <tag k='type' v='arc' />
  </way>
  <way id='-35978342' action='modify'>
    <nd ref='-137250710' />
    <nd ref='-137250711' />
    <nd ref='-137250712' />
    <tag k='type' v='straight' />
  </way>
  <way id='-35978343' action='modify'>
    <nd ref='-137250712' />
    <nd ref='-137250713' />
    <tag k='type' v='arc' />
  </way>
  <way id='-35978344' action='modify'>
    <nd ref='-137250713' />
    <nd ref='-137250714' />
    <tag k='type' v='straight' />
  </way>
  <relation id='-14415320' action='modify'>
    <member type='way' ref='-35978335' role='' />
    <member type='way' ref='-35978339' role='' />
    <member type='way' ref='-35978340' role='' />
    <member type='way' ref='-35978341' role='' />
    <member type='way' ref='-35978342' role='' />
    <member type='way' ref='-35978343' role='' />
    <member type='way' ref='-35978344' role='' />
    <tag k='key' v='path.dk.vht' />
    <tag k='name' v='DK VHT' />
    <tag k='type' v='path' />
  </relation>
</osm>
