<?xml version='1.0' encoding='UTF-8'?>
<osm version='0.6' upload='false' generator='JOSM'>
  <node id='-137577913' action='modify' lat='55.64998315916' lon='12.51866876811' />
  <node id='-137577914' action='modify' lat='55.64617216115' lon='12.52243995398' />
  <node id='-137577915' action='modify' lat='55.64283458466' lon='12.53621577948' />
  <node id='-137577916' action='modify' lat='55.64321300899' lon='12.53909378976' />
  <node id='-137577920' action='modify' lat='55.65245829299' lon='12.5153629455' />
  <node id='-137577921' action='modify' lat='55.6526739423' lon='12.51499145955' />
  <node id='-137577922' action='modify' lat='55.65486820112' lon='12.5109600994' />
  <node id='-137577923' action='modify' lat='55.6547079768' lon='12.511284701' />
  <node id='-137577928' action='modify' lat='55.63999325804' lon='12.54982262582'>
    <tag k='name' v='kal' />
  </node>
  <node id='-137577929' action='modify' lat='55.63962237099' lon='12.55026385054' />
  <node id='-137577946' action='modify' lat='55.65676273118' lon='12.50613748759' />
  <node id='-137577947' action='modify' lat='55.65813212274' lon='12.50210076302' />
  <node id='-137577948' action='modify' lat='55.65877821682' lon='12.500547764' />
  <node id='-137577949' action='modify' lat='55.66043501356' lon='12.49683022231' />
  <node id='-137577956' action='modify' lat='55.65891065842' lon='12.50025059563'>
    <tag k='name' v='vig' />
  </node>
  <way id='-35996795' action='modify'>
    <nd ref='-137577949' />
    <nd ref='-137577956' />
    <nd ref='-137577948' />
    <tag k='type' v='straight' />
  </way>
  <way id='-35996796' action='modify'>
    <nd ref='-137577914' />
    <nd ref='-137577915' />
  </way>
  <way id='-35996797' action='modify'>
    <nd ref='-137577915' />
    <nd ref='-137577916' />
    <tag k='type' v='straight' />
  </way>
  <way id='-35996810' action='modify'>
    <nd ref='-137577916' />
    <nd ref='-137577928' />
  </way>
  <way id='-35996811' action='modify'>
    <nd ref='-137577928' />
    <nd ref='-137577929' />
    <tag k='type' v='straight' />
  </way>
  <way id='-35996820' action='modify'>
    <nd ref='-137577948' />
    <nd ref='-137577947' />
  </way>
  <way id='-35996821' action='modify'>
    <nd ref='-137577947' />
    <nd ref='-137577946' />
    <tag k='type' v='straight' />
  </way>
  <way id='-35996823' action='modify'>
    <nd ref='-137577946' />
    <nd ref='-137577922' />
  </way>
  <way id='-35996824' action='modify'>
    <nd ref='-137577922' />
    <nd ref='-137577923' />
    <tag k='type' v='straight' />
  </way>
  <way id='-35996825' action='modify'>
    <nd ref='-137577923' />
    <nd ref='-137577921' />
  </way>
  <way id='-35996826' action='modify'>
    <nd ref='-137577921' />
    <nd ref='-137577920' />
    <tag k='type' v='straight' />
  </way>
  <way id='-35996827' action='modify'>
    <nd ref='-137577920' />
    <nd ref='-137577913' />
  </way>
  <way id='-35996828' action='modify'>
    <nd ref='-137577913' />
    <nd ref='-137577914' />
    <tag k='type' v='straight' />
  </way>
  <relation id='-14432002' action='modify'>
    <member type='way' ref='-35996795' role='' />
    <member type='way' ref='-35996820' role='' />
    <member type='way' ref='-35996821' role='' />
    <member type='way' ref='-35996823' role='' />
    <member type='way' ref='-35996824' role='' />
    <member type='way' ref='-35996825' role='' />
    <member type='way' ref='-35996826' role='' />
    <member type='way' ref='-35996827' role='' />
    <member type='way' ref='-35996828' role='' />
    <member type='way' ref='-35996796' role='' />
    <member type='way' ref='-35996797' role='' />
    <member type='way' ref='-35996810' role='' />
    <member type='way' ref='-35996811' role='' />
    <tag k='key' v='path.dk.vkb' />
    <tag k='name' v='DK VKB' />
    <tag k='type' v='path' />
  </relation>
</osm>
