<?xml version='1.0' encoding='UTF-8'?>
<osm version='0.6' upload='false' generator='JOSM'>
  <node id='-137742382' action='modify' lat='55.65336301425' lon='12.51468795786'>
    <tag k='name' v='vig.yk' />
  </node>
  <node id='-137742383' action='modify' lat='55.65379503981' lon='12.51391631751'>
    <tag k='name' v='nel' />
  </node>
  <node id='-137742384' action='modify' lat='55.65392380432' lon='12.51368632974' />
  <node id='-137742385' action='modify' lat='55.65519936997' lon='12.51089754887' />
  <node id='-137742386' action='modify' lat='55.65643558994' lon='12.5078117154'>
    <tag k='name' v='vig' />
  </node>
  <node id='-137742387' action='modify' lat='55.65709193436' lon='12.50610340726'>
    <tag k='name' v='vig.yr' />
  </node>
  <node id='-137742388' action='modify' lat='55.65966715916' lon='12.49932884351'>
    <tag k='name' v='via' />
  </node>
  <node id='-137742389' action='modify' lat='55.66035704115' lon='12.4975442657' />
  <node id='-137742390' action='modify' lat='55.6615924616' lon='12.49497413099' />
  <node id='-137742391' action='modify' lat='55.66402676784' lon='12.49370008573' />
  <node id='-137742393' action='modify' lat='55.66458824812' lon='12.49377864857'>
    <tag k='name' v='dan' />
  </node>
  <node id='-137742394' action='modify' lat='55.66478395972' lon='12.49380603299' />
  <node id='-137742395' action='modify' lat='55.66630034399' lon='12.49389275749' />
  <node id='-137742396' action='modify' lat='55.66947050775' lon='12.49356463417' />
  <node id='-137742397' action='modify' lat='55.67184263752' lon='12.49320045152'>
    <tag k='name' v='alh' />
  </node>
  <node id='-137742398' action='modify' lat='55.67690384405' lon='12.4924233529' />
  <node id='-137742399' action='modify' lat='55.67759360497' lon='12.49235144181'>
    <tag k='name' v='kbh' />
  </node>
  <node id='-137742400' action='modify' lat='55.68063018988' lon='12.49306440085' />
  <node id='-137742401' action='modify' lat='55.6816146481' lon='12.49361693591' />
  <node id='-137742402' action='modify' lat='55.68436827676' lon='12.4966652678' />
  <node id='-137742403' action='modify' lat='55.68556268661' lon='12.49890400549'>
    <tag k='name' v='fli' />
  </node>
  <node id='-137742404' action='modify' lat='55.68590302799' lon='12.49954193562' />
  <node id='-137742405' action='modify' lat='55.68634756516' lon='12.50042438239' />
  <node id='-137742406' action='modify' lat='55.68713532099' lon='12.5020953986' />
  <node id='-137742407' action='modify' lat='55.68769990956' lon='12.50347060398'>
    <tag k='name' v='cfr' />
  </node>
  <node id='-137742408' action='modify' lat='55.68851574542' lon='12.50681876868' />
  <node id='-137742409' action='modify' lat='55.68886802556' lon='12.50879019231' />
  <node id='-137742410' action='modify' lat='55.68924449235' lon='12.51062482461' />
  <node id='-137742411' action='modify' lat='55.68993316155' lon='12.51338615879' />
  <node id='-137742412' action='modify' lat='55.69055129378' lon='12.51535082812'>
    <tag k='name' v='gro' />
  </node>
  <node id='-137742413' action='modify' lat='55.69080475368' lon='12.5159302327' />
  <node id='-137742414' action='modify' lat='55.69160300245' lon='12.51767366856' />
  <node id='-137742415' action='modify' lat='55.69205805743' lon='12.51858561963' />
  <node id='-137742416' action='modify' lat='55.69380717295' lon='12.52197056741' />
  <node id='-137742417' action='modify' lat='55.69533852887' lon='12.52690717444'>
    <tag k='name' v='fug' />
  </node>
  <node id='-137742418' action='modify' lat='55.6954405668' lon='12.52773195371' />
  <node id='-137742419' action='modify' lat='55.6958328442' lon='12.53145754069' />
  <node id='-137742420' action='modify' lat='55.69855826459' lon='12.53694265813' />
  <node id='-137742421' action='modify' lat='55.69944251158' lon='12.53737181157' />
  <node id='-137742422' action='modify' lat='55.70059200162' lon='12.53778420322' />
  <node id='-137742423' action='modify' lat='55.70073769192' lon='12.53781676343'>
    <tag k='name' v='nor' />
  </node>
  <node id='-137742424' action='modify' lat='55.70119507419' lon='12.53791898422' />
  <node id='-137742425' action='modify' lat='55.70196439425' lon='12.53819390997' />
  <node id='-137742426' action='modify' lat='55.70313648262' lon='12.53876656026' />
  <node id='-137742427' action='modify' lat='55.70488056854' lon='12.54002183408' />
  <node id='-137742428' action='modify' lat='55.70577978521' lon='12.54093914956' />
  <node id='-137742429' action='modify' lat='55.70608413054' lon='12.54127752975'>
    <tag k='name' v='bis' />
  </node>
  <node id='-137742430' action='modify' lat='55.70759780207' lon='12.54344165057'>
    <tag k='name' v='ler' />
  </node>
  <node id='-137742431' action='modify' lat='55.70883243363' lon='12.54627942771' />
  <node id='-137742432' action='modify' lat='55.7105369771' lon='12.55122810334' />
  <node id='-137742433' action='modify' lat='55.71236308246' lon='12.55478337273' />
  <node id='-137742434' action='modify' lat='55.71456684014' lon='12.55807041585' />
  <node id='-137742435' action='modify' lat='55.7154658339' lon='12.55937128723' />
  <node id='-137742436' action='modify' lat='55.71585593918' lon='12.55993192912'>
    <tag k='name' v='ryp' />
  </node>
  <node id='-137742437' action='modify' lat='55.7182185903' lon='12.56332754552' />
  <node id='-137742438' action='modify' lat='55.72036989452' lon='12.5659131977' />
  <node id='-137742439' action='modify' lat='55.72179144375' lon='12.56739645928' />
  <node id='-137742440' action='modify' lat='55.72551915137' lon='12.56863640643' />
  <node id='-137742441' action='modify' lat='55.73107294321' lon='12.56689132213'>
    <tag k='name' v='hel' />
  </node>
  <node id='-137742451' action='modify' lat='55.65582607003' lon='12.5093534562' />
  <node id='-137742454' action='modify' lat='55.65910909327' lon='12.50077241815' />
  <node id='-137742459' action='modify' lat='55.658203239' lon='12.50324338406' />
  <node id='-137742477' action='modify' lat='55.72619577892' lon='12.56833582052' />
  <node id='-137742479' action='modify' lat='55.72924501574' lon='12.56740687716' />
  <way id='-36007462' action='modify'>
    <nd ref='-137742382' />
    <nd ref='-137742383' />
    <nd ref='-137742384' />
    <tag k='type' v='straight' />
  </way>
  <way id='-36007463' action='modify'>
    <nd ref='-137742384' />
    <nd ref='-137742385' />
    <tag k='type' v='arc' />
  </way>
  <way id='-36007464' action='modify'>
    <nd ref='-137742451' />
    <nd ref='-137742386' />
    <nd ref='-137742387' />
  </way>
  <way id='-36007465' action='modify'>
    <nd ref='-137742454' />
    <nd ref='-137742388' />
    <nd ref='-137742389' />
    <tag k='type' v='straight' />
  </way>
  <way id='-36007466' action='modify'>
    <nd ref='-137742389' />
    <nd ref='-137742390' />
    <nd ref='-137742391' />
  </way>
  <way id='-36007467' action='modify'>
    <nd ref='-137742391' />
    <nd ref='-137742393' />
    <nd ref='-137742394' />
    <tag k='type' v='straight' />
  </way>
  <way id='-36007468' action='modify'>
    <nd ref='-137742394' />
    <nd ref='-137742395' />
    <nd ref='-137742396' />
  </way>
  <way id='-36007469' action='modify'>
    <nd ref='-137742396' />
    <nd ref='-137742397' />
    <nd ref='-137742398' />
    <tag k='type' v='straight' />
  </way>
  <way id='-36007470' action='modify'>
    <nd ref='-137742398' />
    <nd ref='-137742399' />
    <nd ref='-137742400' />
  </way>
  <way id='-36007471' action='modify'>
    <nd ref='-137742400' />
    <nd ref='-137742401' />
    <tag k='type' v='straight' />
  </way>
  <way id='-36007472' action='modify'>
    <nd ref='-137742401' />
    <nd ref='-137742402' />
  </way>
  <way id='-36007473' action='modify'>
    <nd ref='-137742402' />
    <nd ref='-137742403' />
    <nd ref='-137742404' />
    <tag k='type' v='straight' />
  </way>
  <way id='-36007474' action='modify'>
    <nd ref='-137742404' />
    <nd ref='-137742405' />
  </way>
  <way id='-36007475' action='modify'>
    <nd ref='-137742405' />
    <nd ref='-137742406' />
    <tag k='type' v='straight' />
  </way>
  <way id='-36007476' action='modify'>
    <nd ref='-137742406' />
    <nd ref='-137742407' />
    <nd ref='-137742408' />
  </way>
  <way id='-36007477' action='modify'>
    <nd ref='-137742408' />
    <nd ref='-137742409' />
    <tag k='type' v='straight' />
  </way>
  <way id='-36007478' action='modify'>
    <nd ref='-137742409' />
    <nd ref='-137742410' />
  </way>
  <way id='-36007479' action='modify'>
    <nd ref='-137742410' />
    <nd ref='-137742411' />
    <tag k='type' v='straight' />
  </way>
  <way id='-36007480' action='modify'>
    <nd ref='-137742411' />
    <nd ref='-137742412' />
    <nd ref='-137742413' />
  </way>
  <way id='-36007481' action='modify'>
    <nd ref='-137742413' />
    <nd ref='-137742414' />
    <tag k='type' v='straight' />
  </way>
  <way id='-36007482' action='modify'>
    <nd ref='-137742414' />
    <nd ref='-137742415' />
  </way>
  <way id='-36007483' action='modify'>
    <nd ref='-137742415' />
    <nd ref='-137742416' />
    <tag k='type' v='straight' />
  </way>
  <way id='-36007484' action='modify'>
    <nd ref='-137742416' />
    <nd ref='-137742417' />
    <nd ref='-137742418' />
  </way>
  <way id='-36007485' action='modify'>
    <nd ref='-137742418' />
    <nd ref='-137742419' />
    <tag k='type' v='straight' />
  </way>
  <way id='-36007486' action='modify'>
    <nd ref='-137742419' />
    <nd ref='-137742420' />
  </way>
  <way id='-36007487' action='modify'>
    <nd ref='-137742420' />
    <nd ref='-137742421' />
    <tag k='type' v='straight' />
  </way>
  <way id='-36007488' action='modify'>
    <nd ref='-137742421' />
    <nd ref='-137742422' />
  </way>
  <way id='-36007489' action='modify'>
    <nd ref='-137742422' />
    <nd ref='-137742423' />
    <nd ref='-137742424' />
    <tag k='type' v='straight' />
  </way>
  <way id='-36007490' action='modify'>
    <nd ref='-137742424' />
    <nd ref='-137742425' />
  </way>
  <way id='-36007491' action='modify'>
    <nd ref='-137742425' />
    <nd ref='-137742426' />
    <tag k='type' v='straight' />
  </way>
  <way id='-36007492' action='modify'>
    <nd ref='-137742426' />
    <nd ref='-137742427' />
  </way>
  <way id='-36007493' action='modify'>
    <nd ref='-137742427' />
    <nd ref='-137742428' />
    <tag k='type' v='straight' />
  </way>
  <way id='-36007494' action='modify'>
    <nd ref='-137742428' />
    <nd ref='-137742429' />
    <nd ref='-137742430' />
    <nd ref='-137742431' />
  </way>
  <way id='-36007495' action='modify'>
    <nd ref='-137742431' />
    <nd ref='-137742432' />
    <tag k='type' v='straight' />
  </way>
  <way id='-36007496' action='modify'>
    <nd ref='-137742432' />
    <nd ref='-137742433' />
  </way>
  <way id='-36007497' action='modify'>
    <nd ref='-137742433' />
    <nd ref='-137742434' />
    <tag k='type' v='straight' />
  </way>
  <way id='-36007498' action='modify'>
    <nd ref='-137742434' />
    <nd ref='-137742435' />
  </way>
  <way id='-36007499' action='modify'>
    <nd ref='-137742435' />
    <nd ref='-137742436' />
    <nd ref='-137742437' />
    <tag k='type' v='straight' />
  </way>
  <way id='-36007500' action='modify'>
    <nd ref='-137742437' />
    <nd ref='-137742438' />
  </way>
  <way id='-36007501' action='modify'>
    <nd ref='-137742438' />
    <nd ref='-137742439' />
    <tag k='type' v='straight' />
  </way>
  <way id='-36007502' action='modify'>
    <nd ref='-137742439' />
    <nd ref='-137742440' />
  </way>
  <way id='-36007503' action='modify'>
    <nd ref='-137742477' />
    <nd ref='-137742479' />
  </way>
  <way id='-36007513' action='modify'>
    <nd ref='-137742385' />
    <nd ref='-137742451' />
    <tag k='type' v='straight' />
  </way>
  <way id='-36007518' action='modify'>
    <nd ref='-137742387' />
    <nd ref='-137742459' />
    <tag k='type' v='straight' />
  </way>
  <way id='-36007527' action='modify'>
    <nd ref='-137742459' />
    <nd ref='-137742454' />
  </way>
  <way id='-36007546' action='modify'>
    <nd ref='-137742440' />
    <nd ref='-137742477' />
    <tag k='type' v='straight' />
  </way>
  <way id='-36007552' action='modify'>
    <nd ref='-137742479' />
    <nd ref='-137742441' />
    <tag k='type' v='straight' />
  </way>
  <relation id='-14440364' action='modify'>
    <member type='way' ref='-36007462' role='' />
    <member type='way' ref='-36007463' role='' />
    <member type='way' ref='-36007513' role='' />
    <member type='way' ref='-36007464' role='' />
    <member type='way' ref='-36007518' role='' />
    <member type='way' ref='-36007527' role='' />
    <member type='way' ref='-36007465' role='' />
    <member type='way' ref='-36007466' role='' />
    <member type='way' ref='-36007467' role='' />
    <member type='way' ref='-36007468' role='' />
    <member type='way' ref='-36007469' role='' />
    <member type='way' ref='-36007470' role='' />
    <member type='way' ref='-36007471' role='' />
    <member type='way' ref='-36007472' role='' />
    <member type='way' ref='-36007473' role='' />
    <member type='way' ref='-36007474' role='' />
    <member type='way' ref='-36007475' role='' />
    <member type='way' ref='-36007476' role='' />
    <member type='way' ref='-36007477' role='' />
    <member type='way' ref='-36007478' role='' />
    <member type='way' ref='-36007479' role='' />
    <member type='way' ref='-36007480' role='' />
    <member type='way' ref='-36007481' role='' />
    <member type='way' ref='-36007482' role='' />
    <member type='way' ref='-36007483' role='' />
    <member type='way' ref='-36007484' role='' />
    <member type='way' ref='-36007485' role='' />
    <member type='way' ref='-36007486' role='' />
    <member type='way' ref='-36007487' role='' />
    <member type='way' ref='-36007488' role='' />
    <member type='way' ref='-36007489' role='' />
    <member type='way' ref='-36007490' role='' />
    <member type='way' ref='-36007491' role='' />
    <member type='way' ref='-36007492' role='' />
    <member type='way' ref='-36007493' role='' />
    <member type='way' ref='-36007494' role='' />
    <member type='way' ref='-36007495' role='' />
    <member type='way' ref='-36007496' role='' />
    <member type='way' ref='-36007497' role='' />
    <member type='way' ref='-36007498' role='' />
    <member type='way' ref='-36007499' role='' />
    <member type='way' ref='-36007500' role='' />
    <member type='way' ref='-36007501' role='' />
    <member type='way' ref='-36007502' role='' />
    <member type='way' ref='-36007546' role='' />
    <member type='way' ref='-36007503' role='' />
    <member type='way' ref='-36007552' role='' />
    <tag k='key' v='path.dk.vlh' />
    <tag k='name' v='DK VLH' />
    <tag k='type' v='path' />
  </relation>
</osm>
