<?xml version='1.0' encoding='UTF-8'?>
<osm version='0.6' upload='false' generator='JOSM'>
  <node id='-163402603' action='modify' lat='56.34555297804' lon='8.34798572088' />
  <node id='-163402604' action='modify' lat='56.351782792' lon='8.35085794263' />
  <node id='-163402605' action='modify' lat='56.3752619357' lon='8.33816472374' />
  <node id='-163402606' action='modify' lat='56.37839864425' lon='8.33646492355' />
  <node id='-163402607' action='modify' lat='56.39051828664' lon='8.32987654558'>
    <tag k='name' v='ams' />
  </node>
  <node id='-163402608' action='modify' lat='56.40451796184' lon='8.32226354953' />
  <node id='-163402609' action='modify' lat='56.40774471776' lon='8.3183884614' />
  <node id='-163402610' action='modify' lat='56.41174391441' lon='8.30865472421' />
  <node id='-163402611' action='modify' lat='56.41183365551' lon='8.30845640042'>
    <tag k='name' v='bak' />
  </node>
  <node id='-163402612' action='modify' lat='56.41631613496' lon='8.3040031039' />
  <node id='-163402613' action='modify' lat='56.42311780831' lon='8.30251179568' />
  <node id='-163402614' action='modify' lat='56.4260096067' lon='8.30037206344' />
  <node id='-163402615' action='modify' lat='56.43327713595' lon='8.29017017696'>
    <tag k='name' v='raa' />
  </node>
  <node id='-163402616' action='modify' lat='56.43516897279' lon='8.28751416708' />
  <node id='-163402617' action='modify' lat='56.4354484575' lon='8.28712727839' />
  <node id='-163402618' action='modify' lat='56.43729940264' lon='8.2845845511'>
    <tag k='name' v='sin' />
  </node>
  <node id='-163402619' action='modify' lat='56.45277857501' lon='8.26330561805' />
  <node id='-163402620' action='modify' lat='56.45314102064' lon='8.2628097089'>
    <tag k='name' v='far' />
  </node>
  <node id='-163402621' action='modify' lat='56.46396121602' lon='8.24794426493' />
  <node id='-163402622' action='modify' lat='56.46512201642' lon='8.24670005556' />
  <node id='-163402623' action='modify' lat='56.46934057127' lon='8.24341669612' />
  <node id='-163402624' action='modify' lat='56.47046879861' lon='8.24234112963' />
  <node id='-163402625' action='modify' lat='56.47854912381' lon='8.23306202754' />
  <node id='-163402626' action='modify' lat='56.48012180552' lon='8.23053069346' />
  <node id='-163402627' action='modify' lat='56.48840272071' lon='8.21158361039'>
    <tag k='name' v='ram' />
  </node>
  <node id='-163402628' action='modify' lat='56.4906030844' lon='8.20654839009' />
  <node id='-163402629' action='modify' lat='56.49405128639' lon='8.20441134207' />
  <node id='-163402630' action='modify' lat='56.49888564682' lon='8.20626944169' />
  <node id='-163402631' action='modify' lat='56.50047784152' lon='8.20764139161' />
  <node id='-163402632' action='modify' lat='56.50116325668' lon='8.20869684085' />
  <node id='-163402633' action='modify' lat='56.50441732893' lon='8.21056097679' />
  <node id='-163402634' action='modify' lat='56.50596895695' lon='8.21032360062' />
  <node id='-163402635' action='modify' lat='56.50747167684' lon='8.21057841115' />
  <node id='-163402636' action='modify' lat='56.5131604565' lon='8.21337997779' />
  <node id='-163402637' action='modify' lat='56.51464772301' lon='8.21486726336' />
  <node id='-163402638' action='modify' lat='56.5153739468' lon='8.21613863043' />
  <node id='-163402639' action='modify' lat='56.5169029298' lon='8.21784451537' />
  <node id='-163402640' action='modify' lat='56.51886872729' lon='8.21915477447' />
  <node id='-163402641' action='modify' lat='56.52082634561' lon='8.22246254068'>
    <tag k='name' v='bon' />
  </node>
  <node id='-163402642' action='modify' lat='56.52087585188' lon='8.22267383203' />
  <node id='-163402643' action='modify' lat='56.52135523736' lon='8.22487525575' />
  <node id='-163402644' action='modify' lat='56.52151947038' lon='8.22975352272' />
  <node id='-163402645' action='modify' lat='56.52131011062' lon='8.23121532664' />
  <node id='-163402646' action='modify' lat='56.52127164119' lon='8.23698274724' />
  <node id='-163402647' action='modify' lat='56.52273788324' lon='8.24713458239'>
    <tag k='name' v='lom' />
  </node>
  <node id='-163402648' action='modify' lat='56.52328307701' lon='8.25090944633' />
  <node id='-163402649' action='modify' lat='56.52407164265' lon='8.2540791475' />
  <node id='-163402650' action='modify' lat='56.52526481722' lon='8.25742855534' />
  <node id='-163402651' action='modify' lat='56.52627266101' lon='8.25975000791' />
  <node id='-163402652' action='modify' lat='56.52904801614' lon='8.26506034241'>
    <tag k='name' v='arm' />
  </node>
  <node id='-163402653' action='modify' lat='56.53671789511' lon='8.27973782949' />
  <node id='-163402654' action='modify' lat='56.53807668057' lon='8.28165627949' />
  <node id='-163402655' action='modify' lat='56.54017225774' lon='8.28387915954' />
  <node id='-163402656' action='modify' lat='56.5410181458' lon='8.28495003149' />
  <node id='-163402657' action='modify' lat='56.54258601995' lon='8.28733317487' />
  <node id='-163402658' action='modify' lat='56.54403997089' lon='8.29133033618' />
  <node id='-163402659' action='modify' lat='56.54420543613' lon='8.29231378728' />
  <node id='-163402660' action='modify' lat='56.54422037036' lon='8.29240254991' />
  <node id='-163402661' action='modify' lat='56.54509204473' lon='8.29553335771' />
  <node id='-163402662' action='modify' lat='56.54654392797' lon='8.29902909643'>
    <tag k='name' v='lem' />
  </node>
  <node id='-163402663' action='modify' lat='56.54701424046' lon='8.30016150936'>
    <tag k='name' v='lem.f' />
  </node>
  <node id='-163402665' action='modify' lat='56.34416945054' lon='8.34577753739'>
    <tag k='name' v='vem' />
  </node>
  <way id='-37517918' action='modify'>
    <nd ref='-163402665' />
    <nd ref='-163402603' />
    <tag k='type' v='straight' />
  </way>
  <way id='-37517919' action='modify'>
    <nd ref='-163402603' />
    <nd ref='-163402604' />
  </way>
  <way id='-37517920' action='modify'>
    <nd ref='-163402604' />
    <nd ref='-163402605' />
    <tag k='type' v='straight' />
  </way>
  <way id='-37517921' action='modify'>
    <nd ref='-163402605' />
    <nd ref='-163402606' />
  </way>
  <way id='-37517922' action='modify'>
    <nd ref='-163402606' />
    <nd ref='-163402607' />
    <nd ref='-163402608' />
    <tag k='type' v='straight' />
  </way>
  <way id='-37517923' action='modify'>
    <nd ref='-163402608' />
    <nd ref='-163402609' />
  </way>
  <way id='-37517924' action='modify'>
    <nd ref='-163402609' />
    <nd ref='-163402610' />
    <tag k='type' v='straight' />
  </way>
  <way id='-37517925' action='modify'>
    <nd ref='-163402610' />
    <nd ref='-163402611' />
    <nd ref='-163402612' />
  </way>
  <way id='-37517926' action='modify'>
    <nd ref='-163402612' />
    <nd ref='-163402613' />
    <tag k='type' v='straight' />
  </way>
  <way id='-37517927' action='modify'>
    <nd ref='-163402613' />
    <nd ref='-163402614' />
  </way>
  <way id='-37517928' action='modify'>
    <nd ref='-163402614' />
    <nd ref='-163402615' />
    <nd ref='-163402616' />
    <tag k='type' v='straight' />
  </way>
  <way id='-37517929' action='modify'>
    <nd ref='-163402616' />
    <nd ref='-163402617' />
  </way>
  <way id='-37517930' action='modify'>
    <nd ref='-163402617' />
    <nd ref='-163402618' />
    <nd ref='-163402619' />
    <tag k='type' v='straight' />
  </way>
  <way id='-37517931' action='modify'>
    <nd ref='-163402619' />
    <nd ref='-163402620' />
  </way>
  <way id='-37517932' action='modify'>
    <nd ref='-163402620' />
    <nd ref='-163402621' />
    <tag k='type' v='straight' />
  </way>
  <way id='-37517933' action='modify'>
    <nd ref='-163402621' />
    <nd ref='-163402622' />
  </way>
  <way id='-37517934' action='modify'>
    <nd ref='-163402622' />
    <nd ref='-163402623' />
    <tag k='type' v='straight' />
  </way>
  <way id='-37517935' action='modify'>
    <nd ref='-163402623' />
    <nd ref='-163402624' />
  </way>
  <way id='-37517936' action='modify'>
    <nd ref='-163402624' />
    <nd ref='-163402625' />
    <tag k='type' v='straight' />
  </way>
  <way id='-37517937' action='modify'>
    <nd ref='-163402625' />
    <nd ref='-163402626' />
  </way>
  <way id='-37517938' action='modify'>
    <nd ref='-163402626' />
    <nd ref='-163402627' />
    <nd ref='-163402628' />
    <tag k='type' v='straight' />
  </way>
  <way id='-37517939' action='modify'>
    <nd ref='-163402628' />
    <nd ref='-163402629' />
  </way>
  <way id='-37517940' action='modify'>
    <nd ref='-163402629' />
    <nd ref='-163402630' />
    <tag k='type' v='straight' />
  </way>
  <way id='-37517941' action='modify'>
    <nd ref='-163402630' />
    <nd ref='-163402631' />
  </way>
  <way id='-37517942' action='modify'>
    <nd ref='-163402631' />
    <nd ref='-163402632' />
    <tag k='type' v='straight' />
  </way>
  <way id='-37517943' action='modify'>
    <nd ref='-163402632' />
    <nd ref='-163402633' />
  </way>
  <way id='-37517944' action='modify'>
    <nd ref='-163402633' />
    <nd ref='-163402634' />
    <tag k='type' v='straight' />
  </way>
  <way id='-37517945' action='modify'>
    <nd ref='-163402634' />
    <nd ref='-163402635' />
  </way>
  <way id='-37517946' action='modify'>
    <nd ref='-163402635' />
    <nd ref='-163402636' />
    <tag k='type' v='straight' />
  </way>
  <way id='-37517947' action='modify'>
    <nd ref='-163402636' />
    <nd ref='-163402637' />
  </way>
  <way id='-37517948' action='modify'>
    <nd ref='-163402637' />
    <nd ref='-163402638' />
    <tag k='type' v='straight' />
  </way>
  <way id='-37517949' action='modify'>
    <nd ref='-163402638' />
    <nd ref='-163402639' />
  </way>
  <way id='-37517950' action='modify'>
    <nd ref='-163402639' />
    <nd ref='-163402640' />
    <tag k='type' v='straight' />
  </way>
  <way id='-37517951' action='modify'>
    <nd ref='-163402640' />
    <nd ref='-163402641' />
    <nd ref='-163402642' />
  </way>
  <way id='-37517952' action='modify'>
    <nd ref='-163402642' />
    <nd ref='-163402643' />
    <tag k='type' v='straight' />
  </way>
  <way id='-37517953' action='modify'>
    <nd ref='-163402643' />
    <nd ref='-163402644' />
  </way>
  <way id='-37517954' action='modify'>
    <nd ref='-163402644' />
    <nd ref='-163402645' />
    <tag k='type' v='straight' />
  </way>
  <way id='-37517955' action='modify'>
    <nd ref='-163402645' />
    <nd ref='-163402646' />
  </way>
  <way id='-37517956' action='modify'>
    <nd ref='-163402646' />
    <nd ref='-163402647' />
    <nd ref='-163402648' />
    <tag k='type' v='straight' />
  </way>
  <way id='-37517957' action='modify'>
    <nd ref='-163402648' />
    <nd ref='-163402649' />
  </way>
  <way id='-37517958' action='modify'>
    <nd ref='-163402649' />
    <nd ref='-163402650' />
    <tag k='type' v='straight' />
  </way>
  <way id='-37517959' action='modify'>
    <nd ref='-163402650' />
    <nd ref='-163402651' />
  </way>
  <way id='-37517960' action='modify'>
    <nd ref='-163402651' />
    <nd ref='-163402652' />
    <nd ref='-163402653' />
    <tag k='type' v='straight' />
  </way>
  <way id='-37517961' action='modify'>
    <nd ref='-163402653' />
    <nd ref='-163402654' />
  </way>
  <way id='-37517962' action='modify'>
    <nd ref='-163402654' />
    <nd ref='-163402655' />
    <tag k='type' v='straight' />
  </way>
  <way id='-37517963' action='modify'>
    <nd ref='-163402655' />
    <nd ref='-163402656' />
  </way>
  <way id='-37517964' action='modify'>
    <nd ref='-163402656' />
    <nd ref='-163402657' />
    <tag k='type' v='straight' />
  </way>
  <way id='-37517965' action='modify'>
    <nd ref='-163402657' />
    <nd ref='-163402658' />
  </way>
  <way id='-37517966' action='modify'>
    <nd ref='-163402658' />
    <nd ref='-163402659' />
    <tag k='type' v='straight' />
  </way>
  <way id='-37517967' action='modify'>
    <nd ref='-163402659' />
    <nd ref='-163402660' />
    <tag k='type' v='straight' />
  </way>
  <way id='-37517968' action='modify'>
    <nd ref='-163402660' />
    <nd ref='-163402661' />
  </way>
  <way id='-37517969' action='modify'>
    <nd ref='-163402661' />
    <nd ref='-163402662' />
    <nd ref='-163402663' />
    <tag k='type' v='straight' />
  </way>
  <relation id='-14478776' action='modify'>
    <member type='way' ref='-37517918' role='' />
    <member type='way' ref='-37517919' role='' />
    <member type='way' ref='-37517920' role='' />
    <member type='way' ref='-37517921' role='' />
    <member type='way' ref='-37517922' role='' />
    <member type='way' ref='-37517923' role='' />
    <member type='way' ref='-37517924' role='' />
    <member type='way' ref='-37517925' role='' />
    <member type='way' ref='-37517926' role='' />
    <member type='way' ref='-37517927' role='' />
    <member type='way' ref='-37517928' role='' />
    <member type='way' ref='-37517929' role='' />
    <member type='way' ref='-37517930' role='' />
    <member type='way' ref='-37517931' role='' />
    <member type='way' ref='-37517932' role='' />
    <member type='way' ref='-37517933' role='' />
    <member type='way' ref='-37517934' role='' />
    <member type='way' ref='-37517935' role='' />
    <member type='way' ref='-37517936' role='' />
    <member type='way' ref='-37517937' role='' />
    <member type='way' ref='-37517938' role='' />
    <member type='way' ref='-37517939' role='' />
    <member type='way' ref='-37517940' role='' />
    <member type='way' ref='-37517941' role='' />
    <member type='way' ref='-37517942' role='' />
    <member type='way' ref='-37517943' role='' />
    <member type='way' ref='-37517944' role='' />
    <member type='way' ref='-37517945' role='' />
    <member type='way' ref='-37517946' role='' />
    <member type='way' ref='-37517947' role='' />
    <member type='way' ref='-37517948' role='' />
    <member type='way' ref='-37517949' role='' />
    <member type='way' ref='-37517950' role='' />
    <member type='way' ref='-37517951' role='' />
    <member type='way' ref='-37517952' role='' />
    <member type='way' ref='-37517953' role='' />
    <member type='way' ref='-37517954' role='' />
    <member type='way' ref='-37517955' role='' />
    <member type='way' ref='-37517956' role='' />
    <member type='way' ref='-37517957' role='' />
    <member type='way' ref='-37517958' role='' />
    <member type='way' ref='-37517959' role='' />
    <member type='way' ref='-37517960' role='' />
    <member type='way' ref='-37517961' role='' />
    <member type='way' ref='-37517962' role='' />
    <member type='way' ref='-37517963' role='' />
    <member type='way' ref='-37517964' role='' />
    <member type='way' ref='-37517965' role='' />
    <member type='way' ref='-37517966' role='' />
    <member type='way' ref='-37517967' role='' />
    <member type='way' ref='-37517968' role='' />
    <member type='way' ref='-37517969' role='' />
    <tag k='key' v='path.dk.vlv' />
    <tag k='name' v='DK VLV' />
    <tag k='type' v='path' />
  </relation>
</osm>
