<?xml version='1.0' encoding='UTF-8'?>
<osm version='0.6' upload='false' generator='JOSM'>
  <node id='-185089383' action='modify' lat='54.92659233467' lon='9.85666277089'>
    <tag k='name' v='vol' />
  </node>
  <node id='-185089384' action='modify' lat='54.9267233018' lon='9.85865451264' />
  <node id='-185089385' action='modify' lat='54.9278200126' lon='9.8609268558' />
  <node id='-185089386' action='modify' lat='54.935778078' lon='9.86823319316' />
  <node id='-185089387' action='modify' lat='54.93712789571' lon='9.86900566936' />
  <node id='-185089388' action='modify' lat='54.93935283879' lon='9.86946700931' />
  <node id='-185089389' action='modify' lat='54.94089358595' lon='9.87141965747' />
  <node id='-185089390' action='modify' lat='54.94154068215' lon='9.87317918658' />
  <node id='-185089391' action='modify' lat='54.94289954719' lon='9.87380146444' />
  <node id='-185089392' action='modify' lat='54.94416901515' lon='9.87334548891' />
  <node id='-185089393' action='modify' lat='54.94474211133' lon='9.87358688772' />
  <node id='-185089394' action='modify' lat='54.94492756497' lon='9.87375219696'>
    <tag k='name' v='aug' />
  </node>
  <node id='-185089395' action='modify' lat='54.94577119903' lon='9.8745042032' />
  <node id='-185089396' action='modify' lat='54.94605388311' lon='9.87486496434' />
  <node id='-185089397' action='modify' lat='54.94621695174' lon='9.87521228952' />
  <node id='-185089398' action='modify' lat='54.94643516075' lon='9.87600221962' />
  <node id='-185089399' action='modify' lat='54.94656533323' lon='9.87693831056' />
  <node id='-185089400' action='modify' lat='54.9466223317' lon='9.87740099162' />
  <node id='-185089401' action='modify' lat='54.94666469538' lon='9.87780064076' />
  <node id='-185089402' action='modify' lat='54.94688858786' lon='9.87893143174' />
  <node id='-185089403' action='modify' lat='54.94704365496' lon='9.8794944571' />
  <node id='-185089404' action='modify' lat='54.9472839702' lon='9.88079130381' />
  <node id='-185089405' action='modify' lat='54.94735021047' lon='9.8815610978' />
  <node id='-185089406' action='modify' lat='54.94745650277' lon='9.88259374827' />
  <node id='-185089407' action='modify' lat='54.94767986974' lon='9.88421112031' />
  <node id='-185089408' action='modify' lat='54.94869502001' lon='9.88730906904' />
  <node id='-185089409' action='modify' lat='54.95152029856' lon='9.8922600965'>
    <tag k='name' v='bro' />
  </node>
  <node id='-185089410' action='modify' lat='54.95207147593' lon='9.89322602212' />
  <node id='-185089411' action='modify' lat='54.95329136652' lon='9.89388584554' />
  <node id='-185089412' action='modify' lat='54.95415081266' lon='9.89386975229' />
  <node id='-185089413' action='modify' lat='54.95483774027' lon='9.89398240507' />
  <node id='-185089414' action='modify' lat='54.95551233487' lon='9.8944383806' />
  <node id='-185089415' action='modify' lat='54.95594665691' lon='9.89466905057' />
  <node id='-185089416' action='modify' lat='54.95756993249' lon='9.89489972055' />
  <node id='-185089417' action='modify' lat='54.96023418928' lon='9.8947334075' />
  <node id='-185089418' action='modify' lat='54.96346184406' lon='9.89799230218' />
  <node id='-185089419' action='modify' lat='54.96388180017' lon='9.89876183504'>
    <tag k='name' v='ket' />
  </node>
  <node id='-185089420' action='modify' lat='54.96408393974' lon='9.89913224101' />
  <node id='-185089421' action='modify' lat='54.96442116085' lon='9.90074961305' />
  <node id='-185089422' action='modify' lat='54.96476761794' lon='9.91246818423' />
  <node id='-185089423' action='modify' lat='54.9647953313' lon='9.91456567705' />
  <node id='-185089424' action='modify' lat='54.96472757997' lon='9.92222606599' />
  <node id='-185089425' action='modify' lat='54.96498010552' lon='9.92353766888' />
  <node id='-185089426' action='modify' lat='54.96526188693' lon='9.92412239045'>
    <tag k='name' v='ass' />
  </node>
  <node id='-185089427' action='modify' lat='54.96657068177' lon='9.92496460408' />
  <node id='-185089428' action='modify' lat='54.97582187669' lon='9.9270486778' />
  <node id='-185089429' action='modify' lat='54.97716880912' lon='9.92703795165' />
  <node id='-185089430' action='modify' lat='54.98100309182' lon='9.92600261629' />
  <node id='-185089431' action='modify' lat='54.98263458977' lon='9.92426990926' />
  <node id='-185089432' action='modify' lat='54.9836736153' lon='9.92169604276'>
    <tag k='name' v='not' />
  </node>
  <node id='-185089433' action='modify' lat='54.98584813897' lon='9.91630911291' />
  <node id='-185089434' action='modify' lat='54.9863406142' lon='9.9118137306' />
  <node id='-185089435' action='modify' lat='54.98590354274' lon='9.90618645608' />
  <node id='-185089436' action='modify' lat='54.98613439401' lon='9.90203975558' />
  <node id='-185089437' action='modify' lat='54.98689156678' lon='9.89759801745' />
  <node id='-185089438' action='modify' lat='54.98727322568' lon='9.89604233623' />
  <node id='-185089439' action='modify' lat='54.9888921578' lon='9.89130019069' />
  <node id='-185089440' action='modify' lat='54.98922455403' lon='9.89003418803' />
  <node id='-185089441' action='modify' lat='54.98954994018' lon='9.88803500746'>
    <tag k='name' v='els' />
  </node>
  <node id='-185089442' action='modify' lat='54.98971698783' lon='9.88700865626' />
  <node id='-185089443' action='modify' lat='54.98979085238' lon='9.88449810863' />
  <node id='-185089444' action='modify' lat='54.98918146578' lon='9.86971377254' />
  <node id='-185089445' action='modify' lat='54.98960310997' lon='9.86674189031' />
  <node id='-185089446' action='modify' lat='54.9903339757' lon='9.86515070783'>
    <tag k='name' v='gud' />
  </node>
  <node id='-185089447' action='modify' lat='54.99060879611' lon='9.86455238329' />
  <node id='-185089448' action='modify' lat='54.99147123414' lon='9.86330865741' />
  <node id='-185089449' action='modify' lat='54.99225292315' lon='9.86260055959' />
  <node id='-185089450' action='modify' lat='54.9938716544' lon='9.85960184991' />
  <node id='-185089451' action='modify' lat='54.99603806705' lon='9.85137283266' />
  <node id='-185089452' action='modify' lat='54.99659811801' lon='9.84936117053' />
  <node id='-185089453' action='modify' lat='55.00166896494' lon='9.83523129344' />
  <node id='-185089454' action='modify' lat='55.00327500974' lon='9.8332571876' />
  <node id='-185089455' action='modify' lat='55.0051068735' lon='9.83303098827'>
    <tag k='name' v='ste' />
  </node>
  <node id='-185089456' action='modify' lat='55.00831425014' lon='9.83263491511' />
  <node id='-185089457' action='modify' lat='55.01014150595' lon='9.83366489142' />
  <node id='-185089458' action='modify' lat='55.01165954537' lon='9.83558267087' />
  <node id='-185089459' action='modify' lat='55.01390036029' lon='9.83717321277' />
  <node id='-185089460' action='modify' lat='55.01814479152' lon='9.83843921542' />
  <node id='-185089461' action='modify' lat='55.01918430111' lon='9.83835338473' />
  <node id='-185089462' action='modify' lat='55.02029759213' lon='9.83776329875' />
  <node id='-185089463' action='modify' lat='55.02144775228' lon='9.83753263414' />
  <node id='-185089464' action='modify' lat='55.02363727663' lon='9.83768820226' />
  <node id='-185089465' action='modify' lat='55.02636478925' lon='9.83429789007' />
  <node id='-185089466' action='modify' lat='55.0267593471' lon='9.83298345969'>
    <tag k='name' v='sve' />
  </node>
  <node id='-185089467' action='modify' lat='55.02697668598' lon='9.83225941122' />
  <node id='-185089468' action='modify' lat='55.02737641554' lon='9.83124016643' />
  <node id='-185089469' action='modify' lat='55.0285140768' lon='9.82925533175' />
  <node id='-185089470' action='modify' lat='55.02983310541' lon='9.82496916711' />
  <node id='-185089471' action='modify' lat='55.02972549373' lon='9.81683134496' />
  <node id='-185089472' action='modify' lat='55.02992535299' lon='9.81469092607' />
  <node id='-185089473' action='modify' lat='55.03112135775' lon='9.80821607351' />
  <node id='-185089474' action='modify' lat='55.03232039201' lon='9.80508326948' />
  <node id='-185089475' action='modify' lat='55.03454313927' lon='9.80254053533' />
  <node id='-185089476' action='modify' lat='55.03505346217' lon='9.80132281244' />
  <node id='-185089477' action='modify' lat='55.03642147151' lon='9.79432042236'>
    <tag k='name' v='hav' />
  </node>
  <node id='-185089478' action='modify' lat='55.03671350377' lon='9.79282557428' />
  <node id='-185089479' action='modify' lat='55.03725146853' lon='9.78909729838' />
  <node id='-185089480' action='modify' lat='55.03771872082' lon='9.78453754306' />
  <node id='-185089481' action='modify' lat='55.03784168104' lon='9.7821986568' />
  <node id='-185089482' action='modify' lat='55.03782323703' lon='9.77214573741' />
  <node id='-185089483' action='modify' lat='55.03766953663' lon='9.76863740802' />
  <node id='-185089484' action='modify' lat='55.0372699128' lon='9.76466773868' />
  <node id='-185089485' action='modify' lat='55.03864091329' lon='9.7597646606' />
  <node id='-185089486' action='modify' lat='55.03952983122' lon='9.75860359984'>
    <tag k='name' v='oks' />
  </node>
  <node id='-185089487' action='modify' lat='55.04062048144' lon='9.75717901111' />
  <node id='-185089488' action='modify' lat='55.0414626904' lon='9.75578426242' />
  <node id='-185089489' action='modify' lat='55.04194218832' lon='9.75489376903' />
  <node id='-185089490' action='modify' lat='55.04420435749' lon='9.75269435763' />
  <node id='-185089491' action='modify' lat='55.05165385923' lon='9.75178240657' />
  <node id='-185089492' action='modify' lat='55.05445013785' lon='9.74824189067' />
  <node id='-185089493' action='modify' lat='55.05480657253' lon='9.74577425838' />
  <node id='-185089494' action='modify' lat='55.05602334284' lon='9.7433709991' />
  <node id='-185089495' action='modify' lat='55.05767609216' lon='9.74256945164'>
    <tag k='name' v='nor' />
  </node>
  <node id='-185089496' action='modify' lat='55.05779478298' lon='9.7425118879'>
    <tag k='name' v='nor.f' />
  </node>
  <way id='-39089053' action='modify'>
    <nd ref='-185089383' />
    <nd ref='-185089384' />
    <tag k='type' v='straight' />
  </way>
  <way id='-39089054' action='modify'>
    <nd ref='-185089384' />
    <nd ref='-185089385' />
  </way>
  <way id='-39089055' action='modify'>
    <nd ref='-185089385' />
    <nd ref='-185089386' />
    <tag k='type' v='straight' />
  </way>
  <way id='-39089056' action='modify'>
    <nd ref='-185089386' />
    <nd ref='-185089387' />
  </way>
  <way id='-39089057' action='modify'>
    <nd ref='-185089387' />
    <nd ref='-185089388' />
    <tag k='type' v='straight' />
  </way>
  <way id='-39089058' action='modify'>
    <nd ref='-185089388' />
    <nd ref='-185089389' />
  </way>
  <way id='-39089059' action='modify'>
    <nd ref='-185089389' />
    <nd ref='-185089390' />
    <tag k='type' v='straight' />
  </way>
  <way id='-39089060' action='modify'>
    <nd ref='-185089390' />
    <nd ref='-185089391' />
  </way>
  <way id='-39089061' action='modify'>
    <nd ref='-185089391' />
    <nd ref='-185089392' />
    <tag k='type' v='straight' />
  </way>
  <way id='-39089062' action='modify'>
    <nd ref='-185089392' />
    <nd ref='-185089393' />
  </way>
  <way id='-39089063' action='modify'>
    <nd ref='-185089393' />
    <nd ref='-185089394' />
    <nd ref='-185089395' />
    <tag k='type' v='straight' />
  </way>
  <way id='-39089064' action='modify'>
    <nd ref='-185089395' />
    <nd ref='-185089396' />
  </way>
  <way id='-39089065' action='modify'>
    <nd ref='-185089396' />
    <nd ref='-185089397' />
    <tag k='type' v='straight' />
  </way>
  <way id='-39089066' action='modify'>
    <nd ref='-185089397' />
    <nd ref='-185089398' />
  </way>
  <way id='-39089067' action='modify'>
    <nd ref='-185089398' />
    <nd ref='-185089399' />
    <tag k='type' v='straight' />
  </way>
  <way id='-39089068' action='modify'>
    <nd ref='-185089399' />
    <nd ref='-185089400' />
  </way>
  <way id='-39089069' action='modify'>
    <nd ref='-185089400' />
    <nd ref='-185089401' />
    <tag k='type' v='straight' />
  </way>
  <way id='-39089070' action='modify'>
    <nd ref='-185089401' />
    <nd ref='-185089402' />
  </way>
  <way id='-39089071' action='modify'>
    <nd ref='-185089402' />
    <nd ref='-185089403' />
    <tag k='type' v='straight' />
  </way>
  <way id='-39089072' action='modify'>
    <nd ref='-185089403' />
    <nd ref='-185089404' />
  </way>
  <way id='-39089073' action='modify'>
    <nd ref='-185089404' />
    <nd ref='-185089405' />
    <tag k='type' v='straight' />
  </way>
  <way id='-39089074' action='modify'>
    <nd ref='-185089405' />
    <nd ref='-185089406' />
  </way>
  <way id='-39089075' action='modify'>
    <nd ref='-185089406' />
    <nd ref='-185089407' />
    <tag k='type' v='straight' />
  </way>
  <way id='-39089076' action='modify'>
    <nd ref='-185089407' />
    <nd ref='-185089408' />
  </way>
  <way id='-39089077' action='modify'>
    <nd ref='-185089408' />
    <nd ref='-185089409' />
    <nd ref='-185089410' />
    <tag k='type' v='straight' />
  </way>
  <way id='-39089078' action='modify'>
    <nd ref='-185089410' />
    <nd ref='-185089411' />
  </way>
  <way id='-39089079' action='modify'>
    <nd ref='-185089411' />
    <nd ref='-185089412' />
    <tag k='type' v='straight' />
  </way>
  <way id='-39089080' action='modify'>
    <nd ref='-185089412' />
    <nd ref='-185089413' />
    <nd ref='-185089414' />
  </way>
  <way id='-39089081' action='modify'>
    <nd ref='-185089414' />
    <nd ref='-185089415' />
    <nd ref='-185089416' />
    <nd ref='-185089417' />
    <tag k='type' v='straight' />
  </way>
  <way id='-39089082' action='modify'>
    <nd ref='-185089417' />
    <nd ref='-185089418' />
  </way>
  <way id='-39089083' action='modify'>
    <nd ref='-185089418' />
    <nd ref='-185089419' />
    <nd ref='-185089420' />
    <tag k='type' v='straight' />
  </way>
  <way id='-39089084' action='modify'>
    <nd ref='-185089420' />
    <nd ref='-185089421' />
  </way>
  <way id='-39089085' action='modify'>
    <nd ref='-185089421' />
    <nd ref='-185089422' />
    <tag k='type' v='straight' />
  </way>
  <way id='-39089086' action='modify'>
    <nd ref='-185089422' />
    <nd ref='-185089423' />
  </way>
  <way id='-39089087' action='modify'>
    <nd ref='-185089423' />
    <nd ref='-185089424' />
    <tag k='type' v='straight' />
  </way>
  <way id='-39089088' action='modify'>
    <nd ref='-185089424' />
    <nd ref='-185089425' />
  </way>
  <way id='-39089089' action='modify'>
    <nd ref='-185089425' />
    <nd ref='-185089426' />
    <tag k='type' v='straight' />
  </way>
  <way id='-39089090' action='modify'>
    <nd ref='-185089426' />
    <nd ref='-185089427' />
  </way>
  <way id='-39089091' action='modify'>
    <nd ref='-185089427' />
    <nd ref='-185089428' />
    <tag k='type' v='straight' />
  </way>
  <way id='-39089092' action='modify'>
    <nd ref='-185089428' />
    <nd ref='-185089429' />
  </way>
  <way id='-39089093' action='modify'>
    <nd ref='-185089429' />
    <nd ref='-185089430' />
    <tag k='type' v='straight' />
  </way>
  <way id='-39089094' action='modify'>
    <nd ref='-185089430' />
    <nd ref='-185089431' />
  </way>
  <way id='-39089095' action='modify'>
    <nd ref='-185089431' />
    <nd ref='-185089432' />
    <nd ref='-185089433' />
    <tag k='type' v='straight' />
  </way>
  <way id='-39089096' action='modify'>
    <nd ref='-185089433' />
    <nd ref='-185089434' />
  </way>
  <way id='-39089097' action='modify'>
    <nd ref='-185089434' />
    <nd ref='-185089435' />
    <tag k='type' v='straight' />
  </way>
  <way id='-39089098' action='modify'>
    <nd ref='-185089435' />
    <nd ref='-185089436' />
  </way>
  <way id='-39089099' action='modify'>
    <nd ref='-185089436' />
    <nd ref='-185089437' />
    <tag k='type' v='straight' />
  </way>
  <way id='-39089100' action='modify'>
    <nd ref='-185089437' />
    <nd ref='-185089438' />
  </way>
  <way id='-39089101' action='modify'>
    <nd ref='-185089438' />
    <nd ref='-185089439' />
    <tag k='type' v='straight' />
  </way>
  <way id='-39089102' action='modify'>
    <nd ref='-185089439' />
    <nd ref='-185089440' />
  </way>
  <way id='-39089103' action='modify'>
    <nd ref='-185089440' />
    <nd ref='-185089441' />
    <nd ref='-185089442' />
    <tag k='type' v='straight' />
  </way>
  <way id='-39089104' action='modify'>
    <nd ref='-185089442' />
    <nd ref='-185089443' />
  </way>
  <way id='-39089105' action='modify'>
    <nd ref='-185089443' />
    <nd ref='-185089444' />
    <tag k='type' v='straight' />
  </way>
  <way id='-39089106' action='modify'>
    <nd ref='-185089444' />
    <nd ref='-185089445' />
  </way>
  <way id='-39089107' action='modify'>
    <nd ref='-185089445' />
    <nd ref='-185089446' />
    <nd ref='-185089447' />
    <tag k='type' v='straight' />
  </way>
  <way id='-39089108' action='modify'>
    <nd ref='-185089447' />
    <nd ref='-185089448' />
  </way>
  <way id='-39089109' action='modify'>
    <nd ref='-185089448' />
    <nd ref='-185089449' />
    <tag k='type' v='straight' />
  </way>
  <way id='-39089110' action='modify'>
    <nd ref='-185089449' />
    <nd ref='-185089450' />
  </way>
  <way id='-39089111' action='modify'>
    <nd ref='-185089450' />
    <nd ref='-185089451' />
    <tag k='type' v='straight' />
  </way>
  <way id='-39089112' action='modify'>
    <nd ref='-185089451' />
    <nd ref='-185089452' />
  </way>
  <way id='-39089113' action='modify'>
    <nd ref='-185089452' />
    <nd ref='-185089453' />
    <tag k='type' v='straight' />
  </way>
  <way id='-39089114' action='modify'>
    <nd ref='-185089453' />
    <nd ref='-185089454' />
  </way>
  <way id='-39089115' action='modify'>
    <nd ref='-185089454' />
    <nd ref='-185089455' />
    <nd ref='-185089456' />
    <tag k='type' v='straight' />
  </way>
  <way id='-39089116' action='modify'>
    <nd ref='-185089456' />
    <nd ref='-185089457' />
  </way>
  <way id='-39089117' action='modify'>
    <nd ref='-185089457' />
    <nd ref='-185089458' />
    <tag k='type' v='straight' />
  </way>
  <way id='-39089118' action='modify'>
    <nd ref='-185089458' />
    <nd ref='-185089459' />
  </way>
  <way id='-39089119' action='modify'>
    <nd ref='-185089459' />
    <nd ref='-185089460' />
    <tag k='type' v='straight' />
  </way>
  <way id='-39089120' action='modify'>
    <nd ref='-185089460' />
    <nd ref='-185089461' />
  </way>
  <way id='-39089121' action='modify'>
    <nd ref='-185089461' />
    <nd ref='-185089462' />
    <nd ref='-185089463' />
    <nd ref='-185089464' />
    <tag k='type' v='straight' />
  </way>
  <way id='-39089122' action='modify'>
    <nd ref='-185089464' />
    <nd ref='-185089465' />
  </way>
  <way id='-39089123' action='modify'>
    <nd ref='-185089465' />
    <nd ref='-185089466' />
    <nd ref='-185089467' />
    <tag k='type' v='straight' />
  </way>
  <way id='-39089124' action='modify'>
    <nd ref='-185089467' />
    <nd ref='-185089468' />
  </way>
  <way id='-39089125' action='modify'>
    <nd ref='-185089468' />
    <nd ref='-185089469' />
    <tag k='type' v='straight' />
  </way>
  <way id='-39089126' action='modify'>
    <nd ref='-185089469' />
    <nd ref='-185089470' />
  </way>
  <way id='-39089127' action='modify'>
    <nd ref='-185089470' />
    <nd ref='-185089471' />
    <tag k='type' v='straight' />
  </way>
  <way id='-39089128' action='modify'>
    <nd ref='-185089471' />
    <nd ref='-185089472' />
  </way>
  <way id='-39089129' action='modify'>
    <nd ref='-185089472' />
    <nd ref='-185089473' />
    <tag k='type' v='straight' />
  </way>
  <way id='-39089130' action='modify'>
    <nd ref='-185089473' />
    <nd ref='-185089474' />
  </way>
  <way id='-39089131' action='modify'>
    <nd ref='-185089474' />
    <nd ref='-185089475' />
    <tag k='type' v='straight' />
  </way>
  <way id='-39089132' action='modify'>
    <nd ref='-185089475' />
    <nd ref='-185089476' />
  </way>
  <way id='-39089133' action='modify'>
    <nd ref='-185089476' />
    <nd ref='-185089477' />
    <nd ref='-185089478' />
    <tag k='type' v='straight' />
  </way>
  <way id='-39089134' action='modify'>
    <nd ref='-185089478' />
    <nd ref='-185089479' />
  </way>
  <way id='-39089135' action='modify'>
    <nd ref='-185089479' />
    <nd ref='-185089480' />
    <tag k='type' v='straight' />
  </way>
  <way id='-39089136' action='modify'>
    <nd ref='-185089480' />
    <nd ref='-185089481' />
  </way>
  <way id='-39089137' action='modify'>
    <nd ref='-185089481' />
    <nd ref='-185089482' />
    <tag k='type' v='straight' />
  </way>
  <way id='-39089138' action='modify'>
    <nd ref='-185089482' />
    <nd ref='-185089483' />
  </way>
  <way id='-39089139' action='modify'>
    <nd ref='-185089483' />
    <nd ref='-185089484' />
    <tag k='type' v='straight' />
  </way>
  <way id='-39089140' action='modify'>
    <nd ref='-185089484' />
    <nd ref='-185089485' />
  </way>
  <way id='-39089141' action='modify'>
    <nd ref='-185089485' />
    <nd ref='-185089486' />
    <nd ref='-185089487' />
    <tag k='type' v='straight' />
  </way>
  <way id='-39089142' action='modify'>
    <nd ref='-185089487' />
    <nd ref='-185089488' />
  </way>
  <way id='-39089143' action='modify'>
    <nd ref='-185089488' />
    <nd ref='-185089489' />
    <tag k='type' v='straight' />
  </way>
  <way id='-39089144' action='modify'>
    <nd ref='-185089489' />
    <nd ref='-185089490' />
  </way>
  <way id='-39089145' action='modify'>
    <nd ref='-185089490' />
    <nd ref='-185089491' />
    <tag k='type' v='straight' />
  </way>
  <way id='-39089146' action='modify'>
    <nd ref='-185089491' />
    <nd ref='-185089492' />
  </way>
  <way id='-39089147' action='modify'>
    <nd ref='-185089492' />
    <nd ref='-185089493' />
    <tag k='type' v='straight' />
  </way>
  <way id='-39089148' action='modify'>
    <nd ref='-185089493' />
    <nd ref='-185089494' />
  </way>
  <way id='-39089149' action='modify'>
    <nd ref='-185089494' />
    <nd ref='-185089495' />
    <nd ref='-185089496' />
    <tag k='type' v='straight' />
  </way>
  <relation id='-14493815' action='modify'>
    <member type='way' ref='-39089053' role='' />
    <member type='way' ref='-39089054' role='' />
    <member type='way' ref='-39089055' role='' />
    <member type='way' ref='-39089056' role='' />
    <member type='way' ref='-39089057' role='' />
    <member type='way' ref='-39089058' role='' />
    <member type='way' ref='-39089059' role='' />
    <member type='way' ref='-39089060' role='' />
    <member type='way' ref='-39089061' role='' />
    <member type='way' ref='-39089062' role='' />
    <member type='way' ref='-39089063' role='' />
    <member type='way' ref='-39089064' role='' />
    <member type='way' ref='-39089065' role='' />
    <member type='way' ref='-39089066' role='' />
    <member type='way' ref='-39089067' role='' />
    <member type='way' ref='-39089068' role='' />
    <member type='way' ref='-39089069' role='' />
    <member type='way' ref='-39089070' role='' />
    <member type='way' ref='-39089071' role='' />
    <member type='way' ref='-39089072' role='' />
    <member type='way' ref='-39089073' role='' />
    <member type='way' ref='-39089074' role='' />
    <member type='way' ref='-39089075' role='' />
    <member type='way' ref='-39089076' role='' />
    <member type='way' ref='-39089077' role='' />
    <member type='way' ref='-39089078' role='' />
    <member type='way' ref='-39089079' role='' />
    <member type='way' ref='-39089080' role='' />
    <member type='way' ref='-39089081' role='' />
    <member type='way' ref='-39089082' role='' />
    <member type='way' ref='-39089083' role='' />
    <member type='way' ref='-39089084' role='' />
    <member type='way' ref='-39089085' role='' />
    <member type='way' ref='-39089086' role='' />
    <member type='way' ref='-39089087' role='' />
    <member type='way' ref='-39089088' role='' />
    <member type='way' ref='-39089089' role='' />
    <member type='way' ref='-39089090' role='' />
    <member type='way' ref='-39089091' role='' />
    <member type='way' ref='-39089092' role='' />
    <member type='way' ref='-39089093' role='' />
    <member type='way' ref='-39089094' role='' />
    <member type='way' ref='-39089095' role='' />
    <member type='way' ref='-39089096' role='' />
    <member type='way' ref='-39089097' role='' />
    <member type='way' ref='-39089098' role='' />
    <member type='way' ref='-39089099' role='' />
    <member type='way' ref='-39089100' role='' />
    <member type='way' ref='-39089101' role='' />
    <member type='way' ref='-39089102' role='' />
    <member type='way' ref='-39089103' role='' />
    <member type='way' ref='-39089104' role='' />
    <member type='way' ref='-39089105' role='' />
    <member type='way' ref='-39089106' role='' />
    <member type='way' ref='-39089107' role='' />
    <member type='way' ref='-39089108' role='' />
    <member type='way' ref='-39089109' role='' />
    <member type='way' ref='-39089110' role='' />
    <member type='way' ref='-39089111' role='' />
    <member type='way' ref='-39089112' role='' />
    <member type='way' ref='-39089113' role='' />
    <member type='way' ref='-39089114' role='' />
    <member type='way' ref='-39089115' role='' />
    <member type='way' ref='-39089116' role='' />
    <member type='way' ref='-39089117' role='' />
    <member type='way' ref='-39089118' role='' />
    <member type='way' ref='-39089119' role='' />
    <member type='way' ref='-39089120' role='' />
    <member type='way' ref='-39089121' role='' />
    <member type='way' ref='-39089122' role='' />
    <member type='way' ref='-39089123' role='' />
    <member type='way' ref='-39089124' role='' />
    <member type='way' ref='-39089125' role='' />
    <member type='way' ref='-39089126' role='' />
    <member type='way' ref='-39089127' role='' />
    <member type='way' ref='-39089128' role='' />
    <member type='way' ref='-39089129' role='' />
    <member type='way' ref='-39089130' role='' />
    <member type='way' ref='-39089131' role='' />
    <member type='way' ref='-39089132' role='' />
    <member type='way' ref='-39089133' role='' />
    <member type='way' ref='-39089134' role='' />
    <member type='way' ref='-39089135' role='' />
    <member type='way' ref='-39089136' role='' />
    <member type='way' ref='-39089137' role='' />
    <member type='way' ref='-39089138' role='' />
    <member type='way' ref='-39089139' role='' />
    <member type='way' ref='-39089140' role='' />
    <member type='way' ref='-39089141' role='' />
    <member type='way' ref='-39089142' role='' />
    <member type='way' ref='-39089143' role='' />
    <member type='way' ref='-39089144' role='' />
    <member type='way' ref='-39089145' role='' />
    <member type='way' ref='-39089146' role='' />
    <member type='way' ref='-39089147' role='' />
    <member type='way' ref='-39089148' role='' />
    <member type='way' ref='-39089149' role='' />
    <tag k='key' v='path.dk.vnb' />
    <tag k='name' v='DK VNB' />
    <tag k='type' v='path' />
  </relation>
</osm>
