<?xml version='1.0' encoding='UTF-8'?>
<osm version='0.6' upload='false' generator='JOSM'>
  <node id='-157527297' action='modify' lat='55.6150569635' lon='8.48151706092' />
  <node id='-157527298' action='modify' lat='55.61601349063' lon='8.48435288155'>
    <tag k='name' v='var' />
  </node>
  <node id='-157527299' action='modify' lat='55.6165789071' lon='8.48602920704' />
  <node id='-157527302' action='modify' lat='55.61846960968' lon='8.48870269888' />
  <node id='-157527303' action='modify' lat='55.61902458269' lon='8.48913021457'>
    <tag k='name' v='arn' />
  </node>
  <node id='-157527304' action='modify' lat='55.61964647204' lon='8.48960928552' />
  <node id='-157527305' action='modify' lat='55.62145334933' lon='8.49084108933' />
  <node id='-157527306' action='modify' lat='55.62267896423' lon='8.49144190416' />
  <node id='-157527307' action='modify' lat='55.62625941785' lon='8.49013499849' />
  <node id='-157527308' action='modify' lat='55.62729332372' lon='8.48792284593' />
  <node id='-157527309' action='modify' lat='55.6277324029' lon='8.4867694858'>
    <tag k='name' v='fri' />
  </node>
  <node id='-157527310' action='modify' lat='55.62697039681' lon='8.48067149386' />
  <node id='-157527311' action='modify' lat='55.62593686101' lon='8.47906082802' />
  <node id='-157527312' action='modify' lat='55.62454013863' lon='8.47626966892'>
    <tag k='name' v='vav' />
  </node>
  <node id='-157527313' action='modify' lat='55.62358350643' lon='8.47306032521' />
  <node id='-157527314' action='modify' lat='55.62330216922' lon='8.46834137902' />
  <node id='-157527315' action='modify' lat='55.62385906415' lon='8.4601692461'>
    <tag k='name' v='bou' />
  </node>
  <node id='-157527316' action='modify' lat='55.62617185281' lon='8.42622907664'>
    <tag k='name' v='elk' />
  </node>
  <node id='-157527317' action='modify' lat='55.62716763619' lon='8.41161534056' />
  <node id='-157527318' action='modify' lat='55.62697304649' lon='8.40536110036' />
  <node id='-157527319' action='modify' lat='55.62631400958' lon='8.40046699032'>
    <tag k='name' v='hyl' />
  </node>
  <node id='-157527320' action='modify' lat='55.62611306017' lon='8.39897472531'>
    <tag k='name' v='hyl.s' />
  </node>
  <node id='-157527321' action='modify' lat='55.62273112015' lon='8.37386133875'>
    <tag k='name' v='jan' />
  </node>
  <node id='-157527322' action='modify' lat='55.62199592623' lon='8.36840227112' />
  <node id='-157527323' action='modify' lat='55.62179695643' lon='8.36716208573' />
  <node id='-157527324' action='modify' lat='55.61946169032' lon='8.35465058617' />
  <node id='-157527325' action='modify' lat='55.61914248544' lon='8.3527261012' />
  <node id='-157527326' action='modify' lat='55.61708936413' lon='8.33860024743' />
  <node id='-157527327' action='modify' lat='55.61686708136' lon='8.33526760273' />
  <node id='-157527328' action='modify' lat='55.61691909916' lon='8.331269198'>
    <tag k='name' v='bil' />
  </node>
  <node id='-157527329' action='modify' lat='55.61698863649' lon='8.32592412762' />
  <node id='-157527330' action='modify' lat='55.61705471518' lon='8.32412335988' />
  <node id='-157527331' action='modify' lat='55.61847907622' lon='8.29936958782' />
  <node id='-157527332' action='modify' lat='55.61903191839' lon='8.29504519567'>
    <tag k='name' v='hes.t' />
  </node>
  <node id='-157527333' action='modify' lat='55.6196167478' lon='8.29289540615'>
    <tag k='name' v='hes' />
  </node>
  <node id='-157527334' action='modify' lat='55.61965864604' lon='8.29277210562' />
  <node id='-157527335' action='modify' lat='55.62120610101' lon='8.28939378195' />
  <node id='-157527336' action='modify' lat='55.62319312761' lon='8.28617177837' />
  <node id='-157527337' action='modify' lat='55.62604564108' lon='8.28363849021'>
    <tag k='name' v='oks' />
  </node>
  <node id='-157527338' action='modify' lat='55.62700030401' lon='8.28347079422' />
  <node id='-157527339' action='modify' lat='55.63599045598' lon='8.28309993496'>
    <tag k='name' v='bau' />
  </node>
  <node id='-157527340' action='modify' lat='55.63685083095' lon='8.28306443855' />
  <node id='-157527341' action='modify' lat='55.64011209115' lon='8.28407764368' />
  <node id='-157527342' action='modify' lat='55.65090274394' lon='8.29109463807' />
  <node id='-157527343' action='modify' lat='55.6523657891' lon='8.29181313481' />
  <node id='-157527344' action='modify' lat='55.65377092176' lon='8.29231774459'>
    <tag k='name' v='vro' />
  </node>
  <node id='-157527345' action='modify' lat='55.65616918644' lon='8.29317904875' />
  <node id='-157527346' action='modify' lat='55.65956482442' lon='8.29566344585' />
  <node id='-157527347' action='modify' lat='55.66376730673' lon='8.30072343282' />
  <node id='-157527348' action='modify' lat='55.66476277915' lon='8.30173160847'>
    <tag k='name' v='jeg' />
  </node>
  <node id='-157527349' action='modify' lat='55.66797217402' lon='8.30250307851' />
  <node id='-157527350' action='modify' lat='55.66944157727' lon='8.30216847327' />
  <node id='-157527351' action='modify' lat='55.67178861328' lon='8.30215573244' />
  <node id='-157527352' action='modify' lat='55.68159725659' lon='8.30456703834' />
  <node id='-157527353' action='modify' lat='55.68410441419' lon='8.3042431616'>
    <tag k='name' v='sov' />
  </node>
  <node id='-157527354' action='modify' lat='55.68519973285' lon='8.30341603573' />
  <node id='-157527355' action='modify' lat='55.68955329849' lon='8.29922273688' />
  <node id='-157527356' action='modify' lat='55.69448423369' lon='8.29737100717' />
  <node id='-157527357' action='modify' lat='55.70001588575' lon='8.29820061772'>
    <tag k='name' v='dyr' />
  </node>
  <node id='-157527358' action='modify' lat='55.70502414158' lon='8.2989518331' />
  <node id='-157527359' action='modify' lat='55.71039361112' lon='8.30455932733'>
    <tag k='name' v='hen' />
  </node>
  <node id='-157527360' action='modify' lat='55.71108247442' lon='8.30693911728' />
  <node id='-157527361' action='modify' lat='55.7138755807' lon='8.31918775901' />
  <node id='-157527362' action='modify' lat='55.71443349758' lon='8.32305483453' />
  <node id='-157527363' action='modify' lat='55.71561125477' lon='8.33856403761' />
  <node id='-157527364' action='modify' lat='55.71731219727' lon='8.34468886239'>
    <tag k='name' v='out' />
  </node>
  <node id='-157527365' action='modify' lat='55.71961226639' lon='8.3470612761' />
  <node id='-157527366' action='modify' lat='55.72784415569' lon='8.3518221961' />
  <node id='-157527367' action='modify' lat='55.7295961541' lon='8.35302168903'>
    <tag k='name' v='lof' />
  </node>
  <node id='-157527368' action='modify' lat='55.72975686344' lon='8.35315424915' />
  <node id='-157527369' action='modify' lat='55.73786902053' lon='8.3599559956' />
  <node id='-157527370' action='modify' lat='55.74069418409' lon='8.36140841179' />
  <node id='-157527371' action='modify' lat='55.75279432071' lon='8.36459219389' />
  <node id='-157527372' action='modify' lat='55.75618737152' lon='8.36397749895'>
    <tag k='name' v='lun' />
  </node>
  <node id='-157527373' action='modify' lat='55.76048422217' lon='8.35586026244' />
  <node id='-157527374' action='modify' lat='55.76093885238' lon='8.3529634767' />
  <node id='-157527375' action='modify' lat='55.76135763569' lon='8.34954433076' />
  <node id='-157527376' action='modify' lat='55.76353900898' lon='8.32522876494' />
  <node id='-157527377' action='modify' lat='55.7646305928' lon='8.32043632831' />
  <node id='-157527378' action='modify' lat='55.76784223192' lon='8.31234284332'>
    <tag k='name' v='nla' />
  </node>
  <node id='-157527379' action='modify' lat='55.77133542105' lon='8.30353908174' />
  <node id='-157527380' action='modify' lat='55.77223423942' lon='8.30162465505' />
  <node id='-157527381' action='modify' lat='55.7756822207' lon='8.29538248412' />
  <node id='-157527382' action='modify' lat='55.77695090486' lon='8.29181983933' />
  <node id='-157527383' action='modify' lat='55.77726731191' lon='8.29038825767'>
    <tag k='name' v='nor' />
  </node>
  <node id='-157527384' action='modify' lat='55.77804796523' lon='8.28685614699'>
    <tag k='name' v='nor.yn' />
  </node>
  <node id='-157527385' action='modify' lat='55.78268511715' lon='8.28441022754' />
  <node id='-157527386' action='modify' lat='55.79491547316' lon='8.29661964297' />
  <node id='-157527387' action='modify' lat='55.79602219876' lon='8.29711316943' />
  <node id='-157527388' action='modify' lat='55.8121177845' lon='8.29987859676'>
    <tag k='name' v='sbo' />
  </node>
  <node id='-157527389' action='modify' lat='55.81628449219' lon='8.30059467673' />
  <node id='-157527390' action='modify' lat='55.81766788858' lon='8.30102919459' />
  <node id='-157527391' action='modify' lat='55.8226684141' lon='8.30445436491'>
    <tag k='name' v='obl' />
  </node>
  <node id='-157527392' action='modify' lat='55.83158004206' lon='8.31055958362' />
  <node id='-157527393' action='modify' lat='55.83371635934' lon='8.3141798267'>
    <tag k='name' v='nbo' />
  </node>
  <node id='-157527394' action='modify' lat='55.83437928796' lon='8.32173584819' />
  <node id='-157527395' action='modify' lat='55.82237528737' lon='8.39560388446' />
  <node id='-157527396' action='modify' lat='55.82210407589' lon='8.40226648092' />
  <node id='-157527397' action='modify' lat='55.8233113218' lon='8.40816485758'>
    <tag k='name' v='svi' />
  </node>
  <node id='-157527398' action='modify' lat='55.82565212658' lon='8.41147774797' />
  <node id='-157527399' action='modify' lat='55.8311516142' lon='8.40969394424' />
  <node id='-157527400' action='modify' lat='55.83249942313' lon='8.4068477607' />
  <node id='-157527401' action='modify' lat='55.83345743131' lon='8.4046107316' />
  <node id='-157527402' action='modify' lat='55.83998230293' lon='8.38479993582' />
  <node id='-157527403' action='modify' lat='55.84102448801' lon='8.38212846637' />
  <node id='-157527404' action='modify' lat='55.84284976117' lon='8.37878106952' />
  <node id='-157527405' action='modify' lat='55.84612058086' lon='8.37603448749' />
  <node id='-157527406' action='modify' lat='55.84946640787' lon='8.37672113836' />
  <node id='-157527407' action='modify' lat='55.85020172797' lon='8.3771353145'>
    <tag k='name' v='hem' />
  </node>
  <node id='-157527408' action='modify' lat='55.86041740306' lon='8.382890203' />
  <node id='-157527409' action='modify' lat='55.86145904029' lon='8.38354467273' />
  <node id='-157527410' action='modify' lat='55.88909452809' lon='8.40901492953' />
  <node id='-157527411' action='modify' lat='55.89081526162' lon='8.41262787044' />
  <node id='-157527412' action='modify' lat='55.89105057827' lon='8.41351026782'>
    <tag k='name' v='vos' />
  </node>
  <node id='-157527413' action='modify' lat='55.89808693748' lon='8.43989788949' />
  <node id='-157527414' action='modify' lat='55.9015031759' lon='8.44567172584'>
    <tag k='name' v='lon' />
  </node>
  <node id='-157527415' action='modify' lat='55.90218013652' lon='8.44597845197' />
  <node id='-157527416' action='modify' lat='55.90321614887' lon='8.446286906' />
  <node id='-157527417' action='modify' lat='55.90652398565' lon='8.45301388621' />
  <node id='-157527418' action='modify' lat='55.90828241194' lon='8.48127794385'>
    <tag k='name' v='kyv' />
  </node>
  <node id='-157527419' action='modify' lat='55.90838226473' lon='8.4828829658' />
  <node id='-157527420' action='modify' lat='55.90872504435' lon='8.48599432826' />
  <node id='-157527421' action='modify' lat='55.91349958922' lon='8.51324557185' />
  <node id='-157527422' action='modify' lat='55.91227285484' lon='8.51873547004' />
  <node id='-157527423' action='modify' lat='55.91222041645' lon='8.51877199756' />
  <node id='-157527424' action='modify' lat='55.90815599319' lon='8.52264135942' />
  <node id='-157527425' action='modify' lat='55.91059284903' lon='8.52001274695'>
    <tag k='name' v='tar' />
  </node>
  <node id='-157527426' action='modify' lat='55.90426979504' lon='8.52834373645' />
  <way id='-37138987' action='modify'>
    <nd ref='-157527297' />
    <nd ref='-157527298' />
    <nd ref='-157527299' />
    <tag k='type' v='straight' />
  </way>
  <way id='-37138988' action='modify'>
    <nd ref='-157527299' />
    <nd ref='-157527302' />
  </way>
  <way id='-37138991' action='modify'>
    <nd ref='-157527302' />
    <nd ref='-157527303' />
    <nd ref='-157527304' />
    <tag k='type' v='straight' />
  </way>
  <way id='-37138992' action='modify'>
    <nd ref='-157527304' />
    <nd ref='-157527305' />
  </way>
  <way id='-37138993' action='modify'>
    <nd ref='-157527305' />
    <nd ref='-157527306' />
    <tag k='type' v='straight' />
  </way>
  <way id='-37138994' action='modify'>
    <nd ref='-157527306' />
    <nd ref='-157527307' />
  </way>
  <way id='-37138995' action='modify'>
    <nd ref='-157527307' />
    <nd ref='-157527308' />
    <tag k='type' v='straight' />
  </way>
  <way id='-37138996' action='modify'>
    <nd ref='-157527308' />
    <nd ref='-157527309' />
    <nd ref='-157527310' />
  </way>
  <way id='-37138997' action='modify'>
    <nd ref='-157527310' />
    <nd ref='-157527311' />
    <tag k='type' v='straight' />
  </way>
  <way id='-37138998' action='modify'>
    <nd ref='-157527311' />
    <nd ref='-157527312' />
    <nd ref='-157527313' />
    <nd ref='-157527314' />
  </way>
  <way id='-37138999' action='modify'>
    <nd ref='-157527314' />
    <nd ref='-157527315' />
    <nd ref='-157527316' />
    <nd ref='-157527317' />
    <tag k='type' v='straight' />
  </way>
  <way id='-37139000' action='modify'>
    <nd ref='-157527317' />
    <nd ref='-157527318' />
  </way>
  <way id='-37139001' action='modify'>
    <nd ref='-157527318' />
    <nd ref='-157527319' />
    <nd ref='-157527320' />
    <nd ref='-157527321' />
    <nd ref='-157527322' />
    <tag k='type' v='straight' />
  </way>
  <way id='-37139002' action='modify'>
    <nd ref='-157527322' />
    <nd ref='-157527323' />
  </way>
  <way id='-37139003' action='modify'>
    <nd ref='-157527323' />
    <nd ref='-157527324' />
    <tag k='type' v='straight' />
  </way>
  <way id='-37139004' action='modify'>
    <nd ref='-157527324' />
    <nd ref='-157527325' />
  </way>
  <way id='-37139005' action='modify'>
    <nd ref='-157527325' />
    <nd ref='-157527326' />
    <tag k='type' v='straight' />
  </way>
  <way id='-37139006' action='modify'>
    <nd ref='-157527326' />
    <nd ref='-157527327' />
  </way>
  <way id='-37139007' action='modify'>
    <nd ref='-157527327' />
    <nd ref='-157527328' />
    <nd ref='-157527329' />
    <tag k='type' v='straight' />
  </way>
  <way id='-37139008' action='modify'>
    <nd ref='-157527329' />
    <nd ref='-157527330' />
  </way>
  <way id='-37139009' action='modify'>
    <nd ref='-157527330' />
    <nd ref='-157527331' />
    <tag k='type' v='straight' />
  </way>
  <way id='-37139010' action='modify'>
    <nd ref='-157527331' />
    <nd ref='-157527332' />
    <nd ref='-157527333' />
  </way>
  <way id='-37139011' action='modify'>
    <nd ref='-157527333' />
    <nd ref='-157527334' />
    <tag k='type' v='straight' />
  </way>
  <way id='-37139012' action='modify'>
    <nd ref='-157527334' />
    <nd ref='-157527335' />
  </way>
  <way id='-37139013' action='modify'>
    <nd ref='-157527335' />
    <nd ref='-157527336' />
    <tag k='type' v='straight' />
  </way>
  <way id='-37139014' action='modify'>
    <nd ref='-157527336' />
    <nd ref='-157527337' />
    <nd ref='-157527338' />
  </way>
  <way id='-37139015' action='modify'>
    <nd ref='-157527338' />
    <nd ref='-157527339' />
    <nd ref='-157527340' />
    <tag k='type' v='straight' />
  </way>
  <way id='-37139016' action='modify'>
    <nd ref='-157527340' />
    <nd ref='-157527341' />
  </way>
  <way id='-37139017' action='modify'>
    <nd ref='-157527341' />
    <nd ref='-157527342' />
    <tag k='type' v='straight' />
  </way>
  <way id='-37139018' action='modify'>
    <nd ref='-157527342' />
    <nd ref='-157527343' />
  </way>
  <way id='-37139019' action='modify'>
    <nd ref='-157527343' />
    <nd ref='-157527344' />
    <nd ref='-157527345' />
    <tag k='type' v='straight' />
  </way>
  <way id='-37139020' action='modify'>
    <nd ref='-157527345' />
    <nd ref='-157527346' />
  </way>
  <way id='-37139021' action='modify'>
    <nd ref='-157527346' />
    <nd ref='-157527347' />
    <tag k='type' v='straight' />
  </way>
  <way id='-37139022' action='modify'>
    <nd ref='-157527347' />
    <nd ref='-157527348' />
    <nd ref='-157527349' />
  </way>
  <way id='-37139023' action='modify'>
    <nd ref='-157527349' />
    <nd ref='-157527350' />
    <tag k='type' v='straight' />
  </way>
  <way id='-37139024' action='modify'>
    <nd ref='-157527350' />
    <nd ref='-157527351' />
  </way>
  <way id='-37139025' action='modify'>
    <nd ref='-157527351' />
    <nd ref='-157527352' />
    <tag k='type' v='straight' />
  </way>
  <way id='-37139026' action='modify'>
    <nd ref='-157527352' />
    <nd ref='-157527353' />
    <nd ref='-157527354' />
  </way>
  <way id='-37139027' action='modify'>
    <nd ref='-157527354' />
    <nd ref='-157527355' />
    <tag k='type' v='straight' />
  </way>
  <way id='-37139028' action='modify'>
    <nd ref='-157527355' />
    <nd ref='-157527356' />
  </way>
  <way id='-37139029' action='modify'>
    <nd ref='-157527356' />
    <nd ref='-157527357' />
    <nd ref='-157527358' />
    <tag k='type' v='straight' />
  </way>
  <way id='-37139030' action='modify'>
    <nd ref='-157527358' />
    <nd ref='-157527359' />
    <nd ref='-157527360' />
  </way>
  <way id='-37139031' action='modify'>
    <nd ref='-157527360' />
    <nd ref='-157527361' />
    <tag k='type' v='straight' />
  </way>
  <way id='-37139032' action='modify'>
    <nd ref='-157527361' />
    <nd ref='-157527362' />
  </way>
  <way id='-37139033' action='modify'>
    <nd ref='-157527362' />
    <nd ref='-157527363' />
    <tag k='type' v='straight' />
  </way>
  <way id='-37139034' action='modify'>
    <nd ref='-157527363' />
    <nd ref='-157527364' />
    <nd ref='-157527365' />
  </way>
  <way id='-37139035' action='modify'>
    <nd ref='-157527365' />
    <nd ref='-157527366' />
    <tag k='type' v='straight' />
  </way>
  <way id='-37139036' action='modify'>
    <nd ref='-157527366' />
    <nd ref='-157527367' />
    <nd ref='-157527368' />
  </way>
  <way id='-37139037' action='modify'>
    <nd ref='-157527368' />
    <nd ref='-157527369' />
    <tag k='type' v='straight' />
  </way>
  <way id='-37139038' action='modify'>
    <nd ref='-157527369' />
    <nd ref='-157527370' />
  </way>
  <way id='-37139039' action='modify'>
    <nd ref='-157527370' />
    <nd ref='-157527371' />
    <tag k='type' v='straight' />
  </way>
  <way id='-37139040' action='modify'>
    <nd ref='-157527371' />
    <nd ref='-157527372' />
    <nd ref='-157527373' />
  </way>
  <way id='-37139041' action='modify'>
    <nd ref='-157527373' />
    <nd ref='-157527374' />
    <tag k='type' v='straight' />
  </way>
  <way id='-37139042' action='modify'>
    <nd ref='-157527374' />
    <nd ref='-157527375' />
  </way>
  <way id='-37139043' action='modify'>
    <nd ref='-157527375' />
    <nd ref='-157527376' />
    <tag k='type' v='straight' />
  </way>
  <way id='-37139044' action='modify'>
    <nd ref='-157527376' />
    <nd ref='-157527377' />
  </way>
  <way id='-37139045' action='modify'>
    <nd ref='-157527377' />
    <nd ref='-157527378' />
    <nd ref='-157527379' />
    <tag k='type' v='straight' />
  </way>
  <way id='-37139046' action='modify'>
    <nd ref='-157527379' />
    <nd ref='-157527380' />
  </way>
  <way id='-37139047' action='modify'>
    <nd ref='-157527380' />
    <nd ref='-157527381' />
    <tag k='type' v='straight' />
  </way>
  <way id='-37139048' action='modify'>
    <nd ref='-157527381' />
    <nd ref='-157527382' />
  </way>
  <way id='-37139049' action='modify'>
    <nd ref='-157527382' />
    <nd ref='-157527383' />
    <nd ref='-157527384' />
    <tag k='type' v='straight' />
  </way>
  <way id='-37139050' action='modify'>
    <nd ref='-157527384' />
    <nd ref='-157527385' />
  </way>
  <way id='-37139051' action='modify'>
    <nd ref='-157527385' />
    <nd ref='-157527386' />
    <tag k='type' v='straight' />
  </way>
  <way id='-37139052' action='modify'>
    <nd ref='-157527386' />
    <nd ref='-157527387' />
  </way>
  <way id='-37139053' action='modify'>
    <nd ref='-157527387' />
    <nd ref='-157527388' />
    <nd ref='-157527389' />
    <tag k='type' v='straight' />
  </way>
  <way id='-37139054' action='modify'>
    <nd ref='-157527389' />
    <nd ref='-157527390' />
  </way>
  <way id='-37139055' action='modify'>
    <nd ref='-157527390' />
    <nd ref='-157527391' />
    <nd ref='-157527392' />
    <tag k='type' v='straight' />
  </way>
  <way id='-37139056' action='modify'>
    <nd ref='-157527392' />
    <nd ref='-157527393' />
    <nd ref='-157527394' />
  </way>
  <way id='-37139057' action='modify'>
    <nd ref='-157527394' />
    <nd ref='-157527395' />
    <tag k='type' v='straight' />
  </way>
  <way id='-37139058' action='modify'>
    <nd ref='-157527395' />
    <nd ref='-157527396' />
    <nd ref='-157527397' />
    <nd ref='-157527398' />
    <nd ref='-157527399' />
  </way>
  <way id='-37139059' action='modify'>
    <nd ref='-157527399' />
    <nd ref='-157527400' />
    <tag k='type' v='straight' />
  </way>
  <way id='-37139060' action='modify'>
    <nd ref='-157527400' />
    <nd ref='-157527401' />
  </way>
  <way id='-37139061' action='modify'>
    <nd ref='-157527401' />
    <nd ref='-157527402' />
    <tag k='type' v='straight' />
  </way>
  <way id='-37139062' action='modify'>
    <nd ref='-157527402' />
    <nd ref='-157527403' />
  </way>
  <way id='-37139063' action='modify'>
    <nd ref='-157527403' />
    <nd ref='-157527404' />
    <tag k='type' v='straight' />
  </way>
  <way id='-37139064' action='modify'>
    <nd ref='-157527404' />
    <nd ref='-157527405' />
    <nd ref='-157527406' />
  </way>
  <way id='-37139065' action='modify'>
    <nd ref='-157527406' />
    <nd ref='-157527407' />
    <nd ref='-157527408' />
    <tag k='type' v='straight' />
  </way>
  <way id='-37139066' action='modify'>
    <nd ref='-157527408' />
    <nd ref='-157527409' />
  </way>
  <way id='-37139067' action='modify'>
    <nd ref='-157527409' />
    <nd ref='-157527410' />
    <tag k='type' v='straight' />
  </way>
  <way id='-37139068' action='modify'>
    <nd ref='-157527410' />
    <nd ref='-157527411' />
  </way>
  <way id='-37139069' action='modify'>
    <nd ref='-157527411' />
    <nd ref='-157527412' />
    <nd ref='-157527413' />
    <tag k='type' v='straight' />
  </way>
  <way id='-37139070' action='modify'>
    <nd ref='-157527413' />
    <nd ref='-157527414' />
    <nd ref='-157527415' />
  </way>
  <way id='-37139071' action='modify'>
    <nd ref='-157527415' />
    <nd ref='-157527416' />
    <tag k='type' v='straight' />
  </way>
  <way id='-37139072' action='modify'>
    <nd ref='-157527416' />
    <nd ref='-157527417' />
  </way>
  <way id='-37139073' action='modify'>
    <nd ref='-157527417' />
    <nd ref='-157527418' />
    <nd ref='-157527419' />
    <tag k='type' v='straight' />
  </way>
  <way id='-37139074' action='modify'>
    <nd ref='-157527419' />
    <nd ref='-157527420' />
  </way>
  <way id='-37139075' action='modify'>
    <nd ref='-157527420' />
    <nd ref='-157527421' />
    <tag k='type' v='straight' />
  </way>
  <way id='-37139076' action='modify'>
    <nd ref='-157527421' />
    <nd ref='-157527422' />
  </way>
  <way id='-37139077' action='modify'>
    <nd ref='-157527422' />
    <nd ref='-157527423' />
    <tag k='type' v='straight' />
  </way>
  <way id='-37139078' action='modify'>
    <nd ref='-157527423' />
    <nd ref='-157527425' />
    <nd ref='-157527424' />
  </way>
  <way id='-37139079' action='modify'>
    <nd ref='-157527424' />
    <nd ref='-157527426' />
    <tag k='type' v='straight' />
  </way>
  <relation id='-14475702' action='modify'>
    <member type='way' ref='-37138987' role='' />
    <member type='way' ref='-37138988' role='' />
    <member type='way' ref='-37138991' role='' />
    <member type='way' ref='-37138992' role='' />
    <member type='way' ref='-37138993' role='' />
    <member type='way' ref='-37138994' role='' />
    <member type='way' ref='-37138995' role='' />
    <member type='way' ref='-37138996' role='' />
    <member type='way' ref='-37138997' role='' />
    <member type='way' ref='-37138998' role='' />
    <member type='way' ref='-37138999' role='' />
    <member type='way' ref='-37139000' role='' />
    <member type='way' ref='-37139001' role='' />
    <member type='way' ref='-37139002' role='' />
    <member type='way' ref='-37139003' role='' />
    <member type='way' ref='-37139004' role='' />
    <member type='way' ref='-37139005' role='' />
    <member type='way' ref='-37139006' role='' />
    <member type='way' ref='-37139007' role='' />
    <member type='way' ref='-37139008' role='' />
    <member type='way' ref='-37139009' role='' />
    <member type='way' ref='-37139010' role='' />
    <member type='way' ref='-37139011' role='' />
    <member type='way' ref='-37139012' role='' />
    <member type='way' ref='-37139013' role='' />
    <member type='way' ref='-37139014' role='' />
    <member type='way' ref='-37139015' role='' />
    <member type='way' ref='-37139016' role='' />
    <member type='way' ref='-37139017' role='' />
    <member type='way' ref='-37139018' role='' />
    <member type='way' ref='-37139019' role='' />
    <member type='way' ref='-37139020' role='' />
    <member type='way' ref='-37139021' role='' />
    <member type='way' ref='-37139022' role='' />
    <member type='way' ref='-37139023' role='' />
    <member type='way' ref='-37139024' role='' />
    <member type='way' ref='-37139025' role='' />
    <member type='way' ref='-37139026' role='' />
    <member type='way' ref='-37139027' role='' />
    <member type='way' ref='-37139028' role='' />
    <member type='way' ref='-37139029' role='' />
    <member type='way' ref='-37139030' role='' />
    <member type='way' ref='-37139031' role='' />
    <member type='way' ref='-37139032' role='' />
    <member type='way' ref='-37139033' role='' />
    <member type='way' ref='-37139034' role='' />
    <member type='way' ref='-37139035' role='' />
    <member type='way' ref='-37139036' role='' />
    <member type='way' ref='-37139037' role='' />
    <member type='way' ref='-37139038' role='' />
    <member type='way' ref='-37139039' role='' />
    <member type='way' ref='-37139040' role='' />
    <member type='way' ref='-37139041' role='' />
    <member type='way' ref='-37139042' role='' />
    <member type='way' ref='-37139043' role='' />
    <member type='way' ref='-37139044' role='' />
    <member type='way' ref='-37139045' role='' />
    <member type='way' ref='-37139046' role='' />
    <member type='way' ref='-37139047' role='' />
    <member type='way' ref='-37139048' role='' />
    <member type='way' ref='-37139049' role='' />
    <member type='way' ref='-37139050' role='' />
    <member type='way' ref='-37139051' role='' />
    <member type='way' ref='-37139052' role='' />
    <member type='way' ref='-37139053' role='' />
    <member type='way' ref='-37139054' role='' />
    <member type='way' ref='-37139055' role='' />
    <member type='way' ref='-37139056' role='' />
    <member type='way' ref='-37139057' role='' />
    <member type='way' ref='-37139058' role='' />
    <member type='way' ref='-37139059' role='' />
    <member type='way' ref='-37139060' role='' />
    <member type='way' ref='-37139061' role='' />
    <member type='way' ref='-37139062' role='' />
    <member type='way' ref='-37139063' role='' />
    <member type='way' ref='-37139064' role='' />
    <member type='way' ref='-37139065' role='' />
    <member type='way' ref='-37139066' role='' />
    <member type='way' ref='-37139067' role='' />
    <member type='way' ref='-37139068' role='' />
    <member type='way' ref='-37139069' role='' />
    <member type='way' ref='-37139070' role='' />
    <member type='way' ref='-37139071' role='' />
    <member type='way' ref='-37139072' role='' />
    <member type='way' ref='-37139073' role='' />
    <member type='way' ref='-37139074' role='' />
    <member type='way' ref='-37139075' role='' />
    <member type='way' ref='-37139076' role='' />
    <member type='way' ref='-37139077' role='' />
    <member type='way' ref='-37139078' role='' />
    <member type='way' ref='-37139079' role='' />
    <tag k='key' v='path.dk.vnt' />
    <tag k='name' v='DK VNT' />
    <tag k='type' v='path' />
  </relation>
</osm>
