<?xml version='1.0' encoding='UTF-8'?>
<osm version='0.6' upload='false' generator='JOSM'>
  <node id='-180484538' action='modify' lat='57.10388599783' lon='10.03056989247'>
    <tag k='name' v='vod' />
  </node>
  <node id='-180484539' action='modify' lat='57.10478317066' lon='10.03569960326' />
  <node id='-180484540' action='modify' lat='57.1048880543' lon='10.03647207946'>
    <tag k='name' v='vod.yo' />
  </node>
  <node id='-180484541' action='modify' lat='57.11306369953' lon='10.05374013305' />
  <node id='-180484542' action='modify' lat='57.11710366373' lon='10.05376259351'>
    <tag k='name' v='sky' />
  </node>
  <node id='-180484543' action='modify' lat='57.12223056186' lon='10.05379110038' />
  <node id='-180484544' action='modify' lat='57.12755780821' lon='10.05693196177' />
  <node id='-180484545' action='modify' lat='57.13259173244' lon='10.06295031832'>
    <tag k='name' v='ugg' />
  </node>
  <node id='-180484546' action='modify' lat='57.13361062697' lon='10.06416856706' />
  <node id='-180484547' action='modify' lat='57.13650131096' lon='10.06939886928' />
  <node id='-180484548' action='modify' lat='57.14224930214' lon='10.08306367668'>
    <tag k='name' v='bru' />
  </node>
  <node id='-180484549' action='modify' lat='57.14654331017' lon='10.09327328773'>
    <tag k='name' v='lyn' />
  </node>
  <node id='-180484550' action='modify' lat='57.15978909697' lon='10.12477448476'>
    <tag k='name' v='fre' />
  </node>
  <node id='-180484551' action='modify' lat='57.16567193773' lon='10.13876870473' />
  <node id='-180484552' action='modify' lat='57.16728483803' lon='10.1414832446' />
  <node id='-180484553' action='modify' lat='57.16842250504' lon='10.14264145932'>
    <tag k='name' v='hja' />
  </node>
  <node id='-180484554' action='modify' lat='57.17071237551' lon='10.14497279584' />
  <node id='-180484555' action='modify' lat='57.17558483221' lon='10.14310866326' />
  <node id='-180484556' action='modify' lat='57.17822033857' lon='10.13612944096'>
    <tag k='name' v='cla' />
  </node>
  <node id='-180484557' action='modify' lat='57.18446585684' lon='10.11958836973' />
  <node id='-180484558' action='modify' lat='57.18710111255' lon='10.11655479401' />
  <node id='-180484559' action='modify' lat='57.1874557605' lon='10.11639922589'>
    <tag k='name' v='bjo' />
  </node>
  <node id='-180484560' action='modify' lat='57.19202373304' lon='10.12014626384' />
  <node id='-180484561' action='modify' lat='57.19758650246' lon='10.14019845843' />
  <node id='-180484562' action='modify' lat='57.19789360239' lon='10.14116857127'>
    <tag k='name' v='kil' />
  </node>
  <node id='-180484563' action='modify' lat='57.20032398123' lon='10.14536976278' />
  <node id='-180484564' action='modify' lat='57.20619638619' lon='10.15106141031' />
  <node id='-180484565' action='modify' lat='57.20907558637' lon='10.15197336137' />
  <node id='-180484566' action='modify' lat='57.211422812' lon='10.15137990046'>
    <tag k='name' v='klo' />
  </node>
  <node id='-180484567' action='modify' lat='57.21166405999' lon='10.15131890237' />
  <node id='-180484568' action='modify' lat='57.21547236241' lon='10.14803050876' />
  <node id='-180484569' action='modify' lat='57.21778154881' lon='10.14447926939' />
  <node id='-180484570' action='modify' lat='57.21977401614' lon='10.14264463842' />
  <node id='-180484571' action='modify' lat='57.22699072955' lon='10.13903974414' />
  <node id='-180484572' action='modify' lat='57.22975506718' lon='10.13901828647' />
  <node id='-180484573' action='modify' lat='57.23484993378' lon='10.14146423808'>
    <tag k='name' v='rog' />
  </node>
  <node id='-180484574' action='modify' lat='57.23683918538' lon='10.14241933286' />
  <node id='-180484575' action='modify' lat='57.24000337352' lon='10.14529466093' />
  <node id='-180484576' action='modify' lat='57.24426153568' lon='10.15270292222' />
  <node id='-180484577' action='modify' lat='57.24769063647' lon='10.15582635865' />
  <node id='-180484578' action='modify' lat='57.25681691052' lon='10.15881299704' />
  <node id='-180484579' action='modify' lat='57.2597255258' lon='10.16183852881' />
  <node id='-180484580' action='modify' lat='57.25998518652' lon='10.16237228841' />
  <node id='-180484581' action='modify' lat='57.26074660637' lon='10.16363065969'>
    <tag k='name' v='kig' />
  </node>
  <node id='-180484582' action='modify' lat='57.26188689094' lon='10.16471788153' />
  <node id='-180484583' action='modify' lat='57.26372322771' lon='10.16589402884' />
  <node id='-180484584' action='modify' lat='57.26514900772' lon='10.16638755664' />
  <node id='-180484585' action='modify' lat='57.26893168749' lon='10.16692052962' />
  <node id='-180484586' action='modify' lat='57.26925981697' lon='10.1669384831'>
    <tag k='name' v='hel' />
  </node>
  <node id='-180484587' action='modify' lat='57.27297749012' lon='10.16591548651' />
  <node id='-180484588' action='modify' lat='57.27913555899' lon='10.16102313459' />
  <node id='-180484589' action='modify' lat='57.28277162652' lon='10.16096949041' />
  <node id='-180484590' action='modify' lat='57.2889388788' lon='10.16488599852'>
    <tag k='name' v='mus' />
  </node>
  <node id='-180484591' action='modify' lat='57.2905006996' lon='10.16587793559' />
  <node id='-180484592' action='modify' lat='57.29219357347' lon='10.16624808043' />
  <node id='-180484593' action='modify' lat='57.29902949858' lon='10.16631513566' />
  <node id='-180484594' action='modify' lat='57.3036720441' lon='10.16369729966' />
  <node id='-180484595' action='modify' lat='57.30461578829' lon='10.16239407592'>
    <tag k='name' v='kih' />
  </node>
  <node id='-180484596' action='modify' lat='57.30857622066' lon='10.15692471921' />
  <node id='-180484597' action='modify' lat='57.31188490166' lon='10.15509008825' />
  <node id='-180484598' action='modify' lat='57.31609564693' lon='10.15507224575'>
    <tag k='name' v='myl' />
  </node>
  <node id='-180484599' action='modify' lat='57.31694875093' lon='10.15506863058' />
  <node id='-180484600' action='modify' lat='57.32319648687' lon='10.1617687887' />
  <node id='-180484601' action='modify' lat='57.32406406324' lon='10.16446220342'>
    <tag k='name' v='vmy' />
  </node>
  <node id='-180484602' action='modify' lat='57.32856369531' lon='10.17843245539'>
    <tag k='name' v='vil' />
  </node>
  <node id='-180484603' action='modify' lat='57.3289190255' lon='10.17953574121' />
  <node id='-180484604' action='modify' lat='57.32971536079' lon='10.18603205144' />
  <node id='-180484605' action='modify' lat='57.32924914477' lon='10.19332765996' />
  <node id='-180484606' action='modify' lat='57.32928209748' lon='10.19697645263'>
    <tag k='name' v='vej' />
  </node>
  <node id='-180484607' action='modify' lat='57.33559612735' lon='10.21788596034' />
  <node id='-180484608' action='modify' lat='57.34215187641' lon='10.22571801871' />
  <node id='-180484609' action='modify' lat='57.34463983674' lon='10.23226260066' />
  <node id='-180484610' action='modify' lat='57.34511739145' lon='10.23549833352'>
    <tag k='name' v='ost' />
  </node>
  <node id='-180484614' action='modify' lat='57.10383986988' lon='10.03037070369' />
  <way id='-38745326' action='modify'>
    <nd ref='-180484539' />
    <nd ref='-180484540' />
    <tag k='type' v='straight' />
  </way>
  <way id='-38745327' action='modify'>
    <nd ref='-180484540' />
    <nd ref='-180484541' />
  </way>
  <way id='-38745328' action='modify'>
    <nd ref='-180484541' />
    <nd ref='-180484542' />
    <nd ref='-180484543' />
    <tag k='type' v='straight' />
  </way>
  <way id='-38745329' action='modify'>
    <nd ref='-180484543' />
    <nd ref='-180484544' />
  </way>
  <way id='-38745330' action='modify'>
    <nd ref='-180484544' />
    <nd ref='-180484545' />
    <nd ref='-180484546' />
    <tag k='type' v='straight' />
  </way>
  <way id='-38745331' action='modify'>
    <nd ref='-180484546' />
    <nd ref='-180484547' />
  </way>
  <way id='-38745332' action='modify'>
    <nd ref='-180484547' />
    <nd ref='-180484548' />
    <nd ref='-180484549' />
    <nd ref='-180484550' />
    <nd ref='-180484551' />
    <tag k='type' v='straight' />
  </way>
  <way id='-38745333' action='modify'>
    <nd ref='-180484551' />
    <nd ref='-180484552' />
  </way>
  <way id='-38745334' action='modify'>
    <nd ref='-180484552' />
    <nd ref='-180484553' />
    <nd ref='-180484554' />
    <tag k='type' v='straight' />
  </way>
  <way id='-38745335' action='modify'>
    <nd ref='-180484554' />
    <nd ref='-180484555' />
  </way>
  <way id='-38745336' action='modify'>
    <nd ref='-180484555' />
    <nd ref='-180484556' />
    <nd ref='-180484557' />
    <tag k='type' v='straight' />
  </way>
  <way id='-38745337' action='modify'>
    <nd ref='-180484557' />
    <nd ref='-180484558' />
  </way>
  <way id='-38745338' action='modify'>
    <nd ref='-180484558' />
    <nd ref='-180484559' />
    <tag k='type' v='straight' />
  </way>
  <way id='-38745339' action='modify'>
    <nd ref='-180484559' />
    <nd ref='-180484560' />
  </way>
  <way id='-38745340' action='modify'>
    <nd ref='-180484560' />
    <nd ref='-180484561' />
    <tag k='type' v='straight' />
  </way>
  <way id='-38745341' action='modify'>
    <nd ref='-180484561' />
    <nd ref='-180484562' />
    <nd ref='-180484563' />
  </way>
  <way id='-38745342' action='modify'>
    <nd ref='-180484563' />
    <nd ref='-180484564' />
    <tag k='type' v='straight' />
  </way>
  <way id='-38745343' action='modify'>
    <nd ref='-180484564' />
    <nd ref='-180484565' />
  </way>
  <way id='-38745344' action='modify'>
    <nd ref='-180484565' />
    <nd ref='-180484566' />
    <nd ref='-180484567' />
    <tag k='type' v='straight' />
  </way>
  <way id='-38745345' action='modify'>
    <nd ref='-180484567' />
    <nd ref='-180484568' />
  </way>
  <way id='-38745346' action='modify'>
    <nd ref='-180484568' />
    <nd ref='-180484569' />
    <tag k='type' v='straight' />
  </way>
  <way id='-38745347' action='modify'>
    <nd ref='-180484569' />
    <nd ref='-180484570' />
  </way>
  <way id='-38745348' action='modify'>
    <nd ref='-180484570' />
    <nd ref='-180484571' />
    <tag k='type' v='straight' />
  </way>
  <way id='-38745349' action='modify'>
    <nd ref='-180484571' />
    <nd ref='-180484572' />
  </way>
  <way id='-38745350' action='modify'>
    <nd ref='-180484572' />
    <nd ref='-180484573' />
    <nd ref='-180484574' />
    <tag k='type' v='straight' />
  </way>
  <way id='-38745351' action='modify'>
    <nd ref='-180484574' />
    <nd ref='-180484575' />
  </way>
  <way id='-38745352' action='modify'>
    <nd ref='-180484575' />
    <nd ref='-180484576' />
    <tag k='type' v='straight' />
  </way>
  <way id='-38745353' action='modify'>
    <nd ref='-180484576' />
    <nd ref='-180484577' />
  </way>
  <way id='-38745354' action='modify'>
    <nd ref='-180484577' />
    <nd ref='-180484578' />
    <tag k='type' v='straight' />
  </way>
  <way id='-38745355' action='modify'>
    <nd ref='-180484578' />
    <nd ref='-180484579' />
  </way>
  <way id='-38745356' action='modify'>
    <nd ref='-180484579' />
    <nd ref='-180484580' />
    <tag k='type' v='straight' />
  </way>
  <way id='-38745357' action='modify'>
    <nd ref='-180484580' />
    <nd ref='-180484581' />
    <nd ref='-180484582' />
  </way>
  <way id='-38745358' action='modify'>
    <nd ref='-180484582' />
    <nd ref='-180484583' />
    <tag k='type' v='straight' />
  </way>
  <way id='-38745359' action='modify'>
    <nd ref='-180484583' />
    <nd ref='-180484584' />
  </way>
  <way id='-38745360' action='modify'>
    <nd ref='-180484584' />
    <nd ref='-180484585' />
    <tag k='type' v='straight' />
  </way>
  <way id='-38745361' action='modify'>
    <nd ref='-180484585' />
    <nd ref='-180484586' />
    <nd ref='-180484587' />
  </way>
  <way id='-38745362' action='modify'>
    <nd ref='-180484587' />
    <nd ref='-180484588' />
    <tag k='type' v='straight' />
  </way>
  <way id='-38745363' action='modify'>
    <nd ref='-180484588' />
    <nd ref='-180484589' />
  </way>
  <way id='-38745364' action='modify'>
    <nd ref='-180484589' />
    <nd ref='-180484590' />
    <nd ref='-180484591' />
    <tag k='type' v='straight' />
  </way>
  <way id='-38745365' action='modify'>
    <nd ref='-180484591' />
    <nd ref='-180484592' />
  </way>
  <way id='-38745366' action='modify'>
    <nd ref='-180484592' />
    <nd ref='-180484593' />
    <tag k='type' v='straight' />
  </way>
  <way id='-38745367' action='modify'>
    <nd ref='-180484593' />
    <nd ref='-180484594' />
  </way>
  <way id='-38745368' action='modify'>
    <nd ref='-180484594' />
    <nd ref='-180484595' />
    <nd ref='-180484596' />
    <tag k='type' v='straight' />
  </way>
  <way id='-38745369' action='modify'>
    <nd ref='-180484596' />
    <nd ref='-180484597' />
  </way>
  <way id='-38745370' action='modify'>
    <nd ref='-180484597' />
    <nd ref='-180484598' />
    <nd ref='-180484599' />
    <tag k='type' v='straight' />
  </way>
  <way id='-38745371' action='modify'>
    <nd ref='-180484599' />
    <nd ref='-180484600' />
  </way>
  <way id='-38745372' action='modify'>
    <nd ref='-180484600' />
    <nd ref='-180484601' />
    <nd ref='-180484602' />
    <nd ref='-180484603' />
    <tag k='type' v='straight' />
  </way>
  <way id='-38745373' action='modify'>
    <nd ref='-180484603' />
    <nd ref='-180484604' />
  </way>
  <way id='-38745374' action='modify'>
    <nd ref='-180484604' />
    <nd ref='-180484605' />
    <tag k='type' v='straight' />
  </way>
  <way id='-38745375' action='modify'>
    <nd ref='-180484605' />
    <nd ref='-180484606' />
    <nd ref='-180484607' />
  </way>
  <way id='-38745376' action='modify'>
    <nd ref='-180484607' />
    <nd ref='-180484608' />
    <tag k='type' v='straight' />
  </way>
  <way id='-38745377' action='modify'>
    <nd ref='-180484608' />
    <nd ref='-180484609' />
  </way>
  <way id='-38745378' action='modify'>
    <nd ref='-180484609' />
    <nd ref='-180484610' />
    <tag k='type' v='straight' />
  </way>
  <way id='-38745382' action='modify'>
    <nd ref='-180484614' />
    <nd ref='-180484538' />
    <tag k='type' v='straight' />
  </way>
  <way id='-38745383' action='modify'>
    <nd ref='-180484538' />
    <nd ref='-180484539' />
  </way>
  <relation id='-14490384' action='modify'>
    <member type='way' ref='-38745382' role='' />
    <member type='way' ref='-38745383' role='' />
    <member type='way' ref='-38745326' role='' />
    <member type='way' ref='-38745327' role='' />
    <member type='way' ref='-38745328' role='' />
    <member type='way' ref='-38745329' role='' />
    <member type='way' ref='-38745330' role='' />
    <member type='way' ref='-38745331' role='' />
    <member type='way' ref='-38745332' role='' />
    <member type='way' ref='-38745333' role='' />
    <member type='way' ref='-38745334' role='' />
    <member type='way' ref='-38745335' role='' />
    <member type='way' ref='-38745336' role='' />
    <member type='way' ref='-38745337' role='' />
    <member type='way' ref='-38745338' role='' />
    <member type='way' ref='-38745339' role='' />
    <member type='way' ref='-38745340' role='' />
    <member type='way' ref='-38745341' role='' />
    <member type='way' ref='-38745342' role='' />
    <member type='way' ref='-38745343' role='' />
    <member type='way' ref='-38745344' role='' />
    <member type='way' ref='-38745345' role='' />
    <member type='way' ref='-38745346' role='' />
    <member type='way' ref='-38745347' role='' />
    <member type='way' ref='-38745348' role='' />
    <member type='way' ref='-38745349' role='' />
    <member type='way' ref='-38745350' role='' />
    <member type='way' ref='-38745351' role='' />
    <member type='way' ref='-38745352' role='' />
    <member type='way' ref='-38745353' role='' />
    <member type='way' ref='-38745354' role='' />
    <member type='way' ref='-38745355' role='' />
    <member type='way' ref='-38745356' role='' />
    <member type='way' ref='-38745357' role='' />
    <member type='way' ref='-38745358' role='' />
    <member type='way' ref='-38745359' role='' />
    <member type='way' ref='-38745360' role='' />
    <member type='way' ref='-38745361' role='' />
    <member type='way' ref='-38745362' role='' />
    <member type='way' ref='-38745363' role='' />
    <member type='way' ref='-38745364' role='' />
    <member type='way' ref='-38745365' role='' />
    <member type='way' ref='-38745366' role='' />
    <member type='way' ref='-38745367' role='' />
    <member type='way' ref='-38745368' role='' />
    <member type='way' ref='-38745369' role='' />
    <member type='way' ref='-38745370' role='' />
    <member type='way' ref='-38745371' role='' />
    <member type='way' ref='-38745372' role='' />
    <member type='way' ref='-38745373' role='' />
    <member type='way' ref='-38745374' role='' />
    <member type='way' ref='-38745375' role='' />
    <member type='way' ref='-38745376' role='' />
    <member type='way' ref='-38745377' role='' />
    <member type='way' ref='-38745378' role='' />
    <tag k='key' v='path.dk.vov' />
    <tag k='name' v='DK VOV' />
    <tag k='type' v='path' />
  </relation>
</osm>
