<?xml version='1.0' encoding='UTF-8'?>
<osm version='0.6' upload='false' generator='JOSM'>
  <node id='-135090589' action='modify' lat='55.65634328591' lon='12.50772588471'>
    <tag k='name' v='vig' />
  </node>
  <node id='-135090590' action='modify' lat='55.65693607923' lon='12.50624288213' />
  <node id='-135090591' action='modify' lat='55.65613745721' lon='12.49058137738' />
  <node id='-135090592' action='modify' lat='55.65574064126' lon='12.48996501925' />
  <node id='-135090593' action='modify' lat='55.65250032012' lon='12.479600172' />
  <node id='-135090594' action='modify' lat='55.65216270171' lon='12.4759095881' />
  <node id='-135090595' action='modify' lat='55.65150813829' lon='12.47107121609' />
  <node id='-135090596' action='modify' lat='55.65061224375' lon='12.46611309285' />
  <node id='-135090597' action='modify' lat='55.6503833723' lon='12.46480253242' />
  <node id='-135090598' action='modify' lat='55.64959799115' lon='12.46014474968' />
  <node id='-135090599' action='modify' lat='55.64932928998' lon='12.45862666622' />
  <node id='-135090600' action='modify' lat='55.64897618215' lon='12.45672265558' />
  <node id='-135090601' action='modify' lat='55.64834029497' lon='12.45258417035' />
  <node id='-135090602' action='modify' lat='55.64801818932' lon='12.44995974088'>
    <tag k='name' v='ave' />
  </node>
  <node id='-135090603' action='modify' lat='55.6476046715' lon='12.44659054147' />
  <node id='-135090604' action='modify' lat='55.64399889365' lon='12.43421851433' />
  <node id='-135090605' action='modify' lat='55.64296786363' lon='12.43221488914' />
  <node id='-135090606' action='modify' lat='55.63925107543' lon='12.41210009873' />
  <node id='-135090607' action='modify' lat='55.63963114523' lon='12.40580221155' />
  <node id='-135090608' action='modify' lat='55.64037658862' lon='12.39821677691' />
  <node id='-135090609' action='modify' lat='55.64071562148' lon='12.39574346597' />
  <node id='-135090610' action='modify' lat='55.64195736569' lon='12.37353695772' />
  <node id='-135090611' action='modify' lat='55.64173628857' lon='12.363929996' />
  <node id='-135090612' action='modify' lat='55.62576798074' lon='12.32246151713' />
  <node id='-135090613' action='modify' lat='55.62076548972' lon='12.3176323922' />
  <node id='-135090614' action='modify' lat='55.61369904199' lon='12.30771793266' />
  <node id='-135090615' action='modify' lat='55.60404578008' lon='12.28861116998' />
  <node id='-135090616' action='modify' lat='55.602327626' lon='12.28556753403'>
    <tag k='name' v='kil' />
  </node>
  <node id='-135090617' action='modify' lat='55.59981739575' lon='12.28195603124' />
  <node id='-135090618' action='modify' lat='55.5916676475' lon='12.27182041426' />
  <node id='-135090619' action='modify' lat='55.58933755069' lon='12.26850018541' />
  <node id='-135090620' action='modify' lat='55.58610238785' lon='12.26323840976' />
  <node id='-135090621' action='modify' lat='55.58313096839' lon='12.25898199163' />
  <node id='-135090622' action='modify' lat='55.58014693695' lon='12.25523028035' />
  <node id='-135090623' action='modify' lat='55.57640082097' lon='12.24984747963' />
  <node id='-135090624' action='modify' lat='55.57261803896' lon='12.24365745692' />
  <node id='-135090625' action='modify' lat='55.56920826225' lon='12.23854722447' />
  <node id='-135090626' action='modify' lat='55.56591992269' lon='12.23403938721' />
  <node id='-135090627' action='modify' lat='55.55867179669' lon='12.22695527891' />
  <node id='-135090628' action='modify' lat='55.55663939076' lon='12.22564174567' />
  <node id='-135090629' action='modify' lat='55.54931551503' lon='12.21875538368' />
  <node id='-135090630' action='modify' lat='55.54615048971' lon='12.21470032093' />
  <node id='-135090631' action='modify' lat='55.54165207671' lon='12.207519716' />
  <node id='-135090632' action='modify' lat='55.54024411817' lon='12.2047330071' />
  <node id='-135090633' action='modify' lat='55.5300451733' lon='12.19207992684' />
  <node id='-135090634' action='modify' lat='55.52159082189' lon='12.18607434519'>
    <tag k='name' v='jer' />
  </node>
  <node id='-135090635' action='modify' lat='55.50898740546' lon='12.1771238542' />
  <node id='-135090636' action='modify' lat='55.50616316348' lon='12.17549960621' />
  <node id='-135090637' action='modify' lat='55.49992087026' lon='12.17271587651'>
    <tag k='name' v='kon' />
  </node>
  <node id='-135090638' action='modify' lat='55.49524087352' lon='12.1706291371' />
  <node id='-135090639' action='modify' lat='55.48061854523' lon='12.13820943456' />
  <node id='-135090640' action='modify' lat='55.48044521096' lon='12.12394385908'>
    <tag k='name' v='lel' />
  </node>
  <node id='-135090641' action='modify' lat='55.48029359888' lon='12.11146609313' />
  <node id='-135090642' action='modify' lat='55.4752559365' lon='12.08369388548' />
  <node id='-135090643' action='modify' lat='55.47371850079' lon='12.07971277425' />
  <node id='-135090644' action='modify' lat='55.47066383556' lon='12.06976981346' />
  <node id='-135090645' action='modify' lat='55.46842214758' lon='12.06029134767' />
  <node id='-135090646' action='modify' lat='55.46544891489' lon='12.04269554391' />
  <node id='-135090647' action='modify' lat='55.46404757922' lon='12.02942133141' />
  <node id='-135090648' action='modify' lat='55.46369526687' lon='12.02649371416'>
    <tag k='name' v='bja' />
  </node>
  <node id='-135090649' action='modify' lat='55.46255223061' lon='12.01926105312' />
  <node id='-135090650' action='modify' lat='55.46063438729' lon='12.00918456218' />
  <node id='-135090651' action='modify' lat='55.45956662967' lon='12.00180199806' />
  <node id='-135090652' action='modify' lat='55.45895154256' lon='11.99568963512' />
  <node id='-135090653' action='modify' lat='55.45852636422' lon='11.98867999764' />
  <node id='-135090654' action='modify' lat='55.45844414648' lon='11.98481414017' />
  <node id='-135090655' action='modify' lat='55.45815992145' lon='11.97861815736' />
  <node id='-135090656' action='modify' lat='55.45793680159' lon='11.97546008648' />
  <node id='-135090657' action='modify' lat='55.45778670366' lon='11.96328882095' />
  <node id='-135090658' action='modify' lat='55.45866772852' lon='11.94402131622' />
  <node id='-135090659' action='modify' lat='55.45451468114' lon='11.91177319856' />
  <node id='-135090660' action='modify' lat='55.45322770901' lon='11.90749971762' />
  <node id='-135090663' action='modify' lat='55.44017106082' lon='11.82612474833' />
  <node id='-135090664' action='modify' lat='55.43938155336' lon='11.81694471221' />
  <node id='-135090665' action='modify' lat='55.43798432357' lon='11.78668431813'>
    <tag k='name' v='rin' />
  </node>
  <node id='-135090701' action='modify' lat='55.4392762022' lon='11.81388884246' />
  <node id='-135090702' action='modify' lat='55.43919284005' lon='11.81192767294' />
  <node id='-135090706' action='modify' lat='55.43850019806' lon='11.79773926198' />
  <node id='-135090707' action='modify' lat='55.43833963986' lon='11.79420381867' />
  <node id='-135090709' action='modify' lat='55.44847292015' lon='11.88254029649' />
  <node id='-135090710' action='modify' lat='55.44876593315' lon='11.8846301034' />
  <node id='-135090711' action='modify' lat='55.44934147211' lon='11.889013834' />
  <way id='-35837664' action='modify'>
    <nd ref='-135090589' />
    <nd ref='-135090590' />
    <tag k='type' v='straight' />
  </way>
  <way id='-35837665' action='modify'>
    <nd ref='-135090590' />
    <nd ref='-135090591' />
    <tag k='type' v='arc' />
  </way>
  <way id='-35837666' action='modify'>
    <nd ref='-135090591' />
    <nd ref='-135090592' />
    <tag k='type' v='straight' />
  </way>
  <way id='-35837667' action='modify'>
    <nd ref='-135090592' />
    <nd ref='-135090593' />
    <tag k='type' v='arc' />
  </way>
  <way id='-35837668' action='modify'>
    <nd ref='-135090593' />
    <nd ref='-135090594' />
    <tag k='type' v='straight' />
  </way>
  <way id='-35837669' action='modify'>
    <nd ref='-135090594' />
    <nd ref='-135090595' />
    <tag k='type' v='arc' />
  </way>
  <way id='-35837670' action='modify'>
    <nd ref='-135090595' />
    <nd ref='-135090596' />
    <tag k='type' v='straight' />
  </way>
  <way id='-35837671' action='modify'>
    <nd ref='-135090596' />
    <nd ref='-135090597' />
    <tag k='type' v='arc' />
  </way>
  <way id='-35837672' action='modify'>
    <nd ref='-135090597' />
    <nd ref='-135090598' />
    <tag k='type' v='straight' />
  </way>
  <way id='-35837673' action='modify'>
    <nd ref='-135090598' />
    <nd ref='-135090599' />
    <tag k='type' v='arc' />
  </way>
  <way id='-35837674' action='modify'>
    <nd ref='-135090599' />
    <nd ref='-135090600' />
    <tag k='type' v='straight' />
  </way>
  <way id='-35837675' action='modify'>
    <nd ref='-135090600' />
    <nd ref='-135090601' />
    <tag k='type' v='arc' />
  </way>
  <way id='-35837676' action='modify'>
    <nd ref='-135090601' />
    <nd ref='-135090602' />
    <nd ref='-135090603' />
    <tag k='type' v='straight' />
  </way>
  <way id='-35837677' action='modify'>
    <nd ref='-135090603' />
    <nd ref='-135090604' />
    <tag k='type' v='arc' />
  </way>
  <way id='-35837678' action='modify'>
    <nd ref='-135090604' />
    <nd ref='-135090605' />
    <tag k='type' v='straight' />
  </way>
  <way id='-35837679' action='modify'>
    <nd ref='-135090605' />
    <nd ref='-135090606' />
    <tag k='type' v='arc' />
  </way>
  <way id='-35837680' action='modify'>
    <nd ref='-135090606' />
    <nd ref='-135090607' />
    <tag k='type' v='straight' />
  </way>
  <way id='-35837681' action='modify'>
    <nd ref='-135090607' />
    <nd ref='-135090608' />
    <tag k='type' v='arc' />
  </way>
  <way id='-35837682' action='modify'>
    <nd ref='-135090608' />
    <nd ref='-135090609' />
    <tag k='type' v='straight' />
  </way>
  <way id='-35837683' action='modify'>
    <nd ref='-135090609' />
    <nd ref='-135090610' />
    <tag k='type' v='arc' />
  </way>
  <way id='-35837684' action='modify'>
    <nd ref='-135090610' />
    <nd ref='-135090611' />
    <tag k='type' v='straight' />
  </way>
  <way id='-35837685' action='modify'>
    <nd ref='-135090611' />
    <nd ref='-135090612' />
    <tag k='type' v='curved' />
  </way>
  <way id='-35837686' action='modify'>
    <nd ref='-135090612' />
    <nd ref='-135090613' />
    <tag k='type' v='straight' />
  </way>
  <way id='-35837687' action='modify'>
    <nd ref='-135090613' />
    <nd ref='-135090614' />
    <tag k='type' v='arc' />
  </way>
  <way id='-35837688' action='modify'>
    <nd ref='-135090614' />
    <nd ref='-135090615' />
    <tag k='type' v='straight' />
  </way>
  <way id='-35837689' action='modify'>
    <nd ref='-135090615' />
    <nd ref='-135090616' />
    <nd ref='-135090617' />
    <tag k='type' v='arc' />
  </way>
  <way id='-35837690' action='modify'>
    <nd ref='-135090617' />
    <nd ref='-135090618' />
    <tag k='type' v='straight' />
  </way>
  <way id='-35837691' action='modify'>
    <nd ref='-135090618' />
    <nd ref='-135090619' />
    <tag k='type' v='arc' />
  </way>
  <way id='-35837692' action='modify'>
    <nd ref='-135090619' />
    <nd ref='-135090620' />
    <tag k='type' v='straight' />
  </way>
  <way id='-35837693' action='modify'>
    <nd ref='-135090620' />
    <nd ref='-135090621' />
    <tag k='type' v='arc' />
  </way>
  <way id='-35837694' action='modify'>
    <nd ref='-135090621' />
    <nd ref='-135090622' />
    <tag k='type' v='straight' />
  </way>
  <way id='-35837695' action='modify'>
    <nd ref='-135090622' />
    <nd ref='-135090623' />
    <tag k='type' v='arc' />
  </way>
  <way id='-35837696' action='modify'>
    <nd ref='-135090623' />
    <nd ref='-135090624' />
    <tag k='type' v='straight' />
  </way>
  <way id='-35837697' action='modify'>
    <nd ref='-135090624' />
    <nd ref='-135090625' />
    <tag k='type' v='arc' />
  </way>
  <way id='-35837698' action='modify'>
    <nd ref='-135090625' />
    <nd ref='-135090626' />
    <tag k='type' v='straight' />
  </way>
  <way id='-35837699' action='modify'>
    <nd ref='-135090626' />
    <nd ref='-135090627' />
    <tag k='type' v='arc' />
  </way>
  <way id='-35837700' action='modify'>
    <nd ref='-135090627' />
    <nd ref='-135090628' />
    <tag k='type' v='straight' />
  </way>
  <way id='-35837701' action='modify'>
    <nd ref='-135090628' />
    <nd ref='-135090629' />
    <tag k='type' v='arc' />
  </way>
  <way id='-35837702' action='modify'>
    <nd ref='-135090629' />
    <nd ref='-135090630' />
    <tag k='type' v='straight' />
  </way>
  <way id='-35837703' action='modify'>
    <nd ref='-135090630' />
    <nd ref='-135090631' />
    <tag k='type' v='arc' />
  </way>
  <way id='-35837704' action='modify'>
    <nd ref='-135090631' />
    <nd ref='-135090632' />
    <tag k='type' v='straight' />
  </way>
  <way id='-35837705' action='modify'>
    <nd ref='-135090632' />
    <nd ref='-135090633' />
    <tag k='type' v='arc' />
  </way>
  <way id='-35837706' action='modify'>
    <nd ref='-135090633' />
    <nd ref='-135090634' />
    <nd ref='-135090635' />
    <tag k='type' v='straight' />
  </way>
  <way id='-35837707' action='modify'>
    <nd ref='-135090635' />
    <nd ref='-135090636' />
    <tag k='type' v='arc' />
  </way>
  <way id='-35837708' action='modify'>
    <nd ref='-135090636' />
    <nd ref='-135090637' />
    <nd ref='-135090638' />
    <tag k='type' v='straight' />
  </way>
  <way id='-35837709' action='modify'>
    <nd ref='-135090638' />
    <nd ref='-135090639' />
    <tag k='type' v='arc' />
  </way>
  <way id='-35837710' action='modify'>
    <nd ref='-135090639' />
    <nd ref='-135090640' />
    <nd ref='-135090641' />
    <tag k='type' v='straight' />
  </way>
  <way id='-35837711' action='modify'>
    <nd ref='-135090641' />
    <nd ref='-135090642' />
    <tag k='type' v='arc' />
  </way>
  <way id='-35837712' action='modify'>
    <nd ref='-135090642' />
    <nd ref='-135090643' />
    <tag k='type' v='straight' />
  </way>
  <way id='-35837713' action='modify'>
    <nd ref='-135090643' />
    <nd ref='-135090644' />
    <tag k='type' v='arc' />
  </way>
  <way id='-35837714' action='modify'>
    <nd ref='-135090644' />
    <nd ref='-135090645' />
    <tag k='type' v='straight' />
  </way>
  <way id='-35837715' action='modify'>
    <nd ref='-135090645' />
    <nd ref='-135090646' />
    <tag k='type' v='arc' />
  </way>
  <way id='-35837716' action='modify'>
    <nd ref='-135090646' />
    <nd ref='-135090647' />
    <tag k='type' v='straight' />
  </way>
  <way id='-35837717' action='modify'>
    <nd ref='-135090647' />
    <nd ref='-135090648' />
    <nd ref='-135090649' />
    <tag k='type' v='arc' />
  </way>
  <way id='-35837718' action='modify'>
    <nd ref='-135090649' />
    <nd ref='-135090650' />
    <tag k='type' v='straight' />
  </way>
  <way id='-35837719' action='modify'>
    <nd ref='-135090650' />
    <nd ref='-135090651' />
    <tag k='type' v='arc' />
  </way>
  <way id='-35837720' action='modify'>
    <nd ref='-135090651' />
    <nd ref='-135090652' />
    <tag k='type' v='straight' />
  </way>
  <way id='-35837721' action='modify'>
    <nd ref='-135090652' />
    <nd ref='-135090653' />
    <tag k='type' v='arc' />
  </way>
  <way id='-35837722' action='modify'>
    <nd ref='-135090653' />
    <nd ref='-135090654' />
    <tag k='type' v='straight' />
  </way>
  <way id='-35837723' action='modify'>
    <nd ref='-135090654' />
    <nd ref='-135090655' />
    <tag k='type' v='arc' />
  </way>
  <way id='-35837724' action='modify'>
    <nd ref='-135090655' />
    <nd ref='-135090656' />
    <tag k='type' v='straight' />
  </way>
  <way id='-35837725' action='modify'>
    <nd ref='-135090656' />
    <nd ref='-135090657' />
    <tag k='type' v='arc' />
  </way>
  <way id='-35837726' action='modify'>
    <nd ref='-135090657' />
    <nd ref='-135090658' />
    <tag k='type' v='straight' />
  </way>
  <way id='-35837727' action='modify'>
    <nd ref='-135090658' />
    <nd ref='-135090659' />
    <tag k='type' v='curved' />
  </way>
  <way id='-35837728' action='modify'>
    <nd ref='-135090659' />
    <nd ref='-135090660' />
    <tag k='type' v='straight' />
  </way>
  <way id='-35837729' action='modify'>
    <nd ref='-135090660' />
    <nd ref='-135090711' />
  </way>
  <way id='-35837731' action='modify'>
    <nd ref='-135090663' />
    <nd ref='-135090664' />
    <tag k='type' v='arc' />
  </way>
  <way id='-35837732' action='modify'>
    <nd ref='-135090664' />
    <nd ref='-135090701' />
    <tag k='type' v='straight' />
  </way>
  <way id='-35837762' action='modify'>
    <nd ref='-135090701' />
    <nd ref='-135090702' />
  </way>
  <way id='-35837766' action='modify'>
    <nd ref='-135090702' />
    <nd ref='-135090706' />
    <tag k='type' v='straight' />
  </way>
  <way id='-35837775' action='modify'>
    <nd ref='-135090706' />
    <nd ref='-135090707' />
  </way>
  <way id='-35837776' action='modify'>
    <nd ref='-135090707' />
    <nd ref='-135090665' />
    <tag k='type' v='straight' />
  </way>
  <way id='-35837783' action='modify'>
    <nd ref='-135090710' />
    <nd ref='-135090709' />
  </way>
  <way id='-35837784' action='modify'>
    <nd ref='-135090709' />
    <nd ref='-135090663' />
    <tag k='type' v='straight' />
  </way>
  <way id='-35837789' action='modify'>
    <nd ref='-135090711' />
    <nd ref='-135090710' />
    <tag k='type' v='straight' />
  </way>
  <relation id='-14229364' action='modify'>
    <member type='way' ref='-35837664' role='' />
    <member type='way' ref='-35837665' role='' />
    <member type='way' ref='-35837666' role='' />
    <member type='way' ref='-35837667' role='' />
    <member type='way' ref='-35837668' role='' />
    <member type='way' ref='-35837669' role='' />
    <member type='way' ref='-35837670' role='' />
    <member type='way' ref='-35837671' role='' />
    <member type='way' ref='-35837672' role='' />
    <member type='way' ref='-35837673' role='' />
    <member type='way' ref='-35837674' role='' />
    <member type='way' ref='-35837675' role='' />
    <member type='way' ref='-35837676' role='' />
    <member type='way' ref='-35837677' role='' />
    <member type='way' ref='-35837678' role='' />
    <member type='way' ref='-35837679' role='' />
    <member type='way' ref='-35837680' role='' />
    <member type='way' ref='-35837681' role='' />
    <member type='way' ref='-35837682' role='' />
    <member type='way' ref='-35837683' role='' />
    <member type='way' ref='-35837684' role='' />
    <member type='way' ref='-35837685' role='' />
    <member type='way' ref='-35837686' role='' />
    <member type='way' ref='-35837687' role='' />
    <member type='way' ref='-35837688' role='' />
    <member type='way' ref='-35837689' role='' />
    <member type='way' ref='-35837690' role='' />
    <member type='way' ref='-35837691' role='' />
    <member type='way' ref='-35837692' role='' />
    <member type='way' ref='-35837693' role='' />
    <member type='way' ref='-35837694' role='' />
    <member type='way' ref='-35837695' role='' />
    <member type='way' ref='-35837696' role='' />
    <member type='way' ref='-35837697' role='' />
    <member type='way' ref='-35837698' role='' />
    <member type='way' ref='-35837699' role='' />
    <member type='way' ref='-35837700' role='' />
    <member type='way' ref='-35837701' role='' />
    <member type='way' ref='-35837702' role='' />
    <member type='way' ref='-35837703' role='' />
    <member type='way' ref='-35837704' role='' />
    <member type='way' ref='-35837705' role='' />
    <member type='way' ref='-35837706' role='' />
    <member type='way' ref='-35837707' role='' />
    <member type='way' ref='-35837708' role='' />
    <member type='way' ref='-35837709' role='' />
    <member type='way' ref='-35837710' role='' />
    <member type='way' ref='-35837711' role='' />
    <member type='way' ref='-35837712' role='' />
    <member type='way' ref='-35837713' role='' />
    <member type='way' ref='-35837714' role='' />
    <member type='way' ref='-35837715' role='' />
    <member type='way' ref='-35837716' role='' />
    <member type='way' ref='-35837717' role='' />
    <member type='way' ref='-35837718' role='' />
    <member type='way' ref='-35837719' role='' />
    <member type='way' ref='-35837720' role='' />
    <member type='way' ref='-35837721' role='' />
    <member type='way' ref='-35837722' role='' />
    <member type='way' ref='-35837723' role='' />
    <member type='way' ref='-35837724' role='' />
    <member type='way' ref='-35837725' role='' />
    <member type='way' ref='-35837726' role='' />
    <member type='way' ref='-35837727' role='' />
    <member type='way' ref='-35837728' role='' />
    <member type='way' ref='-35837729' role='' />
    <member type='way' ref='-35837789' role='' />
    <member type='way' ref='-35837783' role='' />
    <member type='way' ref='-35837784' role='' />
    <member type='way' ref='-35837731' role='' />
    <member type='way' ref='-35837732' role='' />
    <member type='way' ref='-35837762' role='' />
    <member type='way' ref='-35837766' role='' />
    <member type='way' ref='-35837775' role='' />
    <member type='way' ref='-35837776' role='' />
    <tag k='key' v='path.dk.vrs' />
    <tag k='name' v='DK VRS' />
    <tag k='type' v='path' />
  </relation>
</osm>
