<?xml version='1.0' encoding='UTF-8'?>
<osm version='0.6' upload='false' generator='JOSM'>
  <node id='-185293039' action='modify' lat='54.94331012585' lon='9.69690650782' />
  <node id='-185293040' action='modify' lat='54.94394154878' lon='9.69480089689'>
    <tag k='name' v='vso' />
  </node>
  <node id='-185293041' action='modify' lat='54.9395562208' lon='9.69889997363' />
  <node id='-185293042' action='modify' lat='54.93152018887' lon='9.690913325'>
    <tag k='name' v='ste' />
  </node>
  <node id='-185293043' action='modify' lat='54.92474670075' lon='9.68418270081' />
  <node id='-185293044' action='modify' lat='54.92250862279' lon='9.6829140079' />
  <node id='-185293045' action='modify' lat='54.91984058042' lon='9.68233146316'>
    <tag k='name' v='nyb' />
  </node>
  <node id='-185293046' action='modify' lat='54.91690670507' lon='9.68169092059' />
  <node id='-185293047' action='modify' lat='54.91518003188' lon='9.68101500928' />
  <node id='-185293048' action='modify' lat='54.90881846334' lon='9.67674493253' />
  <node id='-185293049' action='modify' lat='54.9075633024' lon='9.67519997478' />
  <node id='-185293050' action='modify' lat='54.9048924792' lon='9.67036126971' />
  <node id='-185293051' action='modify' lat='54.90366495137' lon='9.66665982127' />
  <node id='-185293052' action='modify' lat='54.90312211306' lon='9.66210006595' />
  <node id='-185293053' action='modify' lat='54.90084889505' lon='9.65792118967' />
  <node id='-185293054' action='modify' lat='54.89753856698' lon='9.65551907834'>
    <tag k='name' v='sko' />
  </node>
  <node id='-185293055' action='modify' lat='54.89648717087' lon='9.65475618303' />
  <node id='-185293056' action='modify' lat='54.89386497353' lon='9.65461670816' />
  <node id='-185293057' action='modify' lat='54.89211571873' lon='9.65586125314' />
  <node id='-185293058' action='modify' lat='54.89069034384' lon='9.65809821546' />
  <node id='-185293059' action='modify' lat='54.8887064589' lon='9.66325342119' />
  <node id='-185293060' action='modify' lat='54.88784252824' lon='9.66666519105' />
  <node id='-185293061' action='modify' lat='54.88716804256' lon='9.67026917112' />
  <node id='-185293062' action='modify' lat='54.88699092131' lon='9.67139660776' />
  <node id='-185293063' action='modify' lat='54.88680054413' lon='9.67275536782'>
    <tag k='name' v='bro' />
  </node>
  <node id='-185293064' action='modify' lat='54.88646328625' lon='9.67516242921' />
  <node id='-185293065' action='modify' lat='54.88569804884' lon='9.67860638559' />
  <node id='-185293066' action='modify' lat='54.88170500179' lon='9.6911054796' />
  <node id='-185293067' action='modify' lat='54.88048602529' lon='9.69349264562' />
  <node id='-185293068' action='modify' lat='54.87876331268' lon='9.69565972363'>
    <tag k='name' v='dyn' />
  </node>
  <node id='-185293069' action='modify' lat='54.87453256975' lon='9.70098137319' />
  <node id='-185293070' action='modify' lat='54.87352017879' lon='9.70255314767' />
  <node id='-185293071' action='modify' lat='54.86626602415' lon='9.71419929922' />
  <node id='-185293072' action='modify' lat='54.86482738563' lon='9.71623241365' />
  <node id='-185293073' action='modify' lat='54.86230465149' lon='9.71958229741'>
    <tag k='name' v='ske' />
  </node>
  <node id='-185293074' action='modify' lat='54.86161734329' lon='9.72049492269'>
    <tag k='name' v='ske.f' />
  </node>
  <way id='-39113973' action='modify'>
    <nd ref='-185293040' />
    <nd ref='-185293039' />
    <tag k='type' v='straight' />
  </way>
  <way id='-39113974' action='modify'>
    <nd ref='-185293039' />
    <nd ref='-185293041' />
  </way>
  <way id='-39113975' action='modify'>
    <nd ref='-185293041' />
    <nd ref='-185293042' />
    <nd ref='-185293043' />
    <tag k='type' v='straight' />
  </way>
  <way id='-39113976' action='modify'>
    <nd ref='-185293043' />
    <nd ref='-185293044' />
  </way>
  <way id='-39113977' action='modify'>
    <nd ref='-185293044' />
    <nd ref='-185293045' />
    <nd ref='-185293046' />
    <tag k='type' v='straight' />
  </way>
  <way id='-39113978' action='modify'>
    <nd ref='-185293046' />
    <nd ref='-185293047' />
  </way>
  <way id='-39113979' action='modify'>
    <nd ref='-185293047' />
    <nd ref='-185293048' />
    <tag k='type' v='straight' />
  </way>
  <way id='-39113980' action='modify'>
    <nd ref='-185293048' />
    <nd ref='-185293049' />
  </way>
  <way id='-39113981' action='modify'>
    <nd ref='-185293049' />
    <nd ref='-185293050' />
    <tag k='type' v='straight' />
  </way>
  <way id='-39113982' action='modify'>
    <nd ref='-185293050' />
    <nd ref='-185293051' />
  </way>
  <way id='-39113983' action='modify'>
    <nd ref='-185293051' />
    <nd ref='-185293052' />
    <tag k='type' v='straight' />
  </way>
  <way id='-39113984' action='modify'>
    <nd ref='-185293052' />
    <nd ref='-185293053' />
  </way>
  <way id='-39113985' action='modify'>
    <nd ref='-185293053' />
    <nd ref='-185293054' />
    <nd ref='-185293055' />
    <tag k='type' v='straight' />
  </way>
  <way id='-39113986' action='modify'>
    <nd ref='-185293055' />
    <nd ref='-185293056' />
  </way>
  <way id='-39113987' action='modify'>
    <nd ref='-185293056' />
    <nd ref='-185293057' />
    <tag k='type' v='straight' />
  </way>
  <way id='-39113988' action='modify'>
    <nd ref='-185293057' />
    <nd ref='-185293058' />
  </way>
  <way id='-39113989' action='modify'>
    <nd ref='-185293058' />
    <nd ref='-185293059' />
    <tag k='type' v='straight' />
  </way>
  <way id='-39113990' action='modify'>
    <nd ref='-185293059' />
    <nd ref='-185293060' />
  </way>
  <way id='-39113991' action='modify'>
    <nd ref='-185293060' />
    <nd ref='-185293061' />
    <tag k='type' v='straight' />
  </way>
  <way id='-39113992' action='modify'>
    <nd ref='-185293061' />
    <nd ref='-185293062' />
  </way>
  <way id='-39113993' action='modify'>
    <nd ref='-185293062' />
    <nd ref='-185293063' />
    <nd ref='-185293064' />
    <tag k='type' v='straight' />
  </way>
  <way id='-39113994' action='modify'>
    <nd ref='-185293064' />
    <nd ref='-185293065' />
  </way>
  <way id='-39113995' action='modify'>
    <nd ref='-185293065' />
    <nd ref='-185293066' />
    <tag k='type' v='straight' />
  </way>
  <way id='-39113996' action='modify'>
    <nd ref='-185293066' />
    <nd ref='-185293067' />
  </way>
  <way id='-39113997' action='modify'>
    <nd ref='-185293067' />
    <nd ref='-185293068' />
    <nd ref='-185293069' />
    <tag k='type' v='straight' />
  </way>
  <way id='-39113998' action='modify'>
    <nd ref='-185293069' />
    <nd ref='-185293070' />
  </way>
  <way id='-39113999' action='modify'>
    <nd ref='-185293070' />
    <nd ref='-185293071' />
    <tag k='type' v='straight' />
  </way>
  <way id='-39114000' action='modify'>
    <nd ref='-185293071' />
    <nd ref='-185293072' />
  </way>
  <way id='-39114001' action='modify'>
    <nd ref='-185293072' />
    <nd ref='-185293073' />
    <nd ref='-185293074' />
    <tag k='type' v='straight' />
  </way>
  <relation id='-14494170' action='modify'>
    <member type='way' ref='-39113973' role='' />
    <member type='way' ref='-39113974' role='' />
    <member type='way' ref='-39113975' role='' />
    <member type='way' ref='-39113976' role='' />
    <member type='way' ref='-39113977' role='' />
    <member type='way' ref='-39113978' role='' />
    <member type='way' ref='-39113979' role='' />
    <member type='way' ref='-39113980' role='' />
    <member type='way' ref='-39113981' role='' />
    <member type='way' ref='-39113982' role='' />
    <member type='way' ref='-39113983' role='' />
    <member type='way' ref='-39113984' role='' />
    <member type='way' ref='-39113985' role='' />
    <member type='way' ref='-39113986' role='' />
    <member type='way' ref='-39113987' role='' />
    <member type='way' ref='-39113988' role='' />
    <member type='way' ref='-39113989' role='' />
    <member type='way' ref='-39113990' role='' />
    <member type='way' ref='-39113991' role='' />
    <member type='way' ref='-39113992' role='' />
    <member type='way' ref='-39113993' role='' />
    <member type='way' ref='-39113994' role='' />
    <member type='way' ref='-39113995' role='' />
    <member type='way' ref='-39113996' role='' />
    <member type='way' ref='-39113997' role='' />
    <member type='way' ref='-39113998' role='' />
    <member type='way' ref='-39113999' role='' />
    <member type='way' ref='-39114000' role='' />
    <member type='way' ref='-39114001' role='' />
    <tag k='key' v='path.dk.vss' />
    <tag k='name' v='DK VSS' />
    <tag k='type' v='path' />
  </relation>
</osm>
