<?xml version='1.0' encoding='UTF-8'?>
<osm version='0.6' upload='false' generator='JOSM'>
  <node id='-161116260' action='modify' lat='55.72048583996' lon='9.53495934539'>
    <tag k='name' v='ven.yn' />
  </node>
  <node id='-161116261' action='modify' lat='55.71702622662' lon='9.53545379688' />
  <node id='-161116262' action='modify' lat='55.71580125148' lon='9.53490971982' />
  <node id='-161116263' action='modify' lat='55.71532985297' lon='9.53457176149' />
  <node id='-161116264' action='modify' lat='55.71313596203' lon='9.52750145853' />
  <node id='-161116265' action='modify' lat='55.7146680724' lon='9.51820492208' />
  <node id='-161116266' action='modify' lat='55.71477081533' lon='9.51417087972' />
  <node id='-161116267' action='modify' lat='55.71447769509' lon='9.51102733076'>
    <tag k='name' v='sva' />
  </node>
  <node id='-161116268' action='modify' lat='55.7137645274' lon='9.50761556089' />
  <node id='-161116269' action='modify' lat='55.71105968385' lon='9.49920965262'>
    <tag k='name' v='tra' />
  </node>
  <node id='-161116270' action='modify' lat='55.7106487989' lon='9.49793278635' />
  <node id='-161116271' action='modify' lat='55.71009573716' lon='9.49436545104' />
  <node id='-161116272' action='modify' lat='55.71009422606' lon='9.49334889382' />
  <node id='-161116273' action='modify' lat='55.70923439828' lon='9.48872208327' />
  <node id='-161116274' action='modify' lat='55.70881127748' lon='9.48764383525' />
  <node id='-161116275' action='modify' lat='55.70805267238' lon='9.48269247472' />
  <node id='-161116276' action='modify' lat='55.70818565628' lon='9.47750508249' />
  <node id='-161116277' action='modify' lat='55.70827934921' lon='9.47587966383' />
  <node id='-161116278' action='modify' lat='55.70886265819' lon='9.46850895345' />
  <node id='-161116279' action='modify' lat='55.70894426031' lon='9.46545123518' />
  <node id='-161116280' action='modify' lat='55.70806778421' lon='9.45227622449' />
  <node id='-161116281' action='modify' lat='55.70701598694' lon='9.4475769943' />
  <node id='-161116282' action='modify' lat='55.70586077377' lon='9.44497084484'>
    <tag k='name' v='ski' />
  </node>
  <node id='-161116283' action='modify' lat='55.7046523622' lon='9.44224476278' />
  <node id='-161116284' action='modify' lat='55.70399795593' lon='9.44024115533' />
  <node id='-161116285' action='modify' lat='55.70289315075' lon='9.43531661958' />
  <node id='-161116286' action='modify' lat='55.70103259428' lon='9.43102106184'>
    <tag k='name' v='kva' />
  </node>
  <node id='-161116287' action='modify' lat='55.70064565996' lon='9.43055703968' />
  <node id='-161116288' action='modify' lat='55.69422894601' lon='9.42316352785' />
  <node id='-161116289' action='modify' lat='55.69237553451' lon='9.41609322757' />
  <node id='-161116290' action='modify' lat='55.69246624329' lon='9.41299259126' />
  <node id='-161116291' action='modify' lat='55.69104211495' lon='9.40726875722' />
  <node id='-161116292' action='modify' lat='55.68867747023' lon='9.40411058161'>
    <tag k='name' v='har' />
  </node>
  <node id='-161116293' action='modify' lat='55.68783688055' lon='9.40298795164' />
  <node id='-161116294' action='modify' lat='55.6858047468' lon='9.40152882993' />
  <node id='-161116295' action='modify' lat='55.68142259903' lon='9.40016090333' />
  <node id='-161116296' action='modify' lat='55.6779715752' lon='9.39563065499' />
  <node id='-161116297' action='modify' lat='55.67767666654' lon='9.39467578858' />
  <node id='-161116298' action='modify' lat='55.67670723467' lon='9.38918530405' />
  <node id='-161116299' action='modify' lat='55.67611578074' lon='9.38289421493'>
    <tag k='name' v='vin' />
  </node>
  <node id='-161116300' action='modify' lat='55.67606446138' lon='9.38234835327' />
  <node id='-161116301' action='modify' lat='55.67662858852' lon='9.3776330325' />
  <node id='-161116302' action='modify' lat='55.67900298338' lon='9.37017917097'>
    <tag k='name' v='kel' />
  </node>
  <node id='-161116303' action='modify' lat='55.67945263442' lon='9.36660963341'>
    <tag k='name' v='teg' />
  </node>
  <node id='-161116304' action='modify' lat='55.67924797477' lon='9.36451971263' />
  <node id='-161116305' action='modify' lat='55.67885931248' lon='9.36240344971' />
  <node id='-161116306' action='modify' lat='55.67768725304' lon='9.3587985608' />
  <node id='-161116307' action='modify' lat='55.67737570617' lon='9.35820579261' />
  <node id='-161116308' action='modify' lat='55.67653784603' lon='9.35585617483' />
  <node id='-161116309' action='modify' lat='55.67480668538' lon='9.34750808776'>
    <tag k='name' v='rav' />
  </node>
  <node id='-161116310' action='modify' lat='55.67396365337' lon='9.34344291151' />
  <node id='-161116311' action='modify' lat='55.67259330312' lon='9.33985411584' />
  <node id='-161116312' action='modify' lat='55.66979195216' lon='9.33502613962' />
  <node id='-161116313' action='modify' lat='55.66897813119' lon='9.33380305231' />
  <node id='-161116314' action='modify' lat='55.66840027777' lon='9.33298766077' />
  <node id='-161116315' action='modify' lat='55.66663943619' lon='9.32846009195' />
  <node id='-161116316' action='modify' lat='55.66627163575' lon='9.32646515867'>
    <tag k='name' v='sog' />
  </node>
  <node id='-161116317' action='modify' lat='55.66454266067' lon='9.31708752573' />
  <node id='-161116318' action='modify' lat='55.66371662583' lon='9.31456088752' />
  <node id='-161116319' action='modify' lat='55.66311751383' lon='9.31334048241' />
  <node id='-161116320' action='modify' lat='55.66213712896' lon='9.30894970626' />
  <node id='-161116321' action='modify' lat='55.66193130564' lon='9.30590616467'>
    <tag k='name' v='lih' />
  </node>
  <node id='-161116322' action='modify' lat='55.66187538625' lon='9.30507927865' />
  <node id='-161116323' action='modify' lat='55.66194346978' lon='9.30258214206' />
  <node id='-161116324' action='modify' lat='55.66269994701' lon='9.29488956392' />
  <node id='-161116325' action='modify' lat='55.66203122171' lon='9.2901581499' />
  <node id='-161116326' action='modify' lat='55.66145175272' lon='9.28892701596' />
  <node id='-161116327' action='modify' lat='55.65912773868' lon='9.28653716773' />
  <node id='-161116328' action='modify' lat='55.65800653413' lon='9.28603023022' />
  <node id='-161116329' action='modify' lat='55.65578218864' lon='9.2822080797' />
  <node id='-161116330' action='modify' lat='55.65425079603' lon='9.2753362602' />
  <node id='-161116331' action='modify' lat='55.65400413181' lon='9.27175014943' />
  <node id='-161116332' action='modify' lat='55.65399656544' lon='9.2702829811' />
  <node id='-161116333' action='modify' lat='55.6546941797' lon='9.26599680841' />
  <node id='-161116334' action='modify' lat='55.65703501054' lon='9.2609441627'>
    <tag k='name' v='bin' />
  </node>
  <node id='-161116335' action='modify' lat='55.66005221804' lon='9.25443112314' />
  <node id='-161116336' action='modify' lat='55.66157430584' lon='9.25216733873' />
  <node id='-161116337' action='modify' lat='55.66300253169' lon='9.25099521607' />
  <node id='-161116338' action='modify' lat='55.66382253003' lon='9.25006448686' />
  <node id='-161116339' action='modify' lat='55.66563493438' lon='9.24714624345' />
  <node id='-161116340' action='modify' lat='55.66674230541' lon='9.24567907512' />
  <node id='-161116341' action='modify' lat='55.66959228018' lon='9.2423692292' />
  <node id='-161116342' action='modify' lat='55.67248439905' lon='9.24088864982' />
  <node id='-161116343' action='modify' lat='55.67340099881' lon='9.24099057376' />
  <node id='-161116344' action='modify' lat='55.67517666067' lon='9.24069821298' />
  <node id='-161116345' action='modify' lat='55.67626410033' lon='9.24005984724' />
  <node id='-161116346' action='modify' lat='55.67712845788' lon='9.23972629594'>
    <tag k='name' v='hof' />
  </node>
  <node id='-161116347' action='modify' lat='55.68079049191' lon='9.24229143977' />
  <node id='-161116348' action='modify' lat='55.68208494574' lon='9.2448878181' />
  <node id='-161116349' action='modify' lat='55.68521202425' lon='9.2475378406' />
  <node id='-161116350' action='modify' lat='55.6885989065' lon='9.2475378406' />
  <node id='-161116351' action='modify' lat='55.69032247501' lon='9.24775241733' />
  <node id='-161116352' action='modify' lat='55.693908459' lon='9.24850612611' />
  <node id='-161116353' action='modify' lat='55.69490343167' lon='9.24851147751'>
    <tag k='name' v='ran' />
  </node>
  <node id='-161116354' action='modify' lat='55.69941379729' lon='9.24462227941' />
  <node id='-161116355' action='modify' lat='55.70189714135' lon='9.23900036931' />
  <node id='-161116356' action='modify' lat='55.70276921868' lon='9.23621355951' />
  <node id='-161116357' action='modify' lat='55.70688300209' lon='9.22006129146' />
  <node id='-161116358' action='modify' lat='55.70775285782' lon='9.21412024194'>
    <tag k='name' v='van' />
  </node>
  <node id='-161116359' action='modify' lat='55.70790759852' lon='9.21001374185' />
  <node id='-161116360' action='modify' lat='55.70813427619' lon='9.19395803869' />
  <node id='-161116361' action='modify' lat='55.70919209698' lon='9.18798206091' />
  <node id='-161116362' action='modify' lat='55.71594968653' lon='9.15972264673' />
  <node id='-161116363' action='modify' lat='55.71660917834' lon='9.15705080146' />
  <node id='-161116364' action='modify' lat='55.71714225131' lon='9.15506703103'>
    <tag k='name' v='ost' />
  </node>
  <node id='-161116365' action='modify' lat='55.7281268083' lon='9.11399411207'>
    <tag k='name' v='bil' />
  </node>
  <node id='-161116366' action='modify' lat='55.73366498207' lon='9.09328166139'>
    <tag k='name' v='elk' />
  </node>
  <node id='-161116367' action='modify' lat='55.73470991594' lon='9.08937333941' />
  <node id='-161116368' action='modify' lat='55.73712910456' lon='9.07861231685' />
  <node id='-161116369' action='modify' lat='55.74313604946' lon='9.04625980309'>
    <tag k='name' v='kro' />
  </node>
  <node id='-161116370' action='modify' lat='55.74727191548' lon='9.02398174736'>
    <tag k='name' v='lov' />
  </node>
  <node id='-161116371' action='modify' lat='55.74764166563' lon='9.02198995409' />
  <node id='-161116372' action='modify' lat='55.74800604673' lon='9.01883124769' />
  <node id='-161116373' action='modify' lat='55.74871890289' lon='9.01043014114'>
    <tag k='name' v='hin' />
  </node>
  <node id='-161116374' action='modify' lat='55.75371767095' lon='8.95151466912' />
  <node id='-161116375' action='modify' lat='55.7540003556' lon='8.94888192147' />
  <node id='-161116376' action='modify' lat='55.75445166528' lon='8.94599586457' />
  <node id='-161116377' action='modify' lat='55.75477014489' lon='8.94185185164' />
  <node id='-161116378' action='modify' lat='55.75475203237' lon='8.94002794951' />
  <node id='-161116379' action='modify' lat='55.75584048912' lon='8.93575546575' />
  <node id='-161116380' action='modify' lat='55.756059419' lon='8.93544868542' />
  <node id='-161116381' action='modify' lat='55.75856000807' lon='8.9328664434' />
  <node id='-161116382' action='modify' lat='55.7591449939' lon='8.93232799031'>
    <tag k='name' v='gri' />
  </node>
  <node id='-161116395' action='modify' lat='55.71637538148' lon='9.5352637741'>
    <tag k='name' v='ven' />
  </node>
  <way id='-37360741' action='modify'>
    <nd ref='-161116260' />
    <nd ref='-161116261' />
    <tag k='type' v='straight' />
  </way>
  <way id='-37360742' action='modify'>
    <nd ref='-161116261' />
    <nd ref='-161116395' />
    <nd ref='-161116262' />
  </way>
  <way id='-37360743' action='modify'>
    <nd ref='-161116262' />
    <nd ref='-161116263' />
    <tag k='type' v='straight' />
  </way>
  <way id='-37360744' action='modify'>
    <nd ref='-161116263' />
    <nd ref='-161116264' />
  </way>
  <way id='-37360745' action='modify'>
    <nd ref='-161116264' />
    <nd ref='-161116265' />
    <tag k='type' v='straight' />
  </way>
  <way id='-37360746' action='modify'>
    <nd ref='-161116265' />
    <nd ref='-161116266' />
  </way>
  <way id='-37360747' action='modify'>
    <nd ref='-161116266' />
    <nd ref='-161116267' />
    <tag k='type' v='straight' />
  </way>
  <way id='-37360748' action='modify'>
    <nd ref='-161116267' />
    <nd ref='-161116268' />
  </way>
  <way id='-37360749' action='modify'>
    <nd ref='-161116268' />
    <nd ref='-161116269' />
    <nd ref='-161116270' />
    <tag k='type' v='straight' />
  </way>
  <way id='-37360750' action='modify'>
    <nd ref='-161116270' />
    <nd ref='-161116271' />
  </way>
  <way id='-37360751' action='modify'>
    <nd ref='-161116271' />
    <nd ref='-161116272' />
    <tag k='type' v='straight' />
  </way>
  <way id='-37360752' action='modify'>
    <nd ref='-161116272' />
    <nd ref='-161116273' />
  </way>
  <way id='-37360753' action='modify'>
    <nd ref='-161116273' />
    <nd ref='-161116274' />
    <tag k='type' v='straight' />
  </way>
  <way id='-37360754' action='modify'>
    <nd ref='-161116274' />
    <nd ref='-161116275' />
  </way>
  <way id='-37360755' action='modify'>
    <nd ref='-161116275' />
    <nd ref='-161116276' />
    <tag k='type' v='straight' />
  </way>
  <way id='-37360756' action='modify'>
    <nd ref='-161116276' />
    <nd ref='-161116277' />
  </way>
  <way id='-37360757' action='modify'>
    <nd ref='-161116277' />
    <nd ref='-161116278' />
    <tag k='type' v='straight' />
  </way>
  <way id='-37360758' action='modify'>
    <nd ref='-161116278' />
    <nd ref='-161116279' />
  </way>
  <way id='-37360759' action='modify'>
    <nd ref='-161116279' />
    <nd ref='-161116280' />
    <tag k='type' v='straight' />
  </way>
  <way id='-37360760' action='modify'>
    <nd ref='-161116280' />
    <nd ref='-161116281' />
  </way>
  <way id='-37360761' action='modify'>
    <nd ref='-161116281' />
    <nd ref='-161116282' />
    <nd ref='-161116283' />
    <tag k='type' v='straight' />
  </way>
  <way id='-37360762' action='modify'>
    <nd ref='-161116283' />
    <nd ref='-161116284' />
  </way>
  <way id='-37360763' action='modify'>
    <nd ref='-161116284' />
    <nd ref='-161116285' />
    <tag k='type' v='straight' />
  </way>
  <way id='-37360764' action='modify'>
    <nd ref='-161116285' />
    <nd ref='-161116286' />
    <nd ref='-161116287' />
  </way>
  <way id='-37360765' action='modify'>
    <nd ref='-161116287' />
    <nd ref='-161116288' />
    <tag k='type' v='straight' />
  </way>
  <way id='-37360766' action='modify'>
    <nd ref='-161116288' />
    <nd ref='-161116289' />
  </way>
  <way id='-37360767' action='modify'>
    <nd ref='-161116289' />
    <nd ref='-161116290' />
    <tag k='type' v='straight' />
  </way>
  <way id='-37360768' action='modify'>
    <nd ref='-161116290' />
    <nd ref='-161116291' />
  </way>
  <way id='-37360769' action='modify'>
    <nd ref='-161116291' />
    <nd ref='-161116292' />
    <nd ref='-161116293' />
    <tag k='type' v='straight' />
  </way>
  <way id='-37360770' action='modify'>
    <nd ref='-161116293' />
    <nd ref='-161116294' />
  </way>
  <way id='-37360771' action='modify'>
    <nd ref='-161116294' />
    <nd ref='-161116295' />
    <tag k='type' v='straight' />
  </way>
  <way id='-37360772' action='modify'>
    <nd ref='-161116295' />
    <nd ref='-161116296' />
  </way>
  <way id='-37360773' action='modify'>
    <nd ref='-161116296' />
    <nd ref='-161116297' />
    <tag k='type' v='straight' />
  </way>
  <way id='-37360774' action='modify'>
    <nd ref='-161116297' />
    <nd ref='-161116298' />
  </way>
  <way id='-37360775' action='modify'>
    <nd ref='-161116298' />
    <nd ref='-161116299' />
    <nd ref='-161116300' />
    <tag k='type' v='straight' />
  </way>
  <way id='-37360776' action='modify'>
    <nd ref='-161116300' />
    <nd ref='-161116301' />
  </way>
  <way id='-37360777' action='modify'>
    <nd ref='-161116301' />
    <nd ref='-161116302' />
    <tag k='type' v='straight' />
  </way>
  <way id='-37360778' action='modify'>
    <nd ref='-161116302' />
    <nd ref='-161116303' />
    <nd ref='-161116304' />
  </way>
  <way id='-37360779' action='modify'>
    <nd ref='-161116304' />
    <nd ref='-161116305' />
    <tag k='type' v='straight' />
  </way>
  <way id='-37360780' action='modify'>
    <nd ref='-161116305' />
    <nd ref='-161116306' />
  </way>
  <way id='-37360781' action='modify'>
    <nd ref='-161116306' />
    <nd ref='-161116307' />
    <tag k='type' v='straight' />
  </way>
  <way id='-37360782' action='modify'>
    <nd ref='-161116307' />
    <nd ref='-161116308' />
  </way>
  <way id='-37360783' action='modify'>
    <nd ref='-161116308' />
    <nd ref='-161116309' />
    <nd ref='-161116310' />
    <tag k='type' v='straight' />
  </way>
  <way id='-37360784' action='modify'>
    <nd ref='-161116310' />
    <nd ref='-161116311' />
  </way>
  <way id='-37360785' action='modify'>
    <nd ref='-161116311' />
    <nd ref='-161116312' />
    <tag k='type' v='straight' />
  </way>
  <way id='-37360786' action='modify'>
    <nd ref='-161116312' />
    <nd ref='-161116313' />
  </way>
  <way id='-37360787' action='modify'>
    <nd ref='-161116313' />
    <nd ref='-161116314' />
    <tag k='type' v='straight' />
  </way>
  <way id='-37360788' action='modify'>
    <nd ref='-161116314' />
    <nd ref='-161116315' />
  </way>
  <way id='-37360789' action='modify'>
    <nd ref='-161116315' />
    <nd ref='-161116316' />
    <nd ref='-161116317' />
    <tag k='type' v='straight' />
  </way>
  <way id='-37360790' action='modify'>
    <nd ref='-161116317' />
    <nd ref='-161116318' />
  </way>
  <way id='-37360791' action='modify'>
    <nd ref='-161116318' />
    <nd ref='-161116319' />
    <tag k='type' v='straight' />
  </way>
  <way id='-37360792' action='modify'>
    <nd ref='-161116319' />
    <nd ref='-161116320' />
  </way>
  <way id='-37360793' action='modify'>
    <nd ref='-161116320' />
    <nd ref='-161116321' />
    <nd ref='-161116322' />
    <tag k='type' v='straight' />
  </way>
  <way id='-37360794' action='modify'>
    <nd ref='-161116322' />
    <nd ref='-161116323' />
  </way>
  <way id='-37360795' action='modify'>
    <nd ref='-161116323' />
    <nd ref='-161116324' />
    <tag k='type' v='straight' />
  </way>
  <way id='-37360796' action='modify'>
    <nd ref='-161116324' />
    <nd ref='-161116325' />
  </way>
  <way id='-37360797' action='modify'>
    <nd ref='-161116325' />
    <nd ref='-161116326' />
    <tag k='type' v='straight' />
  </way>
  <way id='-37360798' action='modify'>
    <nd ref='-161116326' />
    <nd ref='-161116327' />
  </way>
  <way id='-37360799' action='modify'>
    <nd ref='-161116327' />
    <nd ref='-161116328' />
    <tag k='type' v='straight' />
  </way>
  <way id='-37360800' action='modify'>
    <nd ref='-161116328' />
    <nd ref='-161116329' />
  </way>
  <way id='-37360801' action='modify'>
    <nd ref='-161116329' />
    <nd ref='-161116330' />
    <tag k='type' v='straight' />
  </way>
  <way id='-37360802' action='modify'>
    <nd ref='-161116330' />
    <nd ref='-161116331' />
  </way>
  <way id='-37360803' action='modify'>
    <nd ref='-161116331' />
    <nd ref='-161116332' />
    <tag k='type' v='straight' />
  </way>
  <way id='-37360804' action='modify'>
    <nd ref='-161116332' />
    <nd ref='-161116333' />
  </way>
  <way id='-37360805' action='modify'>
    <nd ref='-161116333' />
    <nd ref='-161116334' />
    <nd ref='-161116335' />
    <tag k='type' v='straight' />
  </way>
  <way id='-37360806' action='modify'>
    <nd ref='-161116335' />
    <nd ref='-161116336' />
  </way>
  <way id='-37360807' action='modify'>
    <nd ref='-161116336' />
    <nd ref='-161116337' />
    <tag k='type' v='straight' />
  </way>
  <way id='-37360808' action='modify'>
    <nd ref='-161116337' />
    <nd ref='-161116338' />
  </way>
  <way id='-37360809' action='modify'>
    <nd ref='-161116338' />
    <nd ref='-161116339' />
    <tag k='type' v='straight' />
  </way>
  <way id='-37360810' action='modify'>
    <nd ref='-161116339' />
    <nd ref='-161116340' />
  </way>
  <way id='-37360811' action='modify'>
    <nd ref='-161116340' />
    <nd ref='-161116341' />
    <tag k='type' v='straight' />
  </way>
  <way id='-37360812' action='modify'>
    <nd ref='-161116341' />
    <nd ref='-161116342' />
  </way>
  <way id='-37360813' action='modify'>
    <nd ref='-161116342' />
    <nd ref='-161116343' />
    <tag k='type' v='straight' />
  </way>
  <way id='-37360814' action='modify'>
    <nd ref='-161116343' />
    <nd ref='-161116344' />
  </way>
  <way id='-37360815' action='modify'>
    <nd ref='-161116344' />
    <nd ref='-161116345' />
    <tag k='type' v='straight' />
  </way>
  <way id='-37360816' action='modify'>
    <nd ref='-161116345' />
    <nd ref='-161116346' />
    <nd ref='-161116347' />
  </way>
  <way id='-37360817' action='modify'>
    <nd ref='-161116347' />
    <nd ref='-161116348' />
    <tag k='type' v='straight' />
  </way>
  <way id='-37360818' action='modify'>
    <nd ref='-161116348' />
    <nd ref='-161116349' />
  </way>
  <way id='-37360819' action='modify'>
    <nd ref='-161116349' />
    <nd ref='-161116350' />
    <tag k='type' v='straight' />
  </way>
  <way id='-37360820' action='modify'>
    <nd ref='-161116350' />
    <nd ref='-161116351' />
  </way>
  <way id='-37360821' action='modify'>
    <nd ref='-161116351' />
    <nd ref='-161116352' />
    <tag k='type' v='straight' />
  </way>
  <way id='-37360822' action='modify'>
    <nd ref='-161116352' />
    <nd ref='-161116353' />
    <nd ref='-161116354' />
  </way>
  <way id='-37360823' action='modify'>
    <nd ref='-161116354' />
    <nd ref='-161116355' />
    <nd ref='-161116356' />
    <nd ref='-161116357' />
    <tag k='type' v='straight' />
  </way>
  <way id='-37360824' action='modify'>
    <nd ref='-161116357' />
    <nd ref='-161116358' />
    <nd ref='-161116359' />
  </way>
  <way id='-37360825' action='modify'>
    <nd ref='-161116359' />
    <nd ref='-161116360' />
    <tag k='type' v='straight' />
  </way>
  <way id='-37360826' action='modify'>
    <nd ref='-161116360' />
    <nd ref='-161116361' />
  </way>
  <way id='-37360827' action='modify'>
    <nd ref='-161116361' />
    <nd ref='-161116362' />
    <tag k='type' v='straight' />
  </way>
  <way id='-37360828' action='modify'>
    <nd ref='-161116362' />
    <nd ref='-161116363' />
  </way>
  <way id='-37360829' action='modify'>
    <nd ref='-161116363' />
    <nd ref='-161116364' />
    <nd ref='-161116365' />
    <nd ref='-161116366' />
    <nd ref='-161116367' />
    <tag k='type' v='straight' />
  </way>
  <way id='-37360830' action='modify'>
    <nd ref='-161116367' />
    <nd ref='-161116368' />
  </way>
  <way id='-37360831' action='modify'>
    <nd ref='-161116368' />
    <nd ref='-161116369' />
    <nd ref='-161116370' />
    <nd ref='-161116371' />
    <tag k='type' v='straight' />
  </way>
  <way id='-37360832' action='modify'>
    <nd ref='-161116371' />
    <nd ref='-161116372' />
  </way>
  <way id='-37360833' action='modify'>
    <nd ref='-161116372' />
    <nd ref='-161116373' />
    <nd ref='-161116374' />
    <tag k='type' v='straight' />
  </way>
  <way id='-37360834' action='modify'>
    <nd ref='-161116374' />
    <nd ref='-161116375' />
  </way>
  <way id='-37360835' action='modify'>
    <nd ref='-161116375' />
    <nd ref='-161116376' />
    <tag k='type' v='straight' />
  </way>
  <way id='-37360836' action='modify'>
    <nd ref='-161116376' />
    <nd ref='-161116377' />
  </way>
  <way id='-37360837' action='modify'>
    <nd ref='-161116377' />
    <nd ref='-161116378' />
    <tag k='type' v='straight' />
  </way>
  <way id='-37360838' action='modify'>
    <nd ref='-161116378' />
    <nd ref='-161116379' />
  </way>
  <way id='-37360839' action='modify'>
    <nd ref='-161116379' />
    <nd ref='-161116380' />
    <tag k='type' v='straight' />
  </way>
  <way id='-37360840' action='modify'>
    <nd ref='-161116380' />
    <nd ref='-161116381' />
  </way>
  <way id='-37360841' action='modify'>
    <nd ref='-161116381' />
    <nd ref='-161116382' />
    <tag k='type' v='straight' />
  </way>
  <relation id='-14477280' action='modify'>
    <member type='way' ref='-37360741' role='' />
    <member type='way' ref='-37360742' role='' />
    <member type='way' ref='-37360743' role='' />
    <member type='way' ref='-37360744' role='' />
    <member type='way' ref='-37360745' role='' />
    <member type='way' ref='-37360746' role='' />
    <member type='way' ref='-37360747' role='' />
    <member type='way' ref='-37360748' role='' />
    <member type='way' ref='-37360749' role='' />
    <member type='way' ref='-37360750' role='' />
    <member type='way' ref='-37360751' role='' />
    <member type='way' ref='-37360752' role='' />
    <member type='way' ref='-37360753' role='' />
    <member type='way' ref='-37360754' role='' />
    <member type='way' ref='-37360755' role='' />
    <member type='way' ref='-37360756' role='' />
    <member type='way' ref='-37360757' role='' />
    <member type='way' ref='-37360758' role='' />
    <member type='way' ref='-37360759' role='' />
    <member type='way' ref='-37360760' role='' />
    <member type='way' ref='-37360761' role='' />
    <member type='way' ref='-37360762' role='' />
    <member type='way' ref='-37360763' role='' />
    <member type='way' ref='-37360764' role='' />
    <member type='way' ref='-37360765' role='' />
    <member type='way' ref='-37360766' role='' />
    <member type='way' ref='-37360767' role='' />
    <member type='way' ref='-37360768' role='' />
    <member type='way' ref='-37360769' role='' />
    <member type='way' ref='-37360770' role='' />
    <member type='way' ref='-37360771' role='' />
    <member type='way' ref='-37360772' role='' />
    <member type='way' ref='-37360773' role='' />
    <member type='way' ref='-37360774' role='' />
    <member type='way' ref='-37360775' role='' />
    <member type='way' ref='-37360776' role='' />
    <member type='way' ref='-37360777' role='' />
    <member type='way' ref='-37360778' role='' />
    <member type='way' ref='-37360779' role='' />
    <member type='way' ref='-37360780' role='' />
    <member type='way' ref='-37360781' role='' />
    <member type='way' ref='-37360782' role='' />
    <member type='way' ref='-37360783' role='' />
    <member type='way' ref='-37360784' role='' />
    <member type='way' ref='-37360785' role='' />
    <member type='way' ref='-37360786' role='' />
    <member type='way' ref='-37360787' role='' />
    <member type='way' ref='-37360788' role='' />
    <member type='way' ref='-37360789' role='' />
    <member type='way' ref='-37360790' role='' />
    <member type='way' ref='-37360791' role='' />
    <member type='way' ref='-37360792' role='' />
    <member type='way' ref='-37360793' role='' />
    <member type='way' ref='-37360794' role='' />
    <member type='way' ref='-37360795' role='' />
    <member type='way' ref='-37360796' role='' />
    <member type='way' ref='-37360797' role='' />
    <member type='way' ref='-37360798' role='' />
    <member type='way' ref='-37360799' role='' />
    <member type='way' ref='-37360800' role='' />
    <member type='way' ref='-37360801' role='' />
    <member type='way' ref='-37360802' role='' />
    <member type='way' ref='-37360803' role='' />
    <member type='way' ref='-37360804' role='' />
    <member type='way' ref='-37360805' role='' />
    <member type='way' ref='-37360806' role='' />
    <member type='way' ref='-37360807' role='' />
    <member type='way' ref='-37360808' role='' />
    <member type='way' ref='-37360809' role='' />
    <member type='way' ref='-37360810' role='' />
    <member type='way' ref='-37360811' role='' />
    <member type='way' ref='-37360812' role='' />
    <member type='way' ref='-37360813' role='' />
    <member type='way' ref='-37360814' role='' />
    <member type='way' ref='-37360815' role='' />
    <member type='way' ref='-37360816' role='' />
    <member type='way' ref='-37360817' role='' />
    <member type='way' ref='-37360818' role='' />
    <member type='way' ref='-37360819' role='' />
    <member type='way' ref='-37360820' role='' />
    <member type='way' ref='-37360821' role='' />
    <member type='way' ref='-37360822' role='' />
    <member type='way' ref='-37360823' role='' />
    <member type='way' ref='-37360824' role='' />
    <member type='way' ref='-37360825' role='' />
    <member type='way' ref='-37360826' role='' />
    <member type='way' ref='-37360827' role='' />
    <member type='way' ref='-37360828' role='' />
    <member type='way' ref='-37360829' role='' />
    <member type='way' ref='-37360830' role='' />
    <member type='way' ref='-37360831' role='' />
    <member type='way' ref='-37360832' role='' />
    <member type='way' ref='-37360833' role='' />
    <member type='way' ref='-37360834' role='' />
    <member type='way' ref='-37360835' role='' />
    <member type='way' ref='-37360836' role='' />
    <member type='way' ref='-37360837' role='' />
    <member type='way' ref='-37360838' role='' />
    <member type='way' ref='-37360839' role='' />
    <member type='way' ref='-37360840' role='' />
    <member type='way' ref='-37360841' role='' />
    <tag k='key' v='path.dk.vvg' />
    <tag k='name' v='DK VVG' />
    <tag k='type' v='path' />
  </relation>
</osm>
