<?xml version='1.0' encoding='UTF-8'?>
<osm version='0.6' upload='false' generator='JOSM'>
  <node id='-179038247' action='modify' lat='57.05627985336' lon='9.90869834885' />
  <node id='-179038248' action='modify' lat='57.05984012133' lon='9.91181209791'>
    <tag k='name' v='lfn' />
  </node>
  <node id='-179038249' action='modify' lat='57.06031783897' lon='9.9157780382' />
  <node id='-179038250' action='modify' lat='57.05961485132' lon='9.91718888015' />
  <node id='-179038251' action='modify' lat='57.05899936158' lon='9.91802304715' />
  <node id='-179038252' action='modify' lat='57.05869744701' lon='9.91830199689' />
  <node id='-179038253' action='modify' lat='57.0577318873' lon='9.91970747441' />
  <node id='-179038254' action='modify' lat='57.05705072962' lon='9.92152332991' />
  <node id='-179038255' action='modify' lat='57.05674734059' lon='9.92291539639' />
  <node id='-179038256' action='modify' lat='57.05658890175' lon='9.92510116325'>
    <tag k='name' v='noh' />
  </node>
  <node id='-179038257' action='modify' lat='57.05641623532' lon='9.92748319834' />
  <node id='-179038258' action='modify' lat='57.05769834021' lon='9.93526696891' />
  <node id='-179038259' action='modify' lat='57.062524438' lon='9.94536279559' />
  <node id='-179038260' action='modify' lat='57.06621978627' lon='9.95067357481' />
  <node id='-179038261' action='modify' lat='57.07656306597' lon='9.96145604968' />
  <node id='-179038262' action='modify' lat='57.07970309271' lon='9.96660053194' />
  <node id='-179038263' action='modify' lat='57.08606862669' lon='9.98284885618'>
    <tag k='name' v='eng' />
  </node>
  <node id='-179038264' action='modify' lat='57.1014689873' lon='10.02217053831' />
  <node id='-179038265' action='modify' lat='57.1038510357' lon='10.03060207898'>
    <tag k='name' v='vod' />
  </node>
  <node id='-179038266' action='modify' lat='57.10471324806' lon='10.03572642535' />
  <node id='-179038267' action='modify' lat='57.1048181319' lon='10.03649890155' />
  <node id='-179038268' action='modify' lat='57.10547511028' lon='10.05251704574' />
  <node id='-179038269' action='modify' lat='57.10444958187' lon='10.0758147186' />
  <node id='-179038270' action='modify' lat='57.10176472515' lon='10.08362531394' />
  <node id='-179038271' action='modify' lat='57.10065632319' lon='10.08456785629'>
    <tag k='name' v='lan' />
  </node>
  <node id='-179038272' action='modify' lat='57.08928481117' lon='10.09423612475' />
  <node id='-179038273' action='modify' lat='57.08810875383' lon='10.09539137077'>
    <tag k='name' v='sta' />
  </node>
  <node id='-179038274' action='modify' lat='57.08158931806' lon='10.10704635501' />
  <node id='-179038275' action='modify' lat='57.07767099907' lon='10.12003897548' />
  <node id='-179038276' action='modify' lat='57.07382516014' lon='10.12678205431' />
  <node id='-179038277' action='modify' lat='57.07195020698' lon='10.12867569387' />
  <node id='-179038278' action='modify' lat='57.06869578654' lon='10.13334810197'>
    <tag k='name' v='vha' />
  </node>
  <node id='-179038279' action='modify' lat='57.06579981224' lon='10.14136254251' />
  <node id='-179038280' action='modify' lat='57.06133437786' lon='10.1587647146' />
  <node id='-179038281' action='modify' lat='57.06070578911' lon='10.16568213433' />
  <node id='-179038282' action='modify' lat='57.06191549582' lon='10.1797749673'>
    <tag k='name' v='gan' />
  </node>
  <node id='-179038283' action='modify' lat='57.06240193095' lon='10.18544196546' />
  <node id='-179038284' action='modify' lat='57.06376112371' lon='10.19385336757' />
  <node id='-179038285' action='modify' lat='57.06862865774' lon='10.21518267204'>
    <tag k='name' v='oha' />
  </node>
  <node id='-179038286' action='modify' lat='57.07340235919' lon='10.23610352397' />
  <node id='-179038287' action='modify' lat='57.07662721037' lon='10.24640320659' />
  <node id='-179038288' action='modify' lat='57.078918842' lon='10.25214313388' />
  <node id='-179038289' action='modify' lat='57.08097851464' lon='10.25577680867'>
    <tag k='name' v='uls' />
  </node>
  <node id='-179038290' action='modify' lat='57.08548973345' lon='10.25961576819' />
  <node id='-179038291' action='modify' lat='57.09039248416' lon='10.2617824728' />
  <node id='-179038292' action='modify' lat='57.09144509612' lon='10.26223160358' />
  <node id='-179038293' action='modify' lat='57.09961089717' lon='10.26559776956'>
    <tag k='name' v='get' />
  </node>
  <node id='-179038294' action='modify' lat='57.12679891509' lon='10.27681075995'>
    <tag k='name' v='ror' />
  </node>
  <node id='-179038295' action='modify' lat='57.15304924869' lon='10.28764484167' />
  <node id='-179038296' action='modify' lat='57.1604672015' lon='10.29458378824'>
    <tag k='name' v='dro' />
  </node>
  <node id='-179038297' action='modify' lat='57.16181204753' lon='10.29727398813' />
  <node id='-179038298' action='modify' lat='57.16388316479' lon='10.30101835191' />
  <node id='-179038299' action='modify' lat='57.16532444123' lon='10.30398755997' />
  <node id='-179038300' action='modify' lat='57.16932802368' lon='10.31444548488' />
  <node id='-179038301' action='modify' lat='57.17173606669' lon='10.31904279649' />
  <node id='-179038302' action='modify' lat='57.17444056891' lon='10.32323240697' />
  <node id='-179038303' action='modify' lat='57.17613296318' lon='10.33201395929' />
  <node id='-179038304' action='modify' lat='57.1760500225' lon='10.33419970965'>
    <tag k='name' v='ors' />
  </node>
  <node id='-179038306' action='modify' lat='57.17557174824' lon='10.3468036598' />
  <node id='-179038307' action='modify' lat='57.17613878174' lon='10.35550474048' />
  <node id='-179038308' action='modify' lat='57.17637431497' lon='10.35686193824' />
  <node id='-179038309' action='modify' lat='57.17697721577' lon='10.35920382235'>
    <tag k='name' v='ske' />
  </node>
  <node id='-179038310' action='modify' lat='57.18188420107' lon='10.36896942973' />
  <node id='-179038311' action='modify' lat='57.18808801813' lon='10.37612556338' />
  <node id='-179038312' action='modify' lat='57.19369787909' lon='10.38056999177' />
  <node id='-179038313' action='modify' lat='57.19691704635' lon='10.38183479866'>
    <tag k='name' v='age' />
  </node>
  <node id='-179038314' action='modify' lat='57.20857602595' lon='10.3864165205'>
    <tag k='name' v='gag' />
  </node>
  <node id='-179038315' action='modify' lat='57.21806909811' lon='10.39014815748' />
  <node id='-179038316' action='modify' lat='57.21993978709' lon='10.3907108991'>
    <tag k='name' v='lun' />
  </node>
  <node id='-179038317' action='modify' lat='57.22318071464' lon='10.39080261111' />
  <node id='-179038318' action='modify' lat='57.22888832589' lon='10.38969486684' />
  <node id='-179038319' action='modify' lat='57.23094552401' lon='10.38869440019' />
  <node id='-179038320' action='modify' lat='57.23431836474' lon='10.38630297003'>
    <tag k='name' v='pra' />
  </node>
  <node id='-179038321' action='modify' lat='57.25463376431' lon='10.37189420488'>
    <tag k='name' v='ids' />
  </node>
  <node id='-179038322' action='modify' lat='57.26769227394' lon='10.36262821836' />
  <node id='-179038323' action='modify' lat='57.2739808816' lon='10.36173675961'>
    <tag k='name' v='dyb' />
  </node>
  <node id='-179038324' action='modify' lat='57.27888038287' lon='10.36494075716' />
  <node id='-179038325' action='modify' lat='57.28699585677' lon='10.37329852045' />
  <node id='-179038326' action='modify' lat='57.29333853963' lon='10.37676393449' />
  <node id='-179038327' action='modify' lat='57.30428167701' lon='10.37932539342'>
    <tag k='name' v='hav' />
  </node>
  <node id='-179038328' action='modify' lat='57.32145397685' lon='10.38334644855'>
    <tag k='name' v='hor' />
  </node>
  <node id='-179038329' action='modify' lat='57.32289527884' lon='10.38368402839' />
  <node id='-179038330' action='modify' lat='57.32767670798' lon='10.39675712049' />
  <node id='-179038331' action='modify' lat='57.32530221669' lon='10.41384765254'>
    <tag k='name' v='voh' />
  </node>
  <node id='-179038332' action='modify' lat='57.3237525621' lon='10.42500078142' />
  <node id='-179038333' action='modify' lat='57.32345135573' lon='10.43269335687' />
  <node id='-179038334' action='modify' lat='57.32348682967' lon='10.43378535857'>
    <tag k='name' v='vol' />
  </node>
  <node id='-179038335' action='modify' lat='57.32386261766' lon='10.44535338342' />
  <node id='-179038336' action='modify' lat='57.32290541289' lon='10.45840233028' />
  <node id='-179038337' action='modify' lat='57.32260564772' lon='10.46003043115' />
  <node id='-179038338' action='modify' lat='57.32145290477' lon='10.47517418325' />
  <node id='-179038339' action='modify' lat='57.32246124341' lon='10.49076116267'>
    <tag k='name' v='lyn' />
  </node>
  <node id='-179038340' action='modify' lat='57.32326889298' lon='10.5032461828' />
  <node id='-179038341' action='modify' lat='57.32909711508' lon='10.51367729634' />
  <node id='-179038342' action='modify' lat='57.33180753436' lon='10.51356766892'>
    <tag k='name' v='sab' />
  </node>
  <node id='-179038343' action='modify' lat='57.33758486662' lon='10.51333396812'>
    <tag k='name' v='kur' />
  </node>
  <node id='-179038344' action='modify' lat='57.33818150941' lon='10.51330983102' />
  <node id='-179038345' action='modify' lat='57.34130515572' lon='10.51267145991' />
  <node id='-179038346' action='modify' lat='57.36393566768' lon='10.50492524564' />
  <node id='-179038347' action='modify' lat='57.36606487804' lon='10.50449341401'>
    <tag k='name' v='sul' />
  </node>
  <node id='-179038348' action='modify' lat='57.36801172864' lon='10.50457655847' />
  <node id='-179038349' action='modify' lat='57.3811625461' lon='10.50615905643' />
  <node id='-179038350' action='modify' lat='57.38915137742' lon='10.50956546724' />
  <node id='-179038351' action='modify' lat='57.39019474313' lon='10.51030008993'>
    <tag k='name' v='und' />
  </node>
  <node id='-179038352' action='modify' lat='57.40417307169' lon='10.52014409959' />
  <node id='-179038353' action='modify' lat='57.4089410346' lon='10.52132963598' />
  <node id='-179038354' action='modify' lat='57.41255849299' lon='10.52089511812' />
  <node id='-179038355' action='modify' lat='57.41433819761' lon='10.52053033769' />
  <node id='-179038356' action='modify' lat='57.4189724318' lon='10.518791351'>
    <tag k='name' v='ban' />
  </node>
  <node id='-179038357' action='modify' lat='57.42350115156' lon='10.51709174573' />
  <node id='-179038358' action='modify' lat='57.42533520012' lon='10.51700055063' />
  <node id='-179038359' action='modify' lat='57.42637493486' lon='10.51717757642' />
  <node id='-179038360' action='modify' lat='57.42955749488' lon='10.52015482843' />
  <node id='-179038361' action='modify' lat='57.4351277528' lon='10.5297571367' />
  <node id='-179038362' action='modify' lat='57.43642707182' lon='10.53107141376' />
  <node id='-179038364' action='modify' lat='57.4416937845' lon='10.53473749695'>
    <tag k='name' v='fre' />
  </node>
  <way id='-38622678' action='modify'>
    <nd ref='-179038247' />
    <nd ref='-179038248' />
    <tag k='type' v='straight' />
  </way>
  <way id='-38622679' action='modify'>
    <nd ref='-179038248' />
    <nd ref='-179038249' />
  </way>
  <way id='-38622680' action='modify'>
    <nd ref='-179038249' />
    <nd ref='-179038250' />
    <tag k='type' v='straight' />
  </way>
  <way id='-38622681' action='modify'>
    <nd ref='-179038250' />
    <nd ref='-179038251' />
  </way>
  <way id='-38622682' action='modify'>
    <nd ref='-179038251' />
    <nd ref='-179038252' />
    <tag k='type' v='straight' />
  </way>
  <way id='-38622683' action='modify'>
    <nd ref='-179038252' />
    <nd ref='-179038253' />
  </way>
  <way id='-38622684' action='modify'>
    <nd ref='-179038253' />
    <nd ref='-179038254' />
    <tag k='type' v='straight' />
  </way>
  <way id='-38622685' action='modify'>
    <nd ref='-179038254' />
    <nd ref='-179038255' />
  </way>
  <way id='-38622686' action='modify'>
    <nd ref='-179038255' />
    <nd ref='-179038256' />
    <nd ref='-179038257' />
    <tag k='type' v='straight' />
  </way>
  <way id='-38622687' action='modify'>
    <nd ref='-179038257' />
    <nd ref='-179038258' />
  </way>
  <way id='-38622688' action='modify'>
    <nd ref='-179038258' />
    <nd ref='-179038259' />
    <tag k='type' v='straight' />
  </way>
  <way id='-38622689' action='modify'>
    <nd ref='-179038259' />
    <nd ref='-179038260' />
  </way>
  <way id='-38622690' action='modify'>
    <nd ref='-179038260' />
    <nd ref='-179038261' />
    <tag k='type' v='straight' />
  </way>
  <way id='-38622691' action='modify'>
    <nd ref='-179038261' />
    <nd ref='-179038262' />
  </way>
  <way id='-38622692' action='modify'>
    <nd ref='-179038262' />
    <nd ref='-179038263' />
    <nd ref='-179038264' />
    <tag k='type' v='straight' />
  </way>
  <way id='-38622693' action='modify'>
    <nd ref='-179038264' />
    <nd ref='-179038265' />
    <nd ref='-179038266' />
  </way>
  <way id='-38622694' action='modify'>
    <nd ref='-179038266' />
    <nd ref='-179038267' />
    <tag k='type' v='straight' />
  </way>
  <way id='-38622695' action='modify'>
    <nd ref='-179038267' />
    <nd ref='-179038268' />
  </way>
  <way id='-38622696' action='modify'>
    <nd ref='-179038268' />
    <nd ref='-179038269' />
    <tag k='type' v='straight' />
  </way>
  <way id='-38622697' action='modify'>
    <nd ref='-179038269' />
    <nd ref='-179038270' />
  </way>
  <way id='-38622698' action='modify'>
    <nd ref='-179038270' />
    <nd ref='-179038271' />
    <nd ref='-179038272' />
    <tag k='type' v='straight' />
  </way>
  <way id='-38622699' action='modify'>
    <nd ref='-179038272' />
    <nd ref='-179038273' />
    <nd ref='-179038274' />
  </way>
  <way id='-38622700' action='modify'>
    <nd ref='-179038274' />
    <nd ref='-179038275' />
    <tag k='type' v='straight' />
  </way>
  <way id='-38622701' action='modify'>
    <nd ref='-179038275' />
    <nd ref='-179038276' />
  </way>
  <way id='-38622702' action='modify'>
    <nd ref='-179038276' />
    <nd ref='-179038277' />
    <tag k='type' v='straight' />
  </way>
  <way id='-38622703' action='modify'>
    <nd ref='-179038277' />
    <nd ref='-179038278' />
    <nd ref='-179038279' />
  </way>
  <way id='-38622704' action='modify'>
    <nd ref='-179038279' />
    <nd ref='-179038280' />
    <tag k='type' v='straight' />
  </way>
  <way id='-38622705' action='modify'>
    <nd ref='-179038280' />
    <nd ref='-179038281' />
  </way>
  <way id='-38622706' action='modify'>
    <nd ref='-179038281' />
    <nd ref='-179038282' />
    <nd ref='-179038283' />
    <tag k='type' v='straight' />
  </way>
  <way id='-38622707' action='modify'>
    <nd ref='-179038283' />
    <nd ref='-179038284' />
  </way>
  <way id='-38622708' action='modify'>
    <nd ref='-179038284' />
    <nd ref='-179038285' />
    <nd ref='-179038286' />
    <tag k='type' v='straight' />
  </way>
  <way id='-38622709' action='modify'>
    <nd ref='-179038286' />
    <nd ref='-179038287' />
  </way>
  <way id='-38622710' action='modify'>
    <nd ref='-179038287' />
    <nd ref='-179038288' />
    <tag k='type' v='straight' />
  </way>
  <way id='-38622711' action='modify'>
    <nd ref='-179038288' />
    <nd ref='-179038289' />
    <nd ref='-179038290' />
  </way>
  <way id='-38622712' action='modify'>
    <nd ref='-179038290' />
    <nd ref='-179038291' />
    <tag k='type' v='straight' />
  </way>
  <way id='-38622713' action='modify'>
    <nd ref='-179038291' />
    <nd ref='-179038292' />
  </way>
  <way id='-38622714' action='modify'>
    <nd ref='-179038292' />
    <nd ref='-179038293' />
    <nd ref='-179038294' />
    <nd ref='-179038295' />
    <tag k='type' v='straight' />
  </way>
  <way id='-38622715' action='modify'>
    <nd ref='-179038295' />
    <nd ref='-179038296' />
    <nd ref='-179038297' />
  </way>
  <way id='-38622716' action='modify'>
    <nd ref='-179038297' />
    <nd ref='-179038298' />
    <tag k='type' v='straight' />
  </way>
  <way id='-38622717' action='modify'>
    <nd ref='-179038298' />
    <nd ref='-179038299' />
  </way>
  <way id='-38622718' action='modify'>
    <nd ref='-179038299' />
    <nd ref='-179038300' />
    <tag k='type' v='straight' />
  </way>
  <way id='-38622719' action='modify'>
    <nd ref='-179038300' />
    <nd ref='-179038301' />
  </way>
  <way id='-38622720' action='modify'>
    <nd ref='-179038301' />
    <nd ref='-179038302' />
    <tag k='type' v='straight' />
  </way>
  <way id='-38622721' action='modify'>
    <nd ref='-179038302' />
    <nd ref='-179038303' />
  </way>
  <way id='-38622722' action='modify'>
    <nd ref='-179038303' />
    <nd ref='-179038304' />
    <nd ref='-179038306' />
    <tag k='type' v='straight' />
  </way>
  <way id='-38622723' action='modify'>
    <nd ref='-179038306' />
    <nd ref='-179038307' />
  </way>
  <way id='-38622724' action='modify'>
    <nd ref='-179038307' />
    <nd ref='-179038308' />
    <tag k='type' v='straight' />
  </way>
  <way id='-38622725' action='modify'>
    <nd ref='-179038308' />
    <nd ref='-179038309' />
    <nd ref='-179038310' />
  </way>
  <way id='-38622726' action='modify'>
    <nd ref='-179038310' />
    <nd ref='-179038311' />
    <tag k='type' v='straight' />
  </way>
  <way id='-38622727' action='modify'>
    <nd ref='-179038311' />
    <nd ref='-179038312' />
  </way>
  <way id='-38622728' action='modify'>
    <nd ref='-179038312' />
    <nd ref='-179038313' />
    <nd ref='-179038314' />
    <nd ref='-179038315' />
    <tag k='type' v='straight' />
  </way>
  <way id='-38622729' action='modify'>
    <nd ref='-179038315' />
    <nd ref='-179038316' />
    <nd ref='-179038317' />
  </way>
  <way id='-38622730' action='modify'>
    <nd ref='-179038317' />
    <nd ref='-179038318' />
    <tag k='type' v='straight' />
  </way>
  <way id='-38622731' action='modify'>
    <nd ref='-179038318' />
    <nd ref='-179038319' />
  </way>
  <way id='-38622732' action='modify'>
    <nd ref='-179038319' />
    <nd ref='-179038320' />
    <nd ref='-179038321' />
    <nd ref='-179038322' />
    <tag k='type' v='straight' />
  </way>
  <way id='-38622733' action='modify'>
    <nd ref='-179038322' />
    <nd ref='-179038323' />
    <nd ref='-179038324' />
  </way>
  <way id='-38622734' action='modify'>
    <nd ref='-179038324' />
    <nd ref='-179038325' />
    <tag k='type' v='straight' />
  </way>
  <way id='-38622735' action='modify'>
    <nd ref='-179038325' />
    <nd ref='-179038326' />
  </way>
  <way id='-38622736' action='modify'>
    <nd ref='-179038326' />
    <nd ref='-179038327' />
    <nd ref='-179038328' />
    <nd ref='-179038329' />
    <tag k='type' v='straight' />
  </way>
  <way id='-38622737' action='modify'>
    <nd ref='-179038329' />
    <nd ref='-179038330' />
  </way>
  <way id='-38622738' action='modify'>
    <nd ref='-179038330' />
    <nd ref='-179038331' />
    <nd ref='-179038332' />
    <tag k='type' v='straight' />
  </way>
  <way id='-38622739' action='modify'>
    <nd ref='-179038332' />
    <nd ref='-179038333' />
  </way>
  <way id='-38622740' action='modify'>
    <nd ref='-179038333' />
    <nd ref='-179038334' />
    <nd ref='-179038335' />
    <tag k='type' v='straight' />
  </way>
  <way id='-38622741' action='modify'>
    <nd ref='-179038335' />
    <nd ref='-179038336' />
  </way>
  <way id='-38622742' action='modify'>
    <nd ref='-179038336' />
    <nd ref='-179038337' />
    <tag k='type' v='straight' />
  </way>
  <way id='-38622743' action='modify'>
    <nd ref='-179038337' />
    <nd ref='-179038338' />
  </way>
  <way id='-38622744' action='modify'>
    <nd ref='-179038338' />
    <nd ref='-179038339' />
    <nd ref='-179038340' />
    <tag k='type' v='straight' />
  </way>
  <way id='-38622745' action='modify'>
    <nd ref='-179038340' />
    <nd ref='-179038341' />
  </way>
  <way id='-38622746' action='modify'>
    <nd ref='-179038341' />
    <nd ref='-179038342' />
    <nd ref='-179038343' />
    <nd ref='-179038344' />
    <tag k='type' v='straight' />
  </way>
  <way id='-38622747' action='modify'>
    <nd ref='-179038344' />
    <nd ref='-179038345' />
  </way>
  <way id='-38622748' action='modify'>
    <nd ref='-179038345' />
    <nd ref='-179038346' />
    <tag k='type' v='straight' />
  </way>
  <way id='-38622749' action='modify'>
    <nd ref='-179038346' />
    <nd ref='-179038347' />
    <nd ref='-179038348' />
  </way>
  <way id='-38622750' action='modify'>
    <nd ref='-179038348' />
    <nd ref='-179038349' />
    <tag k='type' v='straight' />
  </way>
  <way id='-38622751' action='modify'>
    <nd ref='-179038349' />
    <nd ref='-179038350' />
  </way>
  <way id='-38622752' action='modify'>
    <nd ref='-179038350' />
    <nd ref='-179038351' />
    <nd ref='-179038352' />
    <tag k='type' v='straight' />
  </way>
  <way id='-38622753' action='modify'>
    <nd ref='-179038352' />
    <nd ref='-179038353' />
  </way>
  <way id='-38622754' action='modify'>
    <nd ref='-179038353' />
    <nd ref='-179038354' />
    <tag k='type' v='straight' />
  </way>
  <way id='-38622755' action='modify'>
    <nd ref='-179038354' />
    <nd ref='-179038355' />
  </way>
  <way id='-38622756' action='modify'>
    <nd ref='-179038355' />
    <nd ref='-179038356' />
    <nd ref='-179038357' />
    <tag k='type' v='straight' />
  </way>
  <way id='-38622757' action='modify'>
    <nd ref='-179038357' />
    <nd ref='-179038358' />
  </way>
  <way id='-38622758' action='modify'>
    <nd ref='-179038358' />
    <nd ref='-179038359' />
    <tag k='type' v='straight' />
  </way>
  <way id='-38622759' action='modify'>
    <nd ref='-179038359' />
    <nd ref='-179038360' />
  </way>
  <way id='-38622760' action='modify'>
    <nd ref='-179038360' />
    <nd ref='-179038361' />
    <tag k='type' v='straight' />
  </way>
  <way id='-38622761' action='modify'>
    <nd ref='-179038361' />
    <nd ref='-179038362' />
  </way>
  <way id='-38622762' action='modify'>
    <nd ref='-179038362' />
    <nd ref='-179038364' />
    <tag k='type' v='straight' />
  </way>
  <relation id='-14488910' action='modify'>
    <member type='way' ref='-38622678' role='' />
    <member type='way' ref='-38622679' role='' />
    <member type='way' ref='-38622680' role='' />
    <member type='way' ref='-38622681' role='' />
    <member type='way' ref='-38622682' role='' />
    <member type='way' ref='-38622683' role='' />
    <member type='way' ref='-38622684' role='' />
    <member type='way' ref='-38622685' role='' />
    <member type='way' ref='-38622686' role='' />
    <member type='way' ref='-38622687' role='' />
    <member type='way' ref='-38622688' role='' />
    <member type='way' ref='-38622689' role='' />
    <member type='way' ref='-38622690' role='' />
    <member type='way' ref='-38622691' role='' />
    <member type='way' ref='-38622692' role='' />
    <member type='way' ref='-38622693' role='' />
    <member type='way' ref='-38622694' role='' />
    <member type='way' ref='-38622695' role='' />
    <member type='way' ref='-38622696' role='' />
    <member type='way' ref='-38622697' role='' />
    <member type='way' ref='-38622698' role='' />
    <member type='way' ref='-38622699' role='' />
    <member type='way' ref='-38622700' role='' />
    <member type='way' ref='-38622701' role='' />
    <member type='way' ref='-38622702' role='' />
    <member type='way' ref='-38622703' role='' />
    <member type='way' ref='-38622704' role='' />
    <member type='way' ref='-38622705' role='' />
    <member type='way' ref='-38622706' role='' />
    <member type='way' ref='-38622707' role='' />
    <member type='way' ref='-38622708' role='' />
    <member type='way' ref='-38622709' role='' />
    <member type='way' ref='-38622710' role='' />
    <member type='way' ref='-38622711' role='' />
    <member type='way' ref='-38622712' role='' />
    <member type='way' ref='-38622713' role='' />
    <member type='way' ref='-38622714' role='' />
    <member type='way' ref='-38622715' role='' />
    <member type='way' ref='-38622716' role='' />
    <member type='way' ref='-38622717' role='' />
    <member type='way' ref='-38622718' role='' />
    <member type='way' ref='-38622719' role='' />
    <member type='way' ref='-38622720' role='' />
    <member type='way' ref='-38622721' role='' />
    <member type='way' ref='-38622722' role='' />
    <member type='way' ref='-38622723' role='' />
    <member type='way' ref='-38622724' role='' />
    <member type='way' ref='-38622725' role='' />
    <member type='way' ref='-38622726' role='' />
    <member type='way' ref='-38622727' role='' />
    <member type='way' ref='-38622728' role='' />
    <member type='way' ref='-38622729' role='' />
    <member type='way' ref='-38622730' role='' />
    <member type='way' ref='-38622731' role='' />
    <member type='way' ref='-38622732' role='' />
    <member type='way' ref='-38622733' role='' />
    <member type='way' ref='-38622734' role='' />
    <member type='way' ref='-38622735' role='' />
    <member type='way' ref='-38622736' role='' />
    <member type='way' ref='-38622737' role='' />
    <member type='way' ref='-38622738' role='' />
    <member type='way' ref='-38622739' role='' />
    <member type='way' ref='-38622740' role='' />
    <member type='way' ref='-38622741' role='' />
    <member type='way' ref='-38622742' role='' />
    <member type='way' ref='-38622743' role='' />
    <member type='way' ref='-38622744' role='' />
    <member type='way' ref='-38622745' role='' />
    <member type='way' ref='-38622746' role='' />
    <member type='way' ref='-38622747' role='' />
    <member type='way' ref='-38622748' role='' />
    <member type='way' ref='-38622749' role='' />
    <member type='way' ref='-38622750' role='' />
    <member type='way' ref='-38622751' role='' />
    <member type='way' ref='-38622752' role='' />
    <member type='way' ref='-38622753' role='' />
    <member type='way' ref='-38622754' role='' />
    <member type='way' ref='-38622755' role='' />
    <member type='way' ref='-38622756' role='' />
    <member type='way' ref='-38622757' role='' />
    <member type='way' ref='-38622758' role='' />
    <member type='way' ref='-38622759' role='' />
    <member type='way' ref='-38622760' role='' />
    <member type='way' ref='-38622761' role='' />
    <member type='way' ref='-38622762' role='' />
    <tag k='key' v='path.dk.nfh' />
    <tag k='name' v='DK NFH' />
    <tag k='type' v='path' />
  </relation>
</osm>
