<?xml version='1.0' encoding='UTF-8'?>
<osm version='0.6' upload='false' generator='JOSM'>
  <node id='-179240321' action='modify' lat='57.06399736756' lon='9.90976452694' />
  <node id='-179240322' action='modify' lat='57.06476422752' lon='9.90850560707'>
    <tag k='name' v='lin' />
  </node>
  <node id='-179240324' action='modify' lat='57.06266297948' lon='9.91148113937' />
  <node id='-179240325' action='modify' lat='57.06221088058' lon='9.91190224618'>
    <tag k='name' v='lin.ys' />
  </node>
  <node id='-179240326' action='modify' lat='57.06034992523' lon='9.91584241122'>
    <tag k='name' v='noh.yl' />
  </node>
  <node id='-179240327' action='modify' lat='57.05964693818' lon='9.91725325317' />
  <node id='-179240328' action='modify' lat='57.05901102973' lon='9.91810351342' />
  <node id='-179240329' action='modify' lat='57.05870911525' lon='9.91838246316' />
  <node id='-179240330' action='modify' lat='57.05776981006' lon='9.91976111859' />
  <node id='-179240331' action='modify' lat='57.05708865307' lon='9.92157697409' />
  <node id='-179240332' action='modify' lat='57.05679109878' lon='9.92293148964' />
  <node id='-179240333' action='modify' lat='57.05663266012' lon='9.9251172565'>
    <tag k='name' v='noh' />
  </node>
  <way id='-38646205' action='modify'>
    <nd ref='-179240322' />
    <nd ref='-179240321' />
    <tag k='type' v='straight' />
  </way>
  <way id='-38646206' action='modify'>
    <nd ref='-179240321' />
    <nd ref='-179240324' />
  </way>
  <way id='-38646207' action='modify'>
    <nd ref='-179240324' />
    <nd ref='-179240325' />
    <tag k='type' v='straight' />
  </way>
  <way id='-38646208' action='modify'>
    <nd ref='-179240325' />
    <nd ref='-179240326' />
  </way>
  <way id='-38646209' action='modify'>
    <nd ref='-179240326' />
    <nd ref='-179240327' />
    <tag k='type' v='straight' />
  </way>
  <way id='-38646210' action='modify'>
    <nd ref='-179240327' />
    <nd ref='-179240328' />
  </way>
  <way id='-38646211' action='modify'>
    <nd ref='-179240328' />
    <nd ref='-179240329' />
    <tag k='type' v='straight' />
  </way>
  <way id='-38646212' action='modify'>
    <nd ref='-179240329' />
    <nd ref='-179240330' />
  </way>
  <way id='-38646213' action='modify'>
    <nd ref='-179240330' />
    <nd ref='-179240331' />
    <tag k='type' v='straight' />
  </way>
  <way id='-38646214' action='modify'>
    <nd ref='-179240331' />
    <nd ref='-179240332' />
  </way>
  <way id='-38646215' action='modify'>
    <nd ref='-179240332' />
    <nd ref='-179240333' />
    <tag k='type' v='straight' />
  </way>
  <relation id='-14489234' action='modify'>
    <member type='way' ref='-38646205' role='' />
    <member type='way' ref='-38646206' role='' />
    <member type='way' ref='-38646207' role='' />
    <member type='way' ref='-38646208' role='' />
    <member type='way' ref='-38646209' role='' />
    <member type='way' ref='-38646210' role='' />
    <member type='way' ref='-38646211' role='' />
    <member type='way' ref='-38646212' role='' />
    <member type='way' ref='-38646213' role='' />
    <member type='way' ref='-38646214' role='' />
    <member type='way' ref='-38646215' role='' />
    <tag k='key' v='path.dk.nhv' />
    <tag k='name' v='DK NHV' />
    <tag k='type' v='path' />
  </relation>
</osm>
