<?xml version='1.0' encoding='UTF-8'?>
<osm version='0.6' upload='false' generator='JOSM'>
  <node id='-145162753' action='modify' lat='54.76691618704' lon='11.87783990267'>
    <tag k='name' v='nyk' />
  </node>
  <node id='-145162754' action='modify' lat='54.76564402814' lon='11.87649334781' />
  <node id='-145162755' action='modify' lat='54.76398707247' lon='11.874642137' />
  <node id='-145162756' action='modify' lat='54.7631884636' lon='11.87377781797' />
  <node id='-145162757' action='modify' lat='54.75756010343' lon='11.87597393721' />
  <node id='-145162758' action='modify' lat='54.74739407684' lon='11.89726933703' />
  <node id='-145162759' action='modify' lat='54.74241500511' lon='11.90343573555' />
  <node id='-145162760' action='modify' lat='54.72425230792' lon='11.91445156798' />
  <node id='-145162761' action='modify' lat='54.71648292187' lon='11.91416166306'>
    <tag k='name' v='vag' />
  </node>
  <node id='-145162762' action='modify' lat='54.71348759485' lon='11.91134959392' />
  <node id='-145162763' action='modify' lat='54.71148337148' lon='11.90883770451' />
  <node id='-145162764' action='modify' lat='54.70625038532' lon='11.90528645977' />
  <node id='-145162765' action='modify' lat='54.67843242691' lon='11.89896372262'>
    <tag k='name' v='mar' />
  </node>
  <node id='-145162766' action='modify' lat='54.6611438913' lon='11.89503639802' />
  <node id='-145162767' action='modify' lat='54.65618408912' lon='11.89576059513' />
  <node id='-145162768' action='modify' lat='54.64329287206' lon='11.90262367104'>
    <tag k='name' v='fis' />
  </node>
  <node id='-145162769' action='modify' lat='54.61833555139' lon='11.91590436313'>
    <tag k='name' v='geb' />
  </node>
  <node id='-145162770' action='modify' lat='54.59859455485' lon='11.92640349202' />
  <node id='-145162771' action='modify' lat='54.59408321534' lon='11.92731410198' />
  <node id='-145162772' action='modify' lat='54.5791269188' lon='11.92530613359'>
    <tag k='name' v='ged' />
  </node>
  <node id='-145162773' action='modify' lat='54.57487118046' lon='11.92473491106' />
  <node id='-145162774' action='modify' lat='54.57420103214' lon='11.92485719651' />
  <node id='-145162775' action='modify' lat='54.57302407887' lon='11.9255089733'>
    <tag k='name' v='ged.f' />
  </node>
  <way id='-36431898' action='modify'>
    <nd ref='-145162753' />
    <nd ref='-145162754' />
    <tag k='type' v='straight' />
  </way>
  <way id='-36431899' action='modify'>
    <nd ref='-145162754' />
    <nd ref='-145162755' />
  </way>
  <way id='-36431900' action='modify'>
    <nd ref='-145162755' />
    <nd ref='-145162756' />
    <tag k='type' v='straight' />
  </way>
  <way id='-36431901' action='modify'>
    <nd ref='-145162756' />
    <nd ref='-145162757' />
  </way>
  <way id='-36431902' action='modify'>
    <nd ref='-145162757' />
    <nd ref='-145162758' />
    <tag k='type' v='straight' />
  </way>
  <way id='-36431903' action='modify'>
    <nd ref='-145162758' />
    <nd ref='-145162759' />
  </way>
  <way id='-36431904' action='modify'>
    <nd ref='-145162759' />
    <nd ref='-145162760' />
    <tag k='type' v='straight' />
  </way>
  <way id='-36431905' action='modify'>
    <nd ref='-145162760' />
    <nd ref='-145162761' />
    <nd ref='-145162762' />
  </way>
  <way id='-36431906' action='modify'>
    <nd ref='-145162762' />
    <nd ref='-145162763' />
    <tag k='type' v='straight' />
  </way>
  <way id='-36431907' action='modify'>
    <nd ref='-145162763' />
    <nd ref='-145162764' />
  </way>
  <way id='-36431908' action='modify'>
    <nd ref='-145162764' />
    <nd ref='-145162765' />
    <nd ref='-145162766' />
    <tag k='type' v='straight' />
  </way>
  <way id='-36431909' action='modify'>
    <nd ref='-145162766' />
    <nd ref='-145162767' />
  </way>
  <way id='-36431910' action='modify'>
    <nd ref='-145162767' />
    <nd ref='-145162768' />
    <nd ref='-145162769' />
    <nd ref='-145162770' />
    <tag k='type' v='straight' />
  </way>
  <way id='-36431911' action='modify'>
    <nd ref='-145162770' />
    <nd ref='-145162771' />
  </way>
  <way id='-36431912' action='modify'>
    <nd ref='-145162771' />
    <nd ref='-145162772' />
    <nd ref='-145162773' />
    <tag k='type' v='straight' />
  </way>
  <way id='-36431913' action='modify'>
    <nd ref='-145162773' />
    <nd ref='-145162774' />
  </way>
  <way id='-36431914' action='modify'>
    <nd ref='-145162774' />
    <nd ref='-145162775' />
    <tag k='type' v='straight' />
  </way>
  <relation id='-14468094' action='modify'>
    <member type='way' ref='-36431898' role='' />
    <member type='way' ref='-36431899' role='' />
    <member type='way' ref='-36431900' role='' />
    <member type='way' ref='-36431901' role='' />
    <member type='way' ref='-36431902' role='' />
    <member type='way' ref='-36431903' role='' />
    <member type='way' ref='-36431904' role='' />
    <member type='way' ref='-36431905' role='' />
    <member type='way' ref='-36431906' role='' />
    <member type='way' ref='-36431907' role='' />
    <member type='way' ref='-36431908' role='' />
    <member type='way' ref='-36431909' role='' />
    <member type='way' ref='-36431910' role='' />
    <member type='way' ref='-36431911' role='' />
    <member type='way' ref='-36431912' role='' />
    <member type='way' ref='-36431913' role='' />
    <member type='way' ref='-36431914' role='' />
    <tag k='key' v='path.dk.nkg' />
    <tag k='name' v='DK NKG' />
    <tag k='type' v='path' />
  </relation>
</osm>
