<?xml version='1.0' encoding='UTF-8'?>
<osm version='0.6' upload='false' generator='JOSM'>
  <node id='-146099484' action='modify' lat='54.83286155674' lon='11.14221140608' />
  <node id='-146099485' action='modify' lat='54.83358188645' lon='11.13714383423'>
    <tag k='name' v='nak' />
  </node>
  <node id='-146099487' action='modify' lat='54.83585383004' lon='11.13166361779' />
  <node id='-146099488' action='modify' lat='54.84130176539' lon='11.12589954257' />
  <node id='-146099489' action='modify' lat='54.84306249303' lon='11.12366794467' />
  <node id='-146099490' action='modify' lat='54.84730645756' lon='11.11750959277' />
  <node id='-146099491' action='modify' lat='54.84838746052' lon='11.11601827383' />
  <node id='-146099492' action='modify' lat='54.86438282668' lon='11.09666345358' />
  <node id='-146099493' action='modify' lat='54.86808740581' lon='11.09306930423' />
  <node id='-146099494' action='modify' lat='54.87305718973' lon='11.08912109256' />
  <node id='-146099495' action='modify' lat='54.8746407726' lon='11.08818180238'>
    <tag k='name' v='har' />
  </node>
  <node id='-146099496' action='modify' lat='54.87708195695' lon='11.08796237826' />
  <node id='-146099497' action='modify' lat='54.88045825379' lon='11.08858465075' />
  <node id='-146099498' action='modify' lat='54.88439588069' lon='11.09105228305' />
  <node id='-146099499' action='modify' lat='54.88554754956' lon='11.09226190746'>
    <tag k='name' v='tjo' />
  </node>
  <node id='-146099500' action='modify' lat='54.90494150719' lon='11.1126370248'>
    <tag k='name' v='kob' />
  </node>
  <node id='-146099501' action='modify' lat='54.90542295703' lon='11.1131429565' />
  <node id='-146099502' action='modify' lat='54.90830962086' lon='11.1182927978' />
  <node id='-146099503' action='modify' lat='54.91668470878' lon='11.14042638659' />
  <node id='-146099504' action='modify' lat='54.91824482345' lon='11.14723919749' />
  <node id='-146099505' action='modify' lat='54.91923948711' lon='11.15407235027'>
    <tag k='name' v='ons' />
  </node>
  <node id='-146099506' action='modify' lat='54.91991586734' lon='11.15871905208' />
  <node id='-146099507' action='modify' lat='54.92038448712' lon='11.16260289073' />
  <node id='-146099508' action='modify' lat='54.92193212681' lon='11.17902873874' />
  <node id='-146099509' action='modify' lat='54.92206777366' lon='11.18608831286' />
  <node id='-146099510' action='modify' lat='54.92191293934' lon='11.19096316292'>
    <tag k='name' v='kas' />
  </node>
  <node id='-146099511' action='modify' lat='54.92187046899' lon='11.19230030894' />
  <node id='-146099512' action='modify' lat='54.91973088127' lon='11.19947790563' />
  <node id='-146099513' action='modify' lat='54.91511528031' lon='11.20505153596' />
  <node id='-146099514' action='modify' lat='54.91287049479' lon='11.21072709024' />
  <node id='-146099515' action='modify' lat='54.91231872065' lon='11.21494702224'>
    <tag k='name' v='hor' />
  </node>
  <node id='-146099516' action='modify' lat='54.91205333712' lon='11.21697663724' />
  <node id='-146099517' action='modify' lat='54.91246654653' lon='11.22360705256' />
  <node id='-146099518' action='modify' lat='54.91469908711' lon='11.23823042204'>
    <tag k='name' v='ors' />
  </node>
  <node id='-146099519' action='modify' lat='54.91543287343' lon='11.24303697467' />
  <node id='-146099520' action='modify' lat='54.91606804598' lon='11.24664186358' />
  <node id='-146099521' action='modify' lat='54.91904811017' lon='11.26085992483'>
    <tag k='name' v='svi' />
  </node>
  <node id='-146099522' action='modify' lat='54.91922525983' lon='11.26170514941' />
  <node id='-146099523' action='modify' lat='54.91905877232' lon='11.26864670634' />
  <node id='-146099524' action='modify' lat='54.91443883346' lon='11.28894888183'>
    <tag k='name' v='egh' />
  </node>
  <node id='-146099525' action='modify' lat='54.90853783118' lon='11.31487726092' />
  <node id='-146099526' action='modify' lat='54.90813383327' lon='11.31784915388' />
  <node id='-146099527' action='modify' lat='54.90798029807' lon='11.32057675761'>
    <tag k='name' v='tor' />
  </node>
  <node id='-146099528' action='modify' lat='54.90794571216' lon='11.32119118631' />
  <node id='-146099529' action='modify' lat='54.90798117614' lon='11.32397532195' />
  <node id='-146099530' action='modify' lat='54.90802435152' lon='11.3244071576' />
  <node id='-146099531' action='modify' lat='54.91021235884' lon='11.33185028493' />
  <node id='-146099532' action='modify' lat='54.91392506622' lon='11.337343449' />
  <node id='-146099533' action='modify' lat='54.91692520162' lon='11.35334014356' />
  <node id='-146099534' action='modify' lat='54.91677482127' lon='11.35442931147'>
    <tag k='name' v='kra' />
  </node>
  <node id='-146099535' action='modify' lat='54.9161112096' lon='11.35923563898'>
    <tag k='name' v='kra.f' />
  </node>
  <way id='-36483293' action='modify'>
    <nd ref='-146099484' />
    <nd ref='-146099485' />
    <tag k='type' v='straight' />
  </way>
  <way id='-36483294' action='modify'>
    <nd ref='-146099485' />
    <nd ref='-146099487' />
  </way>
  <way id='-36483295' action='modify'>
    <nd ref='-146099487' />
    <nd ref='-146099488' />
    <tag k='type' v='straight' />
  </way>
  <way id='-36483296' action='modify'>
    <nd ref='-146099488' />
    <nd ref='-146099489' />
  </way>
  <way id='-36483297' action='modify'>
    <nd ref='-146099489' />
    <nd ref='-146099490' />
    <tag k='type' v='straight' />
  </way>
  <way id='-36483298' action='modify'>
    <nd ref='-146099490' />
    <nd ref='-146099491' />
  </way>
  <way id='-36483299' action='modify'>
    <nd ref='-146099491' />
    <nd ref='-146099492' />
    <tag k='type' v='straight' />
  </way>
  <way id='-36483300' action='modify'>
    <nd ref='-146099492' />
    <nd ref='-146099493' />
  </way>
  <way id='-36483301' action='modify'>
    <nd ref='-146099493' />
    <nd ref='-146099494' />
    <tag k='type' v='straight' />
  </way>
  <way id='-36483302' action='modify'>
    <nd ref='-146099494' />
    <nd ref='-146099495' />
    <nd ref='-146099496' />
  </way>
  <way id='-36483303' action='modify'>
    <nd ref='-146099496' />
    <nd ref='-146099497' />
    <tag k='type' v='straight' />
  </way>
  <way id='-36483304' action='modify'>
    <nd ref='-146099497' />
    <nd ref='-146099498' />
  </way>
  <way id='-36483305' action='modify'>
    <nd ref='-146099498' />
    <nd ref='-146099499' />
    <nd ref='-146099500' />
    <nd ref='-146099501' />
    <tag k='type' v='straight' />
  </way>
  <way id='-36483306' action='modify'>
    <nd ref='-146099501' />
    <nd ref='-146099502' />
  </way>
  <way id='-36483307' action='modify'>
    <nd ref='-146099502' />
    <nd ref='-146099503' />
    <tag k='type' v='straight' />
  </way>
  <way id='-36483308' action='modify'>
    <nd ref='-146099503' />
    <nd ref='-146099504' />
  </way>
  <way id='-36483309' action='modify'>
    <nd ref='-146099504' />
    <nd ref='-146099505' />
    <nd ref='-146099506' />
    <nd ref='-146099507' />
    <nd ref='-146099508' />
    <tag k='type' v='straight' />
  </way>
  <way id='-36483310' action='modify'>
    <nd ref='-146099508' />
    <nd ref='-146099509' />
  </way>
  <way id='-36483311' action='modify'>
    <nd ref='-146099509' />
    <nd ref='-146099510' />
    <nd ref='-146099511' />
    <tag k='type' v='straight' />
  </way>
  <way id='-36483312' action='modify'>
    <nd ref='-146099511' />
    <nd ref='-146099512' />
  </way>
  <way id='-36483313' action='modify'>
    <nd ref='-146099512' />
    <nd ref='-146099513' />
    <tag k='type' v='straight' />
  </way>
  <way id='-36483314' action='modify'>
    <nd ref='-146099513' />
    <nd ref='-146099514' />
  </way>
  <way id='-36483315' action='modify'>
    <nd ref='-146099514' />
    <nd ref='-146099515' />
    <nd ref='-146099516' />
    <tag k='type' v='straight' />
  </way>
  <way id='-36483316' action='modify'>
    <nd ref='-146099516' />
    <nd ref='-146099517' />
  </way>
  <way id='-36483317' action='modify'>
    <nd ref='-146099517' />
    <nd ref='-146099518' />
    <nd ref='-146099519' />
    <tag k='type' v='straight' />
  </way>
  <way id='-36483318' action='modify'>
    <nd ref='-146099519' />
    <nd ref='-146099520' />
  </way>
  <way id='-36483319' action='modify'>
    <nd ref='-146099520' />
    <nd ref='-146099521' />
    <nd ref='-146099522' />
    <tag k='type' v='straight' />
  </way>
  <way id='-36483320' action='modify'>
    <nd ref='-146099522' />
    <nd ref='-146099523' />
  </way>
  <way id='-36483321' action='modify'>
    <nd ref='-146099523' />
    <nd ref='-146099524' />
    <nd ref='-146099525' />
    <tag k='type' v='straight' />
  </way>
  <way id='-36483322' action='modify'>
    <nd ref='-146099525' />
    <nd ref='-146099526' />
  </way>
  <way id='-36483323' action='modify'>
    <nd ref='-146099526' />
    <nd ref='-146099527' />
    <nd ref='-146099528' />
    <tag k='type' v='straight' />
  </way>
  <way id='-36483324' action='modify'>
    <nd ref='-146099528' />
    <nd ref='-146099529' />
  </way>
  <way id='-36483325' action='modify'>
    <nd ref='-146099529' />
    <nd ref='-146099530' />
    <tag k='type' v='straight' />
  </way>
  <way id='-36483326' action='modify'>
    <nd ref='-146099530' />
    <nd ref='-146099531' />
  </way>
  <way id='-36483327' action='modify'>
    <nd ref='-146099531' />
    <nd ref='-146099532' />
    <tag k='type' v='straight' />
  </way>
  <way id='-36483328' action='modify'>
    <nd ref='-146099532' />
    <nd ref='-146099533' />
  </way>
  <way id='-36483329' action='modify'>
    <nd ref='-146099533' />
    <nd ref='-146099534' />
    <nd ref='-146099535' />
    <tag k='type' v='straight' />
  </way>
  <relation id='-14468404' action='modify'>
    <member type='way' ref='-36483293' role='' />
    <member type='way' ref='-36483294' role='' />
    <member type='way' ref='-36483295' role='' />
    <member type='way' ref='-36483296' role='' />
    <member type='way' ref='-36483297' role='' />
    <member type='way' ref='-36483298' role='' />
    <member type='way' ref='-36483299' role='' />
    <member type='way' ref='-36483300' role='' />
    <member type='way' ref='-36483301' role='' />
    <member type='way' ref='-36483302' role='' />
    <member type='way' ref='-36483303' role='' />
    <member type='way' ref='-36483304' role='' />
    <member type='way' ref='-36483305' role='' />
    <member type='way' ref='-36483306' role='' />
    <member type='way' ref='-36483307' role='' />
    <member type='way' ref='-36483308' role='' />
    <member type='way' ref='-36483309' role='' />
    <member type='way' ref='-36483310' role='' />
    <member type='way' ref='-36483311' role='' />
    <member type='way' ref='-36483312' role='' />
    <member type='way' ref='-36483313' role='' />
    <member type='way' ref='-36483314' role='' />
    <member type='way' ref='-36483315' role='' />
    <member type='way' ref='-36483316' role='' />
    <member type='way' ref='-36483317' role='' />
    <member type='way' ref='-36483318' role='' />
    <member type='way' ref='-36483319' role='' />
    <member type='way' ref='-36483320' role='' />
    <member type='way' ref='-36483321' role='' />
    <member type='way' ref='-36483322' role='' />
    <member type='way' ref='-36483323' role='' />
    <member type='way' ref='-36483324' role='' />
    <member type='way' ref='-36483325' role='' />
    <member type='way' ref='-36483326' role='' />
    <member type='way' ref='-36483327' role='' />
    <member type='way' ref='-36483328' role='' />
    <member type='way' ref='-36483329' role='' />
    <tag k='key' v='path.dk.nkn' />
    <tag k='name' v='DK NKN' />
    <tag k='type' v='path' />
  </relation>
</osm>
