<?xml version='1.0' encoding='UTF-8'?>
<osm version='0.6' upload='false' generator='JOSM'>
  <node id='-157722050' action='modify' lat='55.77726731191' lon='8.29038825767'>
    <tag k='name' v='nor' />
  </node>
  <node id='-157722052' action='modify' lat='55.77804758159' lon='8.28685372934' />
  <node id='-157722053' action='modify' lat='55.77855065549' lon='8.28479915589' />
  <node id='-157722054' action='modify' lat='55.78275298511' lon='8.26817348465' />
  <node id='-157722055' action='modify' lat='55.78310517065' lon='8.26633482903' />
  <node id='-157722056' action='modify' lat='55.78669064251' lon='8.23946519508'>
    <tag k='name' v='hou' />
  </node>
  <node id='-157722057' action='modify' lat='55.78676106709' lon='8.23893740639' />
  <node id='-157722058' action='modify' lat='55.78921303267' lon='8.23295306381' />
  <node id='-157722059' action='modify' lat='55.80512170761' lon='8.21647591822' />
  <node id='-157722060' action='modify' lat='55.80630690426' lon='8.21477338538' />
  <node id='-157722061' action='modify' lat='55.80755443708' lon='8.21240305559'>
    <tag k='name' v='kra' />
  </node>
  <node id='-157722062' action='modify' lat='55.81084749184' lon='8.20614584057' />
  <node id='-157722063' action='modify' lat='55.81662958788' lon='8.20346384972' />
  <node id='-157722064' action='modify' lat='55.8168722391' lon='8.20355487609'>
    <tag k='name' v='nym' />
  </node>
  <node id='-157722065' action='modify' lat='55.82094082367' lon='8.20508121908'>
    <tag k='name' v='nym.f' />
  </node>
  <node id='-157722097' action='modify' lat='55.8135996858' lon='8.2035711354' />
  <node id='-157722110' action='modify' lat='55.81200589424' lon='8.20460110769' />
  <node id='-157722122' action='modify' lat='55.81131108718' lon='8.20541247591' />
  <node id='-157722131' action='modify' lat='55.81112947071' lon='8.20567935571' />
  <node id='-157722137' action='modify' lat='55.81176700862' lon='8.20485457644' />
  <node id='-157722158' action='modify' lat='55.81153867177' lon='8.20511609182' />
  <node id='-157722172' action='modify' lat='55.81272254233' lon='8.2040110217' />
  <node id='-157722187' action='modify' lat='55.81241734681' lon='8.20423632726' />
  <node id='-157722197' action='modify' lat='55.81301793917' lon='8.20383667812' />
  <node id='-157722206' action='modify' lat='55.81330881245' lon='8.20368915662' />
  <node id='-157722207' action='modify' lat='55.81388592741' lon='8.20348675219' />
  <node id='-157722208' action='modify' lat='55.81420628007' lon='8.20342823227' />
  <node id='-157722209' action='modify' lat='55.81444100214' lon='8.20340692754' />
  <node id='-157722210' action='modify' lat='55.81474205434' lon='8.20340194554' />
  <node id='-157722219' action='modify' lat='55.81592582132' lon='8.20335253805' />
  <node id='-157722227' action='modify' lat='55.81622571408' lon='8.20336863264' />
  <node id='-157722236' action='modify' lat='55.81642388366' lon='8.20340216026' />
  <node id='-157722283' action='modify' lat='55.80575369154' lon='8.21569338307' />
  <node id='-157722304' action='modify' lat='55.80592176653' lon='8.21543656155' />
  <node id='-157722315' action='modify' lat='55.80612111874' lon='8.21511469714' />
  <node id='-157722323' action='modify' lat='55.8055336098' lon='8.21599647336' />
  <node id='-157722342' action='modify' lat='55.8053259634' lon='8.21624055438' />
  <node id='-157722352' action='modify' lat='55.78764520502' lon='8.23551088035' />
  <node id='-157722360' action='modify' lat='55.78710642908' lon='8.23714434966' />
  <node id='-157722370' action='modify' lat='55.78735451474' lon='8.23629543051' />
  <node id='-157722377' action='modify' lat='55.78722481666' lon='8.23671519622' />
  <node id='-157722384' action='modify' lat='55.78749476915' lon='8.23589444026' />
  <node id='-157722392' action='modify' lat='55.78690811023' lon='8.23802143201' />
  <node id='-157722405' action='modify' lat='55.7870016143' lon='8.23757752642' />
  <node id='-157722419' action='modify' lat='55.78682817916' lon='8.23847874865' />
  <node id='-157722435' action='modify' lat='55.78835664405' lon='8.23409467801' />
  <node id='-157722445' action='modify' lat='55.7879803773' lon='8.23477193579' />
  <node id='-157722450' action='modify' lat='55.78780996271' lon='8.2351326929' />
  <node id='-157722459' action='modify' lat='55.78816511794' lon='8.23442190751' />
  <node id='-157722475' action='modify' lat='55.78876683853' lon='8.23348715767' />
  <node id='-157722483' action='modify' lat='55.7889877687' lon='8.23320820794' />
  <node id='-157722488' action='modify' lat='55.78855646359' lon='8.23378488287' />
  <node id='-157722493' action='modify' lat='55.78299883606' lon='8.26704025134' />
  <node id='-157722499' action='modify' lat='55.78288571465' lon='8.26761022076' />
  <node id='-157722508' action='modify' lat='55.77829119953' lon='8.28581839666' />
  <way id='-37155868' action='modify'>
    <nd ref='-157722050' />
    <nd ref='-157722052' />
    <tag k='type' v='straight' />
  </way>
  <way id='-37155869' action='modify'>
    <nd ref='-157722052' />
    <nd ref='-157722508' />
    <nd ref='-157722053' />
  </way>
  <way id='-37155870' action='modify'>
    <nd ref='-157722053' />
    <nd ref='-157722054' />
    <tag k='type' v='straight' />
  </way>
  <way id='-37155871' action='modify'>
    <nd ref='-157722054' />
    <nd ref='-157722499' />
    <nd ref='-157722493' />
    <nd ref='-157722055' />
  </way>
  <way id='-37155872' action='modify'>
    <nd ref='-157722055' />
    <nd ref='-157722056' />
    <nd ref='-157722057' />
    <tag k='type' v='straight' />
  </way>
  <way id='-37155873' action='modify'>
    <nd ref='-157722057' />
    <nd ref='-157722419' />
    <nd ref='-157722392' />
    <nd ref='-157722405' />
    <nd ref='-157722360' />
    <nd ref='-157722377' />
    <nd ref='-157722370' />
    <nd ref='-157722384' />
    <nd ref='-157722352' />
    <nd ref='-157722450' />
    <nd ref='-157722445' />
    <nd ref='-157722459' />
    <nd ref='-157722435' />
    <nd ref='-157722488' />
    <nd ref='-157722475' />
    <nd ref='-157722483' />
    <nd ref='-157722058' />
  </way>
  <way id='-37155874' action='modify'>
    <nd ref='-157722058' />
    <nd ref='-157722059' />
    <tag k='type' v='straight' />
  </way>
  <way id='-37155875' action='modify'>
    <nd ref='-157722059' />
    <nd ref='-157722342' />
    <nd ref='-157722323' />
    <nd ref='-157722283' />
    <nd ref='-157722304' />
    <nd ref='-157722315' />
    <nd ref='-157722060' />
  </way>
  <way id='-37155876' action='modify'>
    <nd ref='-157722060' />
    <nd ref='-157722061' />
    <nd ref='-157722062' />
    <tag k='type' v='straight' />
  </way>
  <way id='-37155877' action='modify'>
    <nd ref='-157722062' />
    <nd ref='-157722131' />
    <nd ref='-157722122' />
    <nd ref='-157722158' />
    <nd ref='-157722137' />
    <nd ref='-157722110' />
    <nd ref='-157722187' />
    <nd ref='-157722172' />
    <nd ref='-157722197' />
    <nd ref='-157722206' />
    <nd ref='-157722097' />
    <nd ref='-157722207' />
    <nd ref='-157722208' />
    <nd ref='-157722209' />
    <nd ref='-157722210' />
    <nd ref='-157722219' />
    <nd ref='-157722227' />
    <nd ref='-157722236' />
    <nd ref='-157722063' />
  </way>
  <way id='-37155878' action='modify'>
    <nd ref='-157722063' />
    <nd ref='-157722064' />
    <nd ref='-157722065' />
    <tag k='type' v='straight' />
  </way>
  <relation id='-14475905' action='modify'>
    <member type='way' ref='-37155868' role='' />
    <member type='way' ref='-37155869' role='' />
    <member type='way' ref='-37155870' role='' />
    <member type='way' ref='-37155871' role='' />
    <member type='way' ref='-37155872' role='' />
    <member type='way' ref='-37155873' role='' />
    <member type='way' ref='-37155874' role='' />
    <member type='way' ref='-37155875' role='' />
    <member type='way' ref='-37155876' role='' />
    <member type='way' ref='-37155877' role='' />
    <member type='way' ref='-37155878' role='' />
    <tag k='key' v='path.dk.nnn' />
    <tag k='name' v='DK NNN' />
    <tag k='type' v='path' />
  </relation>
</osm>
