<?xml version='1.0' encoding='UTF-8'?>
<osm version='0.6' upload='false' generator='JOSM'>
  <node id='-145723324' action='modify' lat='54.75870339479' lon='11.86613815098' />
  <node id='-145723325' action='modify' lat='54.75635291648' lon='11.85720756424'>
    <tag k='name' v='nyv' />
  </node>
  <node id='-145723326' action='modify' lat='54.75774737816' lon='11.84439763293' />
  <node id='-145723327' action='modify' lat='54.75810258014' lon='11.84355139598' />
  <node id='-145723328' action='modify' lat='54.75969901824' lon='11.83650791109' />
  <node id='-145723329' action='modify' lat='54.75979110118' lon='11.83501392469'>
    <tag k='name' v='oto' />
  </node>
  <node id='-145723330' action='modify' lat='54.76057962102' lon='11.82851493225' />
  <node id='-145723331' action='modify' lat='54.76881366699' lon='11.78199469909' />
  <node id='-145723332' action='modify' lat='54.77019654655' lon='11.77652969889' />
  <node id='-145723333' action='modify' lat='54.77431486723' lon='11.76453510888'>
    <tag k='name' v='gra' />
  </node>
  <node id='-145723334' action='modify' lat='54.78439047896' lon='11.73518478736' />
  <node id='-145723335' action='modify' lat='54.78572352624' lon='11.73005305197' />
  <node id='-145723336' action='modify' lat='54.78594286896' lon='11.7288386806'>
    <tag k='name' v='kru' />
  </node>
  <node id='-145723337' action='modify' lat='54.79248359729' lon='11.69262349471' />
  <node id='-145723338' action='modify' lat='54.79317521815' lon='11.687331497' />
  <node id='-145723339' action='modify' lat='54.7965318684' lon='11.64304151997' />
  <node id='-145723340' action='modify' lat='54.79663971843' lon='11.63971021704' />
  <node id='-145723341' action='modify' lat='54.7965809959' lon='11.63533121241'>
    <tag k='name' v='sak' />
  </node>
  <node id='-145723342' action='modify' lat='54.79655486478' lon='11.63338258762' />
  <node id='-145723343' action='modify' lat='54.79653496166' lon='11.63087501854' />
  <node id='-145723344' action='modify' lat='54.79624890542' lon='11.60867839783' />
  <node id='-145723345' action='modify' lat='54.79622416417' lon='11.6074305021' />
  <node id='-145723346' action='modify' lat='54.79567987864' lon='11.58864363894' />
  <node id='-145723347' action='modify' lat='54.79447685668' lon='11.57927133076'>
    <tag k='name' v='vab' />
  </node>
  <node id='-145723349' action='modify' lat='54.77743336253' lon='11.5072763117' />
  <node id='-145723350' action='modify' lat='54.77695621488' lon='11.50163428841'>
    <tag k='name' v='mar' />
  </node>
  <node id='-145723351' action='modify' lat='54.77703211485' lon='11.49942934379' />
  <node id='-145723352' action='modify' lat='54.77719300153' lon='11.49713739619' />
  <node id='-145723353' action='modify' lat='54.77714195102' lon='11.49391069874' />
  <node id='-145723354' action='modify' lat='54.77707233658' lon='11.49298935995' />
  <node id='-145723355' action='modify' lat='54.77700272202' lon='11.49025753006' />
  <node id='-145723356' action='modify' lat='54.77704371728' lon='11.48876085743' />
  <node id='-145723357' action='modify' lat='54.7769153169' lon='11.48531958327' />
  <node id='-145723358' action='modify' lat='54.77653707566' lon='11.48156851262' />
  <node id='-145723359' action='modify' lat='54.77645508292' lon='11.47678211264' />
  <node id='-145723360' action='modify' lat='54.77720692439' lon='11.4634763436' />
  <node id='-145723361' action='modify' lat='54.77725990816' lon='11.46259926192' />
  <node id='-145723363' action='modify' lat='54.77899780686' lon='11.43863060317'>
    <tag k='name' v='eri' />
  </node>
  <node id='-145723364' action='modify' lat='54.77983450338' lon='11.42702305305' />
  <node id='-145723365' action='modify' lat='54.78119950977' lon='11.40798947754'>
    <tag k='name' v='ost' />
  </node>
  <node id='-145723366' action='modify' lat='54.78295897443' lon='11.3834546493' />
  <node id='-145723367' action='modify' lat='54.78419365976' lon='11.37548111245' />
  <node id='-145723368' action='modify' lat='54.78533035295' lon='11.37103457561'>
    <tag k='name' v='ryd' />
  </node>
  <node id='-145723369' action='modify' lat='54.81111549881' lon='11.27013418602'>
    <tag k='name' v='sol' />
  </node>
  <node id='-145723370' action='modify' lat='54.81433527256' lon='11.25753030047' />
  <node id='-145723371' action='modify' lat='54.81582671345' lon='11.25259905986' />
  <node id='-145723372' action='modify' lat='54.82884226943' lon='11.21546622338'>
    <tag k='name' v='avn' />
  </node>
  <node id='-145723373' action='modify' lat='54.82992313628' lon='11.21238201723' />
  <node id='-145723374' action='modify' lat='54.83180949702' lon='11.20371982321' />
  <node id='-145723375' action='modify' lat='54.83451451736' lon='11.17672607169' />
  <node id='-145723376' action='modify' lat='54.83442646415' lon='11.16425111756' />
  <node id='-145723377' action='modify' lat='54.83276423078' lon='11.14995628461' />
  <node id='-145723378' action='modify' lat='54.83286155674' lon='11.14221140608' />
  <node id='-145723379' action='modify' lat='54.83358188645' lon='11.13714383423'>
    <tag k='name' v='nak' />
  </node>
  <node id='-145723380' action='modify' lat='54.8349532365' lon='11.13293766707' />
  <node id='-145723381' action='modify' lat='54.83518958632' lon='11.1325594756'>
    <tag k='name' v='nak.f' />
  </node>
  <way id='-36461487' action='modify'>
    <nd ref='-145723324' />
    <nd ref='-145723325' />
    <tag k='type' v='straight' />
  </way>
  <way id='-36461488' action='modify'>
    <nd ref='-145723325' />
    <nd ref='-145723326' />
  </way>
  <way id='-36461489' action='modify'>
    <nd ref='-145723326' />
    <nd ref='-145723327' />
    <tag k='type' v='straight' />
  </way>
  <way id='-36461490' action='modify'>
    <nd ref='-145723327' />
    <nd ref='-145723328' />
  </way>
  <way id='-36461491' action='modify'>
    <nd ref='-145723328' />
    <nd ref='-145723329' />
    <tag k='type' v='straight' />
  </way>
  <way id='-36461492' action='modify'>
    <nd ref='-145723329' />
    <nd ref='-145723330' />
  </way>
  <way id='-36461493' action='modify'>
    <nd ref='-145723330' />
    <nd ref='-145723331' />
    <tag k='type' v='straight' />
  </way>
  <way id='-36461494' action='modify'>
    <nd ref='-145723331' />
    <nd ref='-145723332' />
  </way>
  <way id='-36461495' action='modify'>
    <nd ref='-145723332' />
    <nd ref='-145723333' />
    <nd ref='-145723334' />
    <tag k='type' v='straight' />
  </way>
  <way id='-36461496' action='modify'>
    <nd ref='-145723334' />
    <nd ref='-145723335' />
  </way>
  <way id='-36461497' action='modify'>
    <nd ref='-145723335' />
    <nd ref='-145723336' />
    <nd ref='-145723337' />
    <tag k='type' v='straight' />
  </way>
  <way id='-36461498' action='modify'>
    <nd ref='-145723337' />
    <nd ref='-145723338' />
  </way>
  <way id='-36461499' action='modify'>
    <nd ref='-145723338' />
    <nd ref='-145723339' />
    <tag k='type' v='straight' />
  </way>
  <way id='-36461500' action='modify'>
    <nd ref='-145723339' />
    <nd ref='-145723340' />
  </way>
  <way id='-36461501' action='modify'>
    <nd ref='-145723340' />
    <nd ref='-145723341' />
    <nd ref='-145723342' />
    <tag k='type' v='straight' />
  </way>
  <way id='-36461502' action='modify'>
    <nd ref='-145723342' />
    <nd ref='-145723343' />
  </way>
  <way id='-36461503' action='modify'>
    <nd ref='-145723343' />
    <nd ref='-145723344' />
    <tag k='type' v='straight' />
  </way>
  <way id='-36461504' action='modify'>
    <nd ref='-145723344' />
    <nd ref='-145723345' />
  </way>
  <way id='-36461505' action='modify'>
    <nd ref='-145723345' />
    <nd ref='-145723346' />
    <tag k='type' v='straight' />
  </way>
  <way id='-36461506' action='modify'>
    <nd ref='-145723346' />
    <nd ref='-145723347' />
  </way>
  <way id='-36461507' action='modify'>
    <nd ref='-145723347' />
    <nd ref='-145723349' />
    <tag k='type' v='straight' />
  </way>
  <way id='-36461508' action='modify'>
    <nd ref='-145723349' />
    <nd ref='-145723350' />
    <nd ref='-145723351' />
  </way>
  <way id='-36461509' action='modify'>
    <nd ref='-145723351' />
    <nd ref='-145723352' />
    <tag k='type' v='straight' />
  </way>
  <way id='-36461510' action='modify'>
    <nd ref='-145723352' />
    <nd ref='-145723353' />
  </way>
  <way id='-36461511' action='modify'>
    <nd ref='-145723353' />
    <nd ref='-145723354' />
    <tag k='type' v='straight' />
  </way>
  <way id='-36461512' action='modify'>
    <nd ref='-145723354' />
    <nd ref='-145723355' />
  </way>
  <way id='-36461513' action='modify'>
    <nd ref='-145723355' />
    <nd ref='-145723356' />
    <tag k='type' v='straight' />
  </way>
  <way id='-36461514' action='modify'>
    <nd ref='-145723356' />
    <nd ref='-145723357' />
  </way>
  <way id='-36461515' action='modify'>
    <nd ref='-145723357' />
    <nd ref='-145723358' />
    <tag k='type' v='straight' />
  </way>
  <way id='-36461516' action='modify'>
    <nd ref='-145723358' />
    <nd ref='-145723359' />
  </way>
  <way id='-36461517' action='modify'>
    <nd ref='-145723359' />
    <nd ref='-145723360' />
    <tag k='type' v='straight' />
  </way>
  <way id='-36461518' action='modify'>
    <nd ref='-145723360' />
    <nd ref='-145723361' />
  </way>
  <way id='-36461519' action='modify'>
    <nd ref='-145723361' />
    <nd ref='-145723363' />
    <tag k='type' v='straight' />
  </way>
  <way id='-36461521' action='modify'>
    <nd ref='-145723363' />
    <nd ref='-145723364' />
  </way>
  <way id='-36461522' action='modify'>
    <nd ref='-145723364' />
    <nd ref='-145723365' />
    <nd ref='-145723366' />
    <tag k='type' v='straight' />
  </way>
  <way id='-36461523' action='modify'>
    <nd ref='-145723366' />
    <nd ref='-145723367' />
  </way>
  <way id='-36461524' action='modify'>
    <nd ref='-145723367' />
    <nd ref='-145723368' />
    <nd ref='-145723369' />
    <nd ref='-145723370' />
    <tag k='type' v='straight' />
  </way>
  <way id='-36461525' action='modify'>
    <nd ref='-145723370' />
    <nd ref='-145723371' />
  </way>
  <way id='-36461526' action='modify'>
    <nd ref='-145723371' />
    <nd ref='-145723372' />
    <nd ref='-145723373' />
    <tag k='type' v='straight' />
  </way>
  <way id='-36461527' action='modify'>
    <nd ref='-145723373' />
    <nd ref='-145723374' />
  </way>
  <way id='-36461528' action='modify'>
    <nd ref='-145723374' />
    <nd ref='-145723375' />
    <tag k='type' v='straight' />
  </way>
  <way id='-36461529' action='modify'>
    <nd ref='-145723375' />
    <nd ref='-145723376' />
  </way>
  <way id='-36461530' action='modify'>
    <nd ref='-145723376' />
    <nd ref='-145723377' />
    <tag k='type' v='straight' />
  </way>
  <way id='-36461531' action='modify'>
    <nd ref='-145723377' />
    <nd ref='-145723378' />
  </way>
  <way id='-36461532' action='modify'>
    <nd ref='-145723378' />
    <nd ref='-145723379' />
    <tag k='type' v='straight' />
  </way>
  <way id='-36461533' action='modify'>
    <nd ref='-145723379' />
    <nd ref='-145723380' />
  </way>
  <way id='-36461534' action='modify'>
    <nd ref='-145723380' />
    <nd ref='-145723381' />
    <tag k='type' v='straight' />
  </way>
  <relation id='-14468233' action='modify'>
    <member type='way' ref='-36461487' role='' />
    <member type='way' ref='-36461488' role='' />
    <member type='way' ref='-36461489' role='' />
    <member type='way' ref='-36461490' role='' />
    <member type='way' ref='-36461491' role='' />
    <member type='way' ref='-36461492' role='' />
    <member type='way' ref='-36461493' role='' />
    <member type='way' ref='-36461494' role='' />
    <member type='way' ref='-36461495' role='' />
    <member type='way' ref='-36461496' role='' />
    <member type='way' ref='-36461497' role='' />
    <member type='way' ref='-36461498' role='' />
    <member type='way' ref='-36461499' role='' />
    <member type='way' ref='-36461500' role='' />
    <member type='way' ref='-36461501' role='' />
    <member type='way' ref='-36461502' role='' />
    <member type='way' ref='-36461503' role='' />
    <member type='way' ref='-36461504' role='' />
    <member type='way' ref='-36461505' role='' />
    <member type='way' ref='-36461506' role='' />
    <member type='way' ref='-36461507' role='' />
    <member type='way' ref='-36461508' role='' />
    <member type='way' ref='-36461509' role='' />
    <member type='way' ref='-36461510' role='' />
    <member type='way' ref='-36461511' role='' />
    <member type='way' ref='-36461512' role='' />
    <member type='way' ref='-36461513' role='' />
    <member type='way' ref='-36461514' role='' />
    <member type='way' ref='-36461515' role='' />
    <member type='way' ref='-36461516' role='' />
    <member type='way' ref='-36461517' role='' />
    <member type='way' ref='-36461518' role='' />
    <member type='way' ref='-36461519' role='' />
    <member type='way' ref='-36461521' role='' />
    <member type='way' ref='-36461522' role='' />
    <member type='way' ref='-36461523' role='' />
    <member type='way' ref='-36461524' role='' />
    <member type='way' ref='-36461525' role='' />
    <member type='way' ref='-36461526' role='' />
    <member type='way' ref='-36461527' role='' />
    <member type='way' ref='-36461528' role='' />
    <member type='way' ref='-36461529' role='' />
    <member type='way' ref='-36461530' role='' />
    <member type='way' ref='-36461531' role='' />
    <member type='way' ref='-36461532' role='' />
    <member type='way' ref='-36461533' role='' />
    <member type='way' ref='-36461534' role='' />
    <tag k='key' v='path.dk.nns' />
    <tag k='name' v='DK NNS' />
    <tag k='type' v='path' />
  </relation>
</osm>
