<?xml version='1.0' encoding='UTF-8'?>
<osm version='0.6' upload='false' generator='JOSM'>
  <node id='-149114682' action='modify' lat='55.30882111043' lon='10.81135753393' />
  <node id='-149114683' action='modify' lat='55.3088630956' lon='10.81129068415'>
    <tag k='name' v='nyb' />
  </node>
  <node id='-149114684' action='modify' lat='55.30948640716' lon='10.80917358264' />
  <node id='-149114685' action='modify' lat='55.31026799897' lon='10.80454274878' />
  <node id='-149114686' action='modify' lat='55.31036722339' lon='10.80400362477' />
  <node id='-149114687' action='modify' lat='55.31056567149' lon='10.80300852522' />
  <node id='-149114688' action='modify' lat='55.3098825479' lon='10.79926013812' />
  <node id='-149114689' action='modify' lat='55.30933833042' lon='10.79860299692' />
  <node id='-149114690' action='modify' lat='55.30893226145' lon='10.79421892628' />
  <node id='-149114691' action='modify' lat='55.30934596325' lon='10.79380318388' />
  <node id='-149114692' action='modify' lat='55.31018327638' lon='10.79070389137' />
  <node id='-149114693' action='modify' lat='55.31022830913' lon='10.79007223114' />
  <node id='-149114694' action='modify' lat='55.30942535' lon='10.78639893651' />
  <node id='-149114695' action='modify' lat='55.30544158145' lon='10.77996431708'>
    <tag k='name' v='nys.yh' />
  </node>
  <node id='-149114696' action='modify' lat='55.30144748276' lon='10.78492507204' />
  <node id='-149114697' action='modify' lat='55.30147421194' lon='10.78698293305'>
    <tag k='name' v='noh' />
  </node>
  <node id='-149114698' action='modify' lat='55.3014936702' lon='10.78848101132'>
    <tag k='name' v='noh.f' />
  </node>
  <way id='-36663427' action='modify'>
    <nd ref='-149114682' />
    <nd ref='-149114683' />
    <tag k='type' v='straight' />
  </way>
  <way id='-36663428' action='modify'>
    <nd ref='-149114683' />
    <nd ref='-149114684' />
  </way>
  <way id='-36663429' action='modify'>
    <nd ref='-149114684' />
    <nd ref='-149114685' />
    <tag k='type' v='straight' />
  </way>
  <way id='-36663430' action='modify'>
    <nd ref='-149114685' />
    <nd ref='-149114686' />
  </way>
  <way id='-36663431' action='modify'>
    <nd ref='-149114686' />
    <nd ref='-149114687' />
    <tag k='type' v='straight' />
  </way>
  <way id='-36663432' action='modify'>
    <nd ref='-149114687' />
    <nd ref='-149114688' />
  </way>
  <way id='-36663433' action='modify'>
    <nd ref='-149114688' />
    <nd ref='-149114689' />
    <tag k='type' v='straight' />
  </way>
  <way id='-36663434' action='modify'>
    <nd ref='-149114689' />
    <nd ref='-149114690' />
  </way>
  <way id='-36663435' action='modify'>
    <nd ref='-149114690' />
    <nd ref='-149114691' />
    <tag k='type' v='straight' />
  </way>
  <way id='-36663436' action='modify'>
    <nd ref='-149114691' />
    <nd ref='-149114692' />
  </way>
  <way id='-36663437' action='modify'>
    <nd ref='-149114692' />
    <nd ref='-149114693' />
    <tag k='type' v='straight' />
  </way>
  <way id='-36663438' action='modify'>
    <nd ref='-149114693' />
    <nd ref='-149114694' />
  </way>
  <way id='-36663439' action='modify'>
    <nd ref='-149114694' />
    <nd ref='-149114695' />
    <tag k='type' v='straight' />
  </way>
  <way id='-36663440' action='modify'>
    <nd ref='-149114695' />
    <nd ref='-149114696' />
  </way>
  <way id='-36663441' action='modify'>
    <nd ref='-149114696' />
    <nd ref='-149114697' />
    <nd ref='-149114698' />
    <tag k='type' v='straight' />
  </way>
  <relation id='-14469838' action='modify'>
    <member type='way' ref='-36663427' role='' />
    <member type='way' ref='-36663428' role='' />
    <member type='way' ref='-36663429' role='' />
    <member type='way' ref='-36663430' role='' />
    <member type='way' ref='-36663431' role='' />
    <member type='way' ref='-36663432' role='' />
    <member type='way' ref='-36663433' role='' />
    <member type='way' ref='-36663434' role='' />
    <member type='way' ref='-36663435' role='' />
    <member type='way' ref='-36663436' role='' />
    <member type='way' ref='-36663437' role='' />
    <member type='way' ref='-36663438' role='' />
    <member type='way' ref='-36663439' role='' />
    <member type='way' ref='-36663440' role='' />
    <member type='way' ref='-36663441' role='' />
    <tag k='key' v='path.dk.noh' />
    <tag k='name' v='DK NOH' />
    <tag k='type' v='path' />
  </relation>
</osm>
