<?xml version='1.0' encoding='UTF-8'?>
<osm version='0.6' upload='false' generator='JOSM'>
  <node id='-144029964' action='modify' lat='55.23141892627' lon='11.76764442115'>
    <tag k='name' v='nas' />
  </node>
  <node id='-144029965' action='modify' lat='55.22840127542' lon='11.77069381142' />
  <node id='-144029966' action='modify' lat='55.22519460901' lon='11.77597155891' />
  <node id='-144029967' action='modify' lat='55.22433489859' lon='11.77843358048' />
  <node id='-144029968' action='modify' lat='55.22362606374' lon='11.78181766927' />
  <node id='-144029969' action='modify' lat='55.22244499063' lon='11.79248749673' />
  <node id='-144029970' action='modify' lat='55.22194929666' lon='11.79597436845' />
  <node id='-144029971' action='modify' lat='55.21951671556' lon='11.81063088221'>
    <tag k='name' v='ron' />
  </node>
  <node id='-144029972' action='modify' lat='55.21403942254' lon='11.84362877184' />
  <node id='-144029973' action='modify' lat='55.2138303764' lon='11.84682408791'>
    <tag k='name' v='nst' />
  </node>
  <node id='-144029974' action='modify' lat='55.21383678507' lon='11.84793412149' />
  <node id='-144029975' action='modify' lat='55.21428055253' lon='11.85424267709' />
  <node id='-144029976' action='modify' lat='55.21413059028' lon='11.85779392183' />
  <node id='-144029977' action='modify' lat='55.21329175912' lon='11.86531438008'>
    <tag k='name' v='bra' />
  </node>
  <node id='-144029978' action='modify' lat='55.21287884259' lon='11.86901628435' />
  <node id='-144029979' action='modify' lat='55.2127258145' lon='11.87123715341' />
  <node id='-144029980' action='modify' lat='55.21260033103' lon='11.87563061178' />
  <node id='-144029981' action='modify' lat='55.21125671796' lon='11.88063024402' />
  <node id='-144029982' action='modify' lat='55.20043880283' lon='11.90330027461' />
  <node id='-144029983' action='modify' lat='55.19964892479' lon='11.90474866748' />
  <node id='-144029984' action='modify' lat='55.19735880223' lon='11.9082355392' />
  <node id='-144029985' action='modify' lat='55.1968217334' lon='11.90903564934'>
    <tag k='name' v='bog' />
  </node>
  <node id='-144029986' action='modify' lat='55.19559519564' lon='11.91185115695' />
  <node id='-144029987' action='modify' lat='55.19220860709' lon='11.92197917819' />
  <node id='-144029988' action='modify' lat='55.19065913151' lon='11.92490815043' />
  <node id='-144029989' action='modify' lat='55.18850323914' lon='11.9272470367' />
  <node id='-144029990' action='modify' lat='55.18764312448' lon='11.92794566902'>
    <tag k='name' v='ask' />
  </node>
  <node id='-144029991' action='modify' lat='55.18023382009' lon='11.93396328807' />
  <node id='-144029992' action='modify' lat='55.17675402256' lon='11.93932771146'>
    <tag k='name' v='sne' />
  </node>
  <node id='-144029993' action='modify' lat='55.17617811178' lon='11.94124817312' />
  <node id='-144029994' action='modify' lat='55.17031976742' lon='11.96197703266'>
    <tag k='name' v='lro' />
  </node>
  <node id='-144029995' action='modify' lat='55.16938296165' lon='11.96529149473' />
  <node id='-144029996' action='modify' lat='55.16798886066' lon='11.97066530451' />
  <node id='-144029997' action='modify' lat='55.16610751843' lon='11.97730779111' />
  <node id='-144029998' action='modify' lat='55.163830789' lon='11.98092877328'>
    <tag k='name' v='tap' />
  </node>
  <node id='-144029999' action='modify' lat='55.16016875095' lon='11.98351978719' />
  <node id='-144030000' action='modify' lat='55.15778747968' lon='11.98651849687' />
  <node id='-144030001' action='modify' lat='55.15343830459' lon='11.99534296453' />
  <node id='-144030002' action='modify' lat='55.14994390919' lon='11.99973105848' />
  <node id='-144030003' action='modify' lat='55.14733823973' lon='12.00138329923' />
  <node id='-144030004' action='modify' lat='55.14570731062' lon='12.0029497093' />
  <node id='-144030005' action='modify' lat='55.14499912327' lon='12.00380265176' />
  <node id='-144030006' action='modify' lat='55.14266907061' lon='12.00538514972' />
  <node id='-144030007' action='modify' lat='55.13679427362' lon='12.00658677936' />
  <node id='-144030008' action='modify' lat='55.13464773335' lon='12.00812100291' />
  <node id='-144030009' action='modify' lat='55.12920068289' lon='12.01448474788'>
    <tag k='name' v='fak' />
  </node>
  <node id='-144030010' action='modify' lat='55.12635487076' lon='12.01780914187' />
  <node id='-144030011' action='modify' lat='55.12333048848' lon='12.02359198987' />
  <node id='-144030012' action='modify' lat='55.12195625266' lon='12.02787815988' />
  <node id='-144030013' action='modify' lat='55.12175379428' lon='12.03487872541' />
  <node id='-144030015' action='modify' lat='55.12279317799' lon='12.03849735795'>
    <tag k='name' v='pra' />
  </node>
  <node id='-144030018' action='modify' lat='55.11935489418' lon='12.03381656528' />
  <node id='-144030019' action='modify' lat='55.11671654786' lon='12.03381656528' />
  <node id='-144030020' action='modify' lat='55.11455665557' lon='12.03291534305' />
  <node id='-144030021' action='modify' lat='55.10504286472' lon='12.02312388704'>
    <tag k='name' v='ski' />
  </node>
  <node id='-144030022' action='modify' lat='55.10445515477' lon='12.0225191009' />
  <node id='-144030023' action='modify' lat='55.10071400271' lon='12.02006756723' />
  <node id='-144030024' action='modify' lat='55.09490363251' lon='12.02155887544' />
  <node id='-144030025' action='modify' lat='55.08666085059' lon='12.0279425329' />
  <node id='-144030026' action='modify' lat='55.08445941799' lon='12.03018485963' />
  <node id='-144030027' action='modify' lat='55.08212787306' lon='12.03347027905'>
    <tag k='name' v='all' />
  </node>
  <node id='-144030028' action='modify' lat='55.0816498824' lon='12.03414380014' />
  <node id='-144030029' action='modify' lat='55.07884629422' lon='12.03667043567' />
  <node id='-144030030' action='modify' lat='55.07115613726' lon='12.0404899013' />
  <node id='-144030031' action='modify' lat='55.06886784289' lon='12.04162179887' />
  <node id='-144030032' action='modify' lat='55.06466257448' lon='12.04374074399' />
  <node id='-144030033' action='modify' lat='55.06168268235' lon='12.04583286166' />
  <node id='-144030034' action='modify' lat='55.06003442392' lon='12.04697012633' />
  <node id='-144030035' action='modify' lat='55.05645350532' lon='12.04876183391' />
  <node id='-144030036' action='modify' lat='55.05379256901' lon='12.04968451381' />
  <node id='-144030037' action='modify' lat='55.05130354242' lon='12.05196975589' />
  <node id='-144030038' action='modify' lat='55.0497916137' lon='12.05415843844' />
  <node id='-144030039' action='modify' lat='55.04684748806' lon='12.05607354105' />
  <node id='-144030040' action='modify' lat='55.04666150674' lon='12.05607695817'>
    <tag k='name' v='mer' />
  </node>
  <node id='-144030041' action='modify' lat='55.04392773733' lon='12.05612718523'>
    <tag k='name' v='mer.f' />
  </node>
  <node id='-144030249' action='modify' lat='55.12217776623' lon='12.03638701684' />
  <node id='-144030250' action='modify' lat='55.12278294476' lon='12.03850641713'>
    <tag k='name' v='pra' />
  </node>
  <way id='-36362614' action='modify'>
    <nd ref='-144029964' />
    <nd ref='-144029965' />
    <tag k='type' v='straight' />
  </way>
  <way id='-36362615' action='modify'>
    <nd ref='-144029965' />
    <nd ref='-144029966' />
    <tag k='type' v='arc' />
  </way>
  <way id='-36362616' action='modify'>
    <nd ref='-144029966' />
    <nd ref='-144029967' />
    <tag k='type' v='straight' />
  </way>
  <way id='-36362617' action='modify'>
    <nd ref='-144029967' />
    <nd ref='-144029968' />
  </way>
  <way id='-36362618' action='modify'>
    <nd ref='-144029968' />
    <nd ref='-144029969' />
    <tag k='type' v='straight' />
  </way>
  <way id='-36362619' action='modify'>
    <nd ref='-144029969' />
    <nd ref='-144029970' />
  </way>
  <way id='-36362620' action='modify'>
    <nd ref='-144029970' />
    <nd ref='-144029971' />
    <nd ref='-144029972' />
    <tag k='type' v='straight' />
  </way>
  <way id='-36362621' action='modify'>
    <nd ref='-144029972' />
    <nd ref='-144029973' />
    <nd ref='-144029974' />
  </way>
  <way id='-36362622' action='modify'>
    <nd ref='-144029974' />
    <nd ref='-144029975' />
    <tag k='type' v='straight' />
  </way>
  <way id='-36362623' action='modify'>
    <nd ref='-144029975' />
    <nd ref='-144029976' />
  </way>
  <way id='-36362624' action='modify'>
    <nd ref='-144029976' />
    <nd ref='-144029977' />
    <nd ref='-144029978' />
    <tag k='type' v='straight' />
  </way>
  <way id='-36362625' action='modify'>
    <nd ref='-144029978' />
    <nd ref='-144029979' />
  </way>
  <way id='-36362626' action='modify'>
    <nd ref='-144029979' />
    <nd ref='-144029980' />
    <tag k='type' v='straight' />
  </way>
  <way id='-36362627' action='modify'>
    <nd ref='-144029980' />
    <nd ref='-144029981' />
  </way>
  <way id='-36362628' action='modify'>
    <nd ref='-144029981' />
    <nd ref='-144029982' />
    <tag k='type' v='straight' />
  </way>
  <way id='-36362629' action='modify'>
    <nd ref='-144029982' />
    <nd ref='-144029983' />
  </way>
  <way id='-36362630' action='modify'>
    <nd ref='-144029983' />
    <nd ref='-144029984' />
    <tag k='type' v='straight' />
  </way>
  <way id='-36362631' action='modify'>
    <nd ref='-144029984' />
    <nd ref='-144029985' />
    <nd ref='-144029986' />
  </way>
  <way id='-36362632' action='modify'>
    <nd ref='-144029986' />
    <nd ref='-144029987' />
    <tag k='type' v='straight' />
  </way>
  <way id='-36362633' action='modify'>
    <nd ref='-144029987' />
    <nd ref='-144029988' />
    <nd ref='-144029989' />
  </way>
  <way id='-36362634' action='modify'>
    <nd ref='-144029989' />
    <nd ref='-144029990' />
    <nd ref='-144029991' />
    <tag k='type' v='straight' />
  </way>
  <way id='-36362635' action='modify'>
    <nd ref='-144029991' />
    <nd ref='-144029992' />
    <nd ref='-144029993' />
  </way>
  <way id='-36362636' action='modify'>
    <nd ref='-144029993' />
    <nd ref='-144029994' />
    <nd ref='-144029995' />
    <tag k='type' v='straight' />
  </way>
  <way id='-36362637' action='modify'>
    <nd ref='-144029995' />
    <nd ref='-144029996' />
  </way>
  <way id='-36362638' action='modify'>
    <nd ref='-144029996' />
    <nd ref='-144029997' />
    <tag k='type' v='straight' />
  </way>
  <way id='-36362639' action='modify'>
    <nd ref='-144029997' />
    <nd ref='-144029998' />
  </way>
  <way id='-36362640' action='modify'>
    <nd ref='-144029998' />
    <nd ref='-144029999' />
    <tag k='type' v='straight' />
  </way>
  <way id='-36362641' action='modify'>
    <nd ref='-144029999' />
    <nd ref='-144030000' />
  </way>
  <way id='-36362642' action='modify'>
    <nd ref='-144030000' />
    <nd ref='-144030001' />
    <tag k='type' v='straight' />
  </way>
  <way id='-36362643' action='modify'>
    <nd ref='-144030001' />
    <nd ref='-144030002' />
  </way>
  <way id='-36362644' action='modify'>
    <nd ref='-144030002' />
    <nd ref='-144030003' />
    <tag k='type' v='straight' />
  </way>
  <way id='-36362645' action='modify'>
    <nd ref='-144030003' />
    <nd ref='-144030004' />
  </way>
  <way id='-36362646' action='modify'>
    <nd ref='-144030004' />
    <nd ref='-144030005' />
    <tag k='type' v='straight' />
  </way>
  <way id='-36362647' action='modify'>
    <nd ref='-144030005' />
    <nd ref='-144030006' />
  </way>
  <way id='-36362648' action='modify'>
    <nd ref='-144030006' />
    <nd ref='-144030007' />
    <tag k='type' v='straight' />
  </way>
  <way id='-36362649' action='modify'>
    <nd ref='-144030007' />
    <nd ref='-144030008' />
  </way>
  <way id='-36362650' action='modify'>
    <nd ref='-144030008' />
    <nd ref='-144030009' />
    <nd ref='-144030010' />
    <tag k='type' v='straight' />
  </way>
  <way id='-36362651' action='modify'>
    <nd ref='-144030010' />
    <nd ref='-144030011' />
  </way>
  <way id='-36362652' action='modify'>
    <nd ref='-144030011' />
    <nd ref='-144030012' />
    <tag k='type' v='straight' />
  </way>
  <way id='-36362653' action='modify'>
    <nd ref='-144030012' />
    <nd ref='-144030013' />
  </way>
  <way id='-36362655' action='modify'>
    <nd ref='-144030013' />
    <nd ref='-144030015' />
    <tag k='type' v='straight' />
  </way>
  <way id='-36362656' action='modify'>
    <nd ref='-144030250' />
    <nd ref='-144030249' />
    <tag k='type' v='straight' />
  </way>
  <way id='-36362657' action='modify'>
    <nd ref='-144030018' />
    <nd ref='-144030019' />
    <tag k='type' v='straight' />
  </way>
  <way id='-36362658' action='modify'>
    <nd ref='-144030019' />
    <nd ref='-144030020' />
  </way>
  <way id='-36362659' action='modify'>
    <nd ref='-144030020' />
    <nd ref='-144030021' />
    <nd ref='-144030022' />
    <tag k='type' v='straight' />
  </way>
  <way id='-36362660' action='modify'>
    <nd ref='-144030022' />
    <nd ref='-144030023' />
    <nd ref='-144030024' />
  </way>
  <way id='-36362661' action='modify'>
    <nd ref='-144030024' />
    <nd ref='-144030025' />
    <nd ref='-144030026' />
    <nd ref='-144030027' />
    <nd ref='-144030028' />
    <tag k='type' v='straight' />
  </way>
  <way id='-36362662' action='modify'>
    <nd ref='-144030028' />
    <nd ref='-144030029' />
  </way>
  <way id='-36362663' action='modify'>
    <nd ref='-144030029' />
    <nd ref='-144030030' />
    <tag k='type' v='straight' />
  </way>
  <way id='-36362664' action='modify'>
    <nd ref='-144030030' />
    <nd ref='-144030031' />
  </way>
  <way id='-36362665' action='modify'>
    <nd ref='-144030031' />
    <nd ref='-144030032' />
    <tag k='type' v='straight' />
  </way>
  <way id='-36362666' action='modify'>
    <nd ref='-144030032' />
    <nd ref='-144030033' />
  </way>
  <way id='-36362667' action='modify'>
    <nd ref='-144030033' />
    <nd ref='-144030034' />
    <tag k='type' v='straight' />
  </way>
  <way id='-36362668' action='modify'>
    <nd ref='-144030034' />
    <nd ref='-144030035' />
  </way>
  <way id='-36362669' action='modify'>
    <nd ref='-144030035' />
    <nd ref='-144030036' />
    <tag k='type' v='straight' />
  </way>
  <way id='-36362670' action='modify'>
    <nd ref='-144030036' />
    <nd ref='-144030037' />
  </way>
  <way id='-36362671' action='modify'>
    <nd ref='-144030037' />
    <nd ref='-144030038' />
    <tag k='type' v='straight' />
  </way>
  <way id='-36362672' action='modify'>
    <nd ref='-144030038' />
    <nd ref='-144030039' />
  </way>
  <way id='-36362673' action='modify'>
    <nd ref='-144030039' />
    <nd ref='-144030040' />
    <nd ref='-144030041' />
    <tag k='type' v='straight' />
  </way>
  <way id='-36362871' action='modify'>
    <nd ref='-144030249' />
    <nd ref='-144030018' />
  </way>
  <relation id='-14467471' action='modify'>
    <member type='way' ref='-36362614' role='' />
    <member type='way' ref='-36362615' role='' />
    <member type='way' ref='-36362616' role='' />
    <member type='way' ref='-36362617' role='' />
    <member type='way' ref='-36362618' role='' />
    <member type='way' ref='-36362619' role='' />
    <member type='way' ref='-36362620' role='' />
    <member type='way' ref='-36362621' role='' />
    <member type='way' ref='-36362622' role='' />
    <member type='way' ref='-36362623' role='' />
    <member type='way' ref='-36362624' role='' />
    <member type='way' ref='-36362625' role='' />
    <member type='way' ref='-36362626' role='' />
    <member type='way' ref='-36362627' role='' />
    <member type='way' ref='-36362628' role='' />
    <member type='way' ref='-36362629' role='' />
    <member type='way' ref='-36362630' role='' />
    <member type='way' ref='-36362631' role='' />
    <member type='way' ref='-36362632' role='' />
    <member type='way' ref='-36362633' role='' />
    <member type='way' ref='-36362634' role='' />
    <member type='way' ref='-36362635' role='' />
    <member type='way' ref='-36362636' role='' />
    <member type='way' ref='-36362637' role='' />
    <member type='way' ref='-36362638' role='' />
    <member type='way' ref='-36362639' role='' />
    <member type='way' ref='-36362640' role='' />
    <member type='way' ref='-36362641' role='' />
    <member type='way' ref='-36362642' role='' />
    <member type='way' ref='-36362643' role='' />
    <member type='way' ref='-36362644' role='' />
    <member type='way' ref='-36362645' role='' />
    <member type='way' ref='-36362646' role='' />
    <member type='way' ref='-36362647' role='' />
    <member type='way' ref='-36362648' role='' />
    <member type='way' ref='-36362649' role='' />
    <member type='way' ref='-36362650' role='' />
    <member type='way' ref='-36362651' role='' />
    <member type='way' ref='-36362652' role='' />
    <member type='way' ref='-36362653' role='' />
    <member type='way' ref='-36362655' role='' />
    <tag k='key' v='path.dk.npm.1' />
    <tag k='name' v='DK NPM (1)' />
    <tag k='type' v='path' />
  </relation>
  <relation id='-14467472' action='modify'>
    <member type='way' ref='-36362656' role='' />
    <member type='way' ref='-36362871' role='' />
    <member type='way' ref='-36362657' role='' />
    <member type='way' ref='-36362658' role='' />
    <member type='way' ref='-36362659' role='' />
    <member type='way' ref='-36362660' role='' />
    <member type='way' ref='-36362661' role='' />
    <member type='way' ref='-36362662' role='' />
    <member type='way' ref='-36362663' role='' />
    <member type='way' ref='-36362664' role='' />
    <member type='way' ref='-36362665' role='' />
    <member type='way' ref='-36362666' role='' />
    <member type='way' ref='-36362667' role='' />
    <member type='way' ref='-36362668' role='' />
    <member type='way' ref='-36362669' role='' />
    <member type='way' ref='-36362670' role='' />
    <member type='way' ref='-36362671' role='' />
    <member type='way' ref='-36362672' role='' />
    <member type='way' ref='-36362673' role='' />
    <tag k='key' v='path.dk.npm.2' />
    <tag k='name' v='DK NPM (2)' />
    <tag k='type' v='path' />
  </relation>
</osm>
