<?xml version='1.0' encoding='UTF-8'?>
<osm version='0.6' upload='false' generator='JOSM'>
  <node id='-148546430' action='modify' lat='55.31116069669' lon='10.79889432981'>
    <tag k='name' v='nyf' />
  </node>
  <node id='-148546431' action='modify' lat='55.31388342467' lon='10.79978048533' />
  <node id='-148546432' action='modify' lat='55.31650447178' lon='10.79894913894' />
  <node id='-148546433' action='modify' lat='55.31666658547' lon='10.79869096727' />
  <node id='-148546434' action='modify' lat='55.31855435232' lon='10.79480263974' />
  <node id='-148546435' action='modify' lat='55.32003110395' lon='10.79078402002' />
  <node id='-148546436' action='modify' lat='55.32082790293' lon='10.78171312273' />
  <node id='-148546437' action='modify' lat='55.32011672232' lon='10.77627896726' />
  <node id='-148546438' action='modify' lat='55.31977486578' lon='10.77126859546' />
  <node id='-148546439' action='modify' lat='55.31987864184' lon='10.7664728111' />
  <node id='-148546440' action='modify' lat='55.31961003651' lon='10.75799703062' />
  <node id='-148546441' action='modify' lat='55.31896598676' lon='10.75134515226' />
  <node id='-148546442' action='modify' lat='55.31718029648' lon='10.74027835786' />
  <node id='-148546443' action='modify' lat='55.3164308931' lon='10.73681562603' />
  <node id='-148546444' action='modify' lat='55.31618058006' lon='10.73578833997' />
  <node id='-148546445' action='modify' lat='55.31580663156' lon='10.73449015483'>
    <tag k='name' v='lam' />
  </node>
  <node id='-148546446' action='modify' lat='55.31375673392' lon='10.72937249869' />
  <node id='-148546447' action='modify' lat='55.31125794455' lon='10.72342335641' />
  <node id='-148546448' action='modify' lat='55.30785066808' lon='10.71853636622' />
  <node id='-148546449' action='modify' lat='55.30557898576' lon='10.71679829478' />
  <node id='-148546450' action='modify' lat='55.30335908143' lon='10.71480810106' />
  <node id='-148546451' action='modify' lat='55.30213457103' lon='10.71278571546' />
  <node id='-148546452' action='modify' lat='55.30069931122' lon='10.70923983514' />
  <node id='-148546453' action='modify' lat='55.30045500651' lon='10.70815085828' />
  <node id='-148546454' action='modify' lat='55.2971262049' lon='10.70229827821' />
  <node id='-148546455' action='modify' lat='55.29498218665' lon='10.70118247926' />
  <node id='-148546456' action='modify' lat='55.29238752836' lon='10.69841443419' />
  <node id='-148546457' action='modify' lat='55.29098704324' lon='10.69596021295' />
  <node id='-148546458' action='modify' lat='55.28779796797' lon='10.6925833118' />
  <node id='-148546459' action='modify' lat='55.28570232499' lon='10.69118856311' />
  <node id='-148546460' action='modify' lat='55.28155042259' lon='10.68794845998'>
    <tag k='name' v='ref' />
  </node>
  <node id='-148546461' action='modify' lat='55.27889224581' lon='10.68184911668' />
  <node id='-148546462' action='modify' lat='55.27845225456' lon='10.68024515569' />
  <node id='-148546463' action='modify' lat='55.2737342626' lon='10.67462324828' />
  <node id='-148546464' action='modify' lat='55.26630473606' lon='10.67406266659' />
  <node id='-148546465' action='modify' lat='55.25941643673' lon='10.67002862424'>
    <tag k='name' v='orb' />
  </node>
  <node id='-148546466' action='modify' lat='55.25831744002' lon='10.66843270719' />
  <node id='-148546467' action='modify' lat='55.25812484471' lon='10.66812157094' />
  <node id='-148546468' action='modify' lat='55.25663602088' lon='10.66378712118' />
  <node id='-148546469' action='modify' lat='55.25378967775' lon='10.64325212359' />
  <node id='-148546470' action='modify' lat='55.25330048924' lon='10.63808082461' />
  <node id='-148546471' action='modify' lat='55.25202857093' lon='10.62120436549' />
  <node id='-148546472' action='modify' lat='55.25001053704' lon='10.61485289991' />
  <node id='-148546473' action='modify' lat='55.2491171068' lon='10.61338817078'>
    <tag k='name' v='ell' />
  </node>
  <node id='-148546474' action='modify' lat='55.24506287343' lon='10.60674189448' />
  <node id='-148546475' action='modify' lat='55.24231050552' lon='10.60085176349' />
  <node id='-148546476' action='modify' lat='55.2400840063' lon='10.59452175021' />
  <node id='-148546477' action='modify' lat='55.23793078957' lon='10.58145402789' />
  <node id='-148546478' action='modify' lat='55.23785126513' lon='10.57707666278' />
  <node id='-148546479' action='modify' lat='55.23736187739' lon='10.57211994588' />
  <node id='-148546480' action='modify' lat='55.23628826865' lon='10.56724905431' />
  <node id='-148546481' action='modify' lat='55.23574992402' lon='10.56400894582'>
    <tag k='name' v='fje' />
  </node>
  <node id='-148546482' action='modify' lat='55.23772891952' lon='10.54627417445' />
  <node id='-148546483' action='modify' lat='55.2395946491' lon='10.54090975642' />
  <node id='-148546484' action='modify' lat='55.24097859228' lon='10.53451001376'>
    <tag k='name' v='rys' />
  </node>
  <node id='-148546485' action='modify' lat='55.24124773012' lon='10.53145497769' />
  <node id='-148546486' action='modify' lat='55.24153369166' lon='10.52276729465' />
  <node id='-148546487' action='modify' lat='55.24287016604' lon='10.51692544878' />
  <node id='-148546488' action='modify' lat='55.24518519647' lon='10.51180242419' />
  <node id='-148546489' action='modify' lat='55.24690685027' lon='10.50426005781' />
  <node id='-148546490' action='modify' lat='55.24706280484' lon='10.49308061063' />
  <node id='-148546491' action='modify' lat='55.24116981628' lon='10.4816425345' />
  <node id='-148546492' action='modify' lat='55.24064063821' lon='10.48172145814' />
  <node id='-148546493' action='modify' lat='55.23990508119' lon='10.48177510232' />
  <node id='-148546494' action='modify' lat='55.2395484395' lon='10.48174986358'>
    <tag k='name' v='rin' />
  </node>
  <node id='-148546495' action='modify' lat='55.23920391829' lon='10.48172548279' />
  <node id='-148546496' action='modify' lat='55.23390886564' lon='10.47862753138' />
  <node id='-148546497' action='modify' lat='55.23282866326' lon='10.47728508577' />
  <node id='-148546498' action='modify' lat='55.23172472347' lon='10.47615788743' />
  <node id='-148546499' action='modify' lat='55.23167768968' lon='10.47611832485' />
  <node id='-148546500' action='modify' lat='55.22899552663' lon='10.47414421499' />
  <node id='-148546501' action='modify' lat='55.22443382413' lon='10.47105967462' />
  <node id='-148546502' action='modify' lat='55.22225833963' lon='10.46850621432' />
  <node id='-148546503' action='modify' lat='55.21688860408' lon='10.4603842916'>
    <tag k='name' v='bol' />
  </node>
  <node id='-148546504' action='modify' lat='55.2104364425' lon='10.45062660903' />
  <node id='-148546505' action='modify' lat='55.20838875227' lon='10.44459968537' />
  <node id='-148546506' action='modify' lat='55.20554201393' lon='10.41934668481' />
  <node id='-148546507' action='modify' lat='55.2050859029' lon='10.41623800725' />
  <node id='-148546508' action='modify' lat='55.20373270357' lon='10.40937042376'>
    <tag k='name' v='esp' />
  </node>
  <node id='-148546509' action='modify' lat='55.20348029466' lon='10.40808945626' />
  <node id='-148546510' action='modify' lat='55.2031458478' lon='10.40407687292' />
  <node id='-148546511' action='modify' lat='55.2033417708' lon='10.39507672057' />
  <node id='-148546512' action='modify' lat='55.20263996482' lon='10.38780122727' />
  <node id='-148546513' action='modify' lat='55.2007946967' lon='10.3787527965' />
  <node id='-148546514' action='modify' lat='55.20042195991' lon='10.37536918849' />
  <node id='-148546515' action='modify' lat='55.20038292483' lon='10.3694388257' />
  <node id='-148546516' action='modify' lat='55.19975224816' lon='10.36513521999' />
  <node id='-148546517' action='modify' lat='55.19814642407' lon='10.35951465234' />
  <node id='-148546518' action='modify' lat='55.19710313999' lon='10.35700544581' />
  <node id='-148546519' action='modify' lat='55.19270962974' lon='10.34958950016'>
    <tag k='name' v='hoj' />
  </node>
  <node id='-148546520' action='modify' lat='55.19213970417' lon='10.34862756461' />
  <node id='-148546521' action='modify' lat='55.18970215785' lon='10.34662395447' />
  <node id='-148546522' action='modify' lat='55.18140848385' lon='10.3446391198' />
  <node id='-148546523' action='modify' lat='55.17828259493' lon='10.34549608558' />
  <node id='-148546524' action='modify' lat='55.17232725891' lon='10.35024493665' />
  <node id='-148546525' action='modify' lat='55.16941206716' lon='10.35099327296'>
    <tag k='name' v='hag' />
  </node>
  <node id='-148546526' action='modify' lat='55.16375417847' lon='10.34999817476' />
  <node id='-148546527' action='modify' lat='55.15919419226' lon='10.344282386' />
  <node id='-148546528' action='modify' lat='55.1578901485' lon='10.33925592631' />
  <node id='-148546529' action='modify' lat='55.15441913096' lon='10.33390223712' />
  <node id='-148546530' action='modify' lat='55.14951628299' lon='10.33104300231' />
  <node id='-148546531' action='modify' lat='55.14664794843' lon='10.33121753381'>
    <tag k='name' v='kor.a' />
  </node>
  <node id='-148546532' action='modify' lat='55.14581844048' lon='10.33199787006' />
  <node id='-148546533' action='modify' lat='55.14426804037' lon='10.33376985157'>
    <tag k='name' v='kor' />
  </node>
  <node id='-148546534' action='modify' lat='55.14356431328' lon='10.33457413182' />
  <node id='-148546535' action='modify' lat='55.14195622497' lon='10.33568590745' />
  <node id='-148546536' action='modify' lat='55.13074839565' lon='10.33916339144' />
  <node id='-148546537' action='modify' lat='55.12800422113' lon='10.33898904786' />
  <node id='-148546538' action='modify' lat='55.12502290916' lon='10.3375741826' />
  <node id='-148546539' action='modify' lat='55.12171966499' lon='10.3377619379' />
  <node id='-148546540' action='modify' lat='55.11628472678' lon='10.34089609846' />
  <node id='-148546541' action='modify' lat='55.11403742554' lon='10.34162778831'>
    <tag k='name' v='gro' />
  </node>
  <node id='-148546542' action='modify' lat='55.11265475877' lon='10.34156866305' />
  <node id='-148546543' action='modify' lat='55.10819211246' lon='10.3410556899' />
  <node id='-148546544' action='modify' lat='55.10602178539' lon='10.34119315378' />
  <node id='-148546545' action='modify' lat='55.1010278223' lon='10.34238472447' />
  <node id='-148546546' action='modify' lat='55.09733469609' lon='10.34277498588' />
  <node id='-148546547' action='modify' lat='55.09447087001' lon='10.34271889429'>
    <tag k='name' v='pej' />
  </node>
  <node id='-148546548' action='modify' lat='55.0943219328' lon='10.34271597728' />
  <node id='-148546549' action='modify' lat='55.09043286062' lon='10.33801808886' />
  <node id='-148546550' action='modify' lat='55.08627859986' lon='10.32059043512' />
  <node id='-148546551' action='modify' lat='55.08574379329' lon='10.31813689488' />
  <node id='-148546552' action='modify' lat='55.08571423822' lon='10.31798712403' />
  <node id='-148546553' action='modify' lat='55.08482325914' lon='10.31184039876' />
  <node id='-148546554' action='modify' lat='55.08456805479' lon='10.30917482977'>
    <tag k='name' v='kat' />
  </node>
  <node id='-148546555' action='modify' lat='55.08452312691' lon='10.30870556697' />
  <node id='-148546556' action='modify' lat='55.08445788048' lon='10.307730584' />
  <node id='-148546557' action='modify' lat='55.08440721847' lon='10.30656650528' />
  <node id='-148546558' action='modify' lat='55.08510803726' lon='10.30119538173' />
  <node id='-148546559' action='modify' lat='55.08531298414' lon='10.30054494604' />
  <node id='-148546560' action='modify' lat='55.08605063068' lon='10.29485598072' />
  <node id='-148546561' action='modify' lat='55.08599997069' lon='10.29340624675' />
  <node id='-148546562' action='modify' lat='55.08620107513' lon='10.28992339835' />
  <node id='-148546563' action='modify' lat='55.08863087129' lon='10.27507896691'>
    <tag k='name' v='luc' />
  </node>
  <node id='-148546564' action='modify' lat='55.08929734186' lon='10.27100711927' />
  <node id='-148546565' action='modify' lat='55.09050615634' lon='10.26647016272' />
  <node id='-148546566' action='modify' lat='55.09286765226' lon='10.26051968202' />
  <node id='-148546567' action='modify' lat='55.09403184912' lon='10.25189369649' />
  <node id='-148546568' action='modify' lat='55.09369571688' lon='10.24692356318' />
  <node id='-148546569' action='modify' lat='55.09366962584' lon='10.24612426221'>
    <tag k='name' v='faa' />
  </node>
  <node id='-148546570' action='modify' lat='55.09372181097' lon='10.24408578336' />
  <node id='-148546571' action='modify' lat='55.09390599325' lon='10.24242817819' />
  <way id='-36626946' action='modify'>
    <nd ref='-148546430' />
    <nd ref='-148546431' />
    <tag k='type' v='straight' />
  </way>
  <way id='-36626947' action='modify'>
    <nd ref='-148546431' />
    <nd ref='-148546432' />
  </way>
  <way id='-36626948' action='modify'>
    <nd ref='-148546432' />
    <nd ref='-148546433' />
    <tag k='type' v='straight' />
  </way>
  <way id='-36626949' action='modify'>
    <nd ref='-148546433' />
    <nd ref='-148546434' />
    <tag k='type' v='arc' />
  </way>
  <way id='-36626950' action='modify'>
    <nd ref='-148546434' />
    <nd ref='-148546435' />
    <tag k='type' v='straight' />
  </way>
  <way id='-36626951' action='modify'>
    <nd ref='-148546435' />
    <nd ref='-148546436' />
  </way>
  <way id='-36626952' action='modify'>
    <nd ref='-148546436' />
    <nd ref='-148546437' />
    <tag k='type' v='straight' />
  </way>
  <way id='-36626953' action='modify'>
    <nd ref='-148546437' />
    <nd ref='-148546438' />
    <nd ref='-148546439' />
  </way>
  <way id='-36626954' action='modify'>
    <nd ref='-148546439' />
    <nd ref='-148546440' />
    <tag k='type' v='straight' />
  </way>
  <way id='-36626955' action='modify'>
    <nd ref='-148546440' />
    <nd ref='-148546441' />
  </way>
  <way id='-36626956' action='modify'>
    <nd ref='-148546441' />
    <nd ref='-148546442' />
    <tag k='type' v='straight' />
  </way>
  <way id='-36626957' action='modify'>
    <nd ref='-148546442' />
    <nd ref='-148546443' />
  </way>
  <way id='-36626958' action='modify'>
    <nd ref='-148546443' />
    <nd ref='-148546444' />
    <tag k='type' v='straight' />
  </way>
  <way id='-36626959' action='modify'>
    <nd ref='-148546444' />
    <nd ref='-148546445' />
    <nd ref='-148546446' />
  </way>
  <way id='-36626960' action='modify'>
    <nd ref='-148546446' />
    <nd ref='-148546447' />
    <tag k='type' v='straight' />
  </way>
  <way id='-36626961' action='modify'>
    <nd ref='-148546447' />
    <nd ref='-148546448' />
  </way>
  <way id='-36626962' action='modify'>
    <nd ref='-148546448' />
    <nd ref='-148546449' />
    <tag k='type' v='straight' />
  </way>
  <way id='-36626963' action='modify'>
    <nd ref='-148546449' />
    <nd ref='-148546450' />
  </way>
  <way id='-36626964' action='modify'>
    <nd ref='-148546450' />
    <nd ref='-148546451' />
    <tag k='type' v='straight' />
  </way>
  <way id='-36626965' action='modify'>
    <nd ref='-148546451' />
    <nd ref='-148546452' />
  </way>
  <way id='-36626966' action='modify'>
    <nd ref='-148546452' />
    <nd ref='-148546453' />
    <tag k='type' v='straight' />
  </way>
  <way id='-36626967' action='modify'>
    <nd ref='-148546453' />
    <nd ref='-148546454' />
  </way>
  <way id='-36626968' action='modify'>
    <nd ref='-148546454' />
    <nd ref='-148546455' />
    <tag k='type' v='straight' />
  </way>
  <way id='-36626969' action='modify'>
    <nd ref='-148546455' />
    <nd ref='-148546456' />
  </way>
  <way id='-36626970' action='modify'>
    <nd ref='-148546456' />
    <nd ref='-148546457' />
    <tag k='type' v='straight' />
  </way>
  <way id='-36626971' action='modify'>
    <nd ref='-148546457' />
    <nd ref='-148546458' />
  </way>
  <way id='-36626972' action='modify'>
    <nd ref='-148546458' />
    <nd ref='-148546459' />
    <tag k='type' v='straight' />
  </way>
  <way id='-36626973' action='modify'>
    <nd ref='-148546459' />
    <nd ref='-148546460' />
    <nd ref='-148546461' />
  </way>
  <way id='-36626974' action='modify'>
    <nd ref='-148546461' />
    <nd ref='-148546462' />
    <tag k='type' v='straight' />
  </way>
  <way id='-36626975' action='modify'>
    <nd ref='-148546462' />
    <nd ref='-148546463' />
  </way>
  <way id='-36626976' action='modify'>
    <nd ref='-148546463' />
    <nd ref='-148546464' />
    <tag k='type' v='straight' />
  </way>
  <way id='-36626977' action='modify'>
    <nd ref='-148546464' />
    <nd ref='-148546465' />
    <nd ref='-148546466' />
  </way>
  <way id='-36626978' action='modify'>
    <nd ref='-148546466' />
    <nd ref='-148546467' />
    <tag k='type' v='straight' />
  </way>
  <way id='-36626979' action='modify'>
    <nd ref='-148546467' />
    <nd ref='-148546468' />
  </way>
  <way id='-36626980' action='modify'>
    <nd ref='-148546468' />
    <nd ref='-148546469' />
    <tag k='type' v='straight' />
  </way>
  <way id='-36626981' action='modify'>
    <nd ref='-148546469' />
    <nd ref='-148546470' />
  </way>
  <way id='-36626982' action='modify'>
    <nd ref='-148546470' />
    <nd ref='-148546471' />
    <tag k='type' v='straight' />
  </way>
  <way id='-36626983' action='modify'>
    <nd ref='-148546471' />
    <nd ref='-148546472' />
  </way>
  <way id='-36626984' action='modify'>
    <nd ref='-148546472' />
    <nd ref='-148546473' />
    <nd ref='-148546474' />
    <tag k='type' v='straight' />
  </way>
  <way id='-36626985' action='modify'>
    <nd ref='-148546474' />
    <nd ref='-148546475' />
  </way>
  <way id='-36626986' action='modify'>
    <nd ref='-148546475' />
    <nd ref='-148546476' />
    <tag k='type' v='straight' />
  </way>
  <way id='-36626987' action='modify'>
    <nd ref='-148546476' />
    <nd ref='-148546477' />
  </way>
  <way id='-36626988' action='modify'>
    <nd ref='-148546477' />
    <nd ref='-148546478' />
    <tag k='type' v='straight' />
  </way>
  <way id='-36626989' action='modify'>
    <nd ref='-148546478' />
    <nd ref='-148546479' />
  </way>
  <way id='-36626990' action='modify'>
    <nd ref='-148546479' />
    <nd ref='-148546480' />
    <tag k='type' v='straight' />
  </way>
  <way id='-36626991' action='modify'>
    <nd ref='-148546480' />
    <nd ref='-148546481' />
    <nd ref='-148546482' />
  </way>
  <way id='-36626992' action='modify'>
    <nd ref='-148546482' />
    <nd ref='-148546483' />
    <tag k='type' v='straight' />
  </way>
  <way id='-36626993' action='modify'>
    <nd ref='-148546483' />
    <nd ref='-148546484' />
    <nd ref='-148546485' />
  </way>
  <way id='-36626994' action='modify'>
    <nd ref='-148546485' />
    <nd ref='-148546486' />
    <tag k='type' v='straight' />
  </way>
  <way id='-36626995' action='modify'>
    <nd ref='-148546486' />
    <nd ref='-148546487' />
  </way>
  <way id='-36626996' action='modify'>
    <nd ref='-148546487' />
    <nd ref='-148546488' />
    <tag k='type' v='straight' />
  </way>
  <way id='-36626997' action='modify'>
    <nd ref='-148546488' />
    <nd ref='-148546489' />
  </way>
  <way id='-36626998' action='modify'>
    <nd ref='-148546489' />
    <nd ref='-148546490' />
    <tag k='type' v='straight' />
  </way>
  <way id='-36626999' action='modify'>
    <nd ref='-148546490' />
    <nd ref='-148546491' />
  </way>
  <way id='-36627000' action='modify'>
    <nd ref='-148546491' />
    <nd ref='-148546492' />
    <tag k='type' v='straight' />
  </way>
  <way id='-36627001' action='modify'>
    <nd ref='-148546492' />
    <nd ref='-148546493' />
  </way>
  <way id='-36627002' action='modify'>
    <nd ref='-148546493' />
    <nd ref='-148546494' />
    <nd ref='-148546495' />
    <tag k='type' v='straight' />
  </way>
  <way id='-36627003' action='modify'>
    <nd ref='-148546495' />
    <nd ref='-148546496' />
  </way>
  <way id='-36627004' action='modify'>
    <nd ref='-148546496' />
    <nd ref='-148546497' />
    <tag k='type' v='straight' />
  </way>
  <way id='-36627005' action='modify'>
    <nd ref='-148546497' />
    <nd ref='-148546498' />
  </way>
  <way id='-36627006' action='modify'>
    <nd ref='-148546498' />
    <nd ref='-148546499' />
    <tag k='type' v='straight' />
  </way>
  <way id='-36627007' action='modify'>
    <nd ref='-148546499' />
    <nd ref='-148546500' />
  </way>
  <way id='-36627008' action='modify'>
    <nd ref='-148546500' />
    <nd ref='-148546501' />
    <tag k='type' v='straight' />
  </way>
  <way id='-36627009' action='modify'>
    <nd ref='-148546501' />
    <nd ref='-148546502' />
  </way>
  <way id='-36627010' action='modify'>
    <nd ref='-148546502' />
    <nd ref='-148546503' />
    <nd ref='-148546504' />
    <tag k='type' v='straight' />
  </way>
  <way id='-36627011' action='modify'>
    <nd ref='-148546504' />
    <nd ref='-148546505' />
  </way>
  <way id='-36627012' action='modify'>
    <nd ref='-148546505' />
    <nd ref='-148546506' />
    <tag k='type' v='straight' />
  </way>
  <way id='-36627013' action='modify'>
    <nd ref='-148546506' />
    <nd ref='-148546507' />
  </way>
  <way id='-36627014' action='modify'>
    <nd ref='-148546507' />
    <nd ref='-148546508' />
    <nd ref='-148546509' />
    <tag k='type' v='straight' />
  </way>
  <way id='-36627015' action='modify'>
    <nd ref='-148546509' />
    <nd ref='-148546510' />
  </way>
  <way id='-36627016' action='modify'>
    <nd ref='-148546510' />
    <nd ref='-148546511' />
    <tag k='type' v='straight' />
  </way>
  <way id='-36627017' action='modify'>
    <nd ref='-148546511' />
    <nd ref='-148546512' />
  </way>
  <way id='-36627018' action='modify'>
    <nd ref='-148546512' />
    <nd ref='-148546513' />
    <tag k='type' v='straight' />
  </way>
  <way id='-36627019' action='modify'>
    <nd ref='-148546513' />
    <nd ref='-148546514' />
  </way>
  <way id='-36627020' action='modify'>
    <nd ref='-148546514' />
    <nd ref='-148546515' />
    <tag k='type' v='straight' />
  </way>
  <way id='-36627021' action='modify'>
    <nd ref='-148546515' />
    <nd ref='-148546516' />
  </way>
  <way id='-36627022' action='modify'>
    <nd ref='-148546516' />
    <nd ref='-148546517' />
    <tag k='type' v='straight' />
  </way>
  <way id='-36627023' action='modify'>
    <nd ref='-148546517' />
    <nd ref='-148546518' />
  </way>
  <way id='-36627024' action='modify'>
    <nd ref='-148546518' />
    <nd ref='-148546519' />
    <nd ref='-148546520' />
    <tag k='type' v='straight' />
  </way>
  <way id='-36627025' action='modify'>
    <nd ref='-148546520' />
    <nd ref='-148546521' />
  </way>
  <way id='-36627026' action='modify'>
    <nd ref='-148546521' />
    <nd ref='-148546522' />
    <tag k='type' v='straight' />
  </way>
  <way id='-36627027' action='modify'>
    <nd ref='-148546522' />
    <nd ref='-148546523' />
  </way>
  <way id='-36627028' action='modify'>
    <nd ref='-148546523' />
    <nd ref='-148546524' />
    <tag k='type' v='straight' />
  </way>
  <way id='-36627029' action='modify'>
    <nd ref='-148546524' />
    <nd ref='-148546525' />
  </way>
  <way id='-36627030' action='modify'>
    <nd ref='-148546525' />
    <nd ref='-148546526' />
    <tag k='type' v='straight' />
  </way>
  <way id='-36627031' action='modify'>
    <nd ref='-148546526' />
    <nd ref='-148546527' />
  </way>
  <way id='-36627032' action='modify'>
    <nd ref='-148546527' />
    <nd ref='-148546528' />
    <tag k='type' v='straight' />
  </way>
  <way id='-36627033' action='modify'>
    <nd ref='-148546528' />
    <nd ref='-148546529' />
  </way>
  <way id='-36627034' action='modify'>
    <nd ref='-148546529' />
    <nd ref='-148546530' />
    <tag k='type' v='straight' />
  </way>
  <way id='-36627035' action='modify'>
    <nd ref='-148546530' />
    <nd ref='-148546531' />
    <nd ref='-148546532' />
  </way>
  <way id='-36627036' action='modify'>
    <nd ref='-148546532' />
    <nd ref='-148546533' />
    <nd ref='-148546534' />
    <tag k='type' v='straight' />
  </way>
  <way id='-36627037' action='modify'>
    <nd ref='-148546534' />
    <nd ref='-148546535' />
  </way>
  <way id='-36627038' action='modify'>
    <nd ref='-148546535' />
    <nd ref='-148546536' />
    <tag k='type' v='straight' />
  </way>
  <way id='-36627039' action='modify'>
    <nd ref='-148546536' />
    <nd ref='-148546537' />
  </way>
  <way id='-36627040' action='modify'>
    <nd ref='-148546537' />
    <nd ref='-148546538' />
    <tag k='type' v='straight' />
  </way>
  <way id='-36627041' action='modify'>
    <nd ref='-148546538' />
    <nd ref='-148546539' />
  </way>
  <way id='-36627042' action='modify'>
    <nd ref='-148546539' />
    <nd ref='-148546540' />
    <tag k='type' v='straight' />
  </way>
  <way id='-36627043' action='modify'>
    <nd ref='-148546540' />
    <nd ref='-148546541' />
    <nd ref='-148546542' />
  </way>
  <way id='-36627044' action='modify'>
    <nd ref='-148546542' />
    <nd ref='-148546543' />
    <tag k='type' v='straight' />
  </way>
  <way id='-36627045' action='modify'>
    <nd ref='-148546543' />
    <nd ref='-148546544' />
  </way>
  <way id='-36627046' action='modify'>
    <nd ref='-148546544' />
    <nd ref='-148546545' />
    <tag k='type' v='straight' />
  </way>
  <way id='-36627047' action='modify'>
    <nd ref='-148546545' />
    <nd ref='-148546546' />
  </way>
  <way id='-36627048' action='modify'>
    <nd ref='-148546546' />
    <nd ref='-148546547' />
    <nd ref='-148546548' />
    <tag k='type' v='straight' />
  </way>
  <way id='-36627049' action='modify'>
    <nd ref='-148546548' />
    <nd ref='-148546549' />
  </way>
  <way id='-36627050' action='modify'>
    <nd ref='-148546549' />
    <nd ref='-148546550' />
    <tag k='type' v='straight' />
  </way>
  <way id='-36627051' action='modify'>
    <nd ref='-148546550' />
    <nd ref='-148546551' />
  </way>
  <way id='-36627052' action='modify'>
    <nd ref='-148546551' />
    <nd ref='-148546552' />
    <tag k='type' v='straight' />
  </way>
  <way id='-36627053' action='modify'>
    <nd ref='-148546552' />
    <nd ref='-148546553' />
  </way>
  <way id='-36627054' action='modify'>
    <nd ref='-148546553' />
    <nd ref='-148546554' />
    <nd ref='-148546555' />
    <tag k='type' v='straight' />
  </way>
  <way id='-36627055' action='modify'>
    <nd ref='-148546555' />
    <nd ref='-148546556' />
  </way>
  <way id='-36627056' action='modify'>
    <nd ref='-148546556' />
    <nd ref='-148546557' />
    <tag k='type' v='straight' />
  </way>
  <way id='-36627057' action='modify'>
    <nd ref='-148546557' />
    <nd ref='-148546558' />
  </way>
  <way id='-36627058' action='modify'>
    <nd ref='-148546558' />
    <nd ref='-148546559' />
    <tag k='type' v='straight' />
  </way>
  <way id='-36627059' action='modify'>
    <nd ref='-148546559' />
    <nd ref='-148546560' />
  </way>
  <way id='-36627060' action='modify'>
    <nd ref='-148546560' />
    <nd ref='-148546561' />
    <tag k='type' v='straight' />
  </way>
  <way id='-36627061' action='modify'>
    <nd ref='-148546561' />
    <nd ref='-148546562' />
  </way>
  <way id='-36627062' action='modify'>
    <nd ref='-148546562' />
    <nd ref='-148546563' />
    <nd ref='-148546564' />
    <tag k='type' v='straight' />
  </way>
  <way id='-36627063' action='modify'>
    <nd ref='-148546564' />
    <nd ref='-148546565' />
  </way>
  <way id='-36627064' action='modify'>
    <nd ref='-148546565' />
    <nd ref='-148546566' />
    <tag k='type' v='straight' />
  </way>
  <way id='-36627065' action='modify'>
    <nd ref='-148546566' />
    <nd ref='-148546567' />
  </way>
  <way id='-36627066' action='modify'>
    <nd ref='-148546567' />
    <nd ref='-148546568' />
    <tag k='type' v='straight' />
  </way>
  <way id='-36627067' action='modify'>
    <nd ref='-148546568' />
    <nd ref='-148546569' />
    <nd ref='-148546570' />
  </way>
  <way id='-36627068' action='modify'>
    <nd ref='-148546570' />
    <nd ref='-148546571' />
    <tag k='type' v='straight' />
  </way>
  <relation id='-14469506' action='modify'>
    <member type='way' ref='-36626946' role='' />
    <member type='way' ref='-36626947' role='' />
    <member type='way' ref='-36626948' role='' />
    <member type='way' ref='-36626949' role='' />
    <member type='way' ref='-36626950' role='' />
    <member type='way' ref='-36626951' role='' />
    <member type='way' ref='-36626952' role='' />
    <member type='way' ref='-36626953' role='' />
    <member type='way' ref='-36626954' role='' />
    <member type='way' ref='-36626955' role='' />
    <member type='way' ref='-36626956' role='' />
    <member type='way' ref='-36626957' role='' />
    <member type='way' ref='-36626958' role='' />
    <member type='way' ref='-36626959' role='' />
    <member type='way' ref='-36626960' role='' />
    <member type='way' ref='-36626961' role='' />
    <member type='way' ref='-36626962' role='' />
    <member type='way' ref='-36626963' role='' />
    <member type='way' ref='-36626964' role='' />
    <member type='way' ref='-36626965' role='' />
    <member type='way' ref='-36626966' role='' />
    <member type='way' ref='-36626967' role='' />
    <member type='way' ref='-36626968' role='' />
    <member type='way' ref='-36626969' role='' />
    <member type='way' ref='-36626970' role='' />
    <member type='way' ref='-36626971' role='' />
    <member type='way' ref='-36626972' role='' />
    <member type='way' ref='-36626973' role='' />
    <member type='way' ref='-36626974' role='' />
    <member type='way' ref='-36626975' role='' />
    <member type='way' ref='-36626976' role='' />
    <member type='way' ref='-36626977' role='' />
    <member type='way' ref='-36626978' role='' />
    <member type='way' ref='-36626979' role='' />
    <member type='way' ref='-36626980' role='' />
    <member type='way' ref='-36626981' role='' />
    <member type='way' ref='-36626982' role='' />
    <member type='way' ref='-36626983' role='' />
    <member type='way' ref='-36626984' role='' />
    <member type='way' ref='-36626985' role='' />
    <member type='way' ref='-36626986' role='' />
    <member type='way' ref='-36626987' role='' />
    <member type='way' ref='-36626988' role='' />
    <member type='way' ref='-36626989' role='' />
    <member type='way' ref='-36626990' role='' />
    <member type='way' ref='-36626991' role='' />
    <member type='way' ref='-36626992' role='' />
    <member type='way' ref='-36626993' role='' />
    <member type='way' ref='-36626994' role='' />
    <member type='way' ref='-36626995' role='' />
    <member type='way' ref='-36626996' role='' />
    <member type='way' ref='-36626997' role='' />
    <member type='way' ref='-36626998' role='' />
    <member type='way' ref='-36626999' role='' />
    <member type='way' ref='-36627000' role='' />
    <member type='way' ref='-36627001' role='' />
    <member type='way' ref='-36627002' role='' />
    <member type='way' ref='-36627003' role='' />
    <member type='way' ref='-36627004' role='' />
    <member type='way' ref='-36627005' role='' />
    <member type='way' ref='-36627006' role='' />
    <member type='way' ref='-36627007' role='' />
    <member type='way' ref='-36627008' role='' />
    <member type='way' ref='-36627009' role='' />
    <member type='way' ref='-36627010' role='' />
    <member type='way' ref='-36627011' role='' />
    <member type='way' ref='-36627012' role='' />
    <member type='way' ref='-36627013' role='' />
    <member type='way' ref='-36627014' role='' />
    <member type='way' ref='-36627015' role='' />
    <member type='way' ref='-36627016' role='' />
    <member type='way' ref='-36627017' role='' />
    <member type='way' ref='-36627018' role='' />
    <member type='way' ref='-36627019' role='' />
    <member type='way' ref='-36627020' role='' />
    <member type='way' ref='-36627021' role='' />
    <member type='way' ref='-36627022' role='' />
    <member type='way' ref='-36627023' role='' />
    <member type='way' ref='-36627024' role='' />
    <member type='way' ref='-36627025' role='' />
    <member type='way' ref='-36627026' role='' />
    <member type='way' ref='-36627027' role='' />
    <member type='way' ref='-36627028' role='' />
    <member type='way' ref='-36627029' role='' />
    <member type='way' ref='-36627030' role='' />
    <member type='way' ref='-36627031' role='' />
    <member type='way' ref='-36627032' role='' />
    <member type='way' ref='-36627033' role='' />
    <member type='way' ref='-36627034' role='' />
    <member type='way' ref='-36627035' role='' />
    <member type='way' ref='-36627036' role='' />
    <member type='way' ref='-36627037' role='' />
    <member type='way' ref='-36627038' role='' />
    <member type='way' ref='-36627039' role='' />
    <member type='way' ref='-36627040' role='' />
    <member type='way' ref='-36627041' role='' />
    <member type='way' ref='-36627042' role='' />
    <member type='way' ref='-36627043' role='' />
    <member type='way' ref='-36627044' role='' />
    <member type='way' ref='-36627045' role='' />
    <member type='way' ref='-36627046' role='' />
    <member type='way' ref='-36627047' role='' />
    <member type='way' ref='-36627048' role='' />
    <member type='way' ref='-36627049' role='' />
    <member type='way' ref='-36627050' role='' />
    <member type='way' ref='-36627051' role='' />
    <member type='way' ref='-36627052' role='' />
    <member type='way' ref='-36627053' role='' />
    <member type='way' ref='-36627054' role='' />
    <member type='way' ref='-36627055' role='' />
    <member type='way' ref='-36627056' role='' />
    <member type='way' ref='-36627057' role='' />
    <member type='way' ref='-36627058' role='' />
    <member type='way' ref='-36627059' role='' />
    <member type='way' ref='-36627060' role='' />
    <member type='way' ref='-36627061' role='' />
    <member type='way' ref='-36627062' role='' />
    <member type='way' ref='-36627063' role='' />
    <member type='way' ref='-36627064' role='' />
    <member type='way' ref='-36627065' role='' />
    <member type='way' ref='-36627066' role='' />
    <member type='way' ref='-36627067' role='' />
    <member type='way' ref='-36627068' role='' />
    <tag k='key' v='path.dk.nrf' />
    <tag k='name' v='DK NRF' />
    <tag k='type' v='path' />
  </relation>
</osm>
