<?xml version='1.0' encoding='UTF-8'?>
<osm version='0.6' upload='false' generator='JOSM'>
  <node id='-146666856' action='modify' lat='54.83286155674' lon='11.14221140608' />
  <node id='-146666857' action='modify' lat='54.83358188645' lon='11.13714383423'>
    <tag k='name' v='nak' />
  </node>
  <node id='-146666858' action='modify' lat='54.83263082878' lon='11.14856877624' />
  <node id='-146666859' action='modify' lat='54.83263839859' lon='11.14866662631' />
  <node id='-146666860' action='modify' lat='54.83008690478' lon='11.15503370225' />
  <node id='-146666861' action='modify' lat='54.82734914447' lon='11.15664838672' />
  <node id='-146666862' action='modify' lat='54.82286820566' lon='11.15460990787' />
  <node id='-146666863' action='modify' lat='54.79626901756' lon='11.10380885839' />
  <node id='-146666864' action='modify' lat='54.79399285732' lon='11.09889506757'>
    <tag k='name' v='ves' />
  </node>
  <node id='-146666865' action='modify' lat='54.79267225991' lon='11.09498440683' />
  <node id='-146666866' action='modify' lat='54.78818747365' lon='11.07962607801' />
  <node id='-146666867' action='modify' lat='54.78615524085' lon='11.07386468768' />
  <node id='-146666868' action='modify' lat='54.78502749936' lon='11.07164096273'>
    <tag k='name' v='hvi' />
  </node>
  <node id='-146666869' action='modify' lat='54.78364960397' lon='11.06892405868' />
  <node id='-146666870' action='modify' lat='54.78189865939' lon='11.06385468364' />
  <node id='-146666871' action='modify' lat='54.78074472691' lon='11.05963288665' />
  <node id='-146666872' action='modify' lat='54.77710327712' lon='11.05564176768'>
    <tag k='name' v='kap' />
  </node>
  <node id='-146666873' action='modify' lat='54.77118716821' lon='11.061344136' />
  <node id='-146666874' action='modify' lat='54.76792937175' lon='11.08165776688'>
    <tag k='name' v='mun' />
  </node>
  <node id='-146666875' action='modify' lat='54.76461406952' lon='11.10232828975' />
  <node id='-146666876' action='modify' lat='54.76414222994' lon='11.10644776728'>
    <tag k='name' v='son' />
  </node>
  <node id='-146666877' action='modify' lat='54.76356177635' lon='11.11357747972' />
  <node id='-146666878' action='modify' lat='54.76321659793' lon='11.12391975698'>
    <tag k='name' v='rud' />
  </node>
  <node id='-146666879' action='modify' lat='54.76309752512' lon='11.12748741031' />
  <node id='-146666880' action='modify' lat='54.7628065897' lon='11.13205789447' />
  <node id='-146666881' action='modify' lat='54.76150993369' lon='11.14756042016'>
    <tag k='name' v='til' />
  </node>
  <node id='-146666882' action='modify' lat='54.7584102874' lon='11.18461707684'>
    <tag k='name' v='dan' />
  </node>
  <node id='-146666883' action='modify' lat='54.75836956074' lon='11.1851039502' />
  <node id='-146666884' action='modify' lat='54.75828443848' lon='11.18674814165' />
  <node id='-146666885' action='modify' lat='54.75815944282' lon='11.20852220972'>
    <tag k='name' v='gra' />
  </node>
  <node id='-146666886' action='modify' lat='54.7580602153' lon='11.22580745457'>
    <tag k='name' v='glo' />
  </node>
  <node id='-146666887' action='modify' lat='54.75796561881' lon='11.24228594542' />
  <node id='-146666888' action='modify' lat='54.75797180349' lon='11.24596594691' />
  <node id='-146666889' action='modify' lat='54.75817333434' lon='11.25972898722'>
    <tag k='name' v='bas' />
  </node>
  <node id='-146666890' action='modify' lat='54.7585190963' lon='11.28334208714'>
    <tag k='name' v='lan' />
  </node>
  <node id='-146666891' action='modify' lat='54.75853516629' lon='11.28443955839' />
  <node id='-146666892' action='modify' lat='54.75813895373' lon='11.288489694' />
  <node id='-146666893' action='modify' lat='54.75457286932' lon='11.30663751483' />
  <node id='-146666894' action='modify' lat='54.75363176606' lon='11.31068228602' />
  <node id='-146666895' action='modify' lat='54.75044918904' lon='11.32283805728' />
  <node id='-146666896' action='modify' lat='54.74821999316' lon='11.32880598038'>
    <tag k='name' v='ask' />
  </node>
  <node id='-146666897' action='modify' lat='54.7476317139' lon='11.32984667748' />
  <node id='-146666898' action='modify' lat='54.73265951887' lon='11.35316949617'>
    <tag k='name' v='vti' />
  </node>
  <node id='-146666899' action='modify' lat='54.73252239568' lon='11.35338305891' />
  <node id='-146666900' action='modify' lat='54.73009707433' lon='11.35934828639' />
  <node id='-146666901' action='modify' lat='54.72346773929' lon='11.37999055624' />
  <node id='-146666902' action='modify' lat='54.72109143576' lon='11.38578414381'>
    <tag k='name' v='buk' />
  </node>
  <node id='-146666903' action='modify' lat='54.71831220306' lon='11.38949632108' />
  <node id='-146666904' action='modify' lat='54.704335696' lon='11.40286444545' />
  <node id='-146666905' action='modify' lat='54.69964272007' lon='11.40144824445' />
  <node id='-146666906' action='modify' lat='54.69674508101' lon='11.39814407088'>
    <tag k='name' v='rod' />
  </node>
  <way id='-36518679' action='modify'>
    <nd ref='-146666857' />
    <nd ref='-146666856' />
    <tag k='type' v='straight' />
  </way>
  <way id='-36518680' action='modify'>
    <nd ref='-146666856' />
    <nd ref='-146666858' />
  </way>
  <way id='-36518681' action='modify'>
    <nd ref='-146666858' />
    <nd ref='-146666859' />
    <tag k='type' v='straight' />
  </way>
  <way id='-36518682' action='modify'>
    <nd ref='-146666859' />
    <nd ref='-146666860' />
  </way>
  <way id='-36518683' action='modify'>
    <nd ref='-146666860' />
    <nd ref='-146666861' />
    <tag k='type' v='straight' />
  </way>
  <way id='-36518684' action='modify'>
    <nd ref='-146666861' />
    <nd ref='-146666862' />
  </way>
  <way id='-36518685' action='modify'>
    <nd ref='-146666862' />
    <nd ref='-146666863' />
    <tag k='type' v='straight' />
  </way>
  <way id='-36518686' action='modify'>
    <nd ref='-146666863' />
    <nd ref='-146666864' />
    <nd ref='-146666865' />
  </way>
  <way id='-36518687' action='modify'>
    <nd ref='-146666865' />
    <nd ref='-146666866' />
    <tag k='type' v='straight' />
  </way>
  <way id='-36518688' action='modify'>
    <nd ref='-146666866' />
    <nd ref='-146666867' />
  </way>
  <way id='-36518689' action='modify'>
    <nd ref='-146666867' />
    <nd ref='-146666868' />
    <nd ref='-146666869' />
    <tag k='type' v='straight' />
  </way>
  <way id='-36518690' action='modify'>
    <nd ref='-146666869' />
    <nd ref='-146666870' />
  </way>
  <way id='-36518691' action='modify'>
    <nd ref='-146666870' />
    <nd ref='-146666871' />
    <tag k='type' v='straight' />
  </way>
  <way id='-36518692' action='modify'>
    <nd ref='-146666871' />
    <nd ref='-146666872' />
    <nd ref='-146666873' />
  </way>
  <way id='-36518693' action='modify'>
    <nd ref='-146666873' />
    <nd ref='-146666874' />
    <nd ref='-146666875' />
    <tag k='type' v='straight' />
  </way>
  <way id='-36518694' action='modify'>
    <nd ref='-146666875' />
    <nd ref='-146666876' />
    <nd ref='-146666877' />
  </way>
  <way id='-36518695' action='modify'>
    <nd ref='-146666877' />
    <nd ref='-146666878' />
    <nd ref='-146666879' />
    <tag k='type' v='straight' />
  </way>
  <way id='-36518696' action='modify'>
    <nd ref='-146666879' />
    <nd ref='-146666880' />
  </way>
  <way id='-36518697' action='modify'>
    <nd ref='-146666880' />
    <nd ref='-146666881' />
    <nd ref='-146666882' />
    <nd ref='-146666883' />
    <tag k='type' v='straight' />
  </way>
  <way id='-36518698' action='modify'>
    <nd ref='-146666883' />
    <nd ref='-146666884' />
  </way>
  <way id='-36518699' action='modify'>
    <nd ref='-146666884' />
    <nd ref='-146666885' />
    <nd ref='-146666886' />
    <nd ref='-146666887' />
    <tag k='type' v='straight' />
  </way>
  <way id='-36518700' action='modify'>
    <nd ref='-146666887' />
    <nd ref='-146666888' />
  </way>
  <way id='-36518701' action='modify'>
    <nd ref='-146666888' />
    <nd ref='-146666889' />
    <nd ref='-146666890' />
    <nd ref='-146666891' />
    <tag k='type' v='straight' />
  </way>
  <way id='-36518702' action='modify'>
    <nd ref='-146666891' />
    <nd ref='-146666892' />
  </way>
  <way id='-36518703' action='modify'>
    <nd ref='-146666892' />
    <nd ref='-146666893' />
    <tag k='type' v='straight' />
  </way>
  <way id='-36518704' action='modify'>
    <nd ref='-146666893' />
    <nd ref='-146666894' />
  </way>
  <way id='-36518705' action='modify'>
    <nd ref='-146666894' />
    <nd ref='-146666895' />
    <tag k='type' v='straight' />
  </way>
  <way id='-36518706' action='modify'>
    <nd ref='-146666895' />
    <nd ref='-146666896' />
    <nd ref='-146666897' />
  </way>
  <way id='-36518707' action='modify'>
    <nd ref='-146666897' />
    <nd ref='-146666898' />
    <nd ref='-146666899' />
    <tag k='type' v='straight' />
  </way>
  <way id='-36518708' action='modify'>
    <nd ref='-146666899' />
    <nd ref='-146666900' />
  </way>
  <way id='-36518709' action='modify'>
    <nd ref='-146666900' />
    <nd ref='-146666901' />
    <tag k='type' v='straight' />
  </way>
  <way id='-36518710' action='modify'>
    <nd ref='-146666901' />
    <nd ref='-146666902' />
    <nd ref='-146666903' />
  </way>
  <way id='-36518711' action='modify'>
    <nd ref='-146666903' />
    <nd ref='-146666904' />
    <tag k='type' v='straight' />
  </way>
  <way id='-36518712' action='modify'>
    <nd ref='-146666904' />
    <nd ref='-146666905' />
  </way>
  <way id='-36518713' action='modify'>
    <nd ref='-146666905' />
    <nd ref='-146666906' />
    <tag k='type' v='straight' />
  </way>
  <relation id='-14468744' action='modify'>
    <member type='way' ref='-36518679' role='' />
    <member type='way' ref='-36518680' role='' />
    <member type='way' ref='-36518681' role='' />
    <member type='way' ref='-36518682' role='' />
    <member type='way' ref='-36518683' role='' />
    <member type='way' ref='-36518684' role='' />
    <member type='way' ref='-36518685' role='' />
    <member type='way' ref='-36518686' role='' />
    <member type='way' ref='-36518687' role='' />
    <member type='way' ref='-36518688' role='' />
    <member type='way' ref='-36518689' role='' />
    <member type='way' ref='-36518690' role='' />
    <member type='way' ref='-36518691' role='' />
    <member type='way' ref='-36518692' role='' />
    <member type='way' ref='-36518693' role='' />
    <member type='way' ref='-36518694' role='' />
    <member type='way' ref='-36518695' role='' />
    <member type='way' ref='-36518696' role='' />
    <member type='way' ref='-36518697' role='' />
    <member type='way' ref='-36518698' role='' />
    <member type='way' ref='-36518699' role='' />
    <member type='way' ref='-36518700' role='' />
    <member type='way' ref='-36518701' role='' />
    <member type='way' ref='-36518702' role='' />
    <member type='way' ref='-36518703' role='' />
    <member type='way' ref='-36518704' role='' />
    <member type='way' ref='-36518705' role='' />
    <member type='way' ref='-36518706' role='' />
    <member type='way' ref='-36518707' role='' />
    <member type='way' ref='-36518708' role='' />
    <member type='way' ref='-36518709' role='' />
    <member type='way' ref='-36518710' role='' />
    <member type='way' ref='-36518711' role='' />
    <member type='way' ref='-36518712' role='' />
    <member type='way' ref='-36518713' role='' />
    <tag k='key' v='path.dk.nry' />
    <tag k='name' v='DK NRY' />
    <tag k='type' v='path' />
  </relation>
</osm>
