<?xml version='1.0' encoding='UTF-8'?>
<osm version='0.6' upload='false' generator='JOSM'>
  <node id='-165303654' action='modify' lat='57.06472631191' lon='9.90841441196'>
    <tag k='name' v='lin' />
  </node>
  <node id='-165303655' action='modify' lat='57.0653710824' lon='9.90735590189' />
  <node id='-165303656' action='modify' lat='57.06604333797' lon='9.90625887841' />
  <node id='-165303657' action='modify' lat='57.06671576962' lon='9.90519251656' />
  <node id='-165303658' action='modify' lat='57.06718164838' lon='9.90441269107' />
  <node id='-165303659' action='modify' lat='57.06867245487' lon='9.90197807282' />
  <node id='-165303660' action='modify' lat='57.07370086869' lon='9.89747330413' />
  <node id='-165303661' action='modify' lat='57.07423639826' lon='9.89730963885' />
  <node id='-165303662' action='modify' lat='57.07558539303' lon='9.89692376734' />
  <node id='-165303663' action='modify' lat='57.0771724289' lon='9.89654659956' />
  <node id='-165303664' action='modify' lat='57.08002961722' lon='9.89612280786' />
  <node id='-165303665' action='modify' lat='57.08306965141' lon='9.89586837849'>
    <tag k='name' v='voe' />
  </node>
  <node id='-165303666' action='modify' lat='57.08867959736' lon='9.89539881092' />
  <node id='-165303667' action='modify' lat='57.09060294567' lon='9.89518179071' />
  <node id='-165303668' action='modify' lat='57.09926907902' lon='9.89403068483' />
  <node id='-165303669' action='modify' lat='57.11270978975' lon='9.88119899958'>
    <tag k='name' v='vak' />
  </node>
  <node id='-165303670' action='modify' lat='57.11309719221' lon='9.88043725222' />
  <node id='-165303671' action='modify' lat='57.12246183722' lon='9.86049051831'>
    <tag k='name' v='vad' />
  </node>
  <node id='-165303672' action='modify' lat='57.13190852381' lon='9.84036392457'>
    <tag k='name' v='nor' />
  </node>
  <node id='-165303673' action='modify' lat='57.13256695996' lon='9.83896090508' />
  <node id='-165303674' action='modify' lat='57.1342787335' lon='9.83602255315' />
  <node id='-165303675' action='modify' lat='57.13825802011' lon='9.83071714371' />
  <node id='-165303676' action='modify' lat='57.14007722956' lon='9.82675820321' />
  <node id='-165303677' action='modify' lat='57.14558353785' lon='9.80838288668'>
    <tag k='name' v='bie' />
  </node>
  <node id='-165303678' action='modify' lat='57.14956332303' lon='9.79510008752' />
  <node id='-165303679' action='modify' lat='57.15010456228' lon='9.79321449727' />
  <node id='-165303680' action='modify' lat='57.15709342163' lon='9.76552873582' />
  <node id='-165303681' action='modify' lat='57.15791529687' lon='9.76017236441' />
  <node id='-165303682' action='modify' lat='57.15826730578' lon='9.75553938354'>
    <tag k='name' v='kno' />
  </node>
  <node id='-165303683' action='modify' lat='57.15892334191' lon='9.74690481752' />
  <node id='-165303684' action='modify' lat='57.15953862863' lon='9.74213182658' />
  <node id='-165303685' action='modify' lat='57.16059753783' lon='9.73682909936' />
  <node id='-165303686' action='modify' lat='57.16123897769' lon='9.72923308343' />
  <node id='-165303687' action='modify' lat='57.16120505643' lon='9.7283425044'>
    <tag k='name' v='aab' />
  </node>
  <node id='-165303688' action='modify' lat='57.16039827176' lon='9.7071611774' />
  <node id='-165303689' action='modify' lat='57.16015390656' lon='9.70418393075'>
    <tag k='name' v='rya' />
  </node>
  <node id='-165303690' action='modify' lat='57.15705851116' lon='9.69339072168' />
  <node id='-165303691' action='modify' lat='57.15405596285' lon='9.68717336118' />
  <node id='-165303692' action='modify' lat='57.15246439704' lon='9.68456625402' />
  <node id='-165303693' action='modify' lat='57.14874638738' lon='9.68007916407'>
    <tag k='name' v='bir' />
  </node>
  <node id='-165303694' action='modify' lat='57.14722367538' lon='9.67824160516' />
  <node id='-165303695' action='modify' lat='57.14452009229' lon='9.67348873079' />
  <node id='-165303696' action='modify' lat='57.13448884939' lon='9.64799491499'>
    <tag k='name' v='ulv' />
  </node>
  <node id='-165303697' action='modify' lat='57.12854748516' lon='9.63289854358'>
    <tag k='name' v='lan' />
  </node>
  <node id='-165303698' action='modify' lat='57.12460643756' lon='9.62288609924'>
    <tag k='name' v='are' />
  </node>
  <node id='-165303699' action='modify' lat='57.11255978382' lon='9.59228752971' />
  <node id='-165303700' action='modify' lat='57.11060522216' lon='9.5867621845'>
    <tag k='name' v='hal' />
  </node>
  <node id='-165303701' action='modify' lat='57.10996144775' lon='9.58420872152' />
  <node id='-165303702' action='modify' lat='57.10526534309' lon='9.5618873781'>
    <tag k='name' v='jag' />
  </node>
  <node id='-165303703' action='modify' lat='57.10478462883' lon='9.55963968694' />
  <node id='-165303704' action='modify' lat='57.10092120778' lon='9.54014539182' />
  <node id='-165303705' action='modify' lat='57.10010826765' lon='9.53284977794' />
  <node id='-165303706' action='modify' lat='57.09997321967' lon='9.519618131'>
    <tag k='name' v='bro' />
  </node>
  <node id='-165303707' action='modify' lat='57.09992178358' lon='9.51457857013' />
  <node id='-165303708' action='modify' lat='57.09717685969' lon='9.50579702318' />
  <node id='-165303709' action='modify' lat='57.09182338768' lon='9.49967622221' />
  <node id='-165303710' action='modify' lat='57.08917405112' lon='9.49113070428' />
  <node id='-165303711' action='modify' lat='57.08915947779' lon='9.49084102571' />
  <node id='-165303712' action='modify' lat='57.08918716566' lon='9.48740243644'>
    <tag k='name' v='sko' />
  </node>
  <node id='-165303713' action='modify' lat='57.09023205971' lon='9.47956501901' />
  <node id='-165303714' action='modify' lat='57.09074210817' lon='9.4773602432' />
  <node id='-165303715' action='modify' lat='57.088188881' lon='9.46420132577' />
  <node id='-165303716' action='modify' lat='57.08695009443' lon='9.46278511941' />
  <node id='-165303717' action='modify' lat='57.08659739558' lon='9.46228623122'>
    <tag k='name' v='arv' />
  </node>
  <node id='-165303718' action='modify' lat='57.08475078053' lon='9.45640951127' />
  <node id='-165303719' action='modify' lat='57.08390072114' lon='9.44841238854' />
  <node id='-165303720' action='modify' lat='57.08380056543' lon='9.44762602581'>
    <tag k='name' v='arh' />
  </node>
  <node id='-165303721' action='modify' lat='57.0834725251' lon='9.44598644704' />
  <node id='-165303722' action='modify' lat='57.08188958591' lon='9.43983613908' />
  <node id='-165303723' action='modify' lat='57.07986198077' lon='9.43438857526' />
  <node id='-165303724' action='modify' lat='57.07527286095' lon='9.42569285363' />
  <node id='-165303725' action='modify' lat='57.0733731972' lon='9.42103385389' />
  <node id='-165303726' action='modify' lat='57.07081002585' lon='9.41211819112' />
  <node id='-165303727' action='modify' lat='57.07015097934' lon='9.40708100259' />
  <node id='-165303728' action='modify' lat='57.0699964225' lon='9.39634680212' />
  <node id='-165303729' action='modify' lat='57.06947442385' lon='9.39234494627' />
  <node id='-165303730' action='modify' lat='57.06785297342' lon='9.38578962743' />
  <node id='-165303731' action='modify' lat='57.0659879262' lon='9.38173680961' />
  <node id='-165303732' action='modify' lat='57.06563940424' lon='9.38128351629' />
  <node id='-165303733' action='modify' lat='57.06329590868' lon='9.37425881356' />
  <node id='-165303734' action='modify' lat='57.06323319958' lon='9.3733173582' />
  <node id='-165303735' action='modify' lat='57.06289486178' lon='9.37073707044' />
  <node id='-165303736' action='modify' lat='57.06274169392' lon='9.37003956924'>
    <tag k='name' v='bon' />
  </node>
  <node id='-165303737' action='modify' lat='57.06137521379' lon='9.36381697118' />
  <node id='-165303738' action='modify' lat='57.0611695738' lon='9.35632288188' />
  <node id='-165303739' action='modify' lat='57.0616204267' lon='9.35388239963'>
    <tag k='name' v='mya' />
  </node>
  <node id='-165303740' action='modify' lat='57.06214671126' lon='9.3510335657' />
  <node id='-165303741' action='modify' lat='57.06183169662' lon='9.34321224421' />
  <node id='-165303742' action='modify' lat='57.06169023084' lon='9.3427026245' />
  <node id='-165303743' action='modify' lat='57.06094059906' lon='9.33937400311'>
    <tag k='name' v='skr' />
  </node>
  <node id='-165303744' action='modify' lat='57.0608040672' lon='9.33362173988' />
  <node id='-165303745' action='modify' lat='57.06109532275' lon='9.33076808162' />
  <node id='-165303746' action='modify' lat='57.06256424316' lon='9.32405256643'>
    <tag k='name' v='hus' />
  </node>
  <node id='-165303747' action='modify' lat='57.0638340373' lon='9.32098209321' />
  <node id='-165303748' action='modify' lat='57.07029387095' lon='9.30882095754' />
  <node id='-165303749' action='modify' lat='57.07340527218' lon='9.30521606863'>
    <tag k='name' v='aga' />
  </node>
  <node id='-165303750' action='modify' lat='57.0755600635' lon='9.30433630407' />
  <node id='-165303751' action='modify' lat='57.07864769921' lon='9.3040198034' />
  <node id='-165303752' action='modify' lat='57.08363577257' lon='9.29668664396' />
  <node id='-165303753' action='modify' lat='57.08375820662' lon='9.29589271009' />
  <node id='-165303754' action='modify' lat='57.08451612266' lon='9.2924433893' />
  <node id='-165303755' action='modify' lat='57.08559758373' lon='9.28879558504' />
  <node id='-165303756' action='modify' lat='57.08605814248' lon='9.2826855129' />
  <node id='-165303757' action='modify' lat='57.08583077875' lon='9.28042172849' />
  <node id='-165303758' action='modify' lat='57.08574041585' lon='9.27689194143' />
  <node id='-165303759' action='modify' lat='57.08647922057' lon='9.26356664251'>
    <tag k='name' v='fje' />
  </node>
  <way id='-37645600' action='modify'>
    <nd ref='-165303654' />
    <nd ref='-165303655' />
    <tag k='type' v='straight' />
  </way>
  <way id='-37645601' action='modify'>
    <nd ref='-165303655' />
    <nd ref='-165303656' />
  </way>
  <way id='-37645602' action='modify'>
    <nd ref='-165303656' />
    <nd ref='-165303657' />
    <tag k='type' v='straight' />
  </way>
  <way id='-37645603' action='modify'>
    <nd ref='-165303657' />
    <nd ref='-165303658' />
  </way>
  <way id='-37645604' action='modify'>
    <nd ref='-165303658' />
    <nd ref='-165303659' />
    <tag k='type' v='straight' />
  </way>
  <way id='-37645605' action='modify'>
    <nd ref='-165303659' />
    <nd ref='-165303660' />
  </way>
  <way id='-37645606' action='modify'>
    <nd ref='-165303660' />
    <nd ref='-165303661' />
    <tag k='type' v='straight' />
  </way>
  <way id='-37645607' action='modify'>
    <nd ref='-165303661' />
    <nd ref='-165303662' />
  </way>
  <way id='-37645608' action='modify'>
    <nd ref='-165303662' />
    <nd ref='-165303663' />
    <tag k='type' v='straight' />
  </way>
  <way id='-37645609' action='modify'>
    <nd ref='-165303663' />
    <nd ref='-165303664' />
  </way>
  <way id='-37645610' action='modify'>
    <nd ref='-165303664' />
    <nd ref='-165303665' />
    <nd ref='-165303666' />
    <tag k='type' v='straight' />
  </way>
  <way id='-37645611' action='modify'>
    <nd ref='-165303666' />
    <nd ref='-165303667' />
  </way>
  <way id='-37645612' action='modify'>
    <nd ref='-165303667' />
    <nd ref='-165303668' />
    <tag k='type' v='straight' />
  </way>
  <way id='-37645613' action='modify'>
    <nd ref='-165303668' />
    <nd ref='-165303669' />
    <nd ref='-165303670' />
  </way>
  <way id='-37645614' action='modify'>
    <nd ref='-165303670' />
    <nd ref='-165303671' />
    <nd ref='-165303672' />
    <nd ref='-165303673' />
    <tag k='type' v='straight' />
  </way>
  <way id='-37645615' action='modify'>
    <nd ref='-165303673' />
    <nd ref='-165303674' />
  </way>
  <way id='-37645616' action='modify'>
    <nd ref='-165303674' />
    <nd ref='-165303675' />
    <tag k='type' v='straight' />
  </way>
  <way id='-37645617' action='modify'>
    <nd ref='-165303675' />
    <nd ref='-165303676' />
  </way>
  <way id='-37645618' action='modify'>
    <nd ref='-165303676' />
    <nd ref='-165303677' />
    <nd ref='-165303678' />
    <tag k='type' v='straight' />
  </way>
  <way id='-37645619' action='modify'>
    <nd ref='-165303678' />
    <nd ref='-165303679' />
  </way>
  <way id='-37645620' action='modify'>
    <nd ref='-165303679' />
    <nd ref='-165303680' />
    <tag k='type' v='straight' />
  </way>
  <way id='-37645621' action='modify'>
    <nd ref='-165303680' />
    <nd ref='-165303681' />
  </way>
  <way id='-37645622' action='modify'>
    <nd ref='-165303681' />
    <nd ref='-165303682' />
    <nd ref='-165303683' />
    <tag k='type' v='straight' />
  </way>
  <way id='-37645623' action='modify'>
    <nd ref='-165303683' />
    <nd ref='-165303684' />
  </way>
  <way id='-37645624' action='modify'>
    <nd ref='-165303684' />
    <nd ref='-165303685' />
    <tag k='type' v='straight' />
  </way>
  <way id='-37645625' action='modify'>
    <nd ref='-165303685' />
    <nd ref='-165303686' />
  </way>
  <way id='-37645626' action='modify'>
    <nd ref='-165303686' />
    <nd ref='-165303687' />
    <nd ref='-165303688' />
    <tag k='type' v='straight' />
  </way>
  <way id='-37645627' action='modify'>
    <nd ref='-165303688' />
    <nd ref='-165303689' />
    <nd ref='-165303690' />
  </way>
  <way id='-37645628' action='modify'>
    <nd ref='-165303690' />
    <nd ref='-165303691' />
    <tag k='type' v='straight' />
  </way>
  <way id='-37645629' action='modify'>
    <nd ref='-165303691' />
    <nd ref='-165303692' />
  </way>
  <way id='-37645630' action='modify'>
    <nd ref='-165303692' />
    <nd ref='-165303693' />
    <nd ref='-165303694' />
    <tag k='type' v='straight' />
  </way>
  <way id='-37645631' action='modify'>
    <nd ref='-165303694' />
    <nd ref='-165303695' />
  </way>
  <way id='-37645632' action='modify'>
    <nd ref='-165303695' />
    <nd ref='-165303696' />
    <nd ref='-165303697' />
    <nd ref='-165303698' />
    <nd ref='-165303699' />
    <tag k='type' v='straight' />
  </way>
  <way id='-37645633' action='modify'>
    <nd ref='-165303699' />
    <nd ref='-165303700' />
    <nd ref='-165303701' />
  </way>
  <way id='-37645634' action='modify'>
    <nd ref='-165303701' />
    <nd ref='-165303702' />
    <tag k='type' v='straight' />
  </way>
  <way id='-37645635' action='modify'>
    <nd ref='-165303702' />
    <nd ref='-165303703' />
  </way>
  <way id='-37645636' action='modify'>
    <nd ref='-165303703' />
    <nd ref='-165303704' />
    <tag k='type' v='straight' />
  </way>
  <way id='-37645637' action='modify'>
    <nd ref='-165303704' />
    <nd ref='-165303705' />
  </way>
  <way id='-37645638' action='modify'>
    <nd ref='-165303705' />
    <nd ref='-165303706' />
    <nd ref='-165303707' />
    <tag k='type' v='straight' />
  </way>
  <way id='-37645639' action='modify'>
    <nd ref='-165303707' />
    <nd ref='-165303708' />
  </way>
  <way id='-37645640' action='modify'>
    <nd ref='-165303708' />
    <nd ref='-165303709' />
    <tag k='type' v='straight' />
  </way>
  <way id='-37645641' action='modify'>
    <nd ref='-165303709' />
    <nd ref='-165303710' />
  </way>
  <way id='-37645642' action='modify'>
    <nd ref='-165303710' />
    <nd ref='-165303711' />
    <tag k='type' v='straight' />
  </way>
  <way id='-37645643' action='modify'>
    <nd ref='-165303711' />
    <nd ref='-165303712' />
    <nd ref='-165303713' />
  </way>
  <way id='-37645644' action='modify'>
    <nd ref='-165303713' />
    <nd ref='-165303714' />
    <tag k='type' v='straight' />
  </way>
  <way id='-37645645' action='modify'>
    <nd ref='-165303714' />
    <nd ref='-165303715' />
  </way>
  <way id='-37645646' action='modify'>
    <nd ref='-165303715' />
    <nd ref='-165303716' />
    <tag k='type' v='straight' />
  </way>
  <way id='-37645647' action='modify'>
    <nd ref='-165303716' />
    <nd ref='-165303717' />
    <nd ref='-165303718' />
  </way>
  <way id='-37645648' action='modify'>
    <nd ref='-165303718' />
    <nd ref='-165303719' />
    <tag k='type' v='straight' />
  </way>
  <way id='-37645649' action='modify'>
    <nd ref='-165303719' />
    <nd ref='-165303720' />
    <nd ref='-165303721' />
  </way>
  <way id='-37645650' action='modify'>
    <nd ref='-165303721' />
    <nd ref='-165303722' />
    <tag k='type' v='straight' />
  </way>
  <way id='-37645651' action='modify'>
    <nd ref='-165303722' />
    <nd ref='-165303723' />
  </way>
  <way id='-37645652' action='modify'>
    <nd ref='-165303723' />
    <nd ref='-165303724' />
    <tag k='type' v='straight' />
  </way>
  <way id='-37645653' action='modify'>
    <nd ref='-165303724' />
    <nd ref='-165303725' />
  </way>
  <way id='-37645654' action='modify'>
    <nd ref='-165303725' />
    <nd ref='-165303726' />
    <tag k='type' v='straight' />
  </way>
  <way id='-37645655' action='modify'>
    <nd ref='-165303726' />
    <nd ref='-165303727' />
  </way>
  <way id='-37645656' action='modify'>
    <nd ref='-165303727' />
    <nd ref='-165303728' />
    <tag k='type' v='straight' />
  </way>
  <way id='-37645657' action='modify'>
    <nd ref='-165303728' />
    <nd ref='-165303729' />
  </way>
  <way id='-37645658' action='modify'>
    <nd ref='-165303729' />
    <nd ref='-165303730' />
    <tag k='type' v='straight' />
  </way>
  <way id='-37645659' action='modify'>
    <nd ref='-165303730' />
    <nd ref='-165303731' />
  </way>
  <way id='-37645660' action='modify'>
    <nd ref='-165303731' />
    <nd ref='-165303732' />
    <tag k='type' v='straight' />
  </way>
  <way id='-37645661' action='modify'>
    <nd ref='-165303732' />
    <nd ref='-165303733' />
  </way>
  <way id='-37645662' action='modify'>
    <nd ref='-165303733' />
    <nd ref='-165303734' />
    <tag k='type' v='straight' />
  </way>
  <way id='-37645663' action='modify'>
    <nd ref='-165303734' />
    <nd ref='-165303735' />
  </way>
  <way id='-37645664' action='modify'>
    <nd ref='-165303735' />
    <nd ref='-165303736' />
    <nd ref='-165303737' />
    <tag k='type' v='straight' />
  </way>
  <way id='-37645665' action='modify'>
    <nd ref='-165303737' />
    <nd ref='-165303738' />
  </way>
  <way id='-37645666' action='modify'>
    <nd ref='-165303738' />
    <nd ref='-165303739' />
    <nd ref='-165303740' />
    <tag k='type' v='straight' />
  </way>
  <way id='-37645667' action='modify'>
    <nd ref='-165303740' />
    <nd ref='-165303741' />
  </way>
  <way id='-37645668' action='modify'>
    <nd ref='-165303741' />
    <nd ref='-165303742' />
    <tag k='type' v='straight' />
  </way>
  <way id='-37645669' action='modify'>
    <nd ref='-165303742' />
    <nd ref='-165303743' />
    <nd ref='-165303744' />
  </way>
  <way id='-37645670' action='modify'>
    <nd ref='-165303744' />
    <nd ref='-165303745' />
    <tag k='type' v='straight' />
  </way>
  <way id='-37645671' action='modify'>
    <nd ref='-165303745' />
    <nd ref='-165303746' />
    <nd ref='-165303747' />
  </way>
  <way id='-37645672' action='modify'>
    <nd ref='-165303747' />
    <nd ref='-165303748' />
    <tag k='type' v='straight' />
  </way>
  <way id='-37645673' action='modify'>
    <nd ref='-165303748' />
    <nd ref='-165303749' />
    <nd ref='-165303750' />
  </way>
  <way id='-37645674' action='modify'>
    <nd ref='-165303750' />
    <nd ref='-165303751' />
    <tag k='type' v='straight' />
  </way>
  <way id='-37645675' action='modify'>
    <nd ref='-165303751' />
    <nd ref='-165303752' />
  </way>
  <way id='-37645676' action='modify'>
    <nd ref='-165303752' />
    <nd ref='-165303753' />
    <tag k='type' v='straight' />
  </way>
  <way id='-37645677' action='modify'>
    <nd ref='-165303753' />
    <nd ref='-165303754' />
  </way>
  <way id='-37645678' action='modify'>
    <nd ref='-165303754' />
    <nd ref='-165303755' />
    <tag k='type' v='straight' />
  </way>
  <way id='-37645679' action='modify'>
    <nd ref='-165303755' />
    <nd ref='-165303756' />
  </way>
  <way id='-37645680' action='modify'>
    <nd ref='-165303756' />
    <nd ref='-165303757' />
    <tag k='type' v='straight' />
  </way>
  <way id='-37645681' action='modify'>
    <nd ref='-165303757' />
    <nd ref='-165303758' />
  </way>
  <way id='-37645682' action='modify'>
    <nd ref='-165303758' />
    <nd ref='-165303759' />
    <tag k='type' v='straight' />
  </way>
  <relation id='-14479954' action='modify'>
    <member type='way' ref='-37645600' role='' />
    <member type='way' ref='-37645601' role='' />
    <member type='way' ref='-37645602' role='' />
    <member type='way' ref='-37645603' role='' />
    <member type='way' ref='-37645604' role='' />
    <member type='way' ref='-37645605' role='' />
    <member type='way' ref='-37645606' role='' />
    <member type='way' ref='-37645607' role='' />
    <member type='way' ref='-37645608' role='' />
    <member type='way' ref='-37645609' role='' />
    <member type='way' ref='-37645610' role='' />
    <member type='way' ref='-37645611' role='' />
    <member type='way' ref='-37645612' role='' />
    <member type='way' ref='-37645613' role='' />
    <member type='way' ref='-37645614' role='' />
    <member type='way' ref='-37645615' role='' />
    <member type='way' ref='-37645616' role='' />
    <member type='way' ref='-37645617' role='' />
    <member type='way' ref='-37645618' role='' />
    <member type='way' ref='-37645619' role='' />
    <member type='way' ref='-37645620' role='' />
    <member type='way' ref='-37645621' role='' />
    <member type='way' ref='-37645622' role='' />
    <member type='way' ref='-37645623' role='' />
    <member type='way' ref='-37645624' role='' />
    <member type='way' ref='-37645625' role='' />
    <member type='way' ref='-37645626' role='' />
    <member type='way' ref='-37645627' role='' />
    <member type='way' ref='-37645628' role='' />
    <member type='way' ref='-37645629' role='' />
    <member type='way' ref='-37645630' role='' />
    <member type='way' ref='-37645631' role='' />
    <member type='way' ref='-37645632' role='' />
    <member type='way' ref='-37645633' role='' />
    <member type='way' ref='-37645634' role='' />
    <member type='way' ref='-37645635' role='' />
    <member type='way' ref='-37645636' role='' />
    <member type='way' ref='-37645637' role='' />
    <member type='way' ref='-37645638' role='' />
    <member type='way' ref='-37645639' role='' />
    <member type='way' ref='-37645640' role='' />
    <member type='way' ref='-37645641' role='' />
    <member type='way' ref='-37645642' role='' />
    <member type='way' ref='-37645643' role='' />
    <member type='way' ref='-37645644' role='' />
    <member type='way' ref='-37645645' role='' />
    <member type='way' ref='-37645646' role='' />
    <member type='way' ref='-37645647' role='' />
    <member type='way' ref='-37645648' role='' />
    <member type='way' ref='-37645649' role='' />
    <member type='way' ref='-37645650' role='' />
    <member type='way' ref='-37645651' role='' />
    <member type='way' ref='-37645652' role='' />
    <member type='way' ref='-37645653' role='' />
    <member type='way' ref='-37645654' role='' />
    <member type='way' ref='-37645655' role='' />
    <member type='way' ref='-37645656' role='' />
    <member type='way' ref='-37645657' role='' />
    <member type='way' ref='-37645658' role='' />
    <member type='way' ref='-37645659' role='' />
    <member type='way' ref='-37645660' role='' />
    <member type='way' ref='-37645661' role='' />
    <member type='way' ref='-37645662' role='' />
    <member type='way' ref='-37645663' role='' />
    <member type='way' ref='-37645664' role='' />
    <member type='way' ref='-37645665' role='' />
    <member type='way' ref='-37645666' role='' />
    <member type='way' ref='-37645667' role='' />
    <member type='way' ref='-37645668' role='' />
    <member type='way' ref='-37645669' role='' />
    <member type='way' ref='-37645670' role='' />
    <member type='way' ref='-37645671' role='' />
    <member type='way' ref='-37645672' role='' />
    <member type='way' ref='-37645673' role='' />
    <member type='way' ref='-37645674' role='' />
    <member type='way' ref='-37645675' role='' />
    <member type='way' ref='-37645676' role='' />
    <member type='way' ref='-37645677' role='' />
    <member type='way' ref='-37645678' role='' />
    <member type='way' ref='-37645679' role='' />
    <member type='way' ref='-37645680' role='' />
    <member type='way' ref='-37645681' role='' />
    <member type='way' ref='-37645682' role='' />
    <tag k='key' v='path.dk.nsf' />
    <tag k='name' v='DK NSF' />
    <tag k='type' v='path' />
  </relation>
</osm>
