<?xml version='1.0' encoding='UTF-8'?>
<osm version='0.6' upload='false' generator='JOSM'>
  <node id='-149678266' action='modify' lat='55.3121651645' lon='10.79923296535'>
    <tag k='name' v='nyf' />
  </node>
  <node id='-149678267' action='modify' lat='55.31388037189' lon='10.79979121417' />
  <node id='-149678268' action='modify' lat='55.30797890433' lon='10.80503224254' />
  <node id='-149678269' action='modify' lat='55.30629959336' lon='10.81784246206' />
  <node id='-149678270' action='modify' lat='55.3052064663' lon='10.82264899135' />
  <node id='-149678271' action='modify' lat='55.30377570831' lon='10.82543144733'>
    <tag k='name' v='ska' />
  </node>
  <node id='-149678272' action='modify' lat='55.29337257891' lon='10.84570524931'>
    <tag k='name' v='knu' />
  </node>
  <node id='-149678273' action='modify' lat='55.28836616142' lon='10.84269044638' />
  <node id='-149678274' action='modify' lat='55.28599560558' lon='10.83125350714' />
  <node id='-149678275' action='modify' lat='55.2877582526' lon='10.82605540216' />
  <node id='-149678276' action='modify' lat='55.28810541962' lon='10.82612836032'>
    <tag k='name' v='sli' />
  </node>
  <node id='-149678277' action='modify' lat='55.28962163415' lon='10.82644700468' />
  <way id='-36698685' action='modify'>
    <nd ref='-149678267' />
    <nd ref='-149678266' />
    <tag k='type' v='straight' />
  </way>
  <way id='-36698686' action='modify'>
    <nd ref='-149678266' />
    <nd ref='-149678268' />
  </way>
  <way id='-36698687' action='modify'>
    <nd ref='-149678268' />
    <nd ref='-149678269' />
    <tag k='type' v='straight' />
  </way>
  <way id='-36698688' action='modify'>
    <nd ref='-149678269' />
    <nd ref='-149678270' />
  </way>
  <way id='-36698689' action='modify'>
    <nd ref='-149678270' />
    <nd ref='-149678271' />
    <nd ref='-149678272' />
    <tag k='type' v='straight' />
  </way>
  <way id='-36698690' action='modify'>
    <nd ref='-149678272' />
    <nd ref='-149678273' />
  </way>
  <way id='-36698691' action='modify'>
    <nd ref='-149678273' />
    <nd ref='-149678274' />
    <tag k='type' v='straight' />
  </way>
  <way id='-36698692' action='modify'>
    <nd ref='-149678274' />
    <nd ref='-149678275' />
  </way>
  <way id='-36698693' action='modify'>
    <nd ref='-149678275' />
    <nd ref='-149678276' />
    <nd ref='-149678277' />
    <tag k='type' v='straight' />
  </way>
  <relation id='-14470155' action='modify'>
    <member type='way' ref='-36698685' role='' />
    <member type='way' ref='-36698686' role='' />
    <member type='way' ref='-36698687' role='' />
    <member type='way' ref='-36698688' role='' />
    <member type='way' ref='-36698689' role='' />
    <member type='way' ref='-36698690' role='' />
    <member type='way' ref='-36698691' role='' />
    <member type='way' ref='-36698692' role='' />
    <member type='way' ref='-36698693' role='' />
    <tag k='key' v='path.dk.nsh' />
    <tag k='name' v='DK NSH' />
    <tag k='type' v='path' />
  </relation>
</osm>
