<?xml version='1.0' encoding='UTF-8'?>
<osm version='0.6' upload='false' generator='JOSM'>
  <node id='-146857843' action='modify' lat='55.30494081199' lon='10.79472183645'>
    <tag k='name' v='nyf.a' />
  </node>
  <node id='-146857844' action='modify' lat='55.30597897922' lon='10.79523682058' />
  <node id='-146857845' action='modify' lat='55.31009172811' lon='10.79855815591' />
  <node id='-146857846' action='modify' lat='55.3111576437' lon='10.79890505865'>
    <tag k='name' v='nyf' />
  </node>
  <node id='-146857847' action='modify' lat='55.31388037189' lon='10.79979121417' />
  <node id='-146857848' action='modify' lat='55.31655789194' lon='10.79903765184'>
    <tag k='name' v='nyb' />
  </node>
  <node id='-146857849' action='modify' lat='55.31672000541' lon='10.79877948017' />
  <way id='-36532189' action='modify'>
    <nd ref='-146857843' />
    <nd ref='-146857844' />
    <tag k='type' v='straight' />
  </way>
  <way id='-36532190' action='modify'>
    <nd ref='-146857844' />
    <nd ref='-146857845' />
  </way>
  <way id='-36532191' action='modify'>
    <nd ref='-146857845' />
    <nd ref='-146857846' />
    <nd ref='-146857847' />
    <tag k='type' v='straight' />
  </way>
  <way id='-36532192' action='modify'>
    <nd ref='-146857847' />
    <nd ref='-146857848' />
  </way>
  <way id='-36532193' action='modify'>
    <nd ref='-146857848' />
    <nd ref='-146857849' />
    <tag k='type' v='straight' />
  </way>
  <relation id='-14468909' action='modify'>
    <member type='way' ref='-36532189' role='' />
    <member type='way' ref='-36532190' role='' />
    <member type='way' ref='-36532191' role='' />
    <member type='way' ref='-36532192' role='' />
    <member type='way' ref='-36532193' role='' />
    <tag k='key' v='path.dk.nyb' />
    <tag k='name' v='DK NYB' />
    <tag k='type' v='path' />
  </relation>
</osm>
