<?xml version='1.0' encoding='UTF-8'?>
<osm version='0.6' upload='false' generator='JOSM'>
  <node id='-175988261' action='modify' lat='56.79349250627' lon='8.86288493738'>
    <tag k='name' v='nyf' />
  </node>
  <node id='-175988262' action='modify' lat='56.79349617861' lon='8.8625362502' />
  <node id='-175988263' action='modify' lat='56.79341832577' lon='8.86057555407' />
  <node id='-175988264' action='modify' lat='56.79311612836' lon='8.85737405897'>
    <tag k='name' v='nyk' />
  </node>
  <node id='-175988265' action='modify' lat='56.79266181715' lon='8.85256111085'>
    <tag k='name' v='nym.f' />
  </node>
  <way id='-38394325' action='modify'>
    <nd ref='-175988261' />
    <nd ref='-175988262' />
    <tag k='type' v='straight' />
  </way>
  <way id='-38394326' action='modify'>
    <nd ref='-175988262' />
    <nd ref='-175988263' />
  </way>
  <way id='-38394327' action='modify'>
    <nd ref='-175988263' />
    <nd ref='-175988264' />
    <nd ref='-175988265' />
    <tag k='type' v='straight' />
  </way>
  <relation id='-14486477' action='modify'>
    <member type='way' ref='-38394325' role='' />
    <member type='way' ref='-38394326' role='' />
    <member type='way' ref='-38394327' role='' />
    <tag k='key' v='path.dk.nym' />
    <tag k='name' v='DK NYM' />
    <tag k='type' v='path' />
  </relation>
</osm>
