<?xml version='1.0' encoding='UTF-8'?>
<osm version='0.6' upload='false' generator='JOSM'>
  <node id='-139145035' action='modify' lat='55.76175380281' lon='12.52183751404' />
  <node id='-139145036' action='modify' lat='55.76179840751' lon='12.52170376479'>
    <tag k='name' v='jag' />
  </node>
  <node id='-139145037' action='modify' lat='55.76483977676' lon='12.51894369654' />
  <node id='-139145038' action='modify' lat='55.76528718859' lon='12.51918174259' />
  <node id='-139145039' action='modify' lat='55.7684630618' lon='12.51746177539' />
  <node id='-139145040' action='modify' lat='55.76977799886' lon='12.51462399825' />
  <node id='-139145041' action='modify' lat='55.77042715252' lon='12.51337576523'>
    <tag k='name' v='nor' />
  </node>
  <node id='-139145042' action='modify' lat='55.7711502238' lon='12.51226097211' />
  <node id='-139145043' action='modify' lat='55.7718947771' lon='12.51121703705' />
  <node id='-139145044' action='modify' lat='55.77288146671' lon='12.50983357295' />
  <node id='-139145045' action='modify' lat='55.77388623088' lon='12.50636883013' />
  <node id='-139145046' action='modify' lat='55.77391640359' lon='12.50560641222' />
  <node id='-139145047' action='modify' lat='55.77396196125' lon='12.50491839116'>
    <tag k='name' v='lyl' />
  </node>
  <node id='-139145048' action='modify' lat='55.77475598341' lon='12.50227195292'>
    <tag k='name' v='sme' />
  </node>
  <node id='-139145049' action='modify' lat='55.77734462554' lon='12.50095546179' />
  <node id='-139145050' action='modify' lat='55.77789711054' lon='12.50114522807' />
  <node id='-139145051' action='modify' lat='55.78028605242' lon='12.50038461757'>
    <tag k='name' v='slo' />
  </node>
  <node id='-139145052' action='modify' lat='55.78057495597' lon='12.49998091764' />
  <node id='-139145053' action='modify' lat='55.78155002072' lon='12.49848408674' />
  <node id='-139145054' action='modify' lat='55.78463903891' lon='12.49721916422'>
    <tag k='name' v='fug' />
  </node>
  <node id='-139145055' action='modify' lat='55.78616297936' lon='12.49837057979' />
  <node id='-139145056' action='modify' lat='55.78644650722' lon='12.49870414969' />
  <node id='-139145057' action='modify' lat='55.78723842546' lon='12.49977557444' />
  <node id='-139145058' action='modify' lat='55.78742642814' lon='12.50006612116' />
  <node id='-139145059' action='modify' lat='55.78945038661' lon='12.50185178323' />
  <node id='-139145060' action='modify' lat='55.79003648652' lon='12.5019817461'>
    <tag k='name' v='bor' />
  </node>
  <node id='-139145061' action='modify' lat='55.79056573513' lon='12.50209910434' />
  <node id='-139145062' action='modify' lat='55.79245432396' lon='12.50161250928' />
  <node id='-139145063' action='modify' lat='55.79292436434' lon='12.50128558224' />
  <node id='-139145064' action='modify' lat='55.79396003972' lon='12.50081409739' />
  <node id='-139145065' action='modify' lat='55.79449797978' lon='12.50072101633'>
    <tag k='name' v='bre' />
  </node>
  <node id='-139145066' action='modify' lat='55.79532022726' lon='12.50057873838' />
  <node id='-139145067' action='modify' lat='55.79887932589' lon='12.50498263685' />
  <node id='-139145068' action='modify' lat='55.79992962944' lon='12.5108610238'>
    <tag k='name' v='orh' />
  </node>
  <node id='-139145069' action='modify' lat='55.80014323022' lon='12.51205653381' />
  <node id='-139145070' action='modify' lat='55.80058773479' lon='12.51411686006' />
  <node id='-139145071' action='modify' lat='55.8018380914' lon='12.51877456881' />
  <node id='-139145072' action='modify' lat='55.80209980494' lon='12.5196584995'>
    <tag k='name' v='lun' />
  </node>
  <node id='-139145073' action='modify' lat='55.80274640717' lon='12.52123152989' />
  <node id='-139145074' action='modify' lat='55.80351178132' lon='12.52274864564' />
  <node id='-139145075' action='modify' lat='55.80677246602' lon='12.52587606092'>
    <tag k='name' v='rav' />
  </node>
  <node id='-139145076' action='modify' lat='55.80759514391' lon='12.526087499' />
  <node id='-139145077' action='modify' lat='55.81005154808' lon='12.52766541866' />
  <node id='-139145078' action='modify' lat='55.81044482222' lon='12.52812304234'>
    <tag k='name' v='nar.ys' />
  </node>
  <node id='-139145079' action='modify' lat='55.81277166917' lon='12.52885163435' />
  <node id='-139145080' action='modify' lat='55.81407893626' lon='12.52810680636'>
    <tag k='name' v='nar' />
  </node>
  <node id='-139145081' action='modify' lat='55.81154922729' lon='12.52910255313' />
  <node id='-139145082' action='modify' lat='55.81332765659' lon='12.53034709811' />
  <node id='-139145083' action='modify' lat='55.81508188896' lon='12.53239094675' />
  <node id='-139145084' action='modify' lat='55.81872884203' lon='12.53859937051'>
    <tag k='name' v='nar' />
  </node>
  <node id='-139145085' action='modify' lat='55.82082630864' lon='12.54217027545' />
  <node id='-139145086' action='modify' lat='55.82284539021' lon='12.54430531919' />
  <node id='-139145087' action='modify' lat='55.82484285047' lon='12.54578337077'>
    <tag k='name' v='run' />
  </node>
  <node id='-139145088' action='modify' lat='55.82938409721' lon='12.54914401889' />
  <node id='-139145089' action='modify' lat='55.83051996895' lon='12.55027055204' />
  <node id='-139145090' action='modify' lat='55.83137260646' lon='12.55133270681' />
  <node id='-139145091' action='modify' lat='55.834927572' lon='12.5527274555' />
  <node id='-139145092' action='modify' lat='55.835668651' lon='12.55230366647' />
  <node id='-139145093' action='modify' lat='55.83843740798' lon='12.55267619106'>
    <tag k='name' v='fry' />
  </node>
  <node id='-139145094' action='modify' lat='55.83997928174' lon='12.55404173791' />
  <node id='-139145095' action='modify' lat='55.84140099225' lon='12.55588709772' />
  <node id='-139145096' action='modify' lat='55.84261783876' lon='12.55834400117' />
  <node id='-139145097' action='modify' lat='55.84325034295' lon='12.56003915727' />
  <node id='-139145098' action='modify' lat='55.84581037362' lon='12.56258179038' />
  <node id='-139145099' action='modify' lat='55.85157017402' lon='12.56255026677' />
  <node id='-139145117' action='modify' lat='55.76213557074' lon='12.52069276034' />
  <way id='-36083988' action='modify'>
    <nd ref='-139145035' />
    <nd ref='-139145036' />
    <nd ref='-139145117' />
    <tag k='type' v='straight' />
  </way>
  <way id='-36083990' action='modify'>
    <nd ref='-139145037' />
    <nd ref='-139145038' />
    <tag k='type' v='straight' />
  </way>
  <way id='-36083991' action='modify'>
    <nd ref='-139145038' />
    <nd ref='-139145039' />
  </way>
  <way id='-36083992' action='modify'>
    <nd ref='-139145039' />
    <nd ref='-139145040' />
    <tag k='type' v='straight' />
  </way>
  <way id='-36083993' action='modify'>
    <nd ref='-139145040' />
    <nd ref='-139145041' />
    <nd ref='-139145042' />
  </way>
  <way id='-36083994' action='modify'>
    <nd ref='-139145042' />
    <nd ref='-139145043' />
    <nd ref='-139145044' />
    <tag k='type' v='straight' />
  </way>
  <way id='-36083995' action='modify'>
    <nd ref='-139145044' />
    <nd ref='-139145045' />
  </way>
  <way id='-36083996' action='modify'>
    <nd ref='-139145045' />
    <nd ref='-139145046' />
    <tag k='type' v='straight' />
  </way>
  <way id='-36083997' action='modify'>
    <nd ref='-139145046' />
    <nd ref='-139145047' />
    <nd ref='-139145048' />
    <nd ref='-139145049' />
  </way>
  <way id='-36083998' action='modify'>
    <nd ref='-139145049' />
    <nd ref='-139145050' />
    <tag k='type' v='straight' />
  </way>
  <way id='-36083999' action='modify'>
    <nd ref='-139145050' />
    <nd ref='-139145051' />
    <nd ref='-139145052' />
  </way>
  <way id='-36084000' action='modify'>
    <nd ref='-139145052' />
    <nd ref='-139145053' />
    <tag k='type' v='straight' />
  </way>
  <way id='-36084001' action='modify'>
    <nd ref='-139145053' />
    <nd ref='-139145054' />
    <nd ref='-139145055' />
  </way>
  <way id='-36084002' action='modify'>
    <nd ref='-139145055' />
    <nd ref='-139145056' />
    <tag k='type' v='straight' />
  </way>
  <way id='-36084003' action='modify'>
    <nd ref='-139145056' />
    <nd ref='-139145057' />
  </way>
  <way id='-36084004' action='modify'>
    <nd ref='-139145057' />
    <nd ref='-139145058' />
    <tag k='type' v='straight' />
  </way>
  <way id='-36084005' action='modify'>
    <nd ref='-139145058' />
    <nd ref='-139145059' />
  </way>
  <way id='-36084006' action='modify'>
    <nd ref='-139145059' />
    <nd ref='-139145060' />
    <nd ref='-139145061' />
    <tag k='type' v='straight' />
  </way>
  <way id='-36084007' action='modify'>
    <nd ref='-139145061' />
    <nd ref='-139145062' />
  </way>
  <way id='-36084008' action='modify'>
    <nd ref='-139145062' />
    <nd ref='-139145063' />
    <tag k='type' v='straight' />
  </way>
  <way id='-36084009' action='modify'>
    <nd ref='-139145063' />
    <nd ref='-139145064' />
  </way>
  <way id='-36084010' action='modify'>
    <nd ref='-139145064' />
    <nd ref='-139145065' />
    <nd ref='-139145066' />
    <tag k='type' v='straight' />
  </way>
  <way id='-36084011' action='modify'>
    <nd ref='-139145066' />
    <nd ref='-139145067' />
  </way>
  <way id='-36084012' action='modify'>
    <nd ref='-139145067' />
    <nd ref='-139145068' />
    <nd ref='-139145069' />
    <tag k='type' v='straight' />
  </way>
  <way id='-36084013' action='modify'>
    <nd ref='-139145069' />
    <nd ref='-139145070' />
  </way>
  <way id='-36084014' action='modify'>
    <nd ref='-139145070' />
    <nd ref='-139145071' />
    <tag k='type' v='straight' />
  </way>
  <way id='-36084015' action='modify'>
    <nd ref='-139145071' />
    <nd ref='-139145072' />
    <nd ref='-139145073' />
  </way>
  <way id='-36084016' action='modify'>
    <nd ref='-139145073' />
    <nd ref='-139145074' />
    <tag k='type' v='straight' />
  </way>
  <way id='-36084017' action='modify'>
    <nd ref='-139145074' />
    <nd ref='-139145075' />
  </way>
  <way id='-36084018' action='modify'>
    <nd ref='-139145075' />
    <nd ref='-139145076' />
    <tag k='type' v='straight' />
  </way>
  <way id='-36084019' action='modify'>
    <nd ref='-139145076' />
    <nd ref='-139145077' />
  </way>
  <way id='-36084020' action='modify'>
    <nd ref='-139145077' />
    <nd ref='-139145078' />
    <tag k='type' v='straight' />
  </way>
  <way id='-36084021' action='modify'>
    <nd ref='-139145078' />
    <nd ref='-139145079' />
  </way>
  <way id='-36084022' action='modify'>
    <nd ref='-139145079' />
    <nd ref='-139145080' />
    <tag k='type' v='straight' />
  </way>
  <way id='-36084023' action='modify'>
    <nd ref='-139145078' />
    <nd ref='-139145081' />
  </way>
  <way id='-36084024' action='modify'>
    <nd ref='-139145081' />
    <nd ref='-139145082' />
    <tag k='type' v='straight' />
  </way>
  <way id='-36084025' action='modify'>
    <nd ref='-139145082' />
    <nd ref='-139145083' />
  </way>
  <way id='-36084026' action='modify'>
    <nd ref='-139145083' />
    <nd ref='-139145084' />
    <nd ref='-139145085' />
    <tag k='type' v='straight' />
  </way>
  <way id='-36084027' action='modify'>
    <nd ref='-139145085' />
    <nd ref='-139145086' />
  </way>
  <way id='-36084028' action='modify'>
    <nd ref='-139145086' />
    <nd ref='-139145087' />
    <nd ref='-139145088' />
    <tag k='type' v='straight' />
  </way>
  <way id='-36084029' action='modify'>
    <nd ref='-139145088' />
    <nd ref='-139145089' />
  </way>
  <way id='-36084030' action='modify'>
    <nd ref='-139145089' />
    <nd ref='-139145090' />
    <tag k='type' v='straight' />
  </way>
  <way id='-36084031' action='modify'>
    <nd ref='-139145090' />
    <nd ref='-139145091' />
  </way>
  <way id='-36084032' action='modify'>
    <nd ref='-139145091' />
    <nd ref='-139145092' />
    <tag k='type' v='straight' />
  </way>
  <way id='-36084033' action='modify'>
    <nd ref='-139145092' />
    <nd ref='-139145093' />
    <nd ref='-139145094' />
  </way>
  <way id='-36084034' action='modify'>
    <nd ref='-139145094' />
    <nd ref='-139145095' />
    <tag k='type' v='straight' />
  </way>
  <way id='-36084035' action='modify'>
    <nd ref='-139145095' />
    <nd ref='-139145096' />
  </way>
  <way id='-36084036' action='modify'>
    <nd ref='-139145096' />
    <nd ref='-139145097' />
    <tag k='type' v='straight' />
  </way>
  <way id='-36084037' action='modify'>
    <nd ref='-139145097' />
    <nd ref='-139145098' />
  </way>
  <way id='-36084038' action='modify'>
    <nd ref='-139145098' />
    <nd ref='-139145099' />
    <tag k='type' v='straight' />
  </way>
  <way id='-36084053' action='modify'>
    <nd ref='-139145117' />
    <nd ref='-139145037' />
  </way>
  <relation id='-14465555' action='modify'>
    <member type='way' ref='-36083988' role='' />
    <member type='way' ref='-36084053' role='' />
    <member type='way' ref='-36083990' role='' />
    <member type='way' ref='-36083991' role='' />
    <member type='way' ref='-36083992' role='' />
    <member type='way' ref='-36083993' role='' />
    <member type='way' ref='-36083994' role='' />
    <member type='way' ref='-36083995' role='' />
    <member type='way' ref='-36083996' role='' />
    <member type='way' ref='-36083997' role='' />
    <member type='way' ref='-36083998' role='' />
    <member type='way' ref='-36083999' role='' />
    <member type='way' ref='-36084000' role='' />
    <member type='way' ref='-36084001' role='' />
    <member type='way' ref='-36084002' role='' />
    <member type='way' ref='-36084003' role='' />
    <member type='way' ref='-36084004' role='' />
    <member type='way' ref='-36084005' role='' />
    <member type='way' ref='-36084006' role='' />
    <member type='way' ref='-36084007' role='' />
    <member type='way' ref='-36084008' role='' />
    <member type='way' ref='-36084009' role='' />
    <member type='way' ref='-36084010' role='' />
    <member type='way' ref='-36084011' role='' />
    <member type='way' ref='-36084012' role='' />
    <member type='way' ref='-36084013' role='' />
    <member type='way' ref='-36084014' role='' />
    <member type='way' ref='-36084015' role='' />
    <member type='way' ref='-36084016' role='' />
    <member type='way' ref='-36084017' role='' />
    <member type='way' ref='-36084018' role='' />
    <member type='way' ref='-36084019' role='' />
    <member type='way' ref='-36084020' role='' />
    <member type='way' ref='-36084021' role='' />
    <member type='way' ref='-36084022' role='' />
    <tag k='key' v='path.dk.jbv.jn' />
    <tag k='name' v='DK JBV (JN)' />
    <tag k='type' v='path' />
  </relation>
  <relation id='-14465556' action='modify'>
    <member type='way' ref='-36084020' role='' />
    <member type='way' ref='-36084023' role='' />
    <member type='way' ref='-36084024' role='' />
    <member type='way' ref='-36084025' role='' />
    <member type='way' ref='-36084026' role='' />
    <member type='way' ref='-36084027' role='' />
    <member type='way' ref='-36084028' role='' />
    <member type='way' ref='-36084029' role='' />
    <member type='way' ref='-36084030' role='' />
    <member type='way' ref='-36084031' role='' />
    <member type='way' ref='-36084032' role='' />
    <member type='way' ref='-36084033' role='' />
    <member type='way' ref='-36084034' role='' />
    <member type='way' ref='-36084035' role='' />
    <member type='way' ref='-36084036' role='' />
    <member type='way' ref='-36084037' role='' />
    <member type='way' ref='-36084038' role='' />
    <tag k='key' v='path.dk.jbv.nv' />
    <tag k='name' v='DK JBV (NV)' />
    <tag k='type' v='path' />
  </relation>
</osm>
