<?xml version='1.0' encoding='UTF-8'?>
<osm version='0.6' upload='false' generator='JOSM'>
  <node id='-151002811' action='modify' lat='55.49059551206' lon='9.97289299428'>
    <tag k='name' v='bre' />
  </node>
  <node id='-151002813' action='modify' lat='55.49103618858' lon='9.97713624894' />
  <node id='-151002814' action='modify' lat='55.49137353073' lon='9.97934638917' />
  <node id='-151002815' action='modify' lat='55.49359657209' lon='9.98900502652' />
  <node id='-151002816' action='modify' lat='55.49486986481' lon='9.99313294619' />
  <node id='-151002817' action='modify' lat='55.49608690121' lon='9.99630867898' />
  <node id='-151002818' action='modify' lat='55.49687544528' lon='9.99810039729' />
  <node id='-151002819' action='modify' lat='55.5013249384' lon='10.00745203505'>
    <tag k='name' v='hol' />
  </node>
  <node id='-151002820' action='modify' lat='55.50178109158' lon='10.00841080606' />
  <node id='-151002821' action='modify' lat='55.50874426491' lon='10.01449942052' />
  <node id='-151002822' action='modify' lat='55.51517468831' lon='10.01577615201' />
  <node id='-151002823' action='modify' lat='55.51948129835' lon='10.02203106612' />
  <node id='-151002824' action='modify' lat='55.51973173222' lon='10.02348605393'>
    <tag k='name' v='mej' />
  </node>
  <node id='-151002825' action='modify' lat='55.52625612185' lon='10.06139516294' />
  <node id='-151002826' action='modify' lat='55.52636867787' lon='10.06198465126'>
    <tag k='name' v='esk' />
  </node>
  <node id='-151002827' action='modify' lat='55.52676167994' lon='10.06368577212' />
  <node id='-151002828' action='modify' lat='55.52920740817' lon='10.07170556903' />
  <node id='-151002829' action='modify' lat='55.53076190002' lon='10.07458090514' />
  <node id='-151002830' action='modify' lat='55.53118345953' lon='10.07511695825'>
    <tag k='name' v='kas' />
  </node>
  <node id='-151002831' action='modify' lat='55.53374016932' lon='10.07836818159' />
  <node id='-151002832' action='modify' lat='55.53523680795' lon='10.07988631189' />
  <node id='-151002833' action='modify' lat='55.54312737437' lon='10.08540897489' />
  <node id='-151002834' action='modify' lat='55.54379886605' lon='10.08576923409'>
    <tag k='name' v='tof' />
  </node>
  <node id='-151002835' action='modify' lat='55.55125000736' lon='10.08718728483' />
  <node id='-151002836' action='modify' lat='55.55587732175' lon='10.08610903949' />
  <node id='-151002837' action='modify' lat='55.55981845643' lon='10.08801876962' />
  <node id='-151002838' action='modify' lat='55.5610865738' lon='10.08969246805' />
  <node id='-151002839' action='modify' lat='55.56365023073' lon='10.0891933505' />
  <node id='-151002840' action='modify' lat='55.56479916017' lon='10.08607199435'>
    <tag k='name' v='bog' />
  </node>
  <way id='-36782235' action='modify'>
    <nd ref='-151002811' />
    <nd ref='-151002813' />
    <tag k='type' v='straight' />
  </way>
  <way id='-36782236' action='modify'>
    <nd ref='-151002813' />
    <nd ref='-151002814' />
  </way>
  <way id='-36782237' action='modify'>
    <nd ref='-151002814' />
    <nd ref='-151002815' />
    <tag k='type' v='straight' />
  </way>
  <way id='-36782238' action='modify'>
    <nd ref='-151002815' />
    <nd ref='-151002816' />
  </way>
  <way id='-36782239' action='modify'>
    <nd ref='-151002816' />
    <nd ref='-151002817' />
    <tag k='type' v='straight' />
  </way>
  <way id='-36782240' action='modify'>
    <nd ref='-151002817' />
    <nd ref='-151002818' />
  </way>
  <way id='-36782241' action='modify'>
    <nd ref='-151002818' />
    <nd ref='-151002819' />
    <nd ref='-151002820' />
    <tag k='type' v='straight' />
  </way>
  <way id='-36782242' action='modify'>
    <nd ref='-151002820' />
    <nd ref='-151002821' />
  </way>
  <way id='-36782243' action='modify'>
    <nd ref='-151002821' />
    <nd ref='-151002822' />
    <tag k='type' v='straight' />
  </way>
  <way id='-36782244' action='modify'>
    <nd ref='-151002822' />
    <nd ref='-151002823' />
  </way>
  <way id='-36782245' action='modify'>
    <nd ref='-151002823' />
    <nd ref='-151002824' />
    <nd ref='-151002825' />
    <tag k='type' v='straight' />
  </way>
  <way id='-36782246' action='modify'>
    <nd ref='-151002825' />
    <nd ref='-151002826' />
    <nd ref='-151002827' />
  </way>
  <way id='-36782247' action='modify'>
    <nd ref='-151002827' />
    <nd ref='-151002828' />
    <tag k='type' v='straight' />
  </way>
  <way id='-36782248' action='modify'>
    <nd ref='-151002828' />
    <nd ref='-151002829' />
  </way>
  <way id='-36782249' action='modify'>
    <nd ref='-151002829' />
    <nd ref='-151002830' />
    <nd ref='-151002831' />
    <tag k='type' v='straight' />
  </way>
  <way id='-36782250' action='modify'>
    <nd ref='-151002831' />
    <nd ref='-151002832' />
  </way>
  <way id='-36782251' action='modify'>
    <nd ref='-151002832' />
    <nd ref='-151002833' />
    <tag k='type' v='straight' />
  </way>
  <way id='-36782252' action='modify'>
    <nd ref='-151002833' />
    <nd ref='-151002834' />
    <nd ref='-151002835' />
  </way>
  <way id='-36782253' action='modify'>
    <nd ref='-151002835' />
    <nd ref='-151002836' />
    <tag k='type' v='straight' />
  </way>
  <way id='-36782254' action='modify'>
    <nd ref='-151002836' />
    <nd ref='-151002837' />
  </way>
  <way id='-36782255' action='modify'>
    <nd ref='-151002837' />
    <nd ref='-151002838' />
    <tag k='type' v='straight' />
  </way>
  <way id='-36782256' action='modify'>
    <nd ref='-151002838' />
    <nd ref='-151002839' />
  </way>
  <way id='-36782257' action='modify'>
    <nd ref='-151002839' />
    <nd ref='-151002840' />
    <tag k='type' v='straight' />
  </way>
  <relation id='-14470852' action='modify'>
    <member type='way' ref='-36782235' role='' />
    <member type='way' ref='-36782236' role='' />
    <member type='way' ref='-36782237' role='' />
    <member type='way' ref='-36782238' role='' />
    <member type='way' ref='-36782239' role='' />
    <member type='way' ref='-36782240' role='' />
    <member type='way' ref='-36782241' role='' />
    <member type='way' ref='-36782242' role='' />
    <member type='way' ref='-36782243' role='' />
    <member type='way' ref='-36782244' role='' />
    <member type='way' ref='-36782245' role='' />
    <member type='way' ref='-36782246' role='' />
    <member type='way' ref='-36782247' role='' />
    <member type='way' ref='-36782248' role='' />
    <member type='way' ref='-36782249' role='' />
    <member type='way' ref='-36782250' role='' />
    <member type='way' ref='-36782251' role='' />
    <member type='way' ref='-36782252' role='' />
    <member type='way' ref='-36782253' role='' />
    <member type='way' ref='-36782254' role='' />
    <member type='way' ref='-36782255' role='' />
    <member type='way' ref='-36782256' role='' />
    <member type='way' ref='-36782257' role='' />
    <tag k='key' v='path.dk.brb' />
    <tag k='name' v='DK BRB' />
    <tag k='type' v='path' />
  </relation>
</osm>
