<?xml version='1.0' encoding='UTF-8'?>
<osm version='0.6' upload='false' generator='JOSM'>
  <node id='-135610587' action='modify' lat='55.46436171397' lon='8.70495940171' />
  <node id='-135610589' action='modify' lat='55.46367866121' lon='8.6930938637' />
  <node id='-135610590' action='modify' lat='55.46459616102' lon='8.70852427348' />
  <node id='-135610591' action='modify' lat='55.46446601213' lon='8.70668847682'>
    <tag k='name' v='bra' />
  </node>
  <node id='-135610592' action='modify' lat='55.4649343211' lon='8.71309429139' />
  <node id='-135610593' action='modify' lat='55.461384238' lon='8.723106687' />
  <node id='-135610594' action='modify' lat='55.451880395' lon='8.729744437' />
  <node id='-135610595' action='modify' lat='55.448760418' lon='8.731028546' />
  <node id='-135610596' action='modify' lat='55.44132719014' lon='8.73244874499' />
  <node id='-135610597' action='modify' lat='55.44051691465' lon='8.73259351667' />
  <node id='-135610598' action='modify' lat='55.4351618917' lon='8.73343192604'>
    <tag k='name' v='sej' />
  </node>
  <node id='-135610599' action='modify' lat='55.405789525' lon='8.73802859' />
  <node id='-135610600' action='modify' lat='55.403768201' lon='8.738594699' />
  <node id='-135610601' action='modify' lat='55.39741994948' lon='8.74115259534'>
    <tag k='name' v='gre' />
  </node>
  <node id='-135610602' action='modify' lat='55.373372192' lon='8.750838417' />
  <node id='-135610603' action='modify' lat='55.37034628' lon='8.752716504' />
  <node id='-135610604' action='modify' lat='55.344176885' lon='8.7740831' />
  <node id='-135610605' action='modify' lat='55.33991481917' lon='8.77587677043'>
    <tag k='name' v='rin' />
  </node>
  <node id='-135610606' action='modify' lat='55.336298874' lon='8.774811623' />
  <node id='-135610607' action='modify' lat='55.32759973499' lon='8.77020441047'>
    <tag k='name' v='rib' />
  </node>
  <node id='-135610608' action='modify' lat='55.305168609' lon='8.758329167' />
  <node id='-135610609' action='modify' lat='55.302393891' lon='8.75597198' />
  <node id='-135610610' action='modify' lat='55.286969494' lon='8.737616241' />
  <node id='-135610611' action='modify' lat='55.284496969' lon='8.735639239' />
  <node id='-135610612' action='modify' lat='55.281078037' lon='8.733729691' />
  <node id='-135610613' action='modify' lat='55.280591855' lon='8.733479004' />
  <node id='-135610614' action='modify' lat='55.27849095' lon='8.732555331' />
  <node id='-135610615' action='modify' lat='55.278040968' lon='8.732332505' />
  <node id='-135610616' action='modify' lat='55.27729314279' lon='8.73191722286'>
    <tag k='name' v='ved' />
  </node>
  <node id='-135610617' action='modify' lat='55.277086384' lon='8.731802407' />
  <node id='-135610618' action='modify' lat='55.27683740651' lon='8.73166977082'>
    <tag k='name' v='rig' />
  </node>
  <node id='-135610619' action='modify' lat='55.2763714511' lon='8.73138805569'>
    <tag k='name' v='hvi' />
  </node>
  <node id='-135610620' action='modify' lat='55.276257829' lon='8.731320853' />
  <node id='-135610621' action='modify' lat='55.27454758682' lon='8.73025909831'>
    <tag k='name' v='hvt' />
  </node>
  <node id='-135610622' action='modify' lat='55.274523624' lon='8.730244222' />
  <node id='-135610623' action='modify' lat='55.274283858' lon='8.73009571' />
  <node id='-135610624' action='modify' lat='55.272091532' lon='8.728727874' />
  <node id='-135610625' action='modify' lat='55.271673898' lon='8.728479319' />
  <node id='-135610626' action='modify' lat='55.266132074' lon='8.725389803' />
  <node id='-135610627' action='modify' lat='55.260102565' lon='8.724665173' />
  <node id='-135610628' action='modify' lat='55.23010522287' lon='8.7320919561'>
    <tag k='name' v='rej' />
  </node>
  <node id='-135610629' action='modify' lat='55.19525619412' lon='8.74071289691'>
    <tag k='name' v='bro' />
  </node>
  <node id='-135610630' action='modify' lat='55.186242041' lon='8.742941587' />
  <node id='-135610631' action='modify' lat='55.178901162' lon='8.747899981' />
  <node id='-135610632' action='modify' lat='55.178073521' lon='8.748834607' />
  <node id='-135610633' action='modify' lat='55.177078193' lon='8.749960739' />
  <node id='-135610634' action='modify' lat='55.175698619' lon='8.751514609' />
  <node id='-135610635' action='modify' lat='55.174386711' lon='8.752951026' />
  <node id='-135610636' action='modify' lat='55.173172646' lon='8.754230862' />
  <node id='-135610637' action='modify' lat='55.171481826' lon='8.756052458' />
  <node id='-135610638' action='modify' lat='55.170879564' lon='8.756731789' />
  <node id='-135610639' action='modify' lat='55.169506453' lon='8.75834018' />
  <node id='-135610640' action='modify' lat='55.168481744' lon='8.75958393' />
  <node id='-135610641' action='modify' lat='55.166380655' lon='8.762028716' />
  <node id='-135610642' action='modify' lat='55.16481092' lon='8.763798008' />
  <node id='-135610643' action='modify' lat='55.163704756' lon='8.765120744' />
  <node id='-135610645' action='modify' lat='55.15879940437' lon='8.77144780494'>
    <tag k='name' v='ska' />
  </node>
  <node id='-135610646' action='modify' lat='55.156091079' lon='8.774940746' />
  <node id='-135610647' action='modify' lat='55.153805383' lon='8.778841293' />
  <node id='-135610648' action='modify' lat='55.147677717' lon='8.792710972' />
  <node id='-135610649' action='modify' lat='55.143362292' lon='8.797452093' />
  <node id='-135610650' action='modify' lat='55.11728064983' lon='8.80794140598'>
    <tag k='name' v='dos' />
  </node>
  <node id='-135610651' action='modify' lat='55.070627458' lon='8.826686956' />
  <node id='-135610652' action='modify' lat='55.063970867' lon='8.826375715' />
  <node id='-135610653' action='modify' lat='55.05727399565' lon='8.82334173033'>
    <tag k='name' v='bre' />
  </node>
  <node id='-135610655' action='modify' lat='55.042784586' lon='8.816779111' />
  <node id='-135610656' action='modify' lat='55.042167231' lon='8.81646238' />
  <node id='-135610657' action='modify' lat='55.019054621' lon='8.803778787' />
  <node id='-135610658' action='modify' lat='55.01593052' lon='8.802707796' />
  <node id='-135610659' action='modify' lat='55.015411235' lon='8.802644503' />
  <node id='-135610660' action='modify' lat='55.014775632' lon='8.802570119' />
  <node id='-135610661' action='modify' lat='55.012762009' lon='8.802336037' />
  <node id='-135610662' action='modify' lat='55.01225458' lon='8.802283265' />
  <node id='-135610663' action='modify' lat='55.009515328' lon='8.802046373' />
  <node id='-135610664' action='modify' lat='55.00877549536' lon='8.80200455143'>
    <tag k='name' v='vis' />
  </node>
  <node id='-135610665' action='modify' lat='55.000957683' lon='8.804950181' />
  <node id='-135610666' action='modify' lat='54.989560242' lon='8.816112845' />
  <node id='-135610667' action='modify' lat='54.988085155' lon='8.817608482' />
  <node id='-135610668' action='modify' lat='54.95289672177' lon='8.85350637104'>
    <tag k='name' v='tin' />
  </node>
  <node id='-135610669' action='modify' lat='54.951563376' lon='8.854865981' />
  <node id='-135610670' action='modify' lat='54.947884779' lon='8.857384072' />
  <node id='-135610672' action='modify' lat='54.939558066' lon='8.860903172' />
  <node id='-135610673' action='modify' lat='54.93908504627' lon='8.86109426306'>
    <tag k='name' v='trn' />
  </node>
  <node id='-135610674' action='modify' lat='54.938196326' lon='8.861427314' />
  <node id='-135610675' action='modify' lat='54.935506091' lon='8.86133972' />
  <node id='-135610677' action='modify' lat='54.93342930999' lon='8.86057179734'>
    <tag k='name' v='ton' />
  </node>
  <node id='-135610678' action='modify' lat='54.929969476' lon='8.859292557' />
  <node id='-135610679' action='modify' lat='54.928585107' lon='8.85920319' />
  <node id='-135610680' action='modify' lat='54.927576585' lon='8.859436596' />
  <node id='-135610681' action='modify' lat='54.92698425' lon='8.859654296' />
  <node id='-135610682' action='modify' lat='54.901338568' lon='8.871693303' />
  <node id='-135610683' action='modify' lat='54.899473467' lon='8.872838198'>
    <tag k='name' v='tog' />
  </node>
  <node id='-135610684' action='modify' lat='54.89777726905' lon='8.87436187203' />
  <node id='-135610685' action='modify' lat='54.88685788681' lon='8.88552672033' />
  <way id='-35876617' action='modify'>
    <nd ref='-135610589' />
    <nd ref='-135610587' />
    <tag k='type' v='straight' />
  </way>
  <way id='-35876618' action='modify'>
    <nd ref='-135610587' />
    <nd ref='-135610591' />
    <nd ref='-135610590' />
    <tag k='type' v='arc' />
  </way>
  <way id='-35876619' action='modify'>
    <nd ref='-135610590' />
    <nd ref='-135610592' />
    <tag k='type' v='straight' />
  </way>
  <way id='-35876620' action='modify'>
    <nd ref='-135610592' />
    <nd ref='-135610593' />
  </way>
  <way id='-35876621' action='modify'>
    <nd ref='-135610593' />
    <nd ref='-135610594' />
    <tag k='type' v='straight' />
  </way>
  <way id='-35876622' action='modify'>
    <nd ref='-135610594' />
    <nd ref='-135610595' />
  </way>
  <way id='-35876623' action='modify'>
    <nd ref='-135610595' />
    <nd ref='-135610596' />
    <tag k='type' v='straight' />
  </way>
  <way id='-35876624' action='modify'>
    <nd ref='-135610596' />
    <nd ref='-135610597' />
  </way>
  <way id='-35876625' action='modify'>
    <nd ref='-135610597' />
    <nd ref='-135610598' />
    <nd ref='-135610599' />
    <tag k='type' v='straight' />
  </way>
  <way id='-35876626' action='modify'>
    <nd ref='-135610599' />
    <nd ref='-135610600' />
  </way>
  <way id='-35876627' action='modify'>
    <nd ref='-135610600' />
    <nd ref='-135610601' />
    <nd ref='-135610602' />
    <tag k='type' v='straight' />
  </way>
  <way id='-35876628' action='modify'>
    <nd ref='-135610602' />
    <nd ref='-135610603' />
  </way>
  <way id='-35876629' action='modify'>
    <nd ref='-135610603' />
    <nd ref='-135610604' />
    <tag k='type' v='straight' />
  </way>
  <way id='-35876630' action='modify'>
    <nd ref='-135610604' />
    <nd ref='-135610605' />
    <nd ref='-135610606' />
  </way>
  <way id='-35876631' action='modify'>
    <nd ref='-135610606' />
    <nd ref='-135610607' />
    <nd ref='-135610608' />
    <tag k='type' v='straight' />
  </way>
  <way id='-35876632' action='modify'>
    <nd ref='-135610608' />
    <nd ref='-135610609' />
  </way>
  <way id='-35876633' action='modify'>
    <nd ref='-135610609' />
    <nd ref='-135610610' />
    <tag k='type' v='straight' />
  </way>
  <way id='-35876634' action='modify'>
    <nd ref='-135610610' />
    <nd ref='-135610611' />
  </way>
  <way id='-35876635' action='modify'>
    <nd ref='-135610611' />
    <nd ref='-135610612' />
    <tag k='type' v='straight' />
  </way>
  <way id='-35876636' action='modify'>
    <nd ref='-135610612' />
    <nd ref='-135610613' />
  </way>
  <way id='-35876637' action='modify'>
    <nd ref='-135610613' />
    <nd ref='-135610614' />
    <tag k='type' v='straight' />
  </way>
  <way id='-35876638' action='modify'>
    <nd ref='-135610614' />
    <nd ref='-135610615' />
  </way>
  <way id='-35876639' action='modify'>
    <nd ref='-135610615' />
    <nd ref='-135610616' />
    <nd ref='-135610617' />
    <tag k='type' v='straight' />
  </way>
  <way id='-35876640' action='modify'>
    <nd ref='-135610617' />
    <nd ref='-135610618' />
    <nd ref='-135610619' />
    <nd ref='-135610620' />
  </way>
  <way id='-35876641' action='modify'>
    <nd ref='-135610620' />
    <nd ref='-135610621' />
    <nd ref='-135610622' />
    <tag k='type' v='straight' />
  </way>
  <way id='-35876642' action='modify'>
    <nd ref='-135610622' />
    <nd ref='-135610623' />
  </way>
  <way id='-35876643' action='modify'>
    <nd ref='-135610623' />
    <nd ref='-135610624' />
    <tag k='type' v='straight' />
  </way>
  <way id='-35876644' action='modify'>
    <nd ref='-135610624' />
    <nd ref='-135610625' />
  </way>
  <way id='-35876645' action='modify'>
    <nd ref='-135610625' />
    <nd ref='-135610626' />
    <tag k='type' v='straight' />
  </way>
  <way id='-35876646' action='modify'>
    <nd ref='-135610626' />
    <nd ref='-135610627' />
  </way>
  <way id='-35876647' action='modify'>
    <nd ref='-135610627' />
    <nd ref='-135610628' />
    <nd ref='-135610629' />
    <nd ref='-135610630' />
    <tag k='type' v='straight' />
  </way>
  <way id='-35876648' action='modify'>
    <nd ref='-135610630' />
    <nd ref='-135610631' />
  </way>
  <way id='-35876649' action='modify'>
    <nd ref='-135610631' />
    <nd ref='-135610632' />
    <tag k='type' v='straight' />
  </way>
  <way id='-35876650' action='modify'>
    <nd ref='-135610632' />
    <nd ref='-135610633' />
  </way>
  <way id='-35876651' action='modify'>
    <nd ref='-135610633' />
    <nd ref='-135610634' />
    <tag k='type' v='straight' />
  </way>
  <way id='-35876652' action='modify'>
    <nd ref='-135610634' />
    <nd ref='-135610635' />
  </way>
  <way id='-35876653' action='modify'>
    <nd ref='-135610635' />
    <nd ref='-135610636' />
    <tag k='type' v='straight' />
  </way>
  <way id='-35876654' action='modify'>
    <nd ref='-135610636' />
    <nd ref='-135610637' />
  </way>
  <way id='-35876655' action='modify'>
    <nd ref='-135610637' />
    <nd ref='-135610638' />
    <tag k='type' v='straight' />
  </way>
  <way id='-35876656' action='modify'>
    <nd ref='-135610638' />
    <nd ref='-135610639' />
  </way>
  <way id='-35876657' action='modify'>
    <nd ref='-135610639' />
    <nd ref='-135610640' />
    <tag k='type' v='straight' />
  </way>
  <way id='-35876658' action='modify'>
    <nd ref='-135610640' />
    <nd ref='-135610641' />
  </way>
  <way id='-35876659' action='modify'>
    <nd ref='-135610641' />
    <nd ref='-135610642' />
    <tag k='type' v='straight' />
  </way>
  <way id='-35876660' action='modify'>
    <nd ref='-135610642' />
    <nd ref='-135610643' />
  </way>
  <way id='-35876661' action='modify'>
    <nd ref='-135610643' />
    <nd ref='-135610645' />
    <nd ref='-135610646' />
    <tag k='type' v='straight' />
  </way>
  <way id='-35876662' action='modify'>
    <nd ref='-135610646' />
    <nd ref='-135610647' />
  </way>
  <way id='-35876663' action='modify'>
    <nd ref='-135610647' />
    <nd ref='-135610648' />
    <tag k='type' v='straight' />
  </way>
  <way id='-35876664' action='modify'>
    <nd ref='-135610648' />
    <nd ref='-135610649' />
  </way>
  <way id='-35876665' action='modify'>
    <nd ref='-135610649' />
    <nd ref='-135610650' />
    <nd ref='-135610651' />
    <tag k='type' v='straight' />
  </way>
  <way id='-35876666' action='modify'>
    <nd ref='-135610651' />
    <nd ref='-135610652' />
  </way>
  <way id='-35876667' action='modify'>
    <nd ref='-135610652' />
    <nd ref='-135610653' />
    <nd ref='-135610655' />
    <tag k='type' v='straight' />
  </way>
  <way id='-35876668' action='modify'>
    <nd ref='-135610655' />
    <nd ref='-135610656' />
  </way>
  <way id='-35876669' action='modify'>
    <nd ref='-135610656' />
    <nd ref='-135610657' />
    <tag k='type' v='straight' />
  </way>
  <way id='-35876670' action='modify'>
    <nd ref='-135610657' />
    <nd ref='-135610658' />
  </way>
  <way id='-35876671' action='modify'>
    <nd ref='-135610658' />
    <nd ref='-135610659' />
    <tag k='type' v='straight' />
  </way>
  <way id='-35876672' action='modify'>
    <nd ref='-135610659' />
    <nd ref='-135610660' />
  </way>
  <way id='-35876673' action='modify'>
    <nd ref='-135610660' />
    <nd ref='-135610661' />
    <tag k='type' v='straight' />
  </way>
  <way id='-35876674' action='modify'>
    <nd ref='-135610661' />
    <nd ref='-135610662' />
  </way>
  <way id='-35876675' action='modify'>
    <nd ref='-135610662' />
    <nd ref='-135610663' />
    <tag k='type' v='straight' />
  </way>
  <way id='-35876676' action='modify'>
    <nd ref='-135610663' />
    <nd ref='-135610664' />
    <nd ref='-135610665' />
  </way>
  <way id='-35876677' action='modify'>
    <nd ref='-135610665' />
    <nd ref='-135610666' />
    <tag k='type' v='straight' />
  </way>
  <way id='-35876678' action='modify'>
    <nd ref='-135610666' />
    <nd ref='-135610667' />
  </way>
  <way id='-35876679' action='modify'>
    <nd ref='-135610667' />
    <nd ref='-135610668' />
    <nd ref='-135610669' />
    <tag k='type' v='straight' />
  </way>
  <way id='-35876680' action='modify'>
    <nd ref='-135610669' />
    <nd ref='-135610670' />
  </way>
  <way id='-35876681' action='modify'>
    <nd ref='-135610670' />
    <nd ref='-135610672' />
    <tag k='type' v='straight' />
  </way>
  <way id='-35876682' action='modify'>
    <nd ref='-135610672' />
    <nd ref='-135610673' />
    <nd ref='-135610674' />
    <nd ref='-135610675' />
  </way>
  <way id='-35876683' action='modify'>
    <nd ref='-135610675' />
    <nd ref='-135610677' />
    <nd ref='-135610678' />
    <tag k='type' v='straight' />
  </way>
  <way id='-35876684' action='modify'>
    <nd ref='-135610678' />
    <nd ref='-135610679' />
  </way>
  <way id='-35876685' action='modify'>
    <nd ref='-135610679' />
    <nd ref='-135610680' />
    <tag k='type' v='straight' />
  </way>
  <way id='-35876686' action='modify'>
    <nd ref='-135610680' />
    <nd ref='-135610681' />
  </way>
  <way id='-35876687' action='modify'>
    <nd ref='-135610681' />
    <nd ref='-135610682' />
    <tag k='type' v='straight' />
  </way>
  <way id='-35876688' action='modify'>
    <nd ref='-135610682' />
    <nd ref='-135610683' />
    <nd ref='-135610684' />
  </way>
  <way id='-35876689' action='modify'>
    <nd ref='-135610684' />
    <nd ref='-135610685' />
    <tag k='type' v='straight' />
  </way>
  <relation id='-14373597' action='modify'>
    <member type='way' ref='-35876617' role='' />
    <member type='way' ref='-35876618' role='' />
    <member type='way' ref='-35876619' role='' />
    <member type='way' ref='-35876620' role='' />
    <member type='way' ref='-35876621' role='' />
    <member type='way' ref='-35876622' role='' />
    <member type='way' ref='-35876623' role='' />
    <member type='way' ref='-35876624' role='' />
    <member type='way' ref='-35876625' role='' />
    <member type='way' ref='-35876626' role='' />
    <member type='way' ref='-35876627' role='' />
    <member type='way' ref='-35876628' role='' />
    <member type='way' ref='-35876629' role='' />
    <member type='way' ref='-35876630' role='' />
    <member type='way' ref='-35876631' role='' />
    <member type='way' ref='-35876632' role='' />
    <member type='way' ref='-35876633' role='' />
    <member type='way' ref='-35876634' role='' />
    <member type='way' ref='-35876635' role='' />
    <member type='way' ref='-35876636' role='' />
    <member type='way' ref='-35876637' role='' />
    <member type='way' ref='-35876638' role='' />
    <member type='way' ref='-35876639' role='' />
    <member type='way' ref='-35876640' role='' />
    <member type='way' ref='-35876641' role='' />
    <member type='way' ref='-35876642' role='' />
    <member type='way' ref='-35876643' role='' />
    <member type='way' ref='-35876644' role='' />
    <member type='way' ref='-35876645' role='' />
    <member type='way' ref='-35876646' role='' />
    <member type='way' ref='-35876647' role='' />
    <member type='way' ref='-35876648' role='' />
    <member type='way' ref='-35876649' role='' />
    <member type='way' ref='-35876650' role='' />
    <member type='way' ref='-35876651' role='' />
    <member type='way' ref='-35876652' role='' />
    <member type='way' ref='-35876653' role='' />
    <member type='way' ref='-35876654' role='' />
    <member type='way' ref='-35876655' role='' />
    <member type='way' ref='-35876656' role='' />
    <member type='way' ref='-35876657' role='' />
    <member type='way' ref='-35876658' role='' />
    <member type='way' ref='-35876659' role='' />
    <member type='way' ref='-35876660' role='' />
    <member type='way' ref='-35876661' role='' />
    <member type='way' ref='-35876662' role='' />
    <member type='way' ref='-35876663' role='' />
    <member type='way' ref='-35876664' role='' />
    <member type='way' ref='-35876665' role='' />
    <member type='way' ref='-35876666' role='' />
    <member type='way' ref='-35876667' role='' />
    <member type='way' ref='-35876668' role='' />
    <member type='way' ref='-35876669' role='' />
    <member type='way' ref='-35876670' role='' />
    <member type='way' ref='-35876671' role='' />
    <member type='way' ref='-35876672' role='' />
    <member type='way' ref='-35876673' role='' />
    <member type='way' ref='-35876674' role='' />
    <member type='way' ref='-35876675' role='' />
    <member type='way' ref='-35876676' role='' />
    <member type='way' ref='-35876677' role='' />
    <member type='way' ref='-35876678' role='' />
    <member type='way' ref='-35876679' role='' />
    <member type='way' ref='-35876680' role='' />
    <member type='way' ref='-35876681' role='' />
    <member type='way' ref='-35876682' role='' />
    <member type='way' ref='-35876683' role='' />
    <member type='way' ref='-35876684' role='' />
    <member type='way' ref='-35876685' role='' />
    <member type='way' ref='-35876686' role='' />
    <member type='way' ref='-35876687' role='' />
    <member type='way' ref='-35876688' role='' />
    <member type='way' ref='-35876689' role='' />
    <tag k='key' v='path.dk.btr' />
    <tag k='name' v='DK BTR' />
    <tag k='type' v='path' />
  </relation>
</osm>
