<?xml version='1.0' encoding='UTF-8'?>
<osm version='0.6' upload='false' generator='JOSM'>
  <node id='-177707880' action='modify' lat='57.04467540514' lon='9.9155098173' />
  <node id='-177707881' action='modify' lat='57.04529550951' lon='9.91485267609' />
  <node id='-177707882' action='modify' lat='57.03793237857' lon='9.91699307888' />
  <node id='-177707883' action='modify' lat='57.04019794439' lon='9.91795196861' />
  <node id='-177707884' action='modify' lat='57.04293322123' lon='9.91694748133'>
    <tag k='name' v='aal' />
  </node>
  <node id='-177707885' action='modify' lat='57.03553897382' lon='9.9149760577' />
  <node id='-177707886' action='modify' lat='57.03150924033' lon='9.91298585996' />
  <node id='-177707887' action='modify' lat='57.02625139565' lon='9.91207390755' />
  <node id='-177707888' action='modify' lat='57.02413753802' lon='9.91190224618' />
  <node id='-177707889' action='modify' lat='57.02142642726' lon='9.91187676519' />
  <node id='-177707890' action='modify' lat='57.01657225291' lon='9.91405440649'>
    <tag k='name' v='oda' />
  </node>
  <node id='-177707891' action='modify' lat='57.01615255272' lon='9.9144570516' />
  <node id='-177707892' action='modify' lat='57.00746333873' lon='9.9232922481' />
  <node id='-177707893' action='modify' lat='57.00525855906' lon='9.9266624279'>
    <tag k='name' v='gug' />
  </node>
  <node id='-177707894' action='modify' lat='57.00512201511' lon='9.92696151003' />
  <node id='-177707895' action='modify' lat='57.00137383784' lon='9.93552312121' />
  <node id='-177707896' action='modify' lat='56.99820380632' lon='9.95186179742' />
  <node id='-177707897' action='modify' lat='56.99807461596' lon='9.9567266741'>
    <tag k='name' v='lun' />
  </node>
  <node id='-177707899' action='modify' lat='56.99738916611' lon='9.98253813937' />
  <node id='-177707900' action='modify' lat='56.99744704992' lon='9.9862919721' />
  <node id='-177707901' action='modify' lat='56.99776651581' lon='9.99118695155'>
    <tag k='name' v='gis' />
  </node>
  <node id='-177707902' action='modify' lat='56.99845069939' lon='10.00167041749' />
  <node id='-177707903' action='modify' lat='57.00157834746' lon='10.01613020629' />
  <node id='-177707904' action='modify' lat='57.01264353509' lon='10.04337079138'>
    <tag k='name' v='kla' />
  </node>
  <node id='-177707905' action='modify' lat='57.01493326521' lon='10.04900872439' />
  <node id='-177707906' action='modify' lat='57.01621826246' lon='10.06253912777' />
  <node id='-177707907' action='modify' lat='57.01522709601' lon='10.06951681424'>
    <tag k='name' v='str' />
  </node>
  <node id='-177707908' action='modify' lat='57.01462223006' lon='10.07377490267' />
  <node id='-177707909' action='modify' lat='57.00542728722' lon='10.09724557132' />
  <node id='-177707910' action='modify' lat='57.0015323013' lon='10.10162017295'>
    <tag k='name' v='sto' />
  </node>
  <node id='-177707911' action='modify' lat='57.0011191477' lon='10.10208417404' />
  <node id='-177707912' action='modify' lat='56.99655002589' lon='10.10490595758' />
  <node id='-177707913' action='modify' lat='56.9911571891' lon='10.10609417886' />
  <node id='-177707914' action='modify' lat='56.98874469797' lon='10.1063758108' />
  <node id='-177707915' action='modify' lat='56.98651471678' lon='10.10639543367'>
    <tag k='name' v='sej' />
  </node>
  <node id='-177707916' action='modify' lat='56.9844775243' lon='10.10641335905' />
  <node id='-177707917' action='modify' lat='56.98174452018' lon='10.1058098647' />
  <node id='-177707918' action='modify' lat='56.97001225723' lon='10.10099529147' />
  <node id='-177707919' action='modify' lat='56.96685083323' lon='10.09988403053'>
    <tag k='name' v='gud' />
  </node>
  <node id='-177707920' action='modify' lat='56.96492410495' lon='10.09940742373' />
  <node id='-177707921' action='modify' lat='56.95688106783' lon='10.09775518298' />
  <node id='-177707922' action='modify' lat='56.95583178097' lon='10.09747475182'>
    <tag k='name' v='pal' />
  </node>
  <node id='-177707923' action='modify' lat='56.95366921457' lon='10.09670912683' />
  <node id='-177707924' action='modify' lat='56.95034299042' lon='10.09516417444' />
  <node id='-177707925' action='modify' lat='56.94535039528' lon='10.08963568015'>
    <tag k='name' v='lou' />
  </node>
  <node id='-177707926' action='modify' lat='56.94390618036' lon='10.08468210429' />
  <node id='-177707927' action='modify' lat='56.94047666316' lon='10.06502687663' />
  <node id='-177707928' action='modify' lat='56.93673075648' lon='10.05798875749' />
  <node id='-177707929' action='modify' lat='56.93545855384' lon='10.05710907365'>
    <tag k='name' v='vaa' />
  </node>
  <node id='-177707930' action='modify' lat='56.93477571126' lon='10.05663692415' />
  <node id='-177707931' action='modify' lat='56.92742727847' lon='10.05688100517' />
  <node id='-177707932' action='modify' lat='56.92379862981' lon='10.05951225221' />
  <node id='-177707933' action='modify' lat='56.92090745965' lon='10.06273895234' />
  <node id='-177707934' action='modify' lat='56.91794203708' lon='10.06734396415'>
    <tag k='name' v='lin' />
  </node>
  <node id='-177707935' action='modify' lat='56.90457364193' lon='10.08809923589' />
  <node id='-177707936' action='modify' lat='56.90324837385' lon='10.0912039357'>
    <tag k='name' v='kom' />
  </node>
  <node id='-177707937' action='modify' lat='56.90302408243' lon='10.09209036559' />
  <node id='-177707938' action='modify' lat='56.902739941' lon='10.09363531798' />
  <node id='-177707939' action='modify' lat='56.89703322466' lon='10.10286210895' />
  <node id='-177707940' action='modify' lat='56.89554780652' lon='10.10344415635' />
  <node id='-177707941' action='modify' lat='56.89017404143' lon='10.10932892293' />
  <node id='-177707942' action='modify' lat='56.88709055119' lon='10.1155253832'>
    <tag k='name' v='kon' />
  </node>
  <node id='-177707943' action='modify' lat='56.88638205544' lon='10.11694907606' />
  <node id='-177707944' action='modify' lat='56.88365358207' lon='10.11911629558' />
  <node id='-177707945' action='modify' lat='56.88208263962' lon='10.11929868579' />
  <node id='-177707946' action='modify' lat='56.88132644835' lon='10.11944085225' />
  <node id='-177707947' action='modify' lat='56.87258816698' lon='10.12241541803' />
  <node id='-177707948' action='modify' lat='56.86696040365' lon='10.1185449931' />
  <node id='-177707949' action='modify' lat='56.86495653688' lon='10.11445637556'>
    <tag k='name' v='ran' />
  </node>
  <node id='-177707950' action='modify' lat='56.86189777291' lon='10.10821580619' />
  <node id='-177707951' action='modify' lat='56.85828768257' lon='10.10329395264' />
  <node id='-177707952' action='modify' lat='56.85701457334' lon='10.10213878209'>
    <tag k='name' v='bje' />
  </node>
  <node id='-177707953' action='modify' lat='56.85268563565' lon='10.09821116388' />
  <node id='-177707954' action='modify' lat='56.84587552295' lon='10.1027762863' />
  <node id='-177707955' action='modify' lat='56.84504232424' lon='10.10653540358' />
  <node id='-177707956' action='modify' lat='56.84325117991' lon='10.10980635613' />
  <node id='-177707957' action='modify' lat='56.83575193747' lon='10.11601164803' />
  <node id='-177707958' action='modify' lat='56.83360084648' lon='10.11886015266' />
  <node id='-177707959' action='modify' lat='56.83277838073' lon='10.12052178115' />
  <node id='-177707960' action='modify' lat='56.83073717895' lon='10.12280434102' />
  <node id='-177707961' action='modify' lat='56.82865127454' lon='10.12403987733'>
    <tag k='name' v='bal' />
  </node>
  <node id='-177707962' action='modify' lat='56.82830549578' lon='10.12424468458' />
  <node id='-177707963' action='modify' lat='56.82682321922' lon='10.12581377953' />
  <node id='-177707964' action='modify' lat='56.82523227653' lon='10.12863278121' />
  <node id='-177707965' action='modify' lat='56.82089059649' lon='10.12933820218' />
  <node id='-177707966' action='modify' lat='56.82010234706' lon='10.12813389033' />
  <node id='-177707967' action='modify' lat='56.81590174159' lon='10.12795686185' />
  <node id='-177707968' action='modify' lat='56.81431253501' lon='10.13008922204' />
  <node id='-177707969' action='modify' lat='56.81302864428' lon='10.1311004135' />
  <node id='-177707970' action='modify' lat='56.81002978988' lon='10.13204186887' />
  <node id='-177707971' action='modify' lat='56.80746020112' lon='10.13634144992' />
  <node id='-177707972' action='modify' lat='56.8073773694' lon='10.13678498277'>
    <tag k='name' v='sob' />
  </node>
  <node id='-177707973' action='modify' lat='56.80679648442' lon='10.13989537686' />
  <node id='-177707974' action='modify' lat='56.80563642038' lon='10.14333799213' />
  <node id='-177707975' action='modify' lat='56.7997760681' lon='10.15347009245'>
    <tag k='name' v='sol' />
  </node>
  <node id='-177707976' action='modify' lat='56.79172607164' lon='10.1673853384' />
  <node id='-177707977' action='modify' lat='56.78860724912' lon='10.17011582583' />
  <node id='-177707978' action='modify' lat='56.78548375878' lon='10.17079442471' />
  <node id='-177707979' action='modify' lat='56.78345834556' lon='10.17205104098' />
  <node id='-177707980' action='modify' lat='56.77466192359' lon='10.18129125103' />
  <node id='-177707981' action='modify' lat='56.77354342949' lon='10.18222634292'>
    <tag k='name' v='ved' />
  </node>
  <node id='-177707982' action='modify' lat='56.77142556762' lon='10.18299177155' />
  <node id='-177707983' action='modify' lat='56.76659035522' lon='10.18406599626' />
  <node id='-177707984' action='modify' lat='56.76395016561' lon='10.18554389209' />
  <node id='-177707985' action='modify' lat='56.76085828892' lon='10.18861588911'>
    <tag k='name' v='ske' />
  </node>
  <node id='-177707986' action='modify' lat='56.7596307917' lon='10.18983542383' />
  <node id='-177707987' action='modify' lat='56.74857575905' lon='10.19068298578' />
  <node id='-177707988' action='modify' lat='56.74486049266' lon='10.18690707374'>
    <tag k='name' v='hog' />
  </node>
  <node id='-177707989' action='modify' lat='56.74047724142' lon='10.17698228091' />
  <node id='-177707990' action='modify' lat='56.7377748992' lon='10.163085756' />
  <node id='-177707991' action='modify' lat='56.73726368305' lon='10.16093060106' />
  <node id='-177707992' action='modify' lat='56.73578589752' lon='10.15568017825' />
  <node id='-177707993' action='modify' lat='56.73497526118' lon='10.15375703439' />
  <node id='-177707994' action='modify' lat='56.73171407277' lon='10.14749094011'>
    <tag k='name' v='vis' />
  </node>
  <node id='-177707995' action='modify' lat='56.72980869883' lon='10.14383017883' />
  <node id='-177707996' action='modify' lat='56.72893834016' lon='10.14148860902' />
  <node id='-177707997' action='modify' lat='56.72780529774' lon='10.13765305012' />
  <node id='-177707998' action='modify' lat='56.72636761346' lon='10.13437270045' />
  <node id='-177707999' action='modify' lat='56.71986274631' lon='10.124062289' />
  <node id='-177708000' action='modify' lat='56.71847920875' lon='10.12152224511' />
  <node id='-177708001' action='modify' lat='56.71713210908' lon='10.11836483739'>
    <tag k='name' v='han' />
  </node>
  <node id='-177708002' action='modify' lat='56.71640675751' lon='10.11666476458' />
  <node id='-177708003' action='modify' lat='56.71448434062' lon='10.11590301454' />
  <node id='-177708004' action='modify' lat='56.71155783676' lon='10.11942743719' />
  <node id='-177708005' action='modify' lat='56.70895205424' lon='10.11959373683' />
  <node id='-177708007' action='modify' lat='56.70855888529' lon='10.11911523354'>
    <tag k='name' v='has' />
  </node>
  <node id='-177708011' action='modify' lat='57.02684369487' lon='9.91217304981' />
  <node id='-177708012' action='modify' lat='57.0273866481' lon='9.91226584485' />
  <way id='-38533526' action='modify'>
    <nd ref='-177707881' />
    <nd ref='-177707880' />
    <tag k='type' v='straight' />
  </way>
  <way id='-38533527' action='modify'>
    <nd ref='-177707880' />
    <nd ref='-177707884' />
    <nd ref='-177707883' />
    <nd ref='-177707882' />
  </way>
  <way id='-38533528' action='modify'>
    <nd ref='-177707882' />
    <nd ref='-177707885' />
    <tag k='type' v='straight' />
  </way>
  <way id='-38533529' action='modify'>
    <nd ref='-177707885' />
    <nd ref='-177707886' />
  </way>
  <way id='-38533530' action='modify'>
    <nd ref='-177708011' />
    <nd ref='-177707887' />
    <tag k='type' v='straight' />
  </way>
  <way id='-38533531' action='modify'>
    <nd ref='-177707887' />
    <nd ref='-177707888' />
  </way>
  <way id='-38533532' action='modify'>
    <nd ref='-177707888' />
    <nd ref='-177707889' />
    <tag k='type' v='straight' />
  </way>
  <way id='-38533533' action='modify'>
    <nd ref='-177707889' />
    <nd ref='-177707890' />
    <nd ref='-177707891' />
  </way>
  <way id='-38533534' action='modify'>
    <nd ref='-177707891' />
    <nd ref='-177707892' />
    <tag k='type' v='straight' />
  </way>
  <way id='-38533535' action='modify'>
    <nd ref='-177707892' />
    <nd ref='-177707893' />
    <nd ref='-177707894' />
  </way>
  <way id='-38533536' action='modify'>
    <nd ref='-177707894' />
    <nd ref='-177707895' />
    <tag k='type' v='straight' />
  </way>
  <way id='-38533537' action='modify'>
    <nd ref='-177707895' />
    <nd ref='-177707896' />
  </way>
  <way id='-38533538' action='modify'>
    <nd ref='-177707896' />
    <nd ref='-177707897' />
    <nd ref='-177707899' />
    <tag k='type' v='straight' />
  </way>
  <way id='-38533540' action='modify'>
    <nd ref='-177707899' />
    <nd ref='-177707900' />
  </way>
  <way id='-38533541' action='modify'>
    <nd ref='-177707900' />
    <nd ref='-177707901' />
    <nd ref='-177707902' />
    <tag k='type' v='straight' />
  </way>
  <way id='-38533542' action='modify'>
    <nd ref='-177707902' />
    <nd ref='-177707903' />
  </way>
  <way id='-38533543' action='modify'>
    <nd ref='-177707903' />
    <nd ref='-177707904' />
    <nd ref='-177707905' />
    <tag k='type' v='straight' />
  </way>
  <way id='-38533544' action='modify'>
    <nd ref='-177707905' />
    <nd ref='-177707906' />
  </way>
  <way id='-38533545' action='modify'>
    <nd ref='-177707906' />
    <nd ref='-177707907' />
    <nd ref='-177707908' />
    <tag k='type' v='straight' />
  </way>
  <way id='-38533546' action='modify'>
    <nd ref='-177707908' />
    <nd ref='-177707909' />
  </way>
  <way id='-38533547' action='modify'>
    <nd ref='-177707909' />
    <nd ref='-177707910' />
    <nd ref='-177707911' />
    <tag k='type' v='straight' />
  </way>
  <way id='-38533548' action='modify'>
    <nd ref='-177707911' />
    <nd ref='-177707912' />
  </way>
  <way id='-38533549' action='modify'>
    <nd ref='-177707912' />
    <nd ref='-177707913' />
    <tag k='type' v='straight' />
  </way>
  <way id='-38533550' action='modify'>
    <nd ref='-177707913' />
    <nd ref='-177707914' />
  </way>
  <way id='-38533551' action='modify'>
    <nd ref='-177707914' />
    <nd ref='-177707915' />
    <nd ref='-177707916' />
    <tag k='type' v='straight' />
  </way>
  <way id='-38533552' action='modify'>
    <nd ref='-177707916' />
    <nd ref='-177707917' />
  </way>
  <way id='-38533553' action='modify'>
    <nd ref='-177707917' />
    <nd ref='-177707918' />
    <tag k='type' v='straight' />
  </way>
  <way id='-38533554' action='modify'>
    <nd ref='-177707918' />
    <nd ref='-177707919' />
    <nd ref='-177707920' />
  </way>
  <way id='-38533555' action='modify'>
    <nd ref='-177707920' />
    <nd ref='-177707921' />
    <tag k='type' v='straight' />
  </way>
  <way id='-38533556' action='modify'>
    <nd ref='-177707921' />
    <nd ref='-177707922' />
    <nd ref='-177707923' />
  </way>
  <way id='-38533557' action='modify'>
    <nd ref='-177707923' />
    <nd ref='-177707924' />
    <tag k='type' v='straight' />
  </way>
  <way id='-38533558' action='modify'>
    <nd ref='-177707924' />
    <nd ref='-177707925' />
    <nd ref='-177707926' />
  </way>
  <way id='-38533559' action='modify'>
    <nd ref='-177707926' />
    <nd ref='-177707927' />
    <tag k='type' v='straight' />
  </way>
  <way id='-38533560' action='modify'>
    <nd ref='-177707927' />
    <nd ref='-177707928' />
  </way>
  <way id='-38533561' action='modify'>
    <nd ref='-177707928' />
    <nd ref='-177707929' />
    <nd ref='-177707930' />
    <tag k='type' v='straight' />
  </way>
  <way id='-38533562' action='modify'>
    <nd ref='-177707930' />
    <nd ref='-177707931' />
  </way>
  <way id='-38533563' action='modify'>
    <nd ref='-177707931' />
    <nd ref='-177707932' />
    <tag k='type' v='straight' />
  </way>
  <way id='-38533564' action='modify'>
    <nd ref='-177707932' />
    <nd ref='-177707933' />
  </way>
  <way id='-38533565' action='modify'>
    <nd ref='-177707933' />
    <nd ref='-177707934' />
    <nd ref='-177707935' />
    <tag k='type' v='straight' />
  </way>
  <way id='-38533566' action='modify'>
    <nd ref='-177707935' />
    <nd ref='-177707936' />
    <nd ref='-177707937' />
  </way>
  <way id='-38533567' action='modify'>
    <nd ref='-177707937' />
    <nd ref='-177707938' />
    <tag k='type' v='straight' />
  </way>
  <way id='-38533568' action='modify'>
    <nd ref='-177707938' />
    <nd ref='-177707939' />
  </way>
  <way id='-38533569' action='modify'>
    <nd ref='-177707939' />
    <nd ref='-177707940' />
    <tag k='type' v='straight' />
  </way>
  <way id='-38533570' action='modify'>
    <nd ref='-177707940' />
    <nd ref='-177707941' />
  </way>
  <way id='-38533571' action='modify'>
    <nd ref='-177707941' />
    <nd ref='-177707942' />
    <nd ref='-177707943' />
    <tag k='type' v='straight' />
  </way>
  <way id='-38533572' action='modify'>
    <nd ref='-177707943' />
    <nd ref='-177707944' />
  </way>
  <way id='-38533573' action='modify'>
    <nd ref='-177707944' />
    <nd ref='-177707945' />
    <tag k='type' v='straight' />
  </way>
  <way id='-38533574' action='modify'>
    <nd ref='-177707945' />
    <nd ref='-177707946' />
  </way>
  <way id='-38533575' action='modify'>
    <nd ref='-177707946' />
    <nd ref='-177707947' />
    <tag k='type' v='straight' />
  </way>
  <way id='-38533576' action='modify'>
    <nd ref='-177707947' />
    <nd ref='-177707948' />
  </way>
  <way id='-38533577' action='modify'>
    <nd ref='-177707948' />
    <nd ref='-177707949' />
    <nd ref='-177707950' />
    <tag k='type' v='straight' />
  </way>
  <way id='-38533578' action='modify'>
    <nd ref='-177707950' />
    <nd ref='-177707951' />
  </way>
  <way id='-38533579' action='modify'>
    <nd ref='-177707951' />
    <nd ref='-177707952' />
    <nd ref='-177707953' />
    <tag k='type' v='straight' />
  </way>
  <way id='-38533580' action='modify'>
    <nd ref='-177707953' />
    <nd ref='-177707954' />
  </way>
  <way id='-38533581' action='modify'>
    <nd ref='-177707954' />
    <nd ref='-177707955' />
    <tag k='type' v='straight' />
  </way>
  <way id='-38533582' action='modify'>
    <nd ref='-177707955' />
    <nd ref='-177707956' />
  </way>
  <way id='-38533583' action='modify'>
    <nd ref='-177707956' />
    <nd ref='-177707957' />
    <tag k='type' v='straight' />
  </way>
  <way id='-38533584' action='modify'>
    <nd ref='-177707957' />
    <nd ref='-177707958' />
  </way>
  <way id='-38533585' action='modify'>
    <nd ref='-177707958' />
    <nd ref='-177707959' />
    <tag k='type' v='straight' />
  </way>
  <way id='-38533586' action='modify'>
    <nd ref='-177707959' />
    <nd ref='-177707960' />
  </way>
  <way id='-38533587' action='modify'>
    <nd ref='-177707960' />
    <nd ref='-177707961' />
    <nd ref='-177707962' />
    <tag k='type' v='straight' />
  </way>
  <way id='-38533588' action='modify'>
    <nd ref='-177707962' />
    <nd ref='-177707963' />
  </way>
  <way id='-38533589' action='modify'>
    <nd ref='-177707963' />
    <nd ref='-177707964' />
    <tag k='type' v='straight' />
  </way>
  <way id='-38533590' action='modify'>
    <nd ref='-177707964' />
    <nd ref='-177707965' />
  </way>
  <way id='-38533591' action='modify'>
    <nd ref='-177707965' />
    <nd ref='-177707966' />
    <tag k='type' v='straight' />
  </way>
  <way id='-38533592' action='modify'>
    <nd ref='-177707966' />
    <nd ref='-177707967' />
  </way>
  <way id='-38533593' action='modify'>
    <nd ref='-177707967' />
    <nd ref='-177707968' />
    <tag k='type' v='straight' />
  </way>
  <way id='-38533594' action='modify'>
    <nd ref='-177707968' />
    <nd ref='-177707969' />
  </way>
  <way id='-38533595' action='modify'>
    <nd ref='-177707969' />
    <nd ref='-177707970' />
    <tag k='type' v='straight' />
  </way>
  <way id='-38533596' action='modify'>
    <nd ref='-177707970' />
    <nd ref='-177707971' />
  </way>
  <way id='-38533597' action='modify'>
    <nd ref='-177707971' />
    <nd ref='-177707972' />
    <nd ref='-177707973' />
    <tag k='type' v='straight' />
  </way>
  <way id='-38533598' action='modify'>
    <nd ref='-177707973' />
    <nd ref='-177707974' />
  </way>
  <way id='-38533599' action='modify'>
    <nd ref='-177707974' />
    <nd ref='-177707975' />
    <nd ref='-177707976' />
    <tag k='type' v='straight' />
  </way>
  <way id='-38533600' action='modify'>
    <nd ref='-177707976' />
    <nd ref='-177707977' />
  </way>
  <way id='-38533601' action='modify'>
    <nd ref='-177707977' />
    <nd ref='-177707978' />
    <tag k='type' v='straight' />
  </way>
  <way id='-38533602' action='modify'>
    <nd ref='-177707978' />
    <nd ref='-177707979' />
  </way>
  <way id='-38533603' action='modify'>
    <nd ref='-177707979' />
    <nd ref='-177707980' />
    <tag k='type' v='straight' />
  </way>
  <way id='-38533604' action='modify'>
    <nd ref='-177707980' />
    <nd ref='-177707981' />
    <nd ref='-177707982' />
  </way>
  <way id='-38533605' action='modify'>
    <nd ref='-177707982' />
    <nd ref='-177707983' />
    <tag k='type' v='straight' />
  </way>
  <way id='-38533606' action='modify'>
    <nd ref='-177707983' />
    <nd ref='-177707984' />
  </way>
  <way id='-38533607' action='modify'>
    <nd ref='-177707984' />
    <nd ref='-177707985' />
    <nd ref='-177707986' />
    <tag k='type' v='straight' />
  </way>
  <way id='-38533608' action='modify'>
    <nd ref='-177707986' />
    <nd ref='-177707987' />
    <nd ref='-177707988' />
    <nd ref='-177707989' />
  </way>
  <way id='-38533609' action='modify'>
    <nd ref='-177707989' />
    <nd ref='-177707990' />
    <tag k='type' v='straight' />
  </way>
  <way id='-38533610' action='modify'>
    <nd ref='-177707990' />
    <nd ref='-177707991' />
  </way>
  <way id='-38533611' action='modify'>
    <nd ref='-177707991' />
    <nd ref='-177707992' />
    <tag k='type' v='straight' />
  </way>
  <way id='-38533612' action='modify'>
    <nd ref='-177707992' />
    <nd ref='-177707993' />
  </way>
  <way id='-38533613' action='modify'>
    <nd ref='-177707993' />
    <nd ref='-177707994' />
    <nd ref='-177707995' />
    <tag k='type' v='straight' />
  </way>
  <way id='-38533614' action='modify'>
    <nd ref='-177707995' />
    <nd ref='-177707996' />
  </way>
  <way id='-38533615' action='modify'>
    <nd ref='-177707996' />
    <nd ref='-177707997' />
    <tag k='type' v='straight' />
  </way>
  <way id='-38533616' action='modify'>
    <nd ref='-177707997' />
    <nd ref='-177707998' />
  </way>
  <way id='-38533617' action='modify'>
    <nd ref='-177707998' />
    <nd ref='-177707999' />
    <tag k='type' v='straight' />
  </way>
  <way id='-38533618' action='modify'>
    <nd ref='-177707999' />
    <nd ref='-177708000' />
  </way>
  <way id='-38533619' action='modify'>
    <nd ref='-177708000' />
    <nd ref='-177708001' />
    <tag k='type' v='straight' />
  </way>
  <way id='-38533620' action='modify'>
    <nd ref='-177708001' />
    <nd ref='-177708002' />
    <tag k='type' v='straight' />
  </way>
  <way id='-38533621' action='modify'>
    <nd ref='-177708002' />
    <nd ref='-177708003' />
  </way>
  <way id='-38533622' action='modify'>
    <nd ref='-177708003' />
    <nd ref='-177708004' />
    <tag k='type' v='straight' />
  </way>
  <way id='-38533623' action='modify'>
    <nd ref='-177708004' />
    <nd ref='-177708005' />
  </way>
  <way id='-38533624' action='modify'>
    <nd ref='-177708005' />
    <nd ref='-177708007' />
    <tag k='type' v='straight' />
  </way>
  <way id='-38533635' action='modify'>
    <nd ref='-177708012' />
    <nd ref='-177708011' />
  </way>
  <way id='-38533639' action='modify'>
    <nd ref='-177707886' />
    <nd ref='-177708012' />
    <tag k='type' v='straight' />
  </way>
  <relation id='-14488247' action='modify'>
    <member type='way' ref='-38533526' role='' />
    <member type='way' ref='-38533527' role='' />
    <member type='way' ref='-38533528' role='' />
    <member type='way' ref='-38533529' role='' />
    <member type='way' ref='-38533639' role='' />
    <member type='way' ref='-38533635' role='' />
    <member type='way' ref='-38533530' role='' />
    <member type='way' ref='-38533531' role='' />
    <member type='way' ref='-38533532' role='' />
    <member type='way' ref='-38533533' role='' />
    <member type='way' ref='-38533534' role='' />
    <member type='way' ref='-38533535' role='' />
    <member type='way' ref='-38533536' role='' />
    <member type='way' ref='-38533537' role='' />
    <member type='way' ref='-38533538' role='' />
    <member type='way' ref='-38533540' role='' />
    <member type='way' ref='-38533541' role='' />
    <member type='way' ref='-38533542' role='' />
    <member type='way' ref='-38533543' role='' />
    <member type='way' ref='-38533544' role='' />
    <member type='way' ref='-38533545' role='' />
    <member type='way' ref='-38533546' role='' />
    <member type='way' ref='-38533547' role='' />
    <member type='way' ref='-38533548' role='' />
    <member type='way' ref='-38533549' role='' />
    <member type='way' ref='-38533550' role='' />
    <member type='way' ref='-38533551' role='' />
    <member type='way' ref='-38533552' role='' />
    <member type='way' ref='-38533553' role='' />
    <member type='way' ref='-38533554' role='' />
    <member type='way' ref='-38533555' role='' />
    <member type='way' ref='-38533556' role='' />
    <member type='way' ref='-38533557' role='' />
    <member type='way' ref='-38533558' role='' />
    <member type='way' ref='-38533559' role='' />
    <member type='way' ref='-38533560' role='' />
    <member type='way' ref='-38533561' role='' />
    <member type='way' ref='-38533562' role='' />
    <member type='way' ref='-38533563' role='' />
    <member type='way' ref='-38533564' role='' />
    <member type='way' ref='-38533565' role='' />
    <member type='way' ref='-38533566' role='' />
    <member type='way' ref='-38533567' role='' />
    <member type='way' ref='-38533568' role='' />
    <member type='way' ref='-38533569' role='' />
    <member type='way' ref='-38533570' role='' />
    <member type='way' ref='-38533571' role='' />
    <member type='way' ref='-38533572' role='' />
    <member type='way' ref='-38533573' role='' />
    <member type='way' ref='-38533574' role='' />
    <member type='way' ref='-38533575' role='' />
    <member type='way' ref='-38533576' role='' />
    <member type='way' ref='-38533577' role='' />
    <member type='way' ref='-38533578' role='' />
    <member type='way' ref='-38533579' role='' />
    <member type='way' ref='-38533580' role='' />
    <member type='way' ref='-38533581' role='' />
    <member type='way' ref='-38533582' role='' />
    <member type='way' ref='-38533583' role='' />
    <member type='way' ref='-38533584' role='' />
    <member type='way' ref='-38533585' role='' />
    <member type='way' ref='-38533586' role='' />
    <member type='way' ref='-38533587' role='' />
    <member type='way' ref='-38533588' role='' />
    <member type='way' ref='-38533589' role='' />
    <member type='way' ref='-38533590' role='' />
    <member type='way' ref='-38533591' role='' />
    <member type='way' ref='-38533592' role='' />
    <member type='way' ref='-38533593' role='' />
    <member type='way' ref='-38533594' role='' />
    <member type='way' ref='-38533595' role='' />
    <member type='way' ref='-38533596' role='' />
    <member type='way' ref='-38533597' role='' />
    <member type='way' ref='-38533598' role='' />
    <member type='way' ref='-38533599' role='' />
    <member type='way' ref='-38533600' role='' />
    <member type='way' ref='-38533601' role='' />
    <member type='way' ref='-38533602' role='' />
    <member type='way' ref='-38533603' role='' />
    <member type='way' ref='-38533604' role='' />
    <member type='way' ref='-38533605' role='' />
    <member type='way' ref='-38533606' role='' />
    <member type='way' ref='-38533607' role='' />
    <member type='way' ref='-38533608' role='' />
    <member type='way' ref='-38533609' role='' />
    <member type='way' ref='-38533610' role='' />
    <member type='way' ref='-38533611' role='' />
    <member type='way' ref='-38533612' role='' />
    <member type='way' ref='-38533613' role='' />
    <member type='way' ref='-38533614' role='' />
    <member type='way' ref='-38533615' role='' />
    <member type='way' ref='-38533616' role='' />
    <member type='way' ref='-38533617' role='' />
    <member type='way' ref='-38533618' role='' />
    <member type='way' ref='-38533619' role='' />
    <member type='way' ref='-38533620' role='' />
    <member type='way' ref='-38533621' role='' />
    <member type='way' ref='-38533622' role='' />
    <member type='way' ref='-38533623' role='' />
    <member type='way' ref='-38533624' role='reverse' />
    <tag k='key' v='path.dk.abh' />
    <tag k='name' v='DK ABH' />
    <tag k='type' v='path' />
  </relation>
</osm>
