<?xml version='1.0' encoding='UTF-8'?>
<osm version='0.6' upload='false' generator='JOSM'>
  <node id='-170801544' action='modify' lat='56.15016935717' lon='10.20481523509'>
    <tag k='name' v='aar' />
  </node>
  <node id='-170801545' action='modify' lat='56.15113629095' lon='10.21096178437' />
  <node id='-170801546' action='modify' lat='56.15344040696' lon='10.2133416371' />
  <node id='-170801547' action='modify' lat='56.15414806617' lon='10.21297401484'>
    <tag k='name' v='dok' />
  </node>
  <node id='-170801548' action='modify' lat='56.15467697222' lon='10.21269924872' />
  <node id='-170801549' action='modify' lat='56.15542128301' lon='10.21260738239' />
  <node id='-170801550' action='modify' lat='56.15594561546' lon='10.21268516645' />
  <node id='-170801551' action='modify' lat='56.15668878095' lon='10.21291583642' />
  <node id='-170801552' action='modify' lat='56.1571989757' lon='10.21314603077'>
    <tag k='name' v='sko' />
  </node>
  <node id='-170801553' action='modify' lat='56.15800553035' lon='10.21350994572' />
  <node id='-170801554' action='modify' lat='56.15854999266' lon='10.21377816662' />
  <node id='-170801555' action='modify' lat='56.15971316982' lon='10.21442498774'>
    <tag k='name' v='sko.yl' />
  </node>
  <node id='-170801556' action='modify' lat='56.16066503229' lon='10.21495431527' />
  <node id='-170801557' action='modify' lat='56.16096188992' lon='10.21513871782' />
  <node id='-170801558' action='modify' lat='56.16119900127' lon='10.21529093318' />
  <node id='-170801559' action='modify' lat='56.16192488933' lon='10.2158246921' />
  <node id='-170801560' action='modify' lat='56.1631451264' lon='10.21661594376'>
    <tag k='name' v='ost' />
  </node>
  <node id='-170801561' action='modify' lat='56.16386201628' lon='10.21725430951' />
  <node id='-170801562' action='modify' lat='56.16472151972' lon='10.21804287896' />
  <node id='-170801563' action='modify' lat='56.16645913649' lon='10.21974205837' />
  <node id='-170801564' action='modify' lat='56.16690416879' lon='10.22015243635' />
  <node id='-170801565' action='modify' lat='56.168948563' lon='10.22195890412' />
  <node id='-170801566' action='modify' lat='56.17167674095' lon='10.22491201691' />
  <node id='-170801567' action='modify' lat='56.17342804099' lon='10.22716104951' />
  <node id='-170801568' action='modify' lat='56.17435918597' lon='10.22824600272' />
  <node id='-170801569' action='modify' lat='56.17718811184' lon='10.23124424457'>
    <tag k='name' v='per' />
  </node>
  <node id='-170801570' action='modify' lat='56.17932752275' lon='10.23351184957' />
  <node id='-170801571' action='modify' lat='56.18047558472' lon='10.23456524081'>
    <tag k='name' v='ris' />
  </node>
  <node id='-170801572' action='modify' lat='56.18106821075' lon='10.234980359' />
  <node id='-170801573' action='modify' lat='56.18597709294' lon='10.23811519079' />
  <node id='-170801574' action='modify' lat='56.19013575394' lon='10.23880451884' />
  <node id='-170801575' action='modify' lat='56.19162522507' lon='10.23844845526' />
  <node id='-170801576' action='modify' lat='56.19501027302' lon='10.23676000468'>
    <tag k='name' v='ves' />
  </node>
  <node id='-170801577' action='modify' lat='56.19527478181' lon='10.2365621911' />
  <node id='-170801578' action='modify' lat='56.19839409163' lon='10.23408004515'>
    <tag k='name' v='grv' />
  </node>
  <node id='-170801579' action='modify' lat='56.20514735729' lon='10.22870553947'>
    <tag k='name' v='tor' />
  </node>
  <node id='-170801580' action='modify' lat='56.20863288243' lon='10.22593125567' />
  <node id='-170801581' action='modify' lat='56.21260823041' lon='10.21719060771' />
  <node id='-170801582' action='modify' lat='56.21268169216' lon='10.21664746039' />
  <node id='-170801583' action='modify' lat='56.22250677745' lon='10.20784376979'>
    <tag k='name' v='ter' />
  </node>
  <node id='-170801584' action='modify' lat='56.2263189005' lon='10.21501466498' />
  <node id='-170801585' action='modify' lat='56.2309626652' lon='10.23493467381'>
    <tag k='name' v='lys' />
  </node>
  <node id='-170801586' action='modify' lat='56.23157197748' lon='10.23754857413' />
  <node id='-170801587' action='modify' lat='56.23220037517' lon='10.24155244164' />
  <node id='-170801588' action='modify' lat='56.23274117655' lon='10.24955682389' />
  <node id='-170801589' action='modify' lat='56.23410682242' lon='10.2553743755'>
    <tag k='name' v='hov' />
  </node>
  <node id='-170801590' action='modify' lat='56.23599476874' lon='10.25793135099' />
  <node id='-170801591' action='modify' lat='56.24065739672' lon='10.26193186507' />
  <node id='-170801592' action='modify' lat='56.24390211882' lon='10.2668637779' />
  <node id='-170801593' action='modify' lat='56.24461947463' lon='10.26860743967'>
    <tag k='name' v='hjo' />
  </node>
  <node id='-170801594' action='modify' lat='56.25473797699' lon='10.2932057523' />
  <node id='-170801595' action='modify' lat='56.25861859595' lon='10.29962126132' />
  <node id='-170801596' action='modify' lat='56.26185574161' lon='10.30322480844'>
    <tag k='name' v='sks' />
  </node>
  <node id='-170801597' action='modify' lat='56.268026584' lon='10.31009495191' />
  <node id='-170801598' action='modify' lat='56.26897460956' lon='10.31104378335' />
  <node id='-170801599' action='modify' lat='56.27588504517' lon='10.31749348615'>
    <tag k='name' v='log' />
  </node>
  <node id='-170801600' action='modify' lat='56.28388597813' lon='10.32496243648' />
  <node id='-170801601' action='modify' lat='56.2923003268' lon='10.32315730982' />
  <node id='-170801602' action='modify' lat='56.30301831871' lon='10.306691228' />
  <node id='-170801603' action='modify' lat='56.30911863305' lon='10.30484519832' />
  <node id='-170801604' action='modify' lat='56.3207476705' lon='10.3137458828'>
    <tag k='name' v='hor' />
  </node>
  <node id='-170801605' action='modify' lat='56.33567762424' lon='10.32517701253' />
  <node id='-170801606' action='modify' lat='56.33884516047' lon='10.32892607018' />
  <node id='-170801607' action='modify' lat='56.34355360587' lon='10.33712759547' />
  <node id='-170801608' action='modify' lat='56.3432466399' lon='10.35237260096' />
  <node id='-170801609' action='modify' lat='56.33937033167' lon='10.35824730925' />
  <node id='-170801610' action='modify' lat='56.33789738032' lon='10.37087246642' />
  <node id='-170801611' action='modify' lat='56.33953347098' lon='10.37671567932'>
    <tag k='name' v='mor' />
  </node>
  <node id='-170801612' action='modify' lat='56.34572719653' lon='10.39883851871' />
  <node id='-170801613' action='modify' lat='56.3461701493' lon='10.40027484164' />
  <node id='-170801614' action='modify' lat='56.34995123347' lon='10.41133033619'>
    <tag k='name' v='dag' />
  </node>
  <node id='-170801615' action='modify' lat='56.35421523849' lon='10.4237991558' />
  <node id='-170801616' action='modify' lat='56.35576892042' lon='10.4370633506' />
  <node id='-170801617' action='modify' lat='56.35546502485' lon='10.44103033774' />
  <node id='-170801618' action='modify' lat='56.35618334798' lon='10.44821850785'>
    <tag k='name' v='tho' />
  </node>
  <node id='-170801619' action='modify' lat='56.35795035888' lon='10.45150503449' />
  <node id='-170801620' action='modify' lat='56.36215759698' lon='10.45655161075' />
  <node id='-170801621' action='modify' lat='56.36411618578' lon='10.45975752041' />
  <node id='-170801622' action='modify' lat='56.36589342539' lon='10.46354949407' />
  <node id='-170801623' action='modify' lat='56.36714654333' lon='10.46577237479' />
  <node id='-170801624' action='modify' lat='56.37892695742' lon='10.48388331994' />
  <node id='-170801625' action='modify' lat='56.38066378131' lon='10.49521967635' />
  <node id='-170801626' action='modify' lat='56.37999840611' lon='10.50057440631'>
    <tag k='name' v='ryo' />
  </node>
  <node id='-170801627' action='modify' lat='56.37976456343' lon='10.50245627627' />
  <node id='-170801628' action='modify' lat='56.37958857859' lon='10.50363913044' />
  <node id='-170801629' action='modify' lat='56.37939551412' lon='10.50478979811' />
  <node id='-170801630' action='modify' lat='56.3789908181' lon='10.50665929779' />
  <node id='-170801631' action='modify' lat='56.37597959622' lon='10.51826789841' />
  <node id='-170801632' action='modify' lat='56.37521022985' lon='10.52321456239' />
  <node id='-170801633' action='modify' lat='56.3750260549' lon='10.52616029844' />
  <node id='-170801634' action='modify' lat='56.37495550378' lon='10.52991404995' />
  <node id='-170801635' action='modify' lat='56.37507506929' lon='10.53343713149' />
  <node id='-170801636' action='modify' lat='56.37510069005' lon='10.53819738261' />
  <node id='-170801637' action='modify' lat='56.3747215698' lon='10.55605553024' />
  <node id='-170801638' action='modify' lat='56.37382629633' lon='10.56237414412' />
  <node id='-170801639' action='modify' lat='56.37285095915' lon='10.56587123981'>
    <tag k='name' v='koe' />
  </node>
  <node id='-170801640' action='modify' lat='56.37184221218' lon='10.56948803298' />
  <node id='-170801641' action='modify' lat='56.37021825396' lon='10.57346038386' />
  <node id='-170801642' action='modify' lat='56.36406901407' lon='10.58428309791' />
  <node id='-170801643' action='modify' lat='56.36278979449' lon='10.5883339034' />
  <node id='-170801644' action='modify' lat='56.36275952629' lon='10.58855490927'>
    <tag k='name' v='kol' />
  </node>
  <node id='-170801645' action='modify' lat='56.36232326225' lon='10.59174030885' />
  <node id='-170801646' action='modify' lat='56.36240609405' lon='10.59579715066' />
  <node id='-170801647' action='modify' lat='56.36588599755' lon='10.61576217279' />
  <node id='-170801648' action='modify' lat='56.36513945528' lon='10.62470733985' />
  <node id='-170801649' action='modify' lat='56.364293356' lon='10.62695167892' />
  <node id='-170801650' action='modify' lat='56.36239606543' lon='10.63079461321' />
  <node id='-170801651' action='modify' lat='56.35917327731' lon='10.63583582506' />
  <node id='-170801652' action='modify' lat='56.35762233416' lon='10.63970222935' />
  <node id='-170801653' action='modify' lat='56.35630463301' lon='10.64520746335' />
  <node id='-170801654' action='modify' lat='56.35587368619' lon='10.65048202738' />
  <node id='-170801655' action='modify' lat='56.35593981455' lon='10.65180435643' />
  <node id='-170801656' action='modify' lat='56.35595003171' lon='10.6555999183'>
    <tag k='name' v='nod' />
  </node>
  <node id='-170801657' action='modify' lat='56.35460236431' lon='10.66359668903' />
  <node id='-170801658' action='modify' lat='56.34560976859' lon='10.69381311402' />
  <node id='-170801659' action='modify' lat='56.34505941283' lon='10.70225737922' />
  <node id='-170801660' action='modify' lat='56.34562017361' lon='10.7056483613'>
    <tag k='name' v='hal' />
  </node>
  <node id='-170801661' action='modify' lat='56.34609434231' lon='10.71029797062' />
  <node id='-170801662' action='modify' lat='56.34745810189' lon='10.74525788292' />
  <node id='-170801663' action='modify' lat='56.34778212659' lon='10.74900291793' />
  <node id='-170801664' action='modify' lat='56.35069194329' lon='10.77160380742'>
    <tag k='name' v='tru' />
  </node>
  <node id='-170801665' action='modify' lat='56.35087583294' lon='10.77303215794' />
  <node id='-170801666' action='modify' lat='56.35260539004' lon='10.77811494403' />
  <node id='-170801667' action='modify' lat='56.36541727471' lon='10.79833477601' />
  <node id='-170801668' action='modify' lat='56.36777308685' lon='10.80440729789' />
  <node id='-170801669' action='modify' lat='56.36888800984' lon='10.80969545214'>
    <tag k='name' v='hom' />
  </node>
  <node id='-170801670' action='modify' lat='56.37095281283' lon='10.81948935919' />
  <node id='-170801671' action='modify' lat='56.37188157588' lon='10.82301780447' />
  <node id='-170801672' action='modify' lat='56.37373680533' lon='10.82871481642' />
  <node id='-170801673' action='modify' lat='56.37449134839' lon='10.83076402411' />
  <node id='-170801674' action='modify' lat='56.37663171288' lon='10.83593723987'>
    <tag k='name' v='als' />
  </node>
  <node id='-170801675' action='modify' lat='56.37737718922' lon='10.83773910865' />
  <node id='-170801676' action='modify' lat='56.37860245439' lon='10.84135874972' />
  <node id='-170801677' action='modify' lat='56.38427677475' lon='10.862985401' />
  <node id='-170801678' action='modify' lat='56.3863875369' lon='10.86763903365' />
  <node id='-170801679' action='modify' lat='56.3881158544' lon='10.87013214692' />
  <node id='-170801680' action='modify' lat='56.38999590416' lon='10.87205059759'>
    <tag k='name' v='hes' />
  </node>
  <node id='-170801681' action='modify' lat='56.39194897937' lon='10.87259374492' />
  <node id='-170801682' action='modify' lat='56.39918101818' lon='10.8729229854' />
  <node id='-170801683' action='modify' lat='56.40106645874' lon='10.87275668912' />
  <node id='-170801684' action='modify' lat='56.40714034997' lon='10.8714283251' />
  <node id='-170801685' action='modify' lat='56.41029119339' lon='10.87387785248' />
  <node id='-170801686' action='modify' lat='56.41182923591' lon='10.87739288673' />
  <node id='-170801687' action='modify' lat='56.41255149293' lon='10.87951451473'>
    <tag k='name' v='gre' />
  </node>
  <node id='-170801688' action='modify' lat='56.41258562083' lon='10.87964124911' />
  <node id='-170801689' action='modify' lat='56.41314761501' lon='10.88276266783' />
  <node id='-170801690' action='modify' lat='56.41418774397' lon='10.89317232102' />
  <node id='-170801840' action='modify' lat='56.15082239714' lon='10.20896104141' />
  <node id='-170801841' action='modify' lat='56.15102294433' lon='10.2103220574' />
  <way id='-38002510' action='modify'>
    <nd ref='-170801544' />
    <nd ref='-170801840' />
    <tag k='type' v='straight' />
  </way>
  <way id='-38002511' action='modify'>
    <nd ref='-170801545' />
    <nd ref='-170801546' />
  </way>
  <way id='-38002512' action='modify'>
    <nd ref='-170801546' />
    <nd ref='-170801547' />
    <nd ref='-170801548' />
    <tag k='type' v='straight' />
  </way>
  <way id='-38002513' action='modify'>
    <nd ref='-170801548' />
    <nd ref='-170801549' />
  </way>
  <way id='-38002514' action='modify'>
    <nd ref='-170801549' />
    <nd ref='-170801550' />
    <tag k='type' v='straight' />
  </way>
  <way id='-38002515' action='modify'>
    <nd ref='-170801550' />
    <nd ref='-170801551' />
  </way>
  <way id='-38002516' action='modify'>
    <nd ref='-170801551' />
    <nd ref='-170801552' />
    <nd ref='-170801553' />
    <tag k='type' v='straight' />
  </way>
  <way id='-38002517' action='modify'>
    <nd ref='-170801553' />
    <nd ref='-170801554' />
  </way>
  <way id='-38002518' action='modify'>
    <nd ref='-170801554' />
    <nd ref='-170801555' />
    <nd ref='-170801556' />
    <tag k='type' v='straight' />
  </way>
  <way id='-38002519' action='modify'>
    <nd ref='-170801556' />
    <nd ref='-170801557' />
  </way>
  <way id='-38002520' action='modify'>
    <nd ref='-170801557' />
    <nd ref='-170801558' />
    <tag k='type' v='straight' />
  </way>
  <way id='-38002521' action='modify'>
    <nd ref='-170801558' />
    <nd ref='-170801559' />
    <nd ref='-170801560' />
  </way>
  <way id='-38002522' action='modify'>
    <nd ref='-170801560' />
    <nd ref='-170801561' />
    <tag k='type' v='straight' />
  </way>
  <way id='-38002523' action='modify'>
    <nd ref='-170801561' />
    <nd ref='-170801562' />
  </way>
  <way id='-38002524' action='modify'>
    <nd ref='-170801562' />
    <nd ref='-170801563' />
    <tag k='type' v='straight' />
  </way>
  <way id='-38002525' action='modify'>
    <nd ref='-170801563' />
    <nd ref='-170801564' />
  </way>
  <way id='-38002526' action='modify'>
    <nd ref='-170801564' />
    <nd ref='-170801565' />
    <tag k='type' v='straight' />
  </way>
  <way id='-38002527' action='modify'>
    <nd ref='-170801565' />
    <nd ref='-170801566' />
  </way>
  <way id='-38002528' action='modify'>
    <nd ref='-170801566' />
    <nd ref='-170801567' />
    <tag k='type' v='straight' />
  </way>
  <way id='-38002529' action='modify'>
    <nd ref='-170801567' />
    <nd ref='-170801568' />
  </way>
  <way id='-38002530' action='modify'>
    <nd ref='-170801568' />
    <nd ref='-170801569' />
    <nd ref='-170801570' />
    <tag k='type' v='straight' />
  </way>
  <way id='-38002531' action='modify'>
    <nd ref='-170801570' />
    <nd ref='-170801571' />
    <nd ref='-170801572' />
  </way>
  <way id='-38002532' action='modify'>
    <nd ref='-170801572' />
    <nd ref='-170801573' />
    <tag k='type' v='straight' />
  </way>
  <way id='-38002533' action='modify'>
    <nd ref='-170801573' />
    <nd ref='-170801574' />
  </way>
  <way id='-38002534' action='modify'>
    <nd ref='-170801574' />
    <nd ref='-170801575' />
    <tag k='type' v='straight' />
  </way>
  <way id='-38002535' action='modify'>
    <nd ref='-170801575' />
    <nd ref='-170801576' />
    <nd ref='-170801577' />
  </way>
  <way id='-38002536' action='modify'>
    <nd ref='-170801577' />
    <nd ref='-170801578' />
    <nd ref='-170801579' />
    <nd ref='-170801580' />
    <tag k='type' v='straight' />
  </way>
  <way id='-38002537' action='modify'>
    <nd ref='-170801580' />
    <nd ref='-170801581' />
  </way>
  <way id='-38002538' action='modify'>
    <nd ref='-170801581' />
    <nd ref='-170801582' />
    <tag k='type' v='straight' />
  </way>
  <way id='-38002539' action='modify'>
    <nd ref='-170801582' />
    <nd ref='-170801583' />
    <nd ref='-170801584' />
  </way>
  <way id='-38002540' action='modify'>
    <nd ref='-170801584' />
    <nd ref='-170801585' />
    <nd ref='-170801586' />
    <tag k='type' v='straight' />
  </way>
  <way id='-38002541' action='modify'>
    <nd ref='-170801586' />
    <nd ref='-170801587' />
  </way>
  <way id='-38002542' action='modify'>
    <nd ref='-170801587' />
    <nd ref='-170801588' />
    <tag k='type' v='straight' />
  </way>
  <way id='-38002543' action='modify'>
    <nd ref='-170801588' />
    <nd ref='-170801589' />
    <nd ref='-170801590' />
  </way>
  <way id='-38002544' action='modify'>
    <nd ref='-170801590' />
    <nd ref='-170801591' />
    <tag k='type' v='straight' />
  </way>
  <way id='-38002545' action='modify'>
    <nd ref='-170801591' />
    <nd ref='-170801592' />
  </way>
  <way id='-38002546' action='modify'>
    <nd ref='-170801592' />
    <nd ref='-170801593' />
    <nd ref='-170801594' />
    <tag k='type' v='straight' />
  </way>
  <way id='-38002547' action='modify'>
    <nd ref='-170801594' />
    <nd ref='-170801595' />
  </way>
  <way id='-38002548' action='modify'>
    <nd ref='-170801595' />
    <nd ref='-170801596' />
    <nd ref='-170801597' />
    <tag k='type' v='straight' />
  </way>
  <way id='-38002549' action='modify'>
    <nd ref='-170801597' />
    <nd ref='-170801598' />
  </way>
  <way id='-38002550' action='modify'>
    <nd ref='-170801598' />
    <nd ref='-170801599' />
    <nd ref='-170801600' />
    <tag k='type' v='straight' />
  </way>
  <way id='-38002551' action='modify'>
    <nd ref='-170801600' />
    <nd ref='-170801601' />
  </way>
  <way id='-38002552' action='modify'>
    <nd ref='-170801601' />
    <nd ref='-170801602' />
    <tag k='type' v='straight' />
  </way>
  <way id='-38002553' action='modify'>
    <nd ref='-170801602' />
    <nd ref='-170801603' />
  </way>
  <way id='-38002554' action='modify'>
    <nd ref='-170801603' />
    <nd ref='-170801604' />
    <nd ref='-170801605' />
    <tag k='type' v='straight' />
  </way>
  <way id='-38002555' action='modify'>
    <nd ref='-170801605' />
    <nd ref='-170801606' />
  </way>
  <way id='-38002556' action='modify'>
    <nd ref='-170801606' />
    <nd ref='-170801607' />
    <tag k='type' v='straight' />
  </way>
  <way id='-38002557' action='modify'>
    <nd ref='-170801607' />
    <nd ref='-170801608' />
  </way>
  <way id='-38002558' action='modify'>
    <nd ref='-170801608' />
    <nd ref='-170801609' />
    <tag k='type' v='straight' />
  </way>
  <way id='-38002559' action='modify'>
    <nd ref='-170801609' />
    <nd ref='-170801610' />
  </way>
  <way id='-38002560' action='modify'>
    <nd ref='-170801610' />
    <nd ref='-170801611' />
    <nd ref='-170801612' />
    <tag k='type' v='straight' />
  </way>
  <way id='-38002561' action='modify'>
    <nd ref='-170801612' />
    <nd ref='-170801613' />
  </way>
  <way id='-38002562' action='modify'>
    <nd ref='-170801613' />
    <nd ref='-170801614' />
    <nd ref='-170801615' />
    <tag k='type' v='straight' />
  </way>
  <way id='-38002563' action='modify'>
    <nd ref='-170801615' />
    <nd ref='-170801616' />
  </way>
  <way id='-38002564' action='modify'>
    <nd ref='-170801616' />
    <nd ref='-170801617' />
    <tag k='type' v='straight' />
  </way>
  <way id='-38002565' action='modify'>
    <nd ref='-170801617' />
    <nd ref='-170801618' />
    <nd ref='-170801619' />
  </way>
  <way id='-38002566' action='modify'>
    <nd ref='-170801619' />
    <nd ref='-170801620' />
    <tag k='type' v='straight' />
  </way>
  <way id='-38002567' action='modify'>
    <nd ref='-170801620' />
    <nd ref='-170801621' />
  </way>
  <way id='-38002568' action='modify'>
    <nd ref='-170801621' />
    <nd ref='-170801622' />
    <tag k='type' v='straight' />
  </way>
  <way id='-38002569' action='modify'>
    <nd ref='-170801622' />
    <nd ref='-170801623' />
  </way>
  <way id='-38002570' action='modify'>
    <nd ref='-170801623' />
    <nd ref='-170801624' />
    <tag k='type' v='straight' />
  </way>
  <way id='-38002571' action='modify'>
    <nd ref='-170801624' />
    <nd ref='-170801625' />
  </way>
  <way id='-38002572' action='modify'>
    <nd ref='-170801625' />
    <nd ref='-170801626' />
    <nd ref='-170801627' />
    <tag k='type' v='straight' />
  </way>
  <way id='-38002573' action='modify'>
    <nd ref='-170801627' />
    <nd ref='-170801628' />
  </way>
  <way id='-38002574' action='modify'>
    <nd ref='-170801628' />
    <nd ref='-170801629' />
    <tag k='type' v='straight' />
  </way>
  <way id='-38002575' action='modify'>
    <nd ref='-170801629' />
    <nd ref='-170801630' />
  </way>
  <way id='-38002576' action='modify'>
    <nd ref='-170801630' />
    <nd ref='-170801631' />
    <tag k='type' v='straight' />
  </way>
  <way id='-38002577' action='modify'>
    <nd ref='-170801631' />
    <nd ref='-170801632' />
  </way>
  <way id='-38002578' action='modify'>
    <nd ref='-170801632' />
    <nd ref='-170801633' />
    <tag k='type' v='straight' />
  </way>
  <way id='-38002579' action='modify'>
    <nd ref='-170801633' />
    <nd ref='-170801634' />
  </way>
  <way id='-38002580' action='modify'>
    <nd ref='-170801634' />
    <nd ref='-170801635' />
    <tag k='type' v='straight' />
  </way>
  <way id='-38002581' action='modify'>
    <nd ref='-170801635' />
    <nd ref='-170801636' />
  </way>
  <way id='-38002582' action='modify'>
    <nd ref='-170801636' />
    <nd ref='-170801637' />
    <tag k='type' v='straight' />
  </way>
  <way id='-38002583' action='modify'>
    <nd ref='-170801637' />
    <nd ref='-170801638' />
  </way>
  <way id='-38002584' action='modify'>
    <nd ref='-170801638' />
    <nd ref='-170801639' />
    <nd ref='-170801640' />
    <tag k='type' v='straight' />
  </way>
  <way id='-38002585' action='modify'>
    <nd ref='-170801640' />
    <nd ref='-170801641' />
  </way>
  <way id='-38002586' action='modify'>
    <nd ref='-170801641' />
    <nd ref='-170801642' />
    <tag k='type' v='straight' />
  </way>
  <way id='-38002587' action='modify'>
    <nd ref='-170801642' />
    <nd ref='-170801643' />
  </way>
  <way id='-38002588' action='modify'>
    <nd ref='-170801643' />
    <nd ref='-170801644' />
    <nd ref='-170801645' />
    <tag k='type' v='straight' />
  </way>
  <way id='-38002589' action='modify'>
    <nd ref='-170801645' />
    <nd ref='-170801646' />
  </way>
  <way id='-38002590' action='modify'>
    <nd ref='-170801646' />
    <nd ref='-170801647' />
    <tag k='type' v='straight' />
  </way>
  <way id='-38002591' action='modify'>
    <nd ref='-170801647' />
    <nd ref='-170801648' />
  </way>
  <way id='-38002592' action='modify'>
    <nd ref='-170801648' />
    <nd ref='-170801649' />
    <tag k='type' v='straight' />
  </way>
  <way id='-38002593' action='modify'>
    <nd ref='-170801649' />
    <nd ref='-170801650' />
  </way>
  <way id='-38002594' action='modify'>
    <nd ref='-170801650' />
    <nd ref='-170801651' />
    <tag k='type' v='straight' />
  </way>
  <way id='-38002595' action='modify'>
    <nd ref='-170801651' />
    <nd ref='-170801652' />
  </way>
  <way id='-38002596' action='modify'>
    <nd ref='-170801652' />
    <nd ref='-170801653' />
    <tag k='type' v='straight' />
  </way>
  <way id='-38002597' action='modify'>
    <nd ref='-170801653' />
    <nd ref='-170801654' />
  </way>
  <way id='-38002598' action='modify'>
    <nd ref='-170801654' />
    <nd ref='-170801655' />
    <tag k='type' v='straight' />
  </way>
  <way id='-38002599' action='modify'>
    <nd ref='-170801655' />
    <nd ref='-170801656' />
    <nd ref='-170801657' />
  </way>
  <way id='-38002600' action='modify'>
    <nd ref='-170801657' />
    <nd ref='-170801658' />
    <tag k='type' v='straight' />
  </way>
  <way id='-38002601' action='modify'>
    <nd ref='-170801658' />
    <nd ref='-170801659' />
  </way>
  <way id='-38002602' action='modify'>
    <nd ref='-170801659' />
    <nd ref='-170801660' />
    <tag k='type' v='straight' />
  </way>
  <way id='-38002603' action='modify'>
    <nd ref='-170801660' />
    <nd ref='-170801661' />
  </way>
  <way id='-38002604' action='modify'>
    <nd ref='-170801661' />
    <nd ref='-170801662' />
    <tag k='type' v='straight' />
  </way>
  <way id='-38002605' action='modify'>
    <nd ref='-170801662' />
    <nd ref='-170801663' />
  </way>
  <way id='-38002606' action='modify'>
    <nd ref='-170801663' />
    <nd ref='-170801664' />
    <nd ref='-170801665' />
    <tag k='type' v='straight' />
  </way>
  <way id='-38002607' action='modify'>
    <nd ref='-170801665' />
    <nd ref='-170801666' />
  </way>
  <way id='-38002608' action='modify'>
    <nd ref='-170801666' />
    <nd ref='-170801667' />
    <tag k='type' v='straight' />
  </way>
  <way id='-38002609' action='modify'>
    <nd ref='-170801667' />
    <nd ref='-170801668' />
  </way>
  <way id='-38002610' action='modify'>
    <nd ref='-170801668' />
    <nd ref='-170801669' />
    <nd ref='-170801670' />
    <tag k='type' v='straight' />
  </way>
  <way id='-38002611' action='modify'>
    <nd ref='-170801670' />
    <nd ref='-170801671' />
  </way>
  <way id='-38002612' action='modify'>
    <nd ref='-170801671' />
    <nd ref='-170801672' />
    <tag k='type' v='straight' />
  </way>
  <way id='-38002613' action='modify'>
    <nd ref='-170801672' />
    <nd ref='-170801673' />
  </way>
  <way id='-38002614' action='modify'>
    <nd ref='-170801673' />
    <nd ref='-170801674' />
    <nd ref='-170801675' />
    <tag k='type' v='straight' />
  </way>
  <way id='-38002615' action='modify'>
    <nd ref='-170801675' />
    <nd ref='-170801676' />
  </way>
  <way id='-38002616' action='modify'>
    <nd ref='-170801676' />
    <nd ref='-170801677' />
    <tag k='type' v='straight' />
  </way>
  <way id='-38002617' action='modify'>
    <nd ref='-170801677' />
    <nd ref='-170801678' />
  </way>
  <way id='-38002618' action='modify'>
    <nd ref='-170801678' />
    <nd ref='-170801679' />
    <tag k='type' v='straight' />
  </way>
  <way id='-38002619' action='modify'>
    <nd ref='-170801679' />
    <nd ref='-170801680' />
    <nd ref='-170801681' />
  </way>
  <way id='-38002620' action='modify'>
    <nd ref='-170801681' />
    <nd ref='-170801682' />
    <tag k='type' v='straight' />
  </way>
  <way id='-38002621' action='modify'>
    <nd ref='-170801682' />
    <nd ref='-170801683' />
  </way>
  <way id='-38002622' action='modify'>
    <nd ref='-170801683' />
    <nd ref='-170801684' />
    <tag k='type' v='straight' />
  </way>
  <way id='-38002623' action='modify'>
    <nd ref='-170801684' />
    <nd ref='-170801685' />
  </way>
  <way id='-38002624' action='modify'>
    <nd ref='-170801685' />
    <nd ref='-170801686' />
    <tag k='type' v='straight' />
  </way>
  <way id='-38002625' action='modify'>
    <nd ref='-170801686' />
    <nd ref='-170801687' />
  </way>
  <way id='-38002626' action='modify'>
    <nd ref='-170801687' />
    <nd ref='-170801688' />
    <tag k='type' v='straight' />
  </way>
  <way id='-38002627' action='modify'>
    <nd ref='-170801688' />
    <nd ref='-170801689' />
  </way>
  <way id='-38002628' action='modify'>
    <nd ref='-170801689' />
    <nd ref='-170801690' />
    <tag k='type' v='straight' />
  </way>
  <way id='-38002751' action='modify'>
    <nd ref='-170801840' />
    <nd ref='-170801841' />
  </way>
  <way id='-38002752' action='modify'>
    <nd ref='-170801841' />
    <nd ref='-170801545' />
    <tag k='type' v='straight' />
  </way>
  <relation id='-14482679' action='modify'>
    <member type='way' ref='-38002510' role='' />
    <member type='way' ref='-38002751' role='' />
    <member type='way' ref='-38002752' role='' />
    <member type='way' ref='-38002511' role='' />
    <member type='way' ref='-38002512' role='' />
    <member type='way' ref='-38002513' role='' />
    <member type='way' ref='-38002514' role='' />
    <member type='way' ref='-38002515' role='' />
    <member type='way' ref='-38002516' role='' />
    <member type='way' ref='-38002517' role='' />
    <member type='way' ref='-38002518' role='' />
    <member type='way' ref='-38002519' role='' />
    <member type='way' ref='-38002520' role='' />
    <member type='way' ref='-38002521' role='' />
    <member type='way' ref='-38002522' role='' />
    <member type='way' ref='-38002523' role='' />
    <member type='way' ref='-38002524' role='' />
    <member type='way' ref='-38002525' role='' />
    <member type='way' ref='-38002526' role='' />
    <member type='way' ref='-38002527' role='' />
    <member type='way' ref='-38002528' role='' />
    <member type='way' ref='-38002529' role='' />
    <member type='way' ref='-38002530' role='' />
    <member type='way' ref='-38002531' role='' />
    <member type='way' ref='-38002532' role='' />
    <member type='way' ref='-38002533' role='' />
    <member type='way' ref='-38002534' role='' />
    <member type='way' ref='-38002535' role='' />
    <member type='way' ref='-38002536' role='' />
    <member type='way' ref='-38002537' role='' />
    <member type='way' ref='-38002538' role='' />
    <member type='way' ref='-38002539' role='' />
    <member type='way' ref='-38002540' role='' />
    <member type='way' ref='-38002541' role='' />
    <member type='way' ref='-38002542' role='' />
    <member type='way' ref='-38002543' role='' />
    <member type='way' ref='-38002544' role='' />
    <member type='way' ref='-38002545' role='' />
    <member type='way' ref='-38002546' role='' />
    <member type='way' ref='-38002547' role='' />
    <member type='way' ref='-38002548' role='' />
    <member type='way' ref='-38002549' role='' />
    <member type='way' ref='-38002550' role='' />
    <member type='way' ref='-38002551' role='' />
    <member type='way' ref='-38002552' role='' />
    <member type='way' ref='-38002553' role='' />
    <member type='way' ref='-38002554' role='' />
    <member type='way' ref='-38002555' role='' />
    <member type='way' ref='-38002556' role='' />
    <member type='way' ref='-38002557' role='' />
    <member type='way' ref='-38002558' role='' />
    <member type='way' ref='-38002559' role='' />
    <member type='way' ref='-38002560' role='' />
    <member type='way' ref='-38002561' role='' />
    <member type='way' ref='-38002562' role='' />
    <member type='way' ref='-38002563' role='' />
    <member type='way' ref='-38002564' role='' />
    <member type='way' ref='-38002565' role='' />
    <member type='way' ref='-38002566' role='' />
    <member type='way' ref='-38002567' role='' />
    <member type='way' ref='-38002568' role='' />
    <member type='way' ref='-38002569' role='' />
    <member type='way' ref='-38002570' role='' />
    <member type='way' ref='-38002571' role='' />
    <member type='way' ref='-38002572' role='' />
    <member type='way' ref='-38002573' role='' />
    <member type='way' ref='-38002574' role='' />
    <member type='way' ref='-38002575' role='' />
    <member type='way' ref='-38002576' role='' />
    <member type='way' ref='-38002577' role='' />
    <member type='way' ref='-38002578' role='' />
    <member type='way' ref='-38002579' role='' />
    <member type='way' ref='-38002580' role='' />
    <member type='way' ref='-38002581' role='' />
    <member type='way' ref='-38002582' role='' />
    <member type='way' ref='-38002583' role='' />
    <member type='way' ref='-38002584' role='' />
    <member type='way' ref='-38002585' role='' />
    <member type='way' ref='-38002586' role='' />
    <member type='way' ref='-38002587' role='' />
    <member type='way' ref='-38002588' role='' />
    <member type='way' ref='-38002589' role='' />
    <member type='way' ref='-38002590' role='' />
    <member type='way' ref='-38002591' role='' />
    <member type='way' ref='-38002592' role='' />
    <member type='way' ref='-38002593' role='' />
    <member type='way' ref='-38002594' role='' />
    <member type='way' ref='-38002595' role='' />
    <member type='way' ref='-38002596' role='' />
    <member type='way' ref='-38002597' role='' />
    <member type='way' ref='-38002598' role='' />
    <member type='way' ref='-38002599' role='' />
    <member type='way' ref='-38002600' role='' />
    <member type='way' ref='-38002601' role='' />
    <member type='way' ref='-38002602' role='' />
    <member type='way' ref='-38002603' role='' />
    <member type='way' ref='-38002604' role='' />
    <member type='way' ref='-38002605' role='' />
    <member type='way' ref='-38002606' role='' />
    <member type='way' ref='-38002607' role='' />
    <member type='way' ref='-38002608' role='' />
    <member type='way' ref='-38002609' role='' />
    <member type='way' ref='-38002610' role='' />
    <member type='way' ref='-38002611' role='' />
    <member type='way' ref='-38002612' role='' />
    <member type='way' ref='-38002613' role='' />
    <member type='way' ref='-38002614' role='' />
    <member type='way' ref='-38002615' role='' />
    <member type='way' ref='-38002616' role='' />
    <member type='way' ref='-38002617' role='' />
    <member type='way' ref='-38002618' role='' />
    <member type='way' ref='-38002619' role='' />
    <member type='way' ref='-38002620' role='' />
    <member type='way' ref='-38002621' role='' />
    <member type='way' ref='-38002622' role='' />
    <member type='way' ref='-38002623' role='' />
    <member type='way' ref='-38002624' role='' />
    <member type='way' ref='-38002625' role='' />
    <member type='way' ref='-38002626' role='' />
    <member type='way' ref='-38002627' role='' />
    <member type='way' ref='-38002628' role='' />
    <tag k='key' v='path.dk.ahg' />
    <tag k='name' v='DK AHG' />
    <tag k='type' v='path' />
  </relation>
</osm>
