<?xml version='1.0' encoding='UTF-8'?>
<osm version='0.6' upload='false' generator='JOSM'>
  <node id='-177117511' action='modify' lat='56.97245885031' lon='9.8560519503'>
    <tag k='name' v='sve' />
  </node>
  <node id='-177117512' action='modify' lat='56.97515964378' lon='9.85645159945' />
  <node id='-177117513' action='modify' lat='56.9705693511' lon='9.85584456631' />
  <node id='-177117514' action='modify' lat='56.9704730907' lon='9.85584618955' />
  <node id='-177117515' action='modify' lat='56.96832797739' lon='9.846180076' />
  <node id='-177117516' action='modify' lat='56.96983096427' lon='9.84211921155' />
  <node id='-177117517' action='modify' lat='56.97112190555' lon='9.83459829748' />
  <node id='-177117518' action='modify' lat='56.97123008966' lon='9.82555925578' />
  <node id='-177117519' action='modify' lat='56.97082219917' lon='9.82034235924' />
  <node id='-177117520' action='modify' lat='56.970487404' lon='9.81841653317' />
  <node id='-177117521' action='modify' lat='56.97090699544' lon='9.81073736608' />
  <node id='-177117522' action='modify' lat='56.97122061893' lon='9.80960225541'>
    <tag k='name' v='god' />
  </node>
  <node id='-177117523' action='modify' lat='56.97455737357' lon='9.79752480716' />
  <node id='-177117524' action='modify' lat='56.9751209065' lon='9.79314610094' />
  <node id='-177117525' action='modify' lat='56.9750302733' lon='9.78420093521' />
  <node id='-177117526' action='modify' lat='56.97851873435' lon='9.77398305863'>
    <tag k='name' v='tos' />
  </node>
  <node id='-177117527' action='modify' lat='56.98073749698' lon='9.77262586087' />
  <node id='-177117528' action='modify' lat='56.98548883057' lon='9.76273387134' />
  <node id='-177117529' action='modify' lat='56.98571104434' lon='9.76029578792'>
    <tag k='name' v='sto' />
  </node>
  <node id='-177117530' action='modify' lat='56.98661701845' lon='9.75035547674' />
  <node id='-177117531' action='modify' lat='56.98742514092' lon='9.74666207761' />
  <node id='-177117532' action='modify' lat='56.989054489' lon='9.74178313673' />
  <node id='-177117533' action='modify' lat='56.98964455598' lon='9.73969527139'>
    <tag k='name' v='son' />
  </node>
  <node id='-177117534' action='modify' lat='56.99000429941' lon='9.73640262544' />
  <node id='-177117535' action='modify' lat='56.99024101762' lon='9.72866713464' />
  <node id='-177117536' action='modify' lat='56.99041344104' lon='9.72622096002' />
  <node id='-177117537' action='modify' lat='56.99205149808' lon='9.7123811345'>
    <tag k='name' v='nyr' />
  </node>
  <node id='-177117538' action='modify' lat='56.99333385007' lon='9.7015462101' />
  <node id='-177117539' action='modify' lat='56.99398885383' lon='9.6940854165' />
  <node id='-177117540' action='modify' lat='56.99410281725' lon='9.69199865788' />
  <node id='-177117541' action='modify' lat='56.99470915522' lon='9.68828648061' />
  <node id='-177117542' action='modify' lat='56.99496337591' lon='9.6873638007' />
  <node id='-177117543' action='modify' lat='56.99554486268' lon='9.68110620707' />
  <node id='-177117544' action='modify' lat='56.99544264728' lon='9.67996448811'>
    <tag k='name' v='bin' />
  </node>
  <node id='-177117545' action='modify' lat='56.99485087616' lon='9.67335462302' />
  <node id='-177117546' action='modify' lat='56.99472376711' lon='9.67159509122' />
  <node id='-177117547' action='modify' lat='56.99412181258' lon='9.66051756799' />
  <node id='-177117548' action='modify' lat='56.99400197966' lon='9.65912016664'>
    <tag k='name' v='ska' />
  </node>
  <node id='-177117549' action='modify' lat='56.99024101762' lon='9.64892506063' />
  <node id='-177117550' action='modify' lat='56.98945779607' lon='9.64792191446' />
  <node id='-177117551' action='modify' lat='56.98739445445' lon='9.64226781785' />
  <node id='-177117552' action='modify' lat='56.98706419227' lon='9.63971971929' />
  <node id='-177117553' action='modify' lat='56.9844351409' lon='9.6333011958' />
  <node id='-177117554' action='modify' lat='56.98335162243' lon='9.63214608562'>
    <tag k='name' v='nib' />
  </node>
  <node id='-177117555' action='modify' lat='56.98299851248' lon='9.63176965177' />
  <node id='-177117556' action='modify' lat='56.98196960296' lon='9.63080405116' />
  <node id='-177117557' action='modify' lat='56.97935627139' lon='9.62904452205' />
  <node id='-177117558' action='modify' lat='56.97878002529' lon='9.62860858599' />
  <node id='-177117559' action='modify' lat='56.9763305366' lon='9.62670832604' />
  <node id='-177117560' action='modify' lat='56.97020670005' lon='9.62195813388' />
  <node id='-177117561' action='modify' lat='56.96603902097' lon='9.61429238051' />
  <node id='-177117562' action='modify' lat='56.9645852073' lon='9.60748968748'>
    <tag k='name' v='lun' />
  </node>
  <node id='-177117563' action='modify' lat='56.96334341452' lon='9.60167929396' />
  <node id='-177117564' action='modify' lat='56.96315624363' lon='9.60071235627' />
  <node id='-177117565' action='modify' lat='56.96222914534' lon='9.59565102786' />
  <node id='-177117566' action='modify' lat='56.96103148884' lon='9.59183692396' />
  <node id='-177117567' action='modify' lat='56.9578010571' lon='9.5850434575' />
  <node id='-177117568' action='modify' lat='56.95716798905' lon='9.58375867951'>
    <tag k='name' v='seb' />
  </node>
  <node id='-177117569' action='modify' lat='56.9545029167' lon='9.58116039366' />
  <node id='-177117570' action='modify' lat='56.94224998532' lon='9.57631230086' />
  <node id='-177117571' action='modify' lat='56.94096901725' lon='9.57603737444' />
  <node id='-177117572' action='modify' lat='56.93257542896' lon='9.57535207137' />
  <node id='-177117573' action='modify' lat='56.93083164955' lon='9.57564309105' />
  <node id='-177117574' action='modify' lat='56.9234743887' lon='9.5789609836' />
  <node id='-177117575' action='modify' lat='56.92289031241' lon='9.579286872' />
  <node id='-177117576' action='modify' lat='56.91990856662' lon='9.58123870962'>
    <tag k='name' v='hal' />
  </node>
  <node id='-177117577' action='modify' lat='56.91962868578' lon='9.58142191038' />
  <node id='-177117578' action='modify' lat='56.91293545729' lon='9.57838296622' />
  <node id='-177117579' action='modify' lat='56.91135769139' lon='9.57522332534' />
  <node id='-177117580' action='modify' lat='56.90584487375' lon='9.57228496537' />
  <node id='-177117581' action='modify' lat='56.90268232213' lon='9.57381683634' />
  <node id='-177117582' action='modify' lat='56.90197037642' lon='9.5741513002' />
  <node id='-177117583' action='modify' lat='56.90117361125' lon='9.57452038918'>
    <tag k='name' v='hed' />
  </node>
  <node id='-177117584' action='modify' lat='56.89688526677' lon='9.57650676236' />
  <node id='-177117585' action='modify' lat='56.89398761902' lon='9.57688092917' />
  <node id='-177117586' action='modify' lat='56.8918559914' lon='9.57644640863' />
  <node id='-177117587' action='modify' lat='56.88825758199' lon='9.57405254111' />
  <node id='-177117588' action='modify' lat='56.88742386321' lon='9.57297026843' />
  <node id='-177117589' action='modify' lat='56.88552033639' lon='9.57117715389'>
    <tag k='name' v='veg' />
  </node>
  <node id='-177117590' action='modify' lat='56.88309525588' lon='9.57089692086' />
  <node id='-177117591' action='modify' lat='56.88240943186' lon='9.57108467549' />
  <node id='-177117592' action='modify' lat='56.8810883059' lon='9.57128315896' />
  <node id='-177117593' action='modify' lat='56.87770650897' lon='9.57123219699' />
  <node id='-177117594' action='modify' lat='56.87400413476' lon='9.56857144564' />
  <node id='-177117595' action='modify' lat='56.87265999133' lon='9.56622451276' />
  <node id='-177117596' action='modify' lat='56.86993197918' lon='9.56361204118' />
  <node id='-177117597' action='modify' lat='56.86907879321' lon='9.56329822272'>
    <tag k='name' v='ski' />
  </node>
  <node id='-177117598' action='modify' lat='56.86642235758' lon='9.56088691682' />
  <node id='-177117599' action='modify' lat='56.8612995367' lon='9.55263375968' />
  <node id='-177117600' action='modify' lat='56.86117641479' lon='9.55244529274'>
    <tag k='name' v='lan' />
  </node>
  <node id='-177117601' action='modify' lat='56.86048281078' lon='9.55159708723' />
  <node id='-177117602' action='modify' lat='56.86016462038' lon='9.55127388105' />
  <node id='-177117603' action='modify' lat='56.85716367316' lon='9.54232066736' />
  <node id='-177117604' action='modify' lat='56.85713214544' lon='9.53442424268' />
  <node id='-177117605' action='modify' lat='56.85612611267' lon='9.5273823758'>
    <tag k='name' v='bla' />
  </node>
  <node id='-177117606' action='modify' lat='56.85534891152' lon='9.52494263381' />
  <node id='-177117607' action='modify' lat='56.85160765619' lon='9.51457992062' />
  <node id='-177117608' action='modify' lat='56.85104885649' lon='9.51325356692' />
  <node id='-177117609' action='modify' lat='56.84340374524' lon='9.49716165528' />
  <node id='-177117610' action='modify' lat='56.83471186025' lon='9.49262564495'>
    <tag k='name' v='svs' />
  </node>
  <node id='-177117611' action='modify' lat='56.83416944662' lon='9.49293314874' />
  <node id='-177117613' action='modify' lat='56.80706292565' lon='9.51148474098' />
  <node id='-177117614' action='modify' lat='56.80443814372' lon='9.51203583598' />
  <node id='-177117615' action='modify' lat='56.79945957773' lon='9.5109200424' />
  <node id='-177117616' action='modify' lat='56.80226416387' lon='9.51154858654'>
    <tag k='name' v='aar' />
  </node>
  <node id='-177117617' action='modify' lat='56.79634433377' lon='9.50401603907' />
  <node id='-177117618' action='modify' lat='56.79754956762' lon='9.47188794537'>
    <tag k='name' v='pis' />
  </node>
  <node id='-177117619' action='modify' lat='56.79760015573' lon='9.47053938836' />
  <node id='-177117620' action='modify' lat='56.79765450029' lon='9.46942358941' />
  <node id='-177117621' action='modify' lat='56.79877735809' lon='9.45276573166' />
  <node id='-177117622' action='modify' lat='56.79842559634' lon='9.44857612118' />
  <node id='-177117623' action='modify' lat='56.79831632835' lon='9.44811896793'>
    <tag k='name' v='jel' />
  </node>
  <node id='-177117624' action='modify' lat='56.79824640955' lon='9.44782644376' />
  <node id='-177117625' action='modify' lat='56.7979438463' lon='9.445340036' />
  <node id='-177117626' action='modify' lat='56.79787995521' lon='9.44306284055' />
  <node id='-177117627' action='modify' lat='56.79813184779' lon='9.43862914771' />
  <node id='-177117628' action='modify' lat='56.8001226878' lon='9.42381530866' />
  <node id='-177117629' action='modify' lat='56.80012636169' lon='9.42089437902' />
  <node id='-177117630' action='modify' lat='56.79979337394' lon='9.41710350713'>
    <tag k='name' v='hav' />
  </node>
  <node id='-177117631' action='modify' lat='56.79958588574' lon='9.41474139154' />
  <node id='-177117632' action='modify' lat='56.79818472283' lon='9.41056787699' />
  <node id='-177117633' action='modify' lat='56.79708314406' lon='9.40898269147' />
  <node id='-177117634' action='modify' lat='56.79608435133' lon='9.40782129496' />
  <node id='-177117635' action='modify' lat='56.79506203005' lon='9.4069978568' />
  <node id='-177117636' action='modify' lat='56.79385900423' lon='9.40537512034' />
  <node id='-177117637' action='modify' lat='56.79274554667' lon='9.40352976054' />
  <node id='-177117638' action='modify' lat='56.79128390424' lon='9.39914702296' />
  <node id='-177117639' action='modify' lat='56.78842112899' lon='9.38396442802'>
    <tag k='name' v='hol' />
  </node>
  <node id='-177117640' action='modify' lat='56.78671791086' lon='9.37493203998' />
  <node id='-177117641' action='modify' lat='56.78457281568' lon='9.36931013525' />
  <node id='-177117642' action='modify' lat='56.77677011022' lon='9.35779809415' />
  <node id='-177117643' action='modify' lat='56.7748302028' lon='9.35223519266' />
  <node id='-177117644' action='modify' lat='56.77184352064' lon='9.33783781031'>
    <tag k='name' v='far' />
  </node>
  <node id='-177117645' action='modify' lat='56.77060027203' lon='9.33184503436' />
  <node id='-177117646' action='modify' lat='56.77010640575' lon='9.32976364017' />
  <node id='-177117647' action='modify' lat='56.76396780817' lon='9.30692195356' />
  <node id='-177117648' action='modify' lat='56.76303575796' lon='9.30370866984'>
    <tag k='name' v='fan' />
  </node>
  <node id='-177117649' action='modify' lat='56.75895152397' lon='9.29683953255' />
  <node id='-177117650' action='modify' lat='56.75832223604' lon='9.2965847227' />
  <node id='-177117651' action='modify' lat='56.75568735032' lon='9.2967188251' />
  <node id='-177117652' action='modify' lat='56.753944417' lon='9.29812573201'>
    <tag k='name' v='dam' />
  </node>
  <node id='-177117653' action='modify' lat='56.75056995673' lon='9.30084943235' />
  <node id='-177117654' action='modify' lat='56.74695207323' lon='9.30137513995' />
  <node id='-177117655' action='modify' lat='56.73779697034' lon='9.29694413066' />
  <node id='-177117656' action='modify' lat='56.73636113492' lon='9.29604290843' />
  <node id='-177117657' action='modify' lat='56.72878678374' lon='9.28961633563' />
  <node id='-177117658' action='modify' lat='56.7257127582' lon='9.28543477982'>
    <tag k='name' v='ull' />
  </node>
  <node id='-177117659' action='modify' lat='56.72492545199' lon='9.28393005788' />
  <node id='-177117660' action='modify' lat='56.72284158532' lon='9.27619456172' />
  <node id='-177117661' action='modify' lat='56.72027485861' lon='9.24787042379' />
  <node id='-177117662' action='modify' lat='56.71975382877' lon='9.2442440933' />
  <node id='-177117663' action='modify' lat='56.71816115073' lon='9.23737569986'>
    <tag k='name' v='hes' />
  </node>
  <node id='-177117664' action='modify' lat='56.71557657187' lon='9.22623037219' />
  <node id='-177117665' action='modify' lat='56.71437246639' lon='9.22280251443' />
  <node id='-177117666' action='modify' lat='56.71238369919' lon='9.21887576044' />
  <node id='-177117667' action='modify' lat='56.71140620438' lon='9.21669244498' />
  <node id='-177117668' action='modify' lat='56.70882985781' lon='9.20991986722' />
  <node id='-177117669' action='modify' lat='56.70785963505' lon='9.20793234766' />
  <node id='-177117670' action='modify' lat='56.70690281371' lon='9.20639453005'>
    <tag k='name' v='ill' />
  </node>
  <node id='-177117671' action='modify' lat='56.70515936487' lon='9.20359253347' />
  <node id='-177117672' action='modify' lat='56.7037340653' lon='9.20159428239' />
  <node id='-177117673' action='modify' lat='56.70304053155' lon='9.20085400075' />
  <node id='-177117674' action='modify' lat='56.7009076544' lon='9.19665571164'>
    <tag k='name' v='hva' />
  </node>
  <node id='-177117675' action='modify' lat='56.70065210134' lon='9.19590532511' />
  <node id='-177117676' action='modify' lat='56.69960067279' lon='9.19259011477'>
    <tag k='name' v='hva.f' />
  </node>
  <way id='-38477280' action='modify'>
    <nd ref='-177117512' />
    <nd ref='-177117511' />
    <tag k='type' v='straight' />
  </way>
  <way id='-38477281' action='modify'>
    <nd ref='-177117511' />
    <nd ref='-177117513' />
  </way>
  <way id='-38477282' action='modify'>
    <nd ref='-177117513' />
    <nd ref='-177117514' />
    <tag k='type' v='straight' />
  </way>
  <way id='-38477283' action='modify'>
    <nd ref='-177117514' />
    <nd ref='-177117515' />
  </way>
  <way id='-38477284' action='modify'>
    <nd ref='-177117515' />
    <nd ref='-177117516' />
    <tag k='type' v='straight' />
  </way>
  <way id='-38477285' action='modify'>
    <nd ref='-177117516' />
    <nd ref='-177117517' />
  </way>
  <way id='-38477286' action='modify'>
    <nd ref='-177117517' />
    <nd ref='-177117518' />
    <tag k='type' v='straight' />
  </way>
  <way id='-38477287' action='modify'>
    <nd ref='-177117518' />
    <nd ref='-177117519' />
  </way>
  <way id='-38477288' action='modify'>
    <nd ref='-177117519' />
    <nd ref='-177117520' />
    <tag k='type' v='straight' />
  </way>
  <way id='-38477289' action='modify'>
    <nd ref='-177117520' />
    <nd ref='-177117521' />
  </way>
  <way id='-38477290' action='modify'>
    <nd ref='-177117521' />
    <nd ref='-177117522' />
    <nd ref='-177117523' />
    <tag k='type' v='straight' />
  </way>
  <way id='-38477291' action='modify'>
    <nd ref='-177117523' />
    <nd ref='-177117524' />
  </way>
  <way id='-38477292' action='modify'>
    <nd ref='-177117524' />
    <nd ref='-177117525' />
    <tag k='type' v='straight' />
  </way>
  <way id='-38477293' action='modify'>
    <nd ref='-177117525' />
    <nd ref='-177117526' />
  </way>
  <way id='-38477294' action='modify'>
    <nd ref='-177117526' />
    <nd ref='-177117527' />
    <tag k='type' v='straight' />
  </way>
  <way id='-38477295' action='modify'>
    <nd ref='-177117527' />
    <nd ref='-177117528' />
  </way>
  <way id='-38477296' action='modify'>
    <nd ref='-177117528' />
    <nd ref='-177117529' />
    <nd ref='-177117530' />
    <tag k='type' v='straight' />
  </way>
  <way id='-38477297' action='modify'>
    <nd ref='-177117530' />
    <nd ref='-177117531' />
  </way>
  <way id='-38477298' action='modify'>
    <nd ref='-177117531' />
    <nd ref='-177117532' />
    <tag k='type' v='straight' />
  </way>
  <way id='-38477299' action='modify'>
    <nd ref='-177117532' />
    <nd ref='-177117533' />
    <nd ref='-177117534' />
  </way>
  <way id='-38477300' action='modify'>
    <nd ref='-177117534' />
    <nd ref='-177117535' />
    <tag k='type' v='straight' />
  </way>
  <way id='-38477301' action='modify'>
    <nd ref='-177117535' />
    <nd ref='-177117536' />
  </way>
  <way id='-38477302' action='modify'>
    <nd ref='-177117536' />
    <nd ref='-177117537' />
    <nd ref='-177117538' />
    <tag k='type' v='straight' />
  </way>
  <way id='-38477303' action='modify'>
    <nd ref='-177117538' />
    <nd ref='-177117539' />
  </way>
  <way id='-38477304' action='modify'>
    <nd ref='-177117539' />
    <nd ref='-177117540' />
    <tag k='type' v='straight' />
  </way>
  <way id='-38477305' action='modify'>
    <nd ref='-177117540' />
    <nd ref='-177117541' />
  </way>
  <way id='-38477306' action='modify'>
    <nd ref='-177117541' />
    <nd ref='-177117542' />
    <tag k='type' v='straight' />
  </way>
  <way id='-38477307' action='modify'>
    <nd ref='-177117542' />
    <nd ref='-177117543' />
  </way>
  <way id='-38477308' action='modify'>
    <nd ref='-177117543' />
    <nd ref='-177117544' />
    <nd ref='-177117545' />
    <tag k='type' v='straight' />
  </way>
  <way id='-38477309' action='modify'>
    <nd ref='-177117545' />
    <nd ref='-177117546' />
  </way>
  <way id='-38477310' action='modify'>
    <nd ref='-177117546' />
    <nd ref='-177117547' />
    <tag k='type' v='straight' />
  </way>
  <way id='-38477311' action='modify'>
    <nd ref='-177117547' />
    <nd ref='-177117548' />
    <nd ref='-177117549' />
  </way>
  <way id='-38477312' action='modify'>
    <nd ref='-177117549' />
    <nd ref='-177117550' />
    <tag k='type' v='straight' />
  </way>
  <way id='-38477313' action='modify'>
    <nd ref='-177117550' />
    <nd ref='-177117551' />
  </way>
  <way id='-38477314' action='modify'>
    <nd ref='-177117551' />
    <nd ref='-177117552' />
    <tag k='type' v='straight' />
  </way>
  <way id='-38477315' action='modify'>
    <nd ref='-177117552' />
    <nd ref='-177117553' />
  </way>
  <way id='-38477316' action='modify'>
    <nd ref='-177117553' />
    <nd ref='-177117554' />
    <nd ref='-177117555' />
    <tag k='type' v='straight' />
  </way>
  <way id='-38477317' action='modify'>
    <nd ref='-177117555' />
    <nd ref='-177117556' />
  </way>
  <way id='-38477318' action='modify'>
    <nd ref='-177117556' />
    <nd ref='-177117557' />
    <tag k='type' v='straight' />
  </way>
  <way id='-38477319' action='modify'>
    <nd ref='-177117557' />
    <nd ref='-177117558' />
  </way>
  <way id='-38477320' action='modify'>
    <nd ref='-177117558' />
    <nd ref='-177117559' />
    <nd ref='-177117560' />
    <tag k='type' v='straight' />
  </way>
  <way id='-38477321' action='modify'>
    <nd ref='-177117560' />
    <nd ref='-177117561' />
  </way>
  <way id='-38477322' action='modify'>
    <nd ref='-177117561' />
    <nd ref='-177117562' />
    <nd ref='-177117563' />
    <tag k='type' v='straight' />
  </way>
  <way id='-38477323' action='modify'>
    <nd ref='-177117563' />
    <nd ref='-177117564' />
  </way>
  <way id='-38477324' action='modify'>
    <nd ref='-177117564' />
    <nd ref='-177117565' />
    <tag k='type' v='straight' />
  </way>
  <way id='-38477325' action='modify'>
    <nd ref='-177117565' />
    <nd ref='-177117566' />
  </way>
  <way id='-38477326' action='modify'>
    <nd ref='-177117566' />
    <nd ref='-177117567' />
    <tag k='type' v='straight' />
  </way>
  <way id='-38477327' action='modify'>
    <nd ref='-177117567' />
    <nd ref='-177117568' />
    <nd ref='-177117569' />
  </way>
  <way id='-38477328' action='modify'>
    <nd ref='-177117569' />
    <nd ref='-177117570' />
    <tag k='type' v='straight' />
  </way>
  <way id='-38477329' action='modify'>
    <nd ref='-177117570' />
    <nd ref='-177117571' />
  </way>
  <way id='-38477330' action='modify'>
    <nd ref='-177117571' />
    <nd ref='-177117572' />
    <tag k='type' v='straight' />
  </way>
  <way id='-38477331' action='modify'>
    <nd ref='-177117572' />
    <nd ref='-177117573' />
  </way>
  <way id='-38477332' action='modify'>
    <nd ref='-177117573' />
    <nd ref='-177117574' />
    <tag k='type' v='straight' />
  </way>
  <way id='-38477333' action='modify'>
    <nd ref='-177117574' />
    <nd ref='-177117575' />
  </way>
  <way id='-38477334' action='modify'>
    <nd ref='-177117575' />
    <nd ref='-177117576' />
    <nd ref='-177117577' />
    <tag k='type' v='straight' />
  </way>
  <way id='-38477335' action='modify'>
    <nd ref='-177117577' />
    <nd ref='-177117578' />
  </way>
  <way id='-38477336' action='modify'>
    <nd ref='-177117578' />
    <nd ref='-177117579' />
    <tag k='type' v='straight' />
  </way>
  <way id='-38477337' action='modify'>
    <nd ref='-177117579' />
    <nd ref='-177117580' />
  </way>
  <way id='-38477338' action='modify'>
    <nd ref='-177117580' />
    <nd ref='-177117581' />
    <tag k='type' v='straight' />
  </way>
  <way id='-38477339' action='modify'>
    <nd ref='-177117581' />
    <nd ref='-177117582' />
  </way>
  <way id='-38477340' action='modify'>
    <nd ref='-177117582' />
    <nd ref='-177117583' />
    <nd ref='-177117584' />
    <tag k='type' v='straight' />
  </way>
  <way id='-38477341' action='modify'>
    <nd ref='-177117584' />
    <nd ref='-177117585' />
  </way>
  <way id='-38477342' action='modify'>
    <nd ref='-177117585' />
    <nd ref='-177117586' />
    <tag k='type' v='straight' />
  </way>
  <way id='-38477343' action='modify'>
    <nd ref='-177117586' />
    <nd ref='-177117587' />
  </way>
  <way id='-38477344' action='modify'>
    <nd ref='-177117587' />
    <nd ref='-177117588' />
    <tag k='type' v='straight' />
  </way>
  <way id='-38477345' action='modify'>
    <nd ref='-177117588' />
    <nd ref='-177117589' />
    <nd ref='-177117590' />
  </way>
  <way id='-38477346' action='modify'>
    <nd ref='-177117590' />
    <nd ref='-177117591' />
    <tag k='type' v='straight' />
  </way>
  <way id='-38477347' action='modify'>
    <nd ref='-177117591' />
    <nd ref='-177117592' />
  </way>
  <way id='-38477348' action='modify'>
    <nd ref='-177117592' />
    <nd ref='-177117593' />
    <tag k='type' v='straight' />
  </way>
  <way id='-38477349' action='modify'>
    <nd ref='-177117593' />
    <nd ref='-177117594' />
  </way>
  <way id='-38477350' action='modify'>
    <nd ref='-177117594' />
    <nd ref='-177117595' />
    <tag k='type' v='straight' />
  </way>
  <way id='-38477351' action='modify'>
    <nd ref='-177117595' />
    <nd ref='-177117596' />
  </way>
  <way id='-38477352' action='modify'>
    <nd ref='-177117596' />
    <nd ref='-177117597' />
    <tag k='type' v='straight' />
  </way>
  <way id='-38477353' action='modify'>
    <nd ref='-177117597' />
    <nd ref='-177117598' />
  </way>
  <way id='-38477354' action='modify'>
    <nd ref='-177117598' />
    <nd ref='-177117599' />
    <tag k='type' v='straight' />
  </way>
  <way id='-38477355' action='modify'>
    <nd ref='-177117599' />
    <nd ref='-177117600' />
    <nd ref='-177117601' />
  </way>
  <way id='-38477356' action='modify'>
    <nd ref='-177117601' />
    <nd ref='-177117602' />
    <tag k='type' v='straight' />
  </way>
  <way id='-38477357' action='modify'>
    <nd ref='-177117602' />
    <nd ref='-177117603' />
  </way>
  <way id='-38477358' action='modify'>
    <nd ref='-177117603' />
    <nd ref='-177117604' />
    <tag k='type' v='straight' />
  </way>
  <way id='-38477359' action='modify'>
    <nd ref='-177117604' />
    <nd ref='-177117605' />
    <nd ref='-177117606' />
  </way>
  <way id='-38477360' action='modify'>
    <nd ref='-177117606' />
    <nd ref='-177117607' />
    <tag k='type' v='straight' />
  </way>
  <way id='-38477361' action='modify'>
    <nd ref='-177117607' />
    <nd ref='-177117608' />
  </way>
  <way id='-38477362' action='modify'>
    <nd ref='-177117608' />
    <nd ref='-177117609' />
    <tag k='type' v='straight' />
  </way>
  <way id='-38477363' action='modify'>
    <nd ref='-177117609' />
    <nd ref='-177117610' />
    <nd ref='-177117611' />
  </way>
  <way id='-38477364' action='modify'>
    <nd ref='-177117611' />
    <nd ref='-177117613' />
    <tag k='type' v='straight' />
  </way>
  <way id='-38477366' action='modify'>
    <nd ref='-177117613' />
    <nd ref='-177117614' />
  </way>
  <way id='-38477367' action='modify'>
    <nd ref='-177117614' />
    <nd ref='-177117616' />
    <nd ref='-177117615' />
    <tag k='type' v='straight' />
  </way>
  <way id='-38477368' action='modify'>
    <nd ref='-177117615' />
    <nd ref='-177117617' />
  </way>
  <way id='-38477369' action='modify'>
    <nd ref='-177117617' />
    <nd ref='-177117618' />
    <nd ref='-177117619' />
    <tag k='type' v='straight' />
  </way>
  <way id='-38477370' action='modify'>
    <nd ref='-177117619' />
    <nd ref='-177117620' />
  </way>
  <way id='-38477371' action='modify'>
    <nd ref='-177117620' />
    <nd ref='-177117621' />
    <tag k='type' v='straight' />
  </way>
  <way id='-38477372' action='modify'>
    <nd ref='-177117621' />
    <nd ref='-177117622' />
  </way>
  <way id='-38477373' action='modify'>
    <nd ref='-177117622' />
    <nd ref='-177117623' />
    <nd ref='-177117624' />
    <tag k='type' v='straight' />
  </way>
  <way id='-38477374' action='modify'>
    <nd ref='-177117624' />
    <nd ref='-177117625' />
  </way>
  <way id='-38477375' action='modify'>
    <nd ref='-177117625' />
    <nd ref='-177117626' />
    <tag k='type' v='straight' />
  </way>
  <way id='-38477376' action='modify'>
    <nd ref='-177117626' />
    <nd ref='-177117627' />
  </way>
  <way id='-38477377' action='modify'>
    <nd ref='-177117627' />
    <nd ref='-177117628' />
    <tag k='type' v='straight' />
  </way>
  <way id='-38477378' action='modify'>
    <nd ref='-177117628' />
    <nd ref='-177117629' />
  </way>
  <way id='-38477379' action='modify'>
    <nd ref='-177117629' />
    <nd ref='-177117630' />
    <nd ref='-177117631' />
    <tag k='type' v='straight' />
  </way>
  <way id='-38477380' action='modify'>
    <nd ref='-177117631' />
    <nd ref='-177117632' />
  </way>
  <way id='-38477381' action='modify'>
    <nd ref='-177117632' />
    <nd ref='-177117633' />
    <tag k='type' v='straight' />
  </way>
  <way id='-38477382' action='modify'>
    <nd ref='-177117633' />
    <nd ref='-177117634' />
  </way>
  <way id='-38477383' action='modify'>
    <nd ref='-177117634' />
    <nd ref='-177117635' />
    <tag k='type' v='straight' />
  </way>
  <way id='-38477384' action='modify'>
    <nd ref='-177117635' />
    <nd ref='-177117636' />
  </way>
  <way id='-38477385' action='modify'>
    <nd ref='-177117636' />
    <nd ref='-177117637' />
    <tag k='type' v='straight' />
  </way>
  <way id='-38477386' action='modify'>
    <nd ref='-177117637' />
    <nd ref='-177117638' />
  </way>
  <way id='-38477387' action='modify'>
    <nd ref='-177117638' />
    <nd ref='-177117639' />
    <nd ref='-177117640' />
    <tag k='type' v='straight' />
  </way>
  <way id='-38477388' action='modify'>
    <nd ref='-177117640' />
    <nd ref='-177117641' />
  </way>
  <way id='-38477389' action='modify'>
    <nd ref='-177117641' />
    <nd ref='-177117642' />
    <tag k='type' v='straight' />
  </way>
  <way id='-38477390' action='modify'>
    <nd ref='-177117642' />
    <nd ref='-177117643' />
  </way>
  <way id='-38477391' action='modify'>
    <nd ref='-177117643' />
    <nd ref='-177117644' />
    <nd ref='-177117645' />
    <tag k='type' v='straight' />
  </way>
  <way id='-38477392' action='modify'>
    <nd ref='-177117645' />
    <nd ref='-177117646' />
  </way>
  <way id='-38477393' action='modify'>
    <nd ref='-177117646' />
    <nd ref='-177117647' />
    <tag k='type' v='straight' />
  </way>
  <way id='-38477394' action='modify'>
    <nd ref='-177117647' />
    <nd ref='-177117648' />
    <nd ref='-177117649' />
  </way>
  <way id='-38477395' action='modify'>
    <nd ref='-177117649' />
    <nd ref='-177117650' />
    <tag k='type' v='straight' />
  </way>
  <way id='-38477396' action='modify'>
    <nd ref='-177117650' />
    <nd ref='-177117651' />
  </way>
  <way id='-38477397' action='modify'>
    <nd ref='-177117651' />
    <nd ref='-177117652' />
    <nd ref='-177117653' />
    <tag k='type' v='straight' />
  </way>
  <way id='-38477398' action='modify'>
    <nd ref='-177117653' />
    <nd ref='-177117654' />
  </way>
  <way id='-38477399' action='modify'>
    <nd ref='-177117654' />
    <nd ref='-177117655' />
    <tag k='type' v='straight' />
  </way>
  <way id='-38477400' action='modify'>
    <nd ref='-177117655' />
    <nd ref='-177117656' />
  </way>
  <way id='-38477401' action='modify'>
    <nd ref='-177117656' />
    <nd ref='-177117657' />
    <tag k='type' v='straight' />
  </way>
  <way id='-38477402' action='modify'>
    <nd ref='-177117657' />
    <nd ref='-177117658' />
  </way>
  <way id='-38477403' action='modify'>
    <nd ref='-177117658' />
    <nd ref='-177117659' />
    <tag k='type' v='straight' />
  </way>
  <way id='-38477404' action='modify'>
    <nd ref='-177117659' />
    <nd ref='-177117660' />
  </way>
  <way id='-38477405' action='modify'>
    <nd ref='-177117660' />
    <nd ref='-177117661' />
    <tag k='type' v='straight' />
  </way>
  <way id='-38477406' action='modify'>
    <nd ref='-177117661' />
    <nd ref='-177117662' />
  </way>
  <way id='-38477407' action='modify'>
    <nd ref='-177117662' />
    <nd ref='-177117663' />
    <nd ref='-177117664' />
    <tag k='type' v='straight' />
  </way>
  <way id='-38477408' action='modify'>
    <nd ref='-177117664' />
    <nd ref='-177117665' />
  </way>
  <way id='-38477409' action='modify'>
    <nd ref='-177117665' />
    <nd ref='-177117666' />
    <tag k='type' v='straight' />
  </way>
  <way id='-38477410' action='modify'>
    <nd ref='-177117666' />
    <nd ref='-177117667' />
  </way>
  <way id='-38477411' action='modify'>
    <nd ref='-177117667' />
    <nd ref='-177117668' />
    <tag k='type' v='straight' />
  </way>
  <way id='-38477412' action='modify'>
    <nd ref='-177117668' />
    <nd ref='-177117669' />
  </way>
  <way id='-38477413' action='modify'>
    <nd ref='-177117669' />
    <nd ref='-177117670' />
    <nd ref='-177117671' />
    <tag k='type' v='straight' />
  </way>
  <way id='-38477414' action='modify'>
    <nd ref='-177117671' />
    <nd ref='-177117672' />
  </way>
  <way id='-38477415' action='modify'>
    <nd ref='-177117672' />
    <nd ref='-177117673' />
    <tag k='type' v='straight' />
  </way>
  <way id='-38477416' action='modify'>
    <nd ref='-177117673' />
    <nd ref='-177117674' />
    <nd ref='-177117675' />
  </way>
  <way id='-38477417' action='modify'>
    <nd ref='-177117675' />
    <nd ref='-177117676' />
    <tag k='type' v='straight' />
  </way>
  <relation id='-14487459' action='modify'>
    <member type='way' ref='-38477280' role='' />
    <member type='way' ref='-38477281' role='' />
    <member type='way' ref='-38477282' role='' />
    <member type='way' ref='-38477283' role='' />
    <member type='way' ref='-38477284' role='' />
    <member type='way' ref='-38477285' role='' />
    <member type='way' ref='-38477286' role='' />
    <member type='way' ref='-38477287' role='' />
    <member type='way' ref='-38477288' role='' />
    <member type='way' ref='-38477289' role='' />
    <member type='way' ref='-38477290' role='' />
    <member type='way' ref='-38477291' role='' />
    <member type='way' ref='-38477292' role='' />
    <member type='way' ref='-38477293' role='' />
    <member type='way' ref='-38477294' role='' />
    <member type='way' ref='-38477295' role='' />
    <member type='way' ref='-38477296' role='' />
    <member type='way' ref='-38477297' role='' />
    <member type='way' ref='-38477298' role='' />
    <member type='way' ref='-38477299' role='' />
    <member type='way' ref='-38477300' role='' />
    <member type='way' ref='-38477301' role='' />
    <member type='way' ref='-38477302' role='' />
    <member type='way' ref='-38477303' role='' />
    <member type='way' ref='-38477304' role='' />
    <member type='way' ref='-38477305' role='' />
    <member type='way' ref='-38477306' role='' />
    <member type='way' ref='-38477307' role='' />
    <member type='way' ref='-38477308' role='' />
    <member type='way' ref='-38477309' role='' />
    <member type='way' ref='-38477310' role='' />
    <member type='way' ref='-38477311' role='' />
    <member type='way' ref='-38477312' role='' />
    <member type='way' ref='-38477313' role='' />
    <member type='way' ref='-38477314' role='' />
    <member type='way' ref='-38477315' role='' />
    <member type='way' ref='-38477316' role='' />
    <member type='way' ref='-38477317' role='' />
    <member type='way' ref='-38477318' role='' />
    <member type='way' ref='-38477319' role='' />
    <member type='way' ref='-38477320' role='' />
    <member type='way' ref='-38477321' role='' />
    <member type='way' ref='-38477322' role='' />
    <member type='way' ref='-38477323' role='' />
    <member type='way' ref='-38477324' role='' />
    <member type='way' ref='-38477325' role='' />
    <member type='way' ref='-38477326' role='' />
    <member type='way' ref='-38477327' role='' />
    <member type='way' ref='-38477328' role='' />
    <member type='way' ref='-38477329' role='' />
    <member type='way' ref='-38477330' role='' />
    <member type='way' ref='-38477331' role='' />
    <member type='way' ref='-38477332' role='' />
    <member type='way' ref='-38477333' role='' />
    <member type='way' ref='-38477334' role='' />
    <member type='way' ref='-38477335' role='' />
    <member type='way' ref='-38477336' role='' />
    <member type='way' ref='-38477337' role='' />
    <member type='way' ref='-38477338' role='' />
    <member type='way' ref='-38477339' role='' />
    <member type='way' ref='-38477340' role='' />
    <member type='way' ref='-38477341' role='' />
    <member type='way' ref='-38477342' role='' />
    <member type='way' ref='-38477343' role='' />
    <member type='way' ref='-38477344' role='' />
    <member type='way' ref='-38477345' role='' />
    <member type='way' ref='-38477346' role='' />
    <member type='way' ref='-38477347' role='' />
    <member type='way' ref='-38477348' role='' />
    <member type='way' ref='-38477349' role='' />
    <member type='way' ref='-38477350' role='' />
    <member type='way' ref='-38477351' role='' />
    <member type='way' ref='-38477352' role='' />
    <member type='way' ref='-38477353' role='' />
    <member type='way' ref='-38477354' role='' />
    <member type='way' ref='-38477355' role='' />
    <member type='way' ref='-38477356' role='' />
    <member type='way' ref='-38477357' role='' />
    <member type='way' ref='-38477358' role='' />
    <member type='way' ref='-38477359' role='' />
    <member type='way' ref='-38477360' role='' />
    <member type='way' ref='-38477361' role='' />
    <member type='way' ref='-38477362' role='' />
    <member type='way' ref='-38477363' role='' />
    <member type='way' ref='-38477364' role='' />
    <member type='way' ref='-38477366' role='' />
    <member type='way' ref='-38477367' role='' />
    <member type='way' ref='-38477368' role='' />
    <member type='way' ref='-38477369' role='' />
    <member type='way' ref='-38477370' role='' />
    <member type='way' ref='-38477371' role='' />
    <member type='way' ref='-38477372' role='' />
    <member type='way' ref='-38477373' role='' />
    <member type='way' ref='-38477374' role='' />
    <member type='way' ref='-38477375' role='' />
    <member type='way' ref='-38477376' role='' />
    <member type='way' ref='-38477377' role='' />
    <member type='way' ref='-38477378' role='' />
    <member type='way' ref='-38477379' role='' />
    <member type='way' ref='-38477380' role='' />
    <member type='way' ref='-38477381' role='' />
    <member type='way' ref='-38477382' role='' />
    <member type='way' ref='-38477383' role='' />
    <member type='way' ref='-38477384' role='' />
    <member type='way' ref='-38477385' role='' />
    <member type='way' ref='-38477386' role='' />
    <member type='way' ref='-38477387' role='' />
    <member type='way' ref='-38477388' role='' />
    <member type='way' ref='-38477389' role='' />
    <member type='way' ref='-38477390' role='' />
    <member type='way' ref='-38477391' role='' />
    <member type='way' ref='-38477392' role='' />
    <member type='way' ref='-38477393' role='' />
    <member type='way' ref='-38477394' role='' />
    <member type='way' ref='-38477395' role='' />
    <member type='way' ref='-38477396' role='' />
    <member type='way' ref='-38477397' role='' />
    <member type='way' ref='-38477398' role='' />
    <member type='way' ref='-38477399' role='' />
    <member type='way' ref='-38477400' role='' />
    <member type='way' ref='-38477401' role='' />
    <member type='way' ref='-38477402' role='' />
    <member type='way' ref='-38477403' role='' />
    <member type='way' ref='-38477404' role='' />
    <member type='way' ref='-38477405' role='' />
    <member type='way' ref='-38477406' role='' />
    <member type='way' ref='-38477407' role='' />
    <member type='way' ref='-38477408' role='' />
    <member type='way' ref='-38477409' role='' />
    <member type='way' ref='-38477410' role='' />
    <member type='way' ref='-38477411' role='' />
    <member type='way' ref='-38477412' role='' />
    <member type='way' ref='-38477413' role='' />
    <member type='way' ref='-38477414' role='' />
    <member type='way' ref='-38477415' role='' />
    <member type='way' ref='-38477416' role='' />
    <member type='way' ref='-38477417' role='' />
    <tag k='key' v='path.dk.ahs' />
    <tag k='name' v='DK AHS' />
    <tag k='type' v='path' />
  </relation>
</osm>
