<?xml version='1.0' encoding='UTF-8'?>
<osm version='0.6' upload='false' generator='JOSM'>
  <node id='-172511750' action='modify' lat='56.15637807305' lon='10.1953366372' />
  <node id='-172511751' action='modify' lat='56.15500883618' lon='10.1933131185'>
    <tag k='name' v='aah' />
  </node>
  <node id='-172511752' action='modify' lat='56.15344053247' lon='10.19099549863' />
  <node id='-172511753' action='modify' lat='56.15221015311' lon='10.18910586298' />
  <node id='-172511754' action='modify' lat='56.1462846522' lon='10.17742216051' />
  <node id='-172511755' action='modify' lat='56.14317063698' lon='10.17494915843' />
  <node id='-172511756' action='modify' lat='56.14037916247' lon='10.17379044414' />
  <node id='-172511757' action='modify' lat='56.13774291586' lon='10.17124770999' />
  <node id='-172511758' action='modify' lat='56.13362379229' lon='10.16338347316' />
  <node id='-172511759' action='modify' lat='56.13235926585' lon='10.15573113889'>
    <tag k='name' v='vin' />
  </node>
  <node id='-172511760' action='modify' lat='56.1336058561' lon='10.13558505893' />
  <node id='-172511761' action='modify' lat='56.13469396688' lon='10.13100921571' />
  <node id='-172511762' action='modify' lat='56.13791627705' lon='10.12412666738' />
  <node id='-172511763' action='modify' lat='56.13852902646' lon='10.12225984454' />
  <node id='-172511764' action='modify' lat='56.13913854391' lon='10.11960683758'>
    <tag k='name' v='sta' />
  </node>
  <node id='-172511765' action='modify' lat='56.1417061842' lon='10.10843037486' />
  <node id='-172511766' action='modify' lat='56.14225535754' lon='10.10489388764' />
  <node id='-172511767' action='modify' lat='56.14239657305' lon='10.10072707593' />
  <node id='-172511768' action='modify' lat='56.14179883192' lon='10.09535729349' />
  <node id='-172511769' action='modify' lat='56.13834669506' lon='10.08313714921' />
  <node id='-172511770' action='modify' lat='56.13787741963' lon='10.08115231454' />
  <node id='-172511771' action='modify' lat='56.13659477593' lon='10.07362972327'>
    <tag k='name' v='con' />
  </node>
  <node id='-172511772' action='modify' lat='56.13633803643' lon='10.072123999' />
  <node id='-172511773' action='modify' lat='56.13595093761' lon='10.06955444545' />
  <node id='-172511774' action='modify' lat='56.13551899816' lon='10.06597369641' />
  <node id='-172511775' action='modify' lat='56.13507659298' lon='10.06376087129' />
  <node id='-172511776' action='modify' lat='56.13198558568' lon='10.05269407153' />
  <node id='-172511777' action='modify' lat='56.13114851587' lon='10.04739403188' />
  <node id='-172511778' action='modify' lat='56.13096405723' lon='10.04367491756'>
    <tag k='name' v='orm' />
  </node>
  <node id='-172511779' action='modify' lat='56.13081966321' lon='10.0407636112' />
  <node id='-172511780' action='modify' lat='56.13520512909' lon='10.03213762969' />
  <node id='-172511781' action='modify' lat='56.13769060307' lon='10.03211885422' />
  <node id='-172511782' action='modify' lat='56.14213506095' lon='10.02461939782' />
  <node id='-172511783' action='modify' lat='56.14213196913' lon='10.02358395113'>
    <tag k='name' v='ede' />
  </node>
  <node id='-172511784' action='modify' lat='56.14211712873' lon='10.01861393183' />
  <node id='-172511785' action='modify' lat='56.1423487541' lon='10.01491784513' />
  <node id='-172511786' action='modify' lat='56.14323638662' lon='10.00676392436' />
  <node id='-172511787' action='modify' lat='56.14241450514' lon='10.00073432386' />
  <node id='-172511788' action='modify' lat='56.14159783713' lon='9.99886348709'>
    <tag k='name' v='har' />
  </node>
  <node id='-172511789' action='modify' lat='56.14133557914' lon='9.99069212794' />
  <node id='-172511790' action='modify' lat='56.14569054429' lon='9.9757529712'>
    <tag k='name' v='lil' />
  </node>
  <node id='-172511791' action='modify' lat='56.14590811745' lon='9.97500656962' />
  <node id='-172511792' action='modify' lat='56.14863046198' lon='9.97060238242' />
  <node id='-172511793' action='modify' lat='56.1500525575' lon='9.96984252276'>
    <tag k='name' v='sil' />
  </node>
  <node id='-172511794' action='modify' lat='56.15980300277' lon='9.96463186906'>
    <tag k='name' v='hor' />
  </node>
  <node id='-172511795' action='modify' lat='56.16012433932' lon='9.96446012378' />
  <node id='-172511796' action='modify' lat='56.16391193053' lon='9.95768841387'>
    <tag k='name' v='sko' />
  </node>
  <node id='-172511797' action='modify' lat='56.16424958153' lon='9.95442330301' />
  <node id='-172511798' action='modify' lat='56.16404347914' lon='9.94012712896' />
  <node id='-172511799' action='modify' lat='56.16315035601' lon='9.93203222215'>
    <tag k='name' v='sje' />
  </node>
  <node id='-172511800' action='modify' lat='56.16197044579' lon='9.92780506074' />
  <node id='-172511801' action='modify' lat='56.1592787757' lon='9.91986354842'>
    <tag k='name' v='sme' />
  </node>
  <node id='-172511802' action='modify' lat='56.15679932316' lon='9.91254865587' />
  <node id='-172511803' action='modify' lat='56.15489171566' lon='9.90520745248'>
    <tag k='name' v='gal' />
  </node>
  <node id='-172511804' action='modify' lat='56.15432554178' lon='9.89393948972' />
  <node id='-172511805' action='modify' lat='56.15484840428' lon='9.88572118521' />
  <node id='-172511806' action='modify' lat='56.15662903172' lon='9.87690209806' />
  <node id='-172511807' action='modify' lat='56.15719666692' lon='9.87541615427'>
    <tag k='name' v='lav' />
  </node>
  <node id='-172511808' action='modify' lat='56.15784794628' lon='9.87311481357' />
  <node id='-172511809' action='modify' lat='56.16017811075' lon='9.86369489551' />
  <node id='-172511810' action='modify' lat='56.16312048382' lon='9.85738098353'>
    <tag k='name' v='aas' />
  </node>
  <node id='-172511811' action='modify' lat='56.16483204181' lon='9.85509036899' />
  <node id='-172511812' action='modify' lat='56.16711399152' lon='9.85167860448' />
  <node id='-172511813' action='modify' lat='56.16852042045' lon='9.84927512007'>
    <tag k='name' v='las' />
  </node>
  <node id='-172511814' action='modify' lat='56.17302134909' lon='9.84158276975' />
  <node id='-172511815' action='modify' lat='56.17403966419' lon='9.84026848733' />
  <node id='-172511816' action='modify' lat='56.17780906962' lon='9.83658361073'>
    <tag k='name' v='tom' />
  </node>
  <node id='-172511817' action='modify' lat='56.18789920305' lon='9.82671796739' />
  <node id='-172511818' action='modify' lat='56.19004396732' lon='9.82172101468' />
  <node id='-172511819' action='modify' lat='56.19060903011' lon='9.81784507712'>
    <tag k='name' v='tov' />
  </node>
  <node id='-172511820' action='modify' lat='56.19129017638' lon='9.81317281187' />
  <node id='-172511821' action='modify' lat='56.19602091926' lon='9.80782985151' />
  <node id='-172511822' action='modify' lat='56.20117184078' lon='9.80916022718' />
  <node id='-172511823' action='modify' lat='56.20411107605' lon='9.81107264489'>
    <tag k='name' v='rog' />
  </node>
  <node id='-172511824' action='modify' lat='56.20470784788' lon='9.81174587935' />
  <node id='-172511825' action='modify' lat='56.21148652394' lon='9.82034235924' />
  <node id='-172511826' action='modify' lat='56.21258735345' lon='9.82167004466' />
  <node id='-172511827' action='modify' lat='56.21367989558' lon='9.8228727915'>
    <tag k='name' v='spo' />
  </node>
  <node id='-172511828' action='modify' lat='56.21510659788' lon='9.82444345683' />
  <node id='-172511829' action='modify' lat='56.21636392454' lon='9.82587575376' />
  <node id='-172511830' action='modify' lat='56.22171844894' lon='9.83243409032'>
    <tag k='name' v='far' />
  </node>
  <node id='-172511831' action='modify' lat='56.23604124554' lon='9.84998146419'>
    <tag k='name' v='anb' />
  </node>
  <node id='-172511832' action='modify' lat='56.23754879816' lon='9.85182880282' />
  <node id='-172511833' action='modify' lat='56.24117385886' lon='9.85359638661' />
  <node id='-172511834' action='modify' lat='56.24385368381' lon='9.85339521825' />
  <node id='-172511835' action='modify' lat='56.24539472392' lon='9.85358833194' />
  <node id='-172511836' action='modify' lat='56.24980287584' lon='9.85495626658' />
  <node id='-172511837' action='modify' lat='56.25312281689' lon='9.85969840944' />
  <node id='-172511838' action='modify' lat='56.25347344038' lon='9.86094055164' />
  <node id='-172511839' action='modify' lat='56.25479568374' lon='9.86562492172'>
    <tag k='name' v='ham' />
  </node>
  <node id='-172511840' action='modify' lat='56.25545315903' lon='9.86795424879'>
    <tag k='name' v='ham.f' />
  </node>
  <node id='-172511842' action='modify' lat='56.25699670759' lon='9.85220700234' />
  <node id='-172511843' action='modify' lat='56.25773717235' lon='9.85239743918' />
  <node id='-172511844' action='modify' lat='56.26143928125' lon='9.85046356648' />
  <node id='-172511845' action='modify' lat='56.26253271291' lon='9.84867989749' />
  <node id='-172511846' action='modify' lat='56.26375422087' lon='9.8471376273' />
  <node id='-172511847' action='modify' lat='56.26490315133' lon='9.84610129428'>
    <tag k='name' v='tul' />
  </node>
  <node id='-172511848' action='modify' lat='56.26693889755' lon='9.84426497877' />
  <node id='-172511849' action='modify' lat='56.26932499439' lon='9.8401156041' />
  <node id='-172511850' action='modify' lat='56.26986415455' lon='9.83834802836' />
  <node id='-172511851' action='modify' lat='56.27430523597' lon='9.83310162485' />
  <node id='-172511852' action='modify' lat='56.27840981557' lon='9.83210348674'>
    <tag k='name' v='sal' />
  </node>
  <node id='-172511853' action='modify' lat='56.28100013348' lon='9.83147352666' />
  <node id='-172511854' action='modify' lat='56.28292678893' lon='9.83052133441' />
  <node id='-172511855' action='modify' lat='56.2850617696' lon='9.82903271645' />
  <node id='-172511856' action='modify' lat='56.28965292818' lon='9.82158421397'>
    <tag k='name' v='vin' />
  </node>
  <node id='-172511857' action='modify' lat='56.29203760524' lon='9.81617420644' />
  <node id='-172511858' action='modify' lat='56.29442511635' lon='9.80877398908' />
  <node id='-172511859' action='modify' lat='56.29631239669' lon='9.80069517016'>
    <tag k='name' v='tho.xa' />
  </node>
  <node id='-172511860' action='modify' lat='56.29665729001' lon='9.79497390471'>
    <tag k='name' v='tho.ya' />
  </node>
  <node id='-172511861' action='modify' lat='56.29665617946' lon='9.79485600955' />
  <node id='-172511862' action='modify' lat='56.29667257329' lon='9.79373216093' />
  <node id='-172511863' action='modify' lat='56.29687504171' lon='9.79091888743'>
    <tag k='name' v='tho' />
  </node>
  <node id='-172511874' action='modify' lat='56.25350473079' lon='9.86090836513' />
  <node id='-172511875' action='modify' lat='56.25482697307' lon='9.86559273521'>
    <tag k='name' v='ham' />
  </node>
  <way id='-38116560' action='modify'>
    <nd ref='-172511750' />
    <nd ref='-172511751' />
    <nd ref='-172511752' />
    <tag k='type' v='straight' />
  </way>
  <way id='-38116561' action='modify'>
    <nd ref='-172511752' />
    <nd ref='-172511753' />
  </way>
  <way id='-38116562' action='modify'>
    <nd ref='-172511753' />
    <nd ref='-172511754' />
    <tag k='type' v='straight' />
  </way>
  <way id='-38116563' action='modify'>
    <nd ref='-172511754' />
    <nd ref='-172511755' />
  </way>
  <way id='-38116564' action='modify'>
    <nd ref='-172511755' />
    <nd ref='-172511756' />
    <tag k='type' v='straight' />
  </way>
  <way id='-38116565' action='modify'>
    <nd ref='-172511756' />
    <nd ref='-172511757' />
  </way>
  <way id='-38116566' action='modify'>
    <nd ref='-172511757' />
    <nd ref='-172511758' />
    <tag k='type' v='straight' />
  </way>
  <way id='-38116567' action='modify'>
    <nd ref='-172511758' />
    <nd ref='-172511759' />
  </way>
  <way id='-38116568' action='modify'>
    <nd ref='-172511759' />
    <nd ref='-172511760' />
    <tag k='type' v='straight' />
  </way>
  <way id='-38116569' action='modify'>
    <nd ref='-172511760' />
    <nd ref='-172511761' />
  </way>
  <way id='-38116570' action='modify'>
    <nd ref='-172511761' />
    <nd ref='-172511762' />
    <tag k='type' v='straight' />
  </way>
  <way id='-38116571' action='modify'>
    <nd ref='-172511762' />
    <nd ref='-172511763' />
  </way>
  <way id='-38116572' action='modify'>
    <nd ref='-172511763' />
    <nd ref='-172511764' />
    <nd ref='-172511765' />
    <tag k='type' v='straight' />
  </way>
  <way id='-38116573' action='modify'>
    <nd ref='-172511765' />
    <nd ref='-172511766' />
  </way>
  <way id='-38116574' action='modify'>
    <nd ref='-172511766' />
    <nd ref='-172511767' />
    <tag k='type' v='straight' />
  </way>
  <way id='-38116575' action='modify'>
    <nd ref='-172511767' />
    <nd ref='-172511768' />
  </way>
  <way id='-38116576' action='modify'>
    <nd ref='-172511768' />
    <nd ref='-172511769' />
    <tag k='type' v='straight' />
  </way>
  <way id='-38116577' action='modify'>
    <nd ref='-172511769' />
    <nd ref='-172511770' />
  </way>
  <way id='-38116578' action='modify'>
    <nd ref='-172511770' />
    <nd ref='-172511771' />
    <nd ref='-172511772' />
    <tag k='type' v='straight' />
  </way>
  <way id='-38116579' action='modify'>
    <nd ref='-172511772' />
    <nd ref='-172511773' />
  </way>
  <way id='-38116580' action='modify'>
    <nd ref='-172511773' />
    <nd ref='-172511774' />
    <tag k='type' v='straight' />
  </way>
  <way id='-38116581' action='modify'>
    <nd ref='-172511774' />
    <nd ref='-172511775' />
  </way>
  <way id='-38116582' action='modify'>
    <nd ref='-172511775' />
    <nd ref='-172511776' />
    <tag k='type' v='straight' />
  </way>
  <way id='-38116583' action='modify'>
    <nd ref='-172511776' />
    <nd ref='-172511777' />
  </way>
  <way id='-38116584' action='modify'>
    <nd ref='-172511777' />
    <nd ref='-172511778' />
    <nd ref='-172511779' />
    <tag k='type' v='straight' />
  </way>
  <way id='-38116585' action='modify'>
    <nd ref='-172511779' />
    <nd ref='-172511780' />
  </way>
  <way id='-38116586' action='modify'>
    <nd ref='-172511780' />
    <nd ref='-172511781' />
    <tag k='type' v='straight' />
  </way>
  <way id='-38116587' action='modify'>
    <nd ref='-172511781' />
    <nd ref='-172511782' />
  </way>
  <way id='-38116588' action='modify'>
    <nd ref='-172511782' />
    <nd ref='-172511783' />
    <nd ref='-172511784' />
    <tag k='type' v='straight' />
  </way>
  <way id='-38116589' action='modify'>
    <nd ref='-172511784' />
    <nd ref='-172511785' />
  </way>
  <way id='-38116590' action='modify'>
    <nd ref='-172511785' />
    <nd ref='-172511786' />
    <tag k='type' v='straight' />
  </way>
  <way id='-38116591' action='modify'>
    <nd ref='-172511786' />
    <nd ref='-172511787' />
  </way>
  <way id='-38116592' action='modify'>
    <nd ref='-172511787' />
    <nd ref='-172511788' />
    <tag k='type' v='straight' />
  </way>
  <way id='-38116593' action='modify'>
    <nd ref='-172511788' />
    <nd ref='-172511789' />
  </way>
  <way id='-38116594' action='modify'>
    <nd ref='-172511789' />
    <nd ref='-172511790' />
    <nd ref='-172511791' />
    <tag k='type' v='straight' />
  </way>
  <way id='-38116595' action='modify'>
    <nd ref='-172511791' />
    <nd ref='-172511792' />
  </way>
  <way id='-38116596' action='modify'>
    <nd ref='-172511792' />
    <nd ref='-172511793' />
    <nd ref='-172511794' />
    <nd ref='-172511795' />
    <tag k='type' v='straight' />
  </way>
  <way id='-38116597' action='modify'>
    <nd ref='-172511795' />
    <nd ref='-172511796' />
    <nd ref='-172511797' />
  </way>
  <way id='-38116598' action='modify'>
    <nd ref='-172511797' />
    <nd ref='-172511798' />
    <tag k='type' v='straight' />
  </way>
  <way id='-38116599' action='modify'>
    <nd ref='-172511798' />
    <nd ref='-172511799' />
    <nd ref='-172511800' />
  </way>
  <way id='-38116600' action='modify'>
    <nd ref='-172511800' />
    <nd ref='-172511801' />
    <nd ref='-172511802' />
    <tag k='type' v='straight' />
  </way>
  <way id='-38116601' action='modify'>
    <nd ref='-172511802' />
    <nd ref='-172511803' />
    <nd ref='-172511804' />
  </way>
  <way id='-38116602' action='modify'>
    <nd ref='-172511804' />
    <nd ref='-172511805' />
    <tag k='type' v='straight' />
  </way>
  <way id='-38116603' action='modify'>
    <nd ref='-172511805' />
    <nd ref='-172511806' />
  </way>
  <way id='-38116604' action='modify'>
    <nd ref='-172511806' />
    <nd ref='-172511807' />
    <tag k='type' v='straight' />
  </way>
  <way id='-38116605' action='modify'>
    <nd ref='-172511807' />
    <nd ref='-172511808' />
  </way>
  <way id='-38116606' action='modify'>
    <nd ref='-172511808' />
    <nd ref='-172511809' />
    <tag k='type' v='straight' />
  </way>
  <way id='-38116607' action='modify'>
    <nd ref='-172511809' />
    <nd ref='-172511810' />
  </way>
  <way id='-38116608' action='modify'>
    <nd ref='-172511810' />
    <nd ref='-172511811' />
    <tag k='type' v='straight' />
  </way>
  <way id='-38116609' action='modify'>
    <nd ref='-172511811' />
    <nd ref='-172511812' />
  </way>
  <way id='-38116610' action='modify'>
    <nd ref='-172511812' />
    <nd ref='-172511813' />
    <nd ref='-172511814' />
    <tag k='type' v='straight' />
  </way>
  <way id='-38116611' action='modify'>
    <nd ref='-172511814' />
    <nd ref='-172511815' />
  </way>
  <way id='-38116612' action='modify'>
    <nd ref='-172511815' />
    <nd ref='-172511816' />
    <nd ref='-172511817' />
    <tag k='type' v='straight' />
  </way>
  <way id='-38116613' action='modify'>
    <nd ref='-172511817' />
    <nd ref='-172511818' />
  </way>
  <way id='-38116614' action='modify'>
    <nd ref='-172511818' />
    <nd ref='-172511819' />
    <nd ref='-172511820' />
    <tag k='type' v='straight' />
  </way>
  <way id='-38116615' action='modify'>
    <nd ref='-172511820' />
    <nd ref='-172511821' />
  </way>
  <way id='-38116616' action='modify'>
    <nd ref='-172511821' />
    <nd ref='-172511822' />
    <tag k='type' v='straight' />
  </way>
  <way id='-38116617' action='modify'>
    <nd ref='-172511822' />
    <nd ref='-172511823' />
    <nd ref='-172511824' />
  </way>
  <way id='-38116618' action='modify'>
    <nd ref='-172511824' />
    <nd ref='-172511825' />
    <tag k='type' v='straight' />
  </way>
  <way id='-38116619' action='modify'>
    <nd ref='-172511825' />
    <nd ref='-172511826' />
  </way>
  <way id='-38116620' action='modify'>
    <nd ref='-172511826' />
    <nd ref='-172511827' />
    <nd ref='-172511828' />
    <tag k='type' v='straight' />
  </way>
  <way id='-38116621' action='modify'>
    <nd ref='-172511828' />
    <nd ref='-172511829' />
  </way>
  <way id='-38116622' action='modify'>
    <nd ref='-172511829' />
    <nd ref='-172511830' />
    <nd ref='-172511831' />
    <nd ref='-172511832' />
    <tag k='type' v='straight' />
  </way>
  <way id='-38116623' action='modify'>
    <nd ref='-172511832' />
    <nd ref='-172511833' />
  </way>
  <way id='-38116624' action='modify'>
    <nd ref='-172511833' />
    <nd ref='-172511834' />
    <tag k='type' v='straight' />
  </way>
  <way id='-38116625' action='modify'>
    <nd ref='-172511834' />
    <nd ref='-172511835' />
  </way>
  <way id='-38116626' action='modify'>
    <nd ref='-172511835' />
    <nd ref='-172511836' />
    <tag k='type' v='straight' />
  </way>
  <way id='-38116627' action='modify'>
    <nd ref='-172511836' />
    <nd ref='-172511837' />
  </way>
  <way id='-38116628' action='modify'>
    <nd ref='-172511837' />
    <nd ref='-172511838' />
    <tag k='type' v='straight' />
  </way>
  <way id='-38116629' action='modify'>
    <nd ref='-172511838' />
    <nd ref='-172511839' />
    <nd ref='-172511840' />
    <tag k='type' v='straight' />
  </way>
  <way id='-38116630' action='modify'>
    <nd ref='-172511874' />
    <nd ref='-172511842' />
  </way>
  <way id='-38116631' action='modify'>
    <nd ref='-172511842' />
    <nd ref='-172511843' />
    <tag k='type' v='straight' />
  </way>
  <way id='-38116632' action='modify'>
    <nd ref='-172511843' />
    <nd ref='-172511844' />
  </way>
  <way id='-38116633' action='modify'>
    <nd ref='-172511844' />
    <nd ref='-172511845' />
    <tag k='type' v='straight' />
  </way>
  <way id='-38116634' action='modify'>
    <nd ref='-172511845' />
    <nd ref='-172511846' />
  </way>
  <way id='-38116635' action='modify'>
    <nd ref='-172511846' />
    <nd ref='-172511847' />
    <nd ref='-172511848' />
    <tag k='type' v='straight' />
  </way>
  <way id='-38116636' action='modify'>
    <nd ref='-172511848' />
    <nd ref='-172511849' />
  </way>
  <way id='-38116637' action='modify'>
    <nd ref='-172511849' />
    <nd ref='-172511850' />
    <tag k='type' v='straight' />
  </way>
  <way id='-38116638' action='modify'>
    <nd ref='-172511850' />
    <nd ref='-172511851' />
  </way>
  <way id='-38116639' action='modify'>
    <nd ref='-172511851' />
    <nd ref='-172511852' />
    <nd ref='-172511853' />
    <tag k='type' v='straight' />
  </way>
  <way id='-38116640' action='modify'>
    <nd ref='-172511853' />
    <nd ref='-172511854' />
  </way>
  <way id='-38116641' action='modify'>
    <nd ref='-172511854' />
    <nd ref='-172511855' />
    <tag k='type' v='straight' />
  </way>
  <way id='-38116642' action='modify'>
    <nd ref='-172511855' />
    <nd ref='-172511856' />
  </way>
  <way id='-38116643' action='modify'>
    <nd ref='-172511856' />
    <nd ref='-172511857' />
    <tag k='type' v='straight' />
  </way>
  <way id='-38116644' action='modify'>
    <nd ref='-172511857' />
    <nd ref='-172511858' />
  </way>
  <way id='-38116645' action='modify'>
    <nd ref='-172511858' />
    <nd ref='-172511859' />
    <tag k='type' v='straight' />
  </way>
  <way id='-38116646' action='modify'>
    <nd ref='-172511859' />
    <nd ref='-172511860' />
  </way>
  <way id='-38116647' action='modify'>
    <nd ref='-172511860' />
    <nd ref='-172511861' />
    <tag k='type' v='straight' />
  </way>
  <way id='-38116648' action='modify'>
    <nd ref='-172511861' />
    <nd ref='-172511862' />
  </way>
  <way id='-38116649' action='modify'>
    <nd ref='-172511862' />
    <nd ref='-172511863' />
    <tag k='type' v='straight' />
  </way>
  <way id='-38116656' action='modify'>
    <nd ref='-172511875' />
    <nd ref='-172511874' />
    <tag k='type' v='straight' />
  </way>
  <relation id='-14483508' action='modify'>
    <member type='way' ref='-38116560' role='' />
    <member type='way' ref='-38116561' role='' />
    <member type='way' ref='-38116562' role='' />
    <member type='way' ref='-38116563' role='' />
    <member type='way' ref='-38116564' role='' />
    <member type='way' ref='-38116565' role='' />
    <member type='way' ref='-38116566' role='' />
    <member type='way' ref='-38116567' role='' />
    <member type='way' ref='-38116568' role='' />
    <member type='way' ref='-38116569' role='' />
    <member type='way' ref='-38116570' role='' />
    <member type='way' ref='-38116571' role='' />
    <member type='way' ref='-38116572' role='' />
    <member type='way' ref='-38116573' role='' />
    <member type='way' ref='-38116574' role='' />
    <member type='way' ref='-38116575' role='' />
    <member type='way' ref='-38116576' role='' />
    <member type='way' ref='-38116577' role='' />
    <member type='way' ref='-38116578' role='' />
    <member type='way' ref='-38116579' role='' />
    <member type='way' ref='-38116580' role='' />
    <member type='way' ref='-38116581' role='' />
    <member type='way' ref='-38116582' role='' />
    <member type='way' ref='-38116583' role='' />
    <member type='way' ref='-38116584' role='' />
    <member type='way' ref='-38116585' role='' />
    <member type='way' ref='-38116586' role='' />
    <member type='way' ref='-38116587' role='' />
    <member type='way' ref='-38116588' role='' />
    <member type='way' ref='-38116589' role='' />
    <member type='way' ref='-38116590' role='' />
    <member type='way' ref='-38116591' role='' />
    <member type='way' ref='-38116592' role='' />
    <member type='way' ref='-38116593' role='' />
    <member type='way' ref='-38116594' role='' />
    <member type='way' ref='-38116595' role='' />
    <member type='way' ref='-38116596' role='' />
    <member type='way' ref='-38116597' role='' />
    <member type='way' ref='-38116598' role='' />
    <member type='way' ref='-38116599' role='' />
    <member type='way' ref='-38116600' role='' />
    <member type='way' ref='-38116601' role='' />
    <member type='way' ref='-38116602' role='' />
    <member type='way' ref='-38116603' role='' />
    <member type='way' ref='-38116604' role='' />
    <member type='way' ref='-38116605' role='' />
    <member type='way' ref='-38116606' role='' />
    <member type='way' ref='-38116607' role='' />
    <member type='way' ref='-38116608' role='' />
    <member type='way' ref='-38116609' role='' />
    <member type='way' ref='-38116610' role='' />
    <member type='way' ref='-38116611' role='' />
    <member type='way' ref='-38116612' role='' />
    <member type='way' ref='-38116613' role='' />
    <member type='way' ref='-38116614' role='' />
    <member type='way' ref='-38116615' role='' />
    <member type='way' ref='-38116616' role='' />
    <member type='way' ref='-38116617' role='' />
    <member type='way' ref='-38116618' role='' />
    <member type='way' ref='-38116619' role='' />
    <member type='way' ref='-38116620' role='' />
    <member type='way' ref='-38116621' role='' />
    <member type='way' ref='-38116622' role='' />
    <member type='way' ref='-38116623' role='' />
    <member type='way' ref='-38116624' role='' />
    <member type='way' ref='-38116625' role='' />
    <member type='way' ref='-38116626' role='' />
    <member type='way' ref='-38116627' role='' />
    <member type='way' ref='-38116628' role='' />
    <member type='way' ref='-38116629' role='' />
    <tag k='key' v='path.dk.aht.1' />
    <tag k='name' v='DK AHT (1)' />
    <tag k='type' v='path' />
  </relation>
  <relation id='-14483509' action='modify'>
    <member type='way' ref='-38116656' role='' />
    <member type='way' ref='-38116630' role='' />
    <member type='way' ref='-38116631' role='' />
    <member type='way' ref='-38116632' role='' />
    <member type='way' ref='-38116633' role='' />
    <member type='way' ref='-38116634' role='' />
    <member type='way' ref='-38116635' role='' />
    <member type='way' ref='-38116636' role='' />
    <member type='way' ref='-38116637' role='' />
    <member type='way' ref='-38116638' role='' />
    <member type='way' ref='-38116639' role='' />
    <member type='way' ref='-38116640' role='' />
    <member type='way' ref='-38116641' role='' />
    <member type='way' ref='-38116642' role='' />
    <member type='way' ref='-38116643' role='' />
    <member type='way' ref='-38116644' role='' />
    <member type='way' ref='-38116645' role='' />
    <member type='way' ref='-38116646' role='' />
    <member type='way' ref='-38116647' role='' />
    <member type='way' ref='-38116648' role='' />
    <member type='way' ref='-38116649' role='' />
    <tag k='key' v='path.dk.aht.2' />
    <tag k='name' v='DK AHT (2)' />
    <tag k='type' v='path' />
  </relation>
</osm>
