<?xml version='1.0' encoding='UTF-8'?>
<osm version='0.6' upload='false' generator='JOSM'>
  <node id='-177319444' action='modify' lat='57.04467540514' lon='9.91543203324' />
  <node id='-177319445' action='modify' lat='57.04528383705' lon='9.91477757424' />
  <node id='-177319446' action='modify' lat='57.03793675661' lon='9.91697430342' />
  <node id='-177319447' action='modify' lat='57.04020013327' lon='9.91795599192' />
  <node id='-177319448' action='modify' lat='57.04291717058' lon='9.9169072482'>
    <tag k='name' v='aal' />
  </node>
  <node id='-177319449' action='modify' lat='57.0355418927' lon='9.91498410433' />
  <node id='-177319450' action='modify' lat='57.03151215953' lon='9.91298988327' />
  <node id='-177319451' action='modify' lat='57.02625504516' lon='9.91207122534' />
  <node id='-177319452' action='modify' lat='57.02413169846' lon='9.91189554065' />
  <node id='-177319453' action='modify' lat='57.02161403607' lon='9.91187274187' />
  <node id='-177319454' action='modify' lat='57.01657225291' lon='9.91405440649'>
    <tag k='name' v='oda' />
  </node>
  <node id='-177319455' action='modify' lat='57.01615255272' lon='9.9144570516' />
  <node id='-177319456' action='modify' lat='57.00746333873' lon='9.9232922481' />
  <node id='-177319457' action='modify' lat='57.00512201511' lon='9.92696151003' />
  <node id='-177319458' action='modify' lat='57.00137383784' lon='9.93552312121' />
  <node id='-177319459' action='modify' lat='56.99820380632' lon='9.95186179742' />
  <node id='-177319460' action='modify' lat='56.99788860336' lon='9.96373125647' />
  <node id='-177319461' action='modify' lat='56.99901240914' lon='9.97480943665' />
  <node id='-177319462' action='modify' lat='57.0005609039' lon='9.98185157642' />
  <node id='-177319463' action='modify' lat='57.00147098044' lon='9.98857319087' />
  <node id='-177319464' action='modify' lat='57.00223934099' lon='10.00242814288' />
  <node id='-177319465' action='modify' lat='57.00655633066' lon='10.0099329637' />
  <node id='-177319466' action='modify' lat='57.01235510482' lon='10.01054316625' />
  <node id='-177319467' action='modify' lat='57.01507198791' lon='10.0116576241' />
  <node id='-177319468' action='modify' lat='57.02167900471' lon='10.01635283098' />
  <node id='-177319469' action='modify' lat='57.02400541683' lon='10.01852944426' />
  <node id='-177319470' action='modify' lat='57.03595345178' lon='10.03261104092' />
  <node id='-177319471' action='modify' lat='57.03748143715' lon='10.03638088569' />
  <node id='-177319472' action='modify' lat='57.04071086901' lon='10.05572900042' />
  <node id='-177319473' action='modify' lat='57.04314552582' lon='10.05676232211' />
  <node id='-177319474' action='modify' lat='57.05030255343' lon='10.04514380424'>
    <tag k='name' v='oha' />
  </node>
  <node id='-177319475' action='modify' lat='57.05226380627' lon='10.04195957053'>
    <tag k='name' v='oha.f' />
  </node>
  <way id='-38500713' action='modify'>
    <nd ref='-177319445' />
    <nd ref='-177319444' />
    <tag k='type' v='straight' />
  </way>
  <way id='-38500714' action='modify'>
    <nd ref='-177319444' />
    <nd ref='-177319448' />
    <nd ref='-177319447' />
    <nd ref='-177319446' />
  </way>
  <way id='-38500715' action='modify'>
    <nd ref='-177319446' />
    <nd ref='-177319449' />
    <tag k='type' v='straight' />
  </way>
  <way id='-38500716' action='modify'>
    <nd ref='-177319449' />
    <nd ref='-177319450' />
  </way>
  <way id='-38500717' action='modify'>
    <nd ref='-177319450' />
    <nd ref='-177319451' />
    <tag k='type' v='straight' />
  </way>
  <way id='-38500718' action='modify'>
    <nd ref='-177319451' />
    <nd ref='-177319452' />
  </way>
  <way id='-38500719' action='modify'>
    <nd ref='-177319452' />
    <nd ref='-177319453' />
    <tag k='type' v='straight' />
  </way>
  <way id='-38500720' action='modify'>
    <nd ref='-177319453' />
    <nd ref='-177319454' />
    <nd ref='-177319455' />
  </way>
  <way id='-38500721' action='modify'>
    <nd ref='-177319455' />
    <nd ref='-177319456' />
    <tag k='type' v='straight' />
  </way>
  <way id='-38500722' action='modify'>
    <nd ref='-177319456' />
    <nd ref='-177319457' />
  </way>
  <way id='-38500723' action='modify'>
    <nd ref='-177319457' />
    <nd ref='-177319458' />
    <tag k='type' v='straight' />
  </way>
  <way id='-38500724' action='modify'>
    <nd ref='-177319458' />
    <nd ref='-177319459' />
  </way>
  <way id='-38500725' action='modify'>
    <nd ref='-177319459' />
    <nd ref='-177319460' />
    <tag k='type' v='straight' />
  </way>
  <way id='-38500726' action='modify'>
    <nd ref='-177319460' />
    <nd ref='-177319461' />
  </way>
  <way id='-38500727' action='modify'>
    <nd ref='-177319461' />
    <nd ref='-177319462' />
    <tag k='type' v='straight' />
  </way>
  <way id='-38500728' action='modify'>
    <nd ref='-177319462' />
    <nd ref='-177319463' />
  </way>
  <way id='-38500729' action='modify'>
    <nd ref='-177319463' />
    <nd ref='-177319464' />
    <tag k='type' v='straight' />
  </way>
  <way id='-38500730' action='modify'>
    <nd ref='-177319464' />
    <nd ref='-177319465' />
  </way>
  <way id='-38500731' action='modify'>
    <nd ref='-177319465' />
    <nd ref='-177319466' />
    <tag k='type' v='straight' />
  </way>
  <way id='-38500732' action='modify'>
    <nd ref='-177319466' />
    <nd ref='-177319467' />
  </way>
  <way id='-38500733' action='modify'>
    <nd ref='-177319467' />
    <nd ref='-177319468' />
    <tag k='type' v='straight' />
  </way>
  <way id='-38500734' action='modify'>
    <nd ref='-177319468' />
    <nd ref='-177319469' />
  </way>
  <way id='-38500735' action='modify'>
    <nd ref='-177319469' />
    <nd ref='-177319470' />
    <tag k='type' v='straight' />
  </way>
  <way id='-38500736' action='modify'>
    <nd ref='-177319470' />
    <nd ref='-177319471' />
  </way>
  <way id='-38500737' action='modify'>
    <nd ref='-177319471' />
    <nd ref='-177319472' />
    <tag k='type' v='straight' />
  </way>
  <way id='-38500738' action='modify'>
    <nd ref='-177319472' />
    <nd ref='-177319473' />
  </way>
  <way id='-38500739' action='modify'>
    <nd ref='-177319473' />
    <nd ref='-177319474' />
    <nd ref='-177319475' />
    <tag k='type' v='straight' />
  </way>
  <relation id='-14487809' action='modify'>
    <member type='way' ref='-38500713' role='' />
    <member type='way' ref='-38500714' role='' />
    <member type='way' ref='-38500715' role='' />
    <member type='way' ref='-38500716' role='' />
    <member type='way' ref='-38500717' role='' />
    <member type='way' ref='-38500718' role='' />
    <member type='way' ref='-38500719' role='' />
    <member type='way' ref='-38500720' role='' />
    <member type='way' ref='-38500721' role='' />
    <member type='way' ref='-38500722' role='' />
    <member type='way' ref='-38500723' role='' />
    <member type='way' ref='-38500724' role='' />
    <member type='way' ref='-38500725' role='' />
    <member type='way' ref='-38500726' role='' />
    <member type='way' ref='-38500727' role='' />
    <member type='way' ref='-38500728' role='' />
    <member type='way' ref='-38500729' role='' />
    <member type='way' ref='-38500730' role='' />
    <member type='way' ref='-38500731' role='' />
    <member type='way' ref='-38500732' role='' />
    <member type='way' ref='-38500733' role='' />
    <member type='way' ref='-38500734' role='' />
    <member type='way' ref='-38500735' role='' />
    <member type='way' ref='-38500736' role='' />
    <member type='way' ref='-38500737' role='' />
    <member type='way' ref='-38500738' role='' />
    <member type='way' ref='-38500739' role='' />
    <tag k='key' v='path.dk.aoh' />
    <tag k='name' v='DK AOH' />
    <tag k='type' v='path' />
  </relation>
</osm>
